<?xml version="1.0" encoding="UTF-8"?>
<!-- track-length = 277 filtered ascend = 0 plain-ascend = 0 cost=554 energy=0.0kwh time=22s -->
<gpx 
 xmlns="http://www.topografix.com/GPX/1/1" 
 xmlns:xsi="http://www.w3.org/2001/XMLSchema-instance" 
 xsi:schemaLocation="http://www.topografix.com/GPX/1/1 http://www.topografix.com/GPX/1/1/gpx.xsd" 
 version="1.1" 
 creator="BRouter-Web 99.71.0">
 <trk>
  <name>Poznań Główny (Steig Nord-Ost) - Uniwersytet Ekonomiczny (Steig Ost)</name>
  <link href="https://brouter.damsy.net/latest/#map=18/52.40646/16.91720/standard&amp;lonlats=16.916475,52.403904;16.917138,52.406349">
   <text>BRouter-Web</text>
  </link>
  <trkseg>
   <trkpt lat="52.403903" lon="16.916471"><ele>76</ele></trkpt>
   <trkpt lat="52.404058" lon="16.916454"><ele>76</ele></trkpt>
   <trkpt lat="52.404196" lon="16.916445"><ele>76</ele></trkpt>
   <trkpt lat="52.404399" lon="16.916463"><ele>76</ele></trkpt>
   <trkpt lat="52.404646" lon="16.916531"><ele>76</ele></trkpt>
   <trkpt lat="52.405541" lon="16.916853"><ele>75.75</ele></trkpt>
   <trkpt lat="52.405743" lon="16.916924"><ele>75.25</ele></trkpt>
   <trkpt lat="52.405846" lon="16.916961"><ele>75</ele></trkpt>
   <trkpt lat="52.4061" lon="16.917051"><ele>75.75</ele></trkpt>
   <trkpt lat="52.406255" lon="16.917093"><ele>76</ele></trkpt>
   <trkpt lat="52.406348" lon="16.917116"><ele>76</ele></trkpt>
   <trkpt lat="52.406349" lon="16.917116"><ele>76</ele></trkpt>
  </trkseg>
 </trk>
</gpx>