<?xml version="1.0" encoding="UTF-8"?>
<!-- track-length = 336 filtered ascend = 0 plain-ascend = 0 cost=672 energy=0.0kwh time=27s -->
<gpx 
 xmlns="http://www.topografix.com/GPX/1/1" 
 xmlns:xsi="http://www.w3.org/2001/XMLSchema-instance" 
 xsi:schemaLocation="http://www.topografix.com/GPX/1/1 http://www.topografix.com/GPX/1/1/gpx.xsd" 
 version="1.1" 
 creator="BRouter-Web 99.71.0">
 <trk>
  <name>Düsseldorf Abzweig Schleife Graf-Adolf-Platz West Weiche WWW1 - Düsseldorf Poststraße (Steig 1)</name>
  <link href="https://brouter.damsy.net/latest/#map=19/51.21896/6.77118/standard&amp;lonlats=6.774876,51.21907;6.770098,51.219173&amp;nogos=6.781752,51.218852,6&amp;profile=rail">
   <text>BRouter-Web</text>
  </link>
  <trkseg>
   <trkpt lat="51.219064" lon="6.774875"><ele>35.75</ele></trkpt>
   <trkpt lat="51.219065" lon="6.774875"><ele>35.75</ele></trkpt>
   <trkpt lat="51.219092" lon="6.772702"><ele>35.25</ele></trkpt>
   <trkpt lat="51.219093" lon="6.772326"><ele>35.25</ele></trkpt>
   <trkpt lat="51.219086" lon="6.771863"><ele>35.75</ele></trkpt>
   <trkpt lat="51.219097" lon="6.771694"><ele>35.75</ele></trkpt>
   <trkpt lat="51.219098" lon="6.771687"><ele>35.75</ele></trkpt>
   <trkpt lat="51.219118" lon="6.771522"><ele>36</ele></trkpt>
   <trkpt lat="51.219146" lon="6.77127"><ele>36</ele></trkpt>
   <trkpt lat="51.219161" lon="6.770964"><ele>36</ele></trkpt>
   <trkpt lat="51.219175" lon="6.770153"><ele>36</ele></trkpt>
   <trkpt lat="51.219175" lon="6.770098"><ele>36</ele></trkpt>
  </trkseg>
 </trk>
</gpx>
