<?xml version="1.0" encoding="UTF-8"?>
<!-- track-length = 6 filtered ascend = 0 plain-ascend = 0 cost=12 energy=0.0kwh time= -->
<gpx 
 xmlns="http://www.topografix.com/GPX/1/1" 
 xmlns:xsi="http://www.w3.org/2001/XMLSchema-instance" 
 xsi:schemaLocation="http://www.topografix.com/GPX/1/1 http://www.topografix.com/GPX/1/1/gpx.xsd" 
 version="1.1" 
 creator="BRouter-Web 99.71.0">
 <trk>
  <name>Düsseldorf Landtag/Kniebrücke (Steig 1) - Düsseldorf Abzweig Schleife Polizeipräsidium Weiche 332</name>
  <link href="https://brouter.damsy.net/latest/#map=19/51.21839/6.76776/standard&amp;lonlats=6.766876,51.218254;6.766827,51.218219&amp;nogos=6.781752,51.218852,6&amp;profile=rail">
   <text>BRouter-Web</text>
  </link>
  <trkseg>
   <trkpt lat="51.218253" lon="6.766875"><ele>37</ele></trkpt>
   <trkpt lat="51.218217" lon="6.766836"><ele>37</ele></trkpt>
   <trkpt lat="51.218215" lon="6.766833"><ele>36.75</ele></trkpt>
  </trkseg>
 </trk>
</gpx>