<?xml version="1.0" encoding="UTF-8"?>
<!-- track-length = 453 filtered ascend = 0 plain-ascend = -5 cost=906 energy=0.0kwh time=36s -->
<gpx 
 xmlns="http://www.topografix.com/GPX/1/1" 
 xmlns:xsi="http://www.w3.org/2001/XMLSchema-instance" 
 xsi:schemaLocation="http://www.topografix.com/GPX/1/1 http://www.topografix.com/GPX/1/1/gpx.xsd" 
 version="1.1" 
 creator="BRouter-Web 99.71.0">
 <trk>
  <name>Výstaviště (Steig B) - Dreieck Na Zátorách/Partyzánská Weiche Süd-Ost</name>
  <link href="https://brouter.damsy.net/latest/#map=20/50.10794/14.43668/standard&amp;lonlats=14.432561,50.10475;14.436785,50.107721&amp;profile=rail">
   <text>BRouter-Web</text>
  </link>
  <trkseg>
   <trkpt lat="50.104749" lon="14.43256"><ele>193</ele></trkpt>
   <trkpt lat="50.104761" lon="14.432579"><ele>193</ele></trkpt>
   <trkpt lat="50.104803" lon="14.432645"><ele>193.25</ele></trkpt>
   <trkpt lat="50.105167" lon="14.433215"><ele>193</ele></trkpt>
   <trkpt lat="50.105225" lon="14.433305"><ele>193</ele></trkpt>
   <trkpt lat="50.105347" lon="14.433497"><ele>193</ele></trkpt>
   <trkpt lat="50.106286" lon="14.434947"><ele>192</ele></trkpt>
   <trkpt lat="50.106328" lon="14.435013"><ele>192</ele></trkpt>
   <trkpt lat="50.106411" lon="14.435137"><ele>191.75</ele></trkpt>
   <trkpt lat="50.106437" lon="14.435176"><ele>191.75</ele></trkpt>
   <trkpt lat="50.10673" lon="14.43569"><ele>191</ele></trkpt>
   <trkpt lat="50.106953" lon="14.436106"><ele>188</ele></trkpt>
   <trkpt lat="50.107046" lon="14.436279"><ele>188.75</ele></trkpt>
   <trkpt lat="50.107099" lon="14.436346"><ele>188.5</ele></trkpt>
   <trkpt lat="50.107454" lon="14.436635"><ele>187.25</ele></trkpt>
   <trkpt lat="50.10772" lon="14.436784"><ele>187.25</ele></trkpt>
  </trkseg>
 </trk>
</gpx>