<?xml version="1.0" encoding="UTF-8"?>
<!-- track-length = 119 filtered ascend = 0 plain-ascend = 0 cost=119 energy=0.0kwh time=10s -->
<gpx 
 xmlns="http://www.topografix.com/GPX/1/1" 
 xmlns:xsi="http://www.w3.org/2001/XMLSchema-instance" 
 xsi:schemaLocation="http://www.topografix.com/GPX/1/1 http://www.topografix.com/GPX/1/1/gpx.xsd" 
 version="1.1" 
 creator="BRouter-Web 0.18.1">
 <trk>
  <name>Abzweig Sammonaukio Weiche Nord - Sammonaukio (Steig A)</name>
  <trkseg>
   <trkpt lat="61.499103" lon="23.78783"><ele>104.75</ele></trkpt>
   <trkpt lat="61.49907" lon="23.787466"><ele>105</ele></trkpt>
   <trkpt lat="61.49906" lon="23.787156"><ele>105</ele></trkpt>
   <trkpt lat="61.499058" lon="23.786935"><ele>105</ele></trkpt>
   <trkpt lat="61.499055" lon="23.786737"><ele>105</ele></trkpt>
   <trkpt lat="61.499045" lon="23.785717"><ele>105</ele></trkpt>
   <trkpt lat="61.499044" lon="23.785622"><ele>105</ele></trkpt>
  </trkseg>
 </trk>
</gpx>