<?xml version="1.0" encoding="UTF-8"?>
<!-- track-length = 4 filtered ascend = 0 plain-ascend = 0 cost=4 energy=0.0kwh time= -->
<gpx 
 xmlns="http://www.topografix.com/GPX/1/1" 
 xmlns:xsi="http://www.w3.org/2001/XMLSchema-instance" 
 xsi:schemaLocation="http://www.topografix.com/GPX/1/1 http://www.topografix.com/GPX/1/1/gpx.xsd" 
 version="1.1" 
 creator="BRouter-Web 0.18.1">
 <trk>
  <name>Koskipuisto (Steig A) - Dreieck Hämeenkatu Weiche Ost-Nord</name>
  <trkseg>
   <trkpt lat="61.49813" lon="23.766031"><ele>89</ele></trkpt>
   <trkpt lat="61.498126" lon="23.765981"><ele>89</ele></trkpt>
   <trkpt lat="61.498125" lon="23.765979"><ele>89</ele></trkpt>
  </trkseg>
 </trk>
</gpx>