<?xml version="1.0" encoding="UTF-8"?>
<!-- track-length = 177 filtered ascend = 1 plain-ascend = 0 cost=177 energy=0.0kwh time=14s -->
<gpx 
 xmlns="http://www.topografix.com/GPX/1/1" 
 xmlns:xsi="http://www.w3.org/2001/XMLSchema-instance" 
 xsi:schemaLocation="http://www.topografix.com/GPX/1/1 http://www.topografix.com/GPX/1/1/gpx.xsd" 
 version="1.1" 
 creator="BRouter-Web 0.18.1">
 <trk>
  <name>Sammonaukio (Steig A) - Üst Tulli Weiche West</name>
  <trkseg>
   <trkpt lat="61.499044" lon="23.785624"><ele>105</ele></trkpt>
   <trkpt lat="61.499044" lon="23.785607"><ele>105</ele></trkpt>
   <trkpt lat="61.499043" lon="23.785501"><ele>105</ele></trkpt>
   <trkpt lat="61.499042" lon="23.785427"><ele>105</ele></trkpt>
   <trkpt lat="61.499036" lon="23.785171"><ele>105.5</ele></trkpt>
   <trkpt lat="61.499004" lon="23.784459"><ele>106</ele></trkpt>
   <trkpt lat="61.498994" lon="23.783754"><ele>106</ele></trkpt>
   <trkpt lat="61.49898" lon="23.782335"><ele>105</ele></trkpt>
  </trkseg>
 </trk>
</gpx>