<?xml version="1.0" encoding="UTF-8"?>
<!-- track-length = 215 filtered ascend = 0 plain-ascend = -4 cost=216 energy=0.0kwh time=17s -->
<gpx 
 xmlns="http://www.topografix.com/GPX/1/1" 
 xmlns:xsi="http://www.w3.org/2001/XMLSchema-instance" 
 xsi:schemaLocation="http://www.topografix.com/GPX/1/1 http://www.topografix.com/GPX/1/1/gpx.xsd" 
 version="1.1" 
 creator="BRouter-Web 0.18.1">
 <trk>
  <name>Üst Tulli Weiche West - Tulli (Steig A)</name>
  <trkseg>
   <trkpt lat="61.49898" lon="23.782335"><ele>105</ele></trkpt>
   <trkpt lat="61.498967" lon="23.781348"><ele>105</ele></trkpt>
   <trkpt lat="61.498958" lon="23.781065"><ele>104.75</ele></trkpt>
   <trkpt lat="61.498919" lon="23.780035"><ele>103</ele></trkpt>
   <trkpt lat="61.498914" lon="23.779724"><ele>103</ele></trkpt>
   <trkpt lat="61.49891" lon="23.779428"><ele>102</ele></trkpt>
   <trkpt lat="61.498899" lon="23.778349"><ele>100</ele></trkpt>
   <trkpt lat="61.498898" lon="23.778345"><ele>100</ele></trkpt>
  </trkseg>
 </trk>
</gpx>