<?xml version="1.0" encoding="UTF-8"?>
<!-- track-length = 986 filtered ascend = 0 plain-ascend = 0 cost=1972 energy=0.0kwh time=1m 19s -->
<gpx 
 xmlns="http://www.topografix.com/GPX/1/1" 
 xmlns:xsi="http://www.w3.org/2001/XMLSchema-instance" 
 xsi:schemaLocation="http://www.topografix.com/GPX/1/1 http://www.topografix.com/GPX/1/1/gpx.xsd" 
 version="1.1" 
 creator="BRouter-Web 0.18.1">
 <trk>
  <name>Ostorf (Steig A) - Dreieck Platz der Jugend Weiche Südwest-Süd</name>
  <trkseg>
   <trkpt lat="53.613676" lon="11.416103"><ele>42</ele></trkpt>
   <trkpt lat="53.613679" lon="11.416094"><ele>42</ele></trkpt>
   <trkpt lat="53.61368" lon="11.416072"><ele>42</ele></trkpt>
   <trkpt lat="53.614018" lon="11.414866"><ele>42</ele></trkpt>
   <trkpt lat="53.614042" lon="11.414783"><ele>42</ele></trkpt>
   <trkpt lat="53.614063" lon="11.414691"><ele>42</ele></trkpt>
   <trkpt lat="53.614289" lon="11.413934"><ele>42</ele></trkpt>
   <trkpt lat="53.614423" lon="11.413431"><ele>42</ele></trkpt>
   <trkpt lat="53.614708" lon="11.41263"><ele>41.25</ele></trkpt>
   <trkpt lat="53.614843" lon="11.412306"><ele>41</ele></trkpt>
   <trkpt lat="53.615107" lon="11.411785"><ele>40.5</ele></trkpt>
   <trkpt lat="53.615398" lon="11.411304"><ele>40.25</ele></trkpt>
   <trkpt lat="53.615624" lon="11.410989"><ele>40.75</ele></trkpt>
   <trkpt lat="53.615852" lon="11.410704"><ele>41</ele></trkpt>
   <trkpt lat="53.616101" lon="11.410426"><ele>41.25</ele></trkpt>
   <trkpt lat="53.616362" lon="11.410185"><ele>41.5</ele></trkpt>
   <trkpt lat="53.619327" lon="11.407709"><ele>41.5</ele></trkpt>
   <trkpt lat="53.619431" lon="11.407661"><ele>41.75</ele></trkpt>
   <trkpt lat="53.619528" lon="11.407642"><ele>42</ele></trkpt>
   <trkpt lat="53.619648" lon="11.407643"><ele>42</ele></trkpt>
   <trkpt lat="53.619792" lon="11.407672"><ele>42</ele></trkpt>
   <trkpt lat="53.619863" lon="11.407703"><ele>42</ele></trkpt>
   <trkpt lat="53.619954" lon="11.407752"><ele>42</ele></trkpt>
   <trkpt lat="53.620064" lon="11.40785"><ele>42</ele></trkpt>
   <trkpt lat="53.620185" lon="11.40799"><ele>42</ele></trkpt>
   <trkpt lat="53.620276" lon="11.408118"><ele>42</ele></trkpt>
  </trkseg>
 </trk>
</gpx>