<?xml version="1.0" encoding="UTF-8"?>
<!-- track-length = 56 filtered ascend = 0 plain-ascend = 0 cost=112 energy=0.0kwh time=4s -->
<gpx 
 xmlns="http://www.topografix.com/GPX/1/1" 
 xmlns:xsi="http://www.w3.org/2001/XMLSchema-instance" 
 xsi:schemaLocation="http://www.topografix.com/GPX/1/1 http://www.topografix.com/GPX/1/1/gpx.xsd" 
 version="1.1" 
 creator="BRouter-Web 0.18.1">
 <trk>
  <name>Dreieck Siglstraße Weiche 20 - Dreieck Siglstraße Weiche 23</name>
  <trkseg>
   <trkpt lat="48.139069" lon="11.51413"><ele>527.5</ele></trkpt>
   <trkpt lat="48.139069" lon="11.514128"><ele>527.75</ele></trkpt>
   <trkpt lat="48.139069" lon="11.514057"><ele>527.75</ele></trkpt>
   <trkpt lat="48.139067" lon="11.513802"><ele>527.25</ele></trkpt>
   <trkpt lat="48.139069" lon="11.51369"><ele>527</ele></trkpt>
   <trkpt lat="48.139079" lon="11.513401"><ele>527</ele></trkpt>
   <trkpt lat="48.139079" lon="11.513394"><ele>527</ele></trkpt>
  </trkseg>
 </trk>
</gpx>