<?xml version="1.0" encoding="UTF-8"?>
<!-- track-length = 2 filtered ascend = 0 plain-ascend = 0 cost=4 energy=0.0kwh time= -->
<gpx 
 xmlns="http://www.topografix.com/GPX/1/1" 
 xmlns:xsi="http://www.w3.org/2001/XMLSchema-instance" 
 xsi:schemaLocation="http://www.topografix.com/GPX/1/1 http://www.topografix.com/GPX/1/1/gpx.xsd" 
 version="1.1" 
 creator="BRouter-Web 0.18.1">
 <trk>
  <name>Fürstenrieder Straße (Steig Ost-Nord) - Kreuz Fürstenrieder Straße Weiche 186</name>
  <trkseg>
   <trkpt lat="48.13971" lon="11.503543"><ele>528</ele></trkpt>
   <trkpt lat="48.13971" lon="11.503513"><ele>528</ele></trkpt>
  </trkseg>
 </trk>
</gpx>