<?xml version="1.0" encoding="UTF-8"?>
<!-- track-length = 33 filtered ascend = 1 plain-ascend = 1 cost=33 energy=0.0kwh time=3s -->
<gpx 
 xmlns="http://www.topografix.com/GPX/1/1" 
 xmlns:xsi="http://www.w3.org/2001/XMLSchema-instance" 
 xsi:schemaLocation="http://www.topografix.com/GPX/1/1 http://www.topografix.com/GPX/1/1/gpx.xsd" 
 version="1.1" 
 creator="BRouter-Web 0.18.1">
 <trk>
  <name>76800 Senice na Hané Weiche 7 - Senice na Hané Weiche 9</name>
  <trkseg>
   <trkpt lat="49.621715" lon="17.100288"><ele>236</ele></trkpt>
   <trkpt lat="49.621718" lon="17.10029"><ele>236</ele></trkpt>
   <trkpt lat="49.621813" lon="17.100373"><ele>236.5</ele></trkpt>
   <trkpt lat="49.621959" lon="17.100502"><ele>237</ele></trkpt>
   <trkpt lat="49.621959" lon="17.100503"><ele>236.75</ele></trkpt>
  </trkseg>
 </trk>
</gpx>