<?xml version="1.0" encoding="UTF-8"?>
<!-- track-length = 30 filtered ascend = 0 plain-ascend = 0 cost=30 energy=0.0kwh time=2s -->
<gpx 
 xmlns="http://www.topografix.com/GPX/1/1" 
 xmlns:xsi="http://www.w3.org/2001/XMLSchema-instance" 
 xsi:schemaLocation="http://www.topografix.com/GPX/1/1 http://www.topografix.com/GPX/1/1/gpx.xsd" 
 version="1.1" 
 creator="BRouter-Web 0.18.1">
 <trk>
  <name>76800 Senice na Hané Weiche 6 - Senice na Hané Weiche 7</name>
  <trkseg>
   <trkpt lat="49.621482" lon="17.100114"><ele>236.25</ele></trkpt>
   <trkpt lat="49.621718" lon="17.10029"><ele>236</ele></trkpt>
   <trkpt lat="49.621715" lon="17.100288"><ele>236.25</ele></trkpt>
  </trkseg>
 </trk>
</gpx>
