<?xml version="1.0" encoding="UTF-8"?>
<!-- track-length = 14 filtered ascend = 0 plain-ascend = 0 cost=14 energy=0.0kwh time=1s -->
<gpx 
 xmlns="http://www.topografix.com/GPX/1/1" 
 xmlns:xsi="http://www.w3.org/2001/XMLSchema-instance" 
 xsi:schemaLocation="http://www.topografix.com/GPX/1/1 http://www.topografix.com/GPX/1/1/gpx.xsd" 
 version="1.1" 
 creator="BRouter-Web 99.71.0">
 <trk>
  <name>A Beddingen Abzweig VW-Werk Weiche 9306 - Gleisdreieck Nord Weiche 9601</name>
  <link href="https://brouter.damsy.net/latest/#map=18/52.18002/10.43060/standard&amp;lonlats=10.43062,52.180098;10.43062,52.179981&amp;profile=rail">
   <text>BRouter-Web</text>
  </link>
  <trkseg>
   <trkpt lat="52.180098" lon="10.43062"><ele>87</ele></trkpt>
   <trkpt lat="52.180097" lon="10.43062"><ele>87</ele></trkpt>
   <trkpt lat="52.179981" lon="10.43062"><ele>87</ele></trkpt>
  </trkseg>
 </trk>
</gpx>
