<?xml version="1.0" encoding="UTF-8"?>
<!-- track-length = 416 filtered ascend = 2 plain-ascend = 1 cost=832 energy=0.0kwh time=33s -->
<gpx 
 xmlns="http://www.topografix.com/GPX/1/1" 
 xmlns:xsi="http://www.w3.org/2001/XMLSchema-instance" 
 xsi:schemaLocation="http://www.topografix.com/GPX/1/1 http://www.topografix.com/GPX/1/1/gpx.xsd" 
 version="1.1" 
 creator="BRouter-Web 0.18.1">
 <trk>
  <name>Kreuz Ooppera Weiche Nordost-nach-Südost-Südost - Hesperian puisto (Steig Südwest)</name>
  <trkseg>
   <trkpt lat="60.181651" lon="24.927415"><ele>7</ele></trkpt>
   <trkpt lat="60.181642" lon="24.927419"><ele>7</ele></trkpt>
   <trkpt lat="60.181603" lon="24.92744"><ele>7</ele></trkpt>
   <trkpt lat="60.181582" lon="24.927451"><ele>7</ele></trkpt>
   <trkpt lat="60.181538" lon="24.927476"><ele>7</ele></trkpt>
   <trkpt lat="60.180931" lon="24.927837"><ele>7.75</ele></trkpt>
   <trkpt lat="60.180448" lon="24.928122"><ele>9</ele></trkpt>
   <trkpt lat="60.179745" lon="24.928487"><ele>9</ele></trkpt>
   <trkpt lat="60.178932" lon="24.928896"><ele>8.75</ele></trkpt>
   <trkpt lat="60.178556" lon="24.929052"><ele>8</ele></trkpt>
   <trkpt lat="60.178526" lon="24.929068"><ele>8</ele></trkpt>
   <trkpt lat="60.178027" lon="24.929323"><ele>8</ele></trkpt>
  </trkseg>
 </trk>
</gpx>