<?xml version="1.0" encoding="UTF-8"?>
<!-- track-length = 326 filtered ascend = 0 plain-ascend = 0 cost=652 energy=0.0kwh time=26s -->
<gpx 
 xmlns="http://www.topografix.com/GPX/1/1" 
 xmlns:xsi="http://www.w3.org/2001/XMLSchema-instance" 
 xsi:schemaLocation="http://www.topografix.com/GPX/1/1 http://www.topografix.com/GPX/1/1/gpx.xsd" 
 version="1.1" 
 creator="BRouter-Web 0.18.1">
 <trk>
  <name>Hauptbahnhof Süd (Steig 1) - Holzkirchner Bahnhof (Steig Nord)</name>
  <trkseg>
   <trkpt lat="48.13927" lon="11.558989"><ele>519.75</ele></trkpt>
   <trkpt lat="48.139268" lon="11.558855"><ele>519.75</ele></trkpt>
   <trkpt lat="48.13927" lon="11.558646"><ele>519.25</ele></trkpt>
   <trkpt lat="48.139265" lon="11.558456"><ele>519.5</ele></trkpt>
   <trkpt lat="48.139254" lon="11.558164"><ele>519.5</ele></trkpt>
   <trkpt lat="48.13922" lon="11.557819"><ele>519</ele></trkpt>
   <trkpt lat="48.139204" lon="11.557541"><ele>519</ele></trkpt>
   <trkpt lat="48.139183" lon="11.556066"><ele>518.75</ele></trkpt>
   <trkpt lat="48.139181" lon="11.555951"><ele>518.75</ele></trkpt>
   <trkpt lat="48.139179" lon="11.55582"><ele>518.75</ele></trkpt>
   <trkpt lat="48.139167" lon="11.5554"><ele>518.75</ele></trkpt>
   <trkpt lat="48.139148" lon="11.554701"><ele>519</ele></trkpt>
   <trkpt lat="48.139145" lon="11.55463"><ele>519</ele></trkpt>
  </trkseg>
 </trk>
</gpx>