<?xml version="1.0" encoding="UTF-8"?>
<!-- track-length = 83 filtered ascend = 1 plain-ascend = 2 cost=166 energy=0.0kwh time=7s -->
<gpx 
 xmlns="http://www.topografix.com/GPX/1/1" 
 xmlns:xsi="http://www.w3.org/2001/XMLSchema-instance" 
 xsi:schemaLocation="http://www.topografix.com/GPX/1/1 http://www.topografix.com/GPX/1/1/gpx.xsd" 
 version="1.1" 
 creator="BRouter-Web 0.18.1">
 <trk>
  <name>Üst Kirschenstraße Nord Weiche Nordwest - Üst Kirschenstraße Süd Weiche Südwest</name>
  <trkseg>
   <trkpt lat="51.047134" lon="13.663206"><ele>183.5</ele></trkpt>
   <trkpt lat="51.047131" lon="13.663208"><ele>183.75</ele></trkpt>
   <trkpt lat="51.046993" lon="13.663258"><ele>184</ele></trkpt>
   <trkpt lat="51.046547" lon="13.663422"><ele>184.75</ele></trkpt>
   <trkpt lat="51.046428" lon="13.663466"><ele>184.75</ele></trkpt>
   <trkpt lat="51.046425" lon="13.663466"><ele>185</ele></trkpt>
  </trkseg>
 </trk>
</gpx>