<?xml version="1.0" encoding="UTF-8"?>
<!-- track-length = 67 filtered ascend = 1 plain-ascend = 1 cost=134 energy=0.0kwh time=5s -->
<gpx 
 xmlns="http://www.topografix.com/GPX/1/1" 
 xmlns:xsi="http://www.w3.org/2001/XMLSchema-instance" 
 xsi:schemaLocation="http://www.topografix.com/GPX/1/1 http://www.topografix.com/GPX/1/1/gpx.xsd" 
 version="1.1" 
 creator="BRouter-Web 0.18.1">
 <trk>
  <name>Badischer Bahnhof Weiche 163 - Badischer Bahnhof (Steig D)</name>
  <trkseg>
   <trkpt lat="47.565886" lon="7.607624"><ele>257</ele></trkpt>
   <trkpt lat="47.565891" lon="7.607637"><ele>257</ele></trkpt>
   <trkpt lat="47.565927" lon="7.607686"><ele>257</ele></trkpt>
   <trkpt lat="47.565977" lon="7.607715"><ele>257</ele></trkpt>
   <trkpt lat="47.566021" lon="7.607718"><ele>257</ele></trkpt>
   <trkpt lat="47.566097" lon="7.607682"><ele>257</ele></trkpt>
   <trkpt lat="47.566158" lon="7.607627"><ele>257</ele></trkpt>
   <trkpt lat="47.566417" lon="7.607423"><ele>258</ele></trkpt>
  </trkseg>
 </trk>
</gpx>