<?xml version="1.0" encoding="UTF-8"?>
<!-- track-length = 101 filtered ascend = 0 plain-ascend = 0 cost=202 energy=0.0kwh time=8s -->
<gpx 
 xmlns="http://www.topografix.com/GPX/1/1" 
 xmlns:xsi="http://www.w3.org/2001/XMLSchema-instance" 
 xsi:schemaLocation="http://www.topografix.com/GPX/1/1 http://www.topografix.com/GPX/1/1/gpx.xsd" 
 version="1.1" 
 creator="BRouter-Web 0.18.1">
 <trk>
  <name>Badischer Bahnhof Weiche 101 - Badischer Bahnhof Weiche 163</name>
  <trkseg>
   <trkpt lat="47.566282" lon="7.606699"><ele>257</ele></trkpt>
   <trkpt lat="47.566284" lon="7.606704"><ele>257</ele></trkpt>
   <trkpt lat="47.566326" lon="7.606804"><ele>257</ele></trkpt>
   <trkpt lat="47.566338" lon="7.60686"><ele>257</ele></trkpt>
   <trkpt lat="47.566339" lon="7.606921"><ele>257</ele></trkpt>
   <trkpt lat="47.566329" lon="7.606977"><ele>257</ele></trkpt>
   <trkpt lat="47.566277" lon="7.607061"><ele>257.25</ele></trkpt>
   <trkpt lat="47.565944" lon="7.607326"><ele>257</ele></trkpt>
   <trkpt lat="47.565899" lon="7.607385"><ele>257</ele></trkpt>
   <trkpt lat="47.56588" lon="7.607423"><ele>257</ele></trkpt>
   <trkpt lat="47.565868" lon="7.607475"><ele>257</ele></trkpt>
   <trkpt lat="47.565864" lon="7.607531"><ele>257</ele></trkpt>
   <trkpt lat="47.565871" lon="7.607581"><ele>257</ele></trkpt>
   <trkpt lat="47.565887" lon="7.607625"><ele>257</ele></trkpt>
  </trkseg>
 </trk>
</gpx>