<?xml version="1.0" encoding="UTF-8"?>
<!-- track-length = 114 filtered ascend = 0 plain-ascend = 0 cost=228 energy=0.0kwh time=9s -->
<gpx 
 xmlns="http://www.topografix.com/GPX/1/1" 
 xmlns:xsi="http://www.w3.org/2001/XMLSchema-instance" 
 xsi:schemaLocation="http://www.topografix.com/GPX/1/1 http://www.topografix.com/GPX/1/1/gpx.xsd" 
 version="1.1" 
 creator="BRouter-Web 0.18.1">
 <trk>
  <name>Abzweig Nationale Bank/Bourlastraat Weiche EW 27 - Nationale Bank (Steig Nordwest-Nordwest)</name>
  <trkseg>
   <trkpt lat="51.212224" lon="4.409224"><ele>7</ele></trkpt>
   <trkpt lat="51.212225" lon="4.409226"><ele>7</ele></trkpt>
   <trkpt lat="51.212129" lon="4.409105"><ele>7</ele></trkpt>
   <trkpt lat="51.212109" lon="4.409072"><ele>7</ele></trkpt>
   <trkpt lat="51.212042" lon="4.408936"><ele>7</ele></trkpt>
   <trkpt lat="51.212034" lon="4.40892"><ele>7</ele></trkpt>
   <trkpt lat="51.212001" lon="4.408848"><ele>7</ele></trkpt>
   <trkpt lat="51.211946" lon="4.408739"><ele>7</ele></trkpt>
   <trkpt lat="51.211489" lon="4.408122"><ele>7</ele></trkpt>
  </trkseg>
 </trk>
</gpx>