<?xml version="1.0" encoding="UTF-8"?>
<!-- track-length = 264 filtered ascend = 2 plain-ascend = -3 cost=528 energy=0.0kwh time=21s -->
<gpx 
 xmlns="http://www.topografix.com/GPX/1/1" 
 xmlns:xsi="http://www.w3.org/2001/XMLSchema-instance" 
 xsi:schemaLocation="http://www.topografix.com/GPX/1/1 http://www.topografix.com/GPX/1/1/gpx.xsd" 
 version="1.1" 
 creator="BRouter-Web 99.71.0">
 <trk>
  <name>Mainz Abzweig Alicenplatz Weiche 109 - Mainz Münsterplatz (Steig D)</name>
  <link href="https://brouter.damsy.net/latest/#map=20/50.00021/8.26275/standard&amp;lonlats=8.259104,49.999634;8.262527,50.000171&amp;profile=rail">
   <text>BRouter-Web</text>
  </link>
  <trkseg>
   <trkpt lat="49.999634" lon="8.259102"><ele>92.75</ele></trkpt>
   <trkpt lat="49.999635" lon="8.259106"><ele>92.75</ele></trkpt>
   <trkpt lat="49.999671" lon="8.259215"><ele>92</ele></trkpt>
   <trkpt lat="49.999677" lon="8.259232"><ele>92</ele></trkpt>
   <trkpt lat="49.999837" lon="8.259676"><ele>93</ele></trkpt>
   <trkpt lat="50.000007" lon="8.260144"><ele>94</ele></trkpt>
   <trkpt lat="50.000101" lon="8.260395"><ele>94.5</ele></trkpt>
   <trkpt lat="50.000151" lon="8.260526"><ele>94.75</ele></trkpt>
   <trkpt lat="50.000192" lon="8.26067"><ele>95.25</ele></trkpt>
   <trkpt lat="50.000201" lon="8.260723"><ele>95.25</ele></trkpt>
   <trkpt lat="50.000206" lon="8.260756"><ele>95.25</ele></trkpt>
   <trkpt lat="50.000217" lon="8.260833"><ele>95</ele></trkpt>
   <trkpt lat="50.000225" lon="8.261009"><ele>95</ele></trkpt>
   <trkpt lat="50.000219" lon="8.261164"><ele>94.75</ele></trkpt>
   <trkpt lat="50.000193" lon="8.261607"><ele>93</ele></trkpt>
   <trkpt lat="50.000195" lon="8.261947"><ele>91.75</ele></trkpt>
   <trkpt lat="50.000194" lon="8.262004"><ele>91.75</ele></trkpt>
   <trkpt lat="50.000193" lon="8.262068"><ele>91.5</ele></trkpt>
   <trkpt lat="50.000193" lon="8.2621"><ele>91.5</ele></trkpt>
   <trkpt lat="50.000171" lon="8.262526"><ele>90.75</ele></trkpt>
   <trkpt lat="50.00017" lon="8.262526"><ele>89</ele></trkpt>
  </trkseg>
 </trk>
</gpx>