<?xml version="1.0" encoding="UTF-8"?>
<!-- track-length = 120 filtered ascend = 0 plain-ascend = -3 cost=240 energy=0.0kwh time=10s -->
<gpx 
 xmlns="http://www.topografix.com/GPX/1/1" 
 xmlns:xsi="http://www.w3.org/2001/XMLSchema-instance" 
 xsi:schemaLocation="http://www.topografix.com/GPX/1/1 http://www.topografix.com/GPX/1/1/gpx.xsd" 
 version="1.1" 
 creator="BRouter-Web 99.71.0">
 <trk>
  <name>Mainz Münsterplatz (Steig D) - Mainz Abzweig Münsterplatz Weiche 107</name>
  <link href="https://brouter.damsy.net/latest/#map=18/50.00017/8.26456/standard&amp;lonlats=8.262527,50.000171;8.264141,50.000191&amp;profile=rail">
   <text>BRouter-Web</text>
  </link>
  <trkseg>
   <trkpt lat="50.00017" lon="8.262526"><ele>90.5</ele></trkpt>
   <trkpt lat="50.000143" lon="8.262995"><ele>89</ele></trkpt>
   <trkpt lat="50.000132" lon="8.263295"><ele>88</ele></trkpt>
   <trkpt lat="50.000132" lon="8.263308"><ele>88</ele></trkpt>
   <trkpt lat="50.000131" lon="8.263401"><ele>88</ele></trkpt>
   <trkpt lat="50.000137" lon="8.263534"><ele>88</ele></trkpt>
   <trkpt lat="50.000185" lon="8.263884"><ele>88</ele></trkpt>
   <trkpt lat="50.000192" lon="8.263992"><ele>87.5</ele></trkpt>
   <trkpt lat="50.00019" lon="8.26407"><ele>87.25</ele></trkpt>
   <trkpt lat="50.000188" lon="8.264134"><ele>87</ele></trkpt>
   <trkpt lat="50.000187" lon="8.264139"><ele>87</ele></trkpt>
  </trkseg>
 </trk>
</gpx>