<?xml version="1.0" encoding="UTF-8"?>
<!-- track-length = 467 filtered ascend = 0 plain-ascend = 0 cost=879 energy=0.0kwh time=58s -->
<gpx 
 xmlns="http://www.topografix.com/GPX/1/1" 
 xmlns:xsi="http://www.w3.org/2001/XMLSchema-instance" 
 xsi:schemaLocation="http://www.topografix.com/GPX/1/1 http://www.topografix.com/GPX/1/1/gpx.xsd" 
 version="1.1" 
 creator="BRouter-Web 0.18.1">
 <trk>
  <name>Bus 25 Theodor-Heuss-Allee - Daniel-von-Büren-Straße</name>
  <trkseg>
   <trkpt lat="53.087906" lon="8.808063"><ele>3</ele></trkpt>
   <trkpt lat="53.087869" lon="8.807975"><ele>3</ele></trkpt>
   <trkpt lat="53.087666" lon="8.807502"><ele>3</ele></trkpt>
   <trkpt lat="53.087494" lon="8.807094"><ele>3</ele></trkpt>
   <trkpt lat="53.087372" lon="8.8068"><ele>3</ele></trkpt>
   <trkpt lat="53.087337" lon="8.8067"><ele>3</ele></trkpt>
   <trkpt lat="53.087276" lon="8.806581"><ele>3</ele></trkpt>
   <trkpt lat="53.087126" lon="8.806376"><ele>3</ele></trkpt>
   <trkpt lat="53.085921" lon="8.804797"><ele>3</ele></trkpt>
   <trkpt lat="53.085789" lon="8.804643"><ele>3</ele></trkpt>
   <trkpt lat="53.0857" lon="8.804419"><ele>3</ele></trkpt>
   <trkpt lat="53.085635" lon="8.804339"><ele>3</ele></trkpt>
   <trkpt lat="53.085509" lon="8.804183"><ele>3</ele></trkpt>
   <trkpt lat="53.08521" lon="8.803778"><ele>3</ele></trkpt>
   <trkpt lat="53.085198" lon="8.803761"><ele>3</ele></trkpt>
   <trkpt lat="53.084895" lon="8.803355"><ele>3</ele></trkpt>
   <trkpt lat="53.084882" lon="8.803338"><ele>3</ele></trkpt>
   <trkpt lat="53.084878" lon="8.803332"><ele>3</ele></trkpt>
  </trkseg>
 </trk>
</gpx>