<?xml version="1.0" encoding="UTF-8"?>
<!-- track-length = 61 filtered ascend = 1 plain-ascend = 1 cost=122 energy=0.0kwh time=5s -->
<gpx 
 xmlns="http://www.topografix.com/GPX/1/1" 
 xmlns:xsi="http://www.w3.org/2001/XMLSchema-instance" 
 xsi:schemaLocation="http://www.topografix.com/GPX/1/1 http://www.topografix.com/GPX/1/1/gpx.xsd" 
 version="1.1" 
 creator="BRouter-Web 0.18.1">
 <trk>
  <name>Dreieck Vallilan varikko Weiche Südost-Ost - Dreieck Vallilan varikko Weiche Südwest-Nordwest</name>
  <trkseg>
   <trkpt lat="60.196731" lon="24.962378"><ele>15</ele></trkpt>
   <trkpt lat="60.196732" lon="24.962378"><ele>15</ele></trkpt>
   <trkpt lat="60.196776" lon="24.962346"><ele>15</ele></trkpt>
   <trkpt lat="60.196832" lon="24.962277"><ele>15</ele></trkpt>
   <trkpt lat="60.196873" lon="24.962201"><ele>15</ele></trkpt>
   <trkpt lat="60.196893" lon="24.962134"><ele>15</ele></trkpt>
   <trkpt lat="60.196908" lon="24.96208"><ele>15</ele></trkpt>
   <trkpt lat="60.196926" lon="24.961957"><ele>15</ele></trkpt>
   <trkpt lat="60.196929" lon="24.961887"><ele>15</ele></trkpt>
   <trkpt lat="60.196925" lon="24.961774"><ele>15</ele></trkpt>
   <trkpt lat="60.196913" lon="24.961698"><ele>15</ele></trkpt>
   <trkpt lat="60.1969" lon="24.961637"><ele>15</ele></trkpt>
   <trkpt lat="60.196848" lon="24.961507"><ele>15.5</ele></trkpt>
   <trkpt lat="60.196844" lon="24.9615"><ele>16</ele></trkpt>
  </trkseg>
 </trk>
</gpx>