<?xml version="1.0" encoding="UTF-8"?>
<!-- track-length = 9 filtered ascend = 0 plain-ascend = 0 cost=9 energy=0.0kwh time=1s -->
<gpx 
 xmlns="http://www.topografix.com/GPX/1/1" 
 xmlns:xsi="http://www.w3.org/2001/XMLSchema-instance" 
 xsi:schemaLocation="http://www.topografix.com/GPX/1/1 http://www.topografix.com/GPX/1/1/gpx.xsd" 
 version="1.1" 
 creator="BRouter-Web 0.18.1">
 <trk>
  <name>221 Inkeroinen Weiche 216 - Inkeroinen Weiche 214</name>
  <trkseg>
   <trkpt lat="60.694186" lon="26.843717"><ele>30.5</ele></trkpt>
   <trkpt lat="60.694127" lon="26.843817"><ele>30.25</ele></trkpt>
  </trkseg>
 </trk>
</gpx>