<?xml version="1.0" encoding="UTF-8"?>
<!-- track-length = 10648 filtered ascend = 9 plain-ascend = 0 cost=10648 energy=0.1kwh time=14m 12s -->
<gpx 
 xmlns="http://www.topografix.com/GPX/1/1" 
 xmlns:xsi="http://www.w3.org/2001/XMLSchema-instance" 
 xsi:schemaLocation="http://www.topografix.com/GPX/1/1 http://www.topografix.com/GPX/1/1/gpx.xsd" 
 version="1.1" 
 creator="BRouter-Web 0.18.1">
 <trk>
  <name>221 Inkeroinen Weiche 214 - Juurikorpi Weiche 311</name>
  <trkseg>
   <trkpt lat="60.694125" lon="26.843822"><ele>30.25</ele></trkpt>
   <trkpt lat="60.693253" lon="26.84533"><ele>30.5</ele></trkpt>
   <trkpt lat="60.692748" lon="26.846062"><ele>31.75</ele></trkpt>
   <trkpt lat="60.692113" lon="26.846747"><ele>31.5</ele></trkpt>
   <trkpt lat="60.691631" lon="26.847119"><ele>31.75</ele></trkpt>
   <trkpt lat="60.691115" lon="26.847412"><ele>31.25</ele></trkpt>
   <trkpt lat="60.69069" lon="26.847579"><ele>31.5</ele></trkpt>
   <trkpt lat="60.690176" lon="26.847698"><ele>31.75</ele></trkpt>
   <trkpt lat="60.690163" lon="26.8477"><ele>32</ele></trkpt>
   <trkpt lat="60.689731" lon="26.847759"><ele>30</ele></trkpt>
   <trkpt lat="60.689611" lon="26.84778"><ele>31</ele></trkpt>
   <trkpt lat="60.68742" lon="26.848149"><ele>33</ele></trkpt>
   <trkpt lat="60.687119" lon="26.848196"><ele>33</ele></trkpt>
   <trkpt lat="60.686199" lon="26.848367"><ele>32.25</ele></trkpt>
   <trkpt lat="60.685289" lon="26.848707"><ele>30</ele></trkpt>
   <trkpt lat="60.685062" lon="26.848818"><ele>30.75</ele></trkpt>
   <trkpt lat="60.684605" lon="26.84913"><ele>30.75</ele></trkpt>
   <trkpt lat="60.684164" lon="26.849455"><ele>30.75</ele></trkpt>
   <trkpt lat="60.683656" lon="26.849929"><ele>29.25</ele></trkpt>
   <trkpt lat="60.683117" lon="26.850524"><ele>29</ele></trkpt>
   <trkpt lat="60.681906" lon="26.851949"><ele>27.5</ele></trkpt>
   <trkpt lat="60.681164" lon="26.852886"><ele>27.75</ele></trkpt>
   <trkpt lat="60.680471" lon="26.853883"><ele>28.25</ele></trkpt>
   <trkpt lat="60.680308" lon="26.854167"><ele>29</ele></trkpt>
   <trkpt lat="60.68006" lon="26.854619"><ele>28.5</ele></trkpt>
   <trkpt lat="60.679797" lon="26.855157"><ele>27.75</ele></trkpt>
   <trkpt lat="60.679543" lon="26.855712"><ele>28</ele></trkpt>
   <trkpt lat="60.679317" lon="26.856249"><ele>27.75</ele></trkpt>
   <trkpt lat="60.67715" lon="26.861324"><ele>30.25</ele></trkpt>
   <trkpt lat="60.676852" lon="26.861998"><ele>30.5</ele></trkpt>
   <trkpt lat="60.67656" lon="26.862571"><ele>29.75</ele></trkpt>
   <trkpt lat="60.676176" lon="26.863195"><ele>30.25</ele></trkpt>
   <trkpt lat="60.675441" lon="26.864229"><ele>30.25</ele></trkpt>
   <trkpt lat="60.675003" lon="26.864722"><ele>30.75</ele></trkpt>
   <trkpt lat="60.674615" lon="26.865118"><ele>30.75</ele></trkpt>
   <trkpt lat="60.674238" lon="26.865441"><ele>30.5</ele></trkpt>
   <trkpt lat="60.672274" lon="26.867006"><ele>28</ele></trkpt>
   <trkpt lat="60.669513" lon="26.869254"><ele>27.25</ele></trkpt>
   <trkpt lat="60.668479" lon="26.870081"><ele>27</ele></trkpt>
   <trkpt lat="60.664768" lon="26.873049"><ele>28.75</ele></trkpt>
   <trkpt lat="60.6639" lon="26.873684"><ele>29.75</ele></trkpt>
   <trkpt lat="60.663265" lon="26.87407"><ele>30</ele></trkpt>
   <trkpt lat="60.662463" lon="26.874368"><ele>30.75</ele></trkpt>
   <trkpt lat="60.661598" lon="26.87458"><ele>31.5</ele></trkpt>
   <trkpt lat="60.660636" lon="26.874782"><ele>31.5</ele></trkpt>
   <trkpt lat="60.660115" lon="26.874924"><ele>31.75</ele></trkpt>
   <trkpt lat="60.65964" lon="26.875141"><ele>31.5</ele></trkpt>
   <trkpt lat="60.658887" lon="26.875478"><ele>31.5</ele></trkpt>
   <trkpt lat="60.658132" lon="26.87586"><ele>31.75</ele></trkpt>
   <trkpt lat="60.656165" lon="26.876782"><ele>30.75</ele></trkpt>
   <trkpt lat="60.656078" lon="26.876823"><ele>31</ele></trkpt>
   <trkpt lat="60.655115" lon="26.877274"><ele>30.75</ele></trkpt>
   <trkpt lat="60.646382" lon="26.881448"><ele>26.75</ele></trkpt>
   <trkpt lat="60.645245" lon="26.88199"><ele>25.25</ele></trkpt>
   <trkpt lat="60.641684" lon="26.883691"><ele>25</ele></trkpt>
   <trkpt lat="60.639865" lon="26.884582"><ele>23.5</ele></trkpt>
   <trkpt lat="60.639283" lon="26.884918"><ele>23.25</ele></trkpt>
   <trkpt lat="60.638852" lon="26.88524"><ele>23.75</ele></trkpt>
   <trkpt lat="60.638484" lon="26.885537"><ele>23.75</ele></trkpt>
   <trkpt lat="60.638142" lon="26.885858"><ele>23.75</ele></trkpt>
   <trkpt lat="60.637745" lon="26.886279"><ele>23.75</ele></trkpt>
   <trkpt lat="60.635431" lon="26.888736"><ele>26.75</ele></trkpt>
   <trkpt lat="60.634758" lon="26.88941"><ele>28.5</ele></trkpt>
   <trkpt lat="60.634315" lon="26.889806"><ele>29.25</ele></trkpt>
   <trkpt lat="60.6318" lon="26.89181"><ele>31</ele></trkpt>
   <trkpt lat="60.630869" lon="26.892496"><ele>31.75</ele></trkpt>
   <trkpt lat="60.630072" lon="26.892945"><ele>30.75</ele></trkpt>
   <trkpt lat="60.629458" lon="26.893242"><ele>31.5</ele></trkpt>
   <trkpt lat="60.626588" lon="26.894628"><ele>31.75</ele></trkpt>
   <trkpt lat="60.62525" lon="26.895233"><ele>33.75</ele></trkpt>
   <trkpt lat="60.624361" lon="26.89572"><ele>33.25</ele></trkpt>
   <trkpt lat="60.624223" lon="26.895804"><ele>33.5</ele></trkpt>
   <trkpt lat="60.623805" lon="26.896059"><ele>33.75</ele></trkpt>
   <trkpt lat="60.623026" lon="26.896645"><ele>34.75</ele></trkpt>
   <trkpt lat="60.622213" lon="26.897416"><ele>34</ele></trkpt>
   <trkpt lat="60.621255" lon="26.898389"><ele>33.75</ele></trkpt>
   <trkpt lat="60.620937" lon="26.898701"><ele>33.5</ele></trkpt>
   <trkpt lat="60.620629" lon="26.89904"><ele>34</ele></trkpt>
   <trkpt lat="60.620247" lon="26.8995"><ele>34.5</ele></trkpt>
   <trkpt lat="60.619763" lon="26.900128"><ele>33.25</ele></trkpt>
   <trkpt lat="60.619207" lon="26.900949"><ele>33</ele></trkpt>
   <trkpt lat="60.618861" lon="26.901512"><ele>33.25</ele></trkpt>
   <trkpt lat="60.618363" lon="26.902405"><ele>33.25</ele></trkpt>
   <trkpt lat="60.618048" lon="26.903022"><ele>33.75</ele></trkpt>
   <trkpt lat="60.61773" lon="26.903691"><ele>34.25</ele></trkpt>
   <trkpt lat="60.617476" lon="26.90428"><ele>34</ele></trkpt>
   <trkpt lat="60.61717" lon="26.905021"><ele>34</ele></trkpt>
   <trkpt lat="60.616894" lon="26.905771"><ele>34</ele></trkpt>
   <trkpt lat="60.61649" lon="26.906922"><ele>33.25</ele></trkpt>
   <trkpt lat="60.616124" lon="26.908169"><ele>33.25</ele></trkpt>
   <trkpt lat="60.615107" lon="26.911854"><ele>33</ele></trkpt>
   <trkpt lat="60.614471" lon="26.914149"><ele>32.75</ele></trkpt>
   <trkpt lat="60.614163" lon="26.915263"><ele>32.75</ele></trkpt>
   <trkpt lat="60.613374" lon="26.918149"><ele>31.5</ele></trkpt>
   <trkpt lat="60.612666" lon="26.920623"><ele>29.75</ele></trkpt>
   <trkpt lat="60.612415" lon="26.921339"><ele>30.25</ele></trkpt>
   <trkpt lat="60.612052" lon="26.922207"><ele>30</ele></trkpt>
   <trkpt lat="60.611342" lon="26.923622"><ele>29.75</ele></trkpt>
   <trkpt lat="60.611087" lon="26.924131"><ele>29.5</ele></trkpt>
  </trkseg>
 </trk>
</gpx>