<?xml version="1.0" encoding="UTF-8"?>
<!-- track-length = 299 filtered ascend = 0 plain-ascend = 0 cost=299 energy=0.0kwh time=24s -->
<gpx 
 xmlns="http://www.topografix.com/GPX/1/1" 
 xmlns:xsi="http://www.w3.org/2001/XMLSchema-instance" 
 xsi:schemaLocation="http://www.topografix.com/GPX/1/1 http://www.topografix.com/GPX/1/1/gpx.xsd" 
 version="1.1" 
 creator="BRouter-Web 0.18.1">
 <trk>
  <name>221 Inkeroinen (Gleis 2) - Inkeroinen Weiche 216</name>
  <trkseg>
   <trkpt lat="60.696226" lon="26.840182"><ele>30.75</ele></trkpt>
   <trkpt lat="60.69521" lon="26.841939"><ele>30.5</ele></trkpt>
   <trkpt lat="60.695118" lon="26.842096"><ele>27.75</ele></trkpt>
   <trkpt lat="60.695101" lon="26.842125"><ele>27.25</ele></trkpt>
   <trkpt lat="60.694946" lon="26.842406"><ele>27.5</ele></trkpt>
   <trkpt lat="60.694187" lon="26.843716"><ele>30.75</ele></trkpt>
   <trkpt lat="60.694186" lon="26.843717"><ele>30.25</ele></trkpt>
  </trkseg>
 </trk>
</gpx>