<?xml version="1.0" encoding="UTF-8"?>
<!-- track-length = 9270 filtered ascend = 3 plain-ascend = -6 cost=9270 energy=0.1kwh time=12m 22s -->
<gpx 
 xmlns="http://www.topografix.com/GPX/1/1" 
 xmlns:xsi="http://www.w3.org/2001/XMLSchema-instance" 
 xsi:schemaLocation="http://www.topografix.com/GPX/1/1 http://www.topografix.com/GPX/1/1/gpx.xsd" 
 version="1.1" 
 creator="BRouter-Web 0.18.1">
 <trk>
  <name>221 Kouvola Weiche 643 - Myllykoski (Gleis 2)</name>
  <trkseg>
   <trkpt lat="60.850409" lon="26.761693"><ele>51.75</ele></trkpt>
   <trkpt lat="60.847639" lon="26.761071"><ele>51.75</ele></trkpt>
   <trkpt lat="60.844668" lon="26.760391"><ele>50.75</ele></trkpt>
   <trkpt lat="60.844514" lon="26.760354"><ele>50.25</ele></trkpt>
   <trkpt lat="60.844229" lon="26.760284"><ele>50.75</ele></trkpt>
   <trkpt lat="60.840599" lon="26.759467"><ele>52</ele></trkpt>
   <trkpt lat="60.84028" lon="26.759394"><ele>53.25</ele></trkpt>
   <trkpt lat="60.832203" lon="26.757554"><ele>54.75</ele></trkpt>
   <trkpt lat="60.831353" lon="26.757364"><ele>54.75</ele></trkpt>
   <trkpt lat="60.829795" lon="26.756985"><ele>55.5</ele></trkpt>
   <trkpt lat="60.828421" lon="26.756666"><ele>50.5</ele></trkpt>
   <trkpt lat="60.828246" lon="26.756622"><ele>50.75</ele></trkpt>
   <trkpt lat="60.823914" lon="26.755603"><ele>52.75</ele></trkpt>
   <trkpt lat="60.823322" lon="26.755492"><ele>52.5</ele></trkpt>
   <trkpt lat="60.822967" lon="26.755453"><ele>52.25</ele></trkpt>
   <trkpt lat="60.822199" lon="26.75543"><ele>51.5</ele></trkpt>
   <trkpt lat="60.821907" lon="26.755444"><ele>51</ele></trkpt>
   <trkpt lat="60.820616" lon="26.755548"><ele>50.75</ele></trkpt>
   <trkpt lat="60.819066" lon="26.755689"><ele>49.25</ele></trkpt>
   <trkpt lat="60.814719" lon="26.756102"><ele>49.75</ele></trkpt>
   <trkpt lat="60.809791" lon="26.756608"><ele>47.75</ele></trkpt>
   <trkpt lat="60.809581" lon="26.756626"><ele>47.75</ele></trkpt>
   <trkpt lat="60.809239" lon="26.756655"><ele>47.75</ele></trkpt>
   <trkpt lat="60.808988" lon="26.756676"><ele>44.75</ele></trkpt>
   <trkpt lat="60.808787" lon="26.756696"><ele>44.25</ele></trkpt>
   <trkpt lat="60.807715" lon="26.756804"><ele>46.25</ele></trkpt>
   <trkpt lat="60.806982" lon="26.756921"><ele>46.75</ele></trkpt>
   <trkpt lat="60.806314" lon="26.757097"><ele>46.5</ele></trkpt>
   <trkpt lat="60.805595" lon="26.757361"><ele>46.25</ele></trkpt>
   <trkpt lat="60.804748" lon="26.757798"><ele>46</ele></trkpt>
   <trkpt lat="60.804155" lon="26.758183"><ele>45.75</ele></trkpt>
   <trkpt lat="60.80357" lon="26.758609"><ele>45.75</ele></trkpt>
   <trkpt lat="60.802776" lon="26.759328"><ele>45.5</ele></trkpt>
   <trkpt lat="60.801987" lon="26.760129"><ele>45</ele></trkpt>
   <trkpt lat="60.801084" lon="26.761232"><ele>44.75</ele></trkpt>
   <trkpt lat="60.800785" lon="26.761691"><ele>44.75</ele></trkpt>
   <trkpt lat="60.800197" lon="26.762579"><ele>44.25</ele></trkpt>
   <trkpt lat="60.798988" lon="26.764574"><ele>43.25</ele></trkpt>
   <trkpt lat="60.798919" lon="26.764688"><ele>43.75</ele></trkpt>
   <trkpt lat="60.798105" lon="26.766031"><ele>42.25</ele></trkpt>
   <trkpt lat="60.797382" lon="26.767184"><ele>43</ele></trkpt>
   <trkpt lat="60.797038" lon="26.767683"><ele>42.5</ele></trkpt>
   <trkpt lat="60.796689" lon="26.768163"><ele>42.5</ele></trkpt>
   <trkpt lat="60.796521" lon="26.768373"><ele>42.5</ele></trkpt>
   <trkpt lat="60.794749" lon="26.770455"><ele>43.75</ele></trkpt>
   <trkpt lat="60.793602" lon="26.771786"><ele>43.5</ele></trkpt>
   <trkpt lat="60.79337" lon="26.772021"><ele>42.75</ele></trkpt>
   <trkpt lat="60.792661" lon="26.772789"><ele>43.5</ele></trkpt>
   <trkpt lat="60.79164" lon="26.773626"><ele>43.75</ele></trkpt>
   <trkpt lat="60.790471" lon="26.77438"><ele>43.25</ele></trkpt>
   <trkpt lat="60.78926" lon="26.775017"><ele>42.75</ele></trkpt>
   <trkpt lat="60.785816" lon="26.776842"><ele>43.25</ele></trkpt>
   <trkpt lat="60.784807" lon="26.777373"><ele>42.75</ele></trkpt>
   <trkpt lat="60.776861" lon="26.781605"><ele>41.25</ele></trkpt>
   <trkpt lat="60.776661" lon="26.781707"><ele>41</ele></trkpt>
   <trkpt lat="60.77611" lon="26.782003"><ele>41.75</ele></trkpt>
   <trkpt lat="60.775501" lon="26.78232"><ele>41.25</ele></trkpt>
   <trkpt lat="60.775341" lon="26.782413"><ele>41.25</ele></trkpt>
   <trkpt lat="60.774813" lon="26.782758"><ele>44</ele></trkpt>
   <trkpt lat="60.774271" lon="26.783169"><ele>44.25</ele></trkpt>
   <trkpt lat="60.773721" lon="26.783671"><ele>44.5</ele></trkpt>
   <trkpt lat="60.772795" lon="26.784626"><ele>43</ele></trkpt>
   <trkpt lat="60.772545" lon="26.784886"><ele>43</ele></trkpt>
   <trkpt lat="60.771982" lon="26.785487"><ele>44.75</ele></trkpt>
   <trkpt lat="60.770913" lon="26.786667"><ele>45</ele></trkpt>
   <trkpt lat="60.770726" lon="26.786869"><ele>45</ele></trkpt>
  </trkseg>
 </trk>
</gpx>