<?xml version="1.0" encoding="UTF-8"?>
<!-- track-length = 304 filtered ascend = 0 plain-ascend = 0 cost=304 energy=0.0kwh time=24s -->
<gpx 
 xmlns="http://www.topografix.com/GPX/1/1" 
 xmlns:xsi="http://www.w3.org/2001/XMLSchema-instance" 
 xsi:schemaLocation="http://www.topografix.com/GPX/1/1 http://www.topografix.com/GPX/1/1/gpx.xsd" 
 version="1.1" 
 creator="BRouter-Web 0.18.1">
 <trk>
  <name>221 Pitkäkallio Weiche 111 - Pitkäkallio Weiche 112</name>
  <trkseg>
   <trkpt lat="60.766598" lon="26.791306"><ele>45.75</ele></trkpt>
   <trkpt lat="60.766595" lon="26.79131"><ele>46</ele></trkpt>
   <trkpt lat="60.764873" lon="26.793164"><ele>45.75</ele></trkpt>
   <trkpt lat="60.764195" lon="26.793895"><ele>45.75</ele></trkpt>
   <trkpt lat="60.764196" lon="26.793894"><ele>46</ele></trkpt>
  </trkseg>
 </trk>
</gpx>