<?xml version="1.0" encoding="UTF-8"?>
<!-- track-length = 6886 filtered ascend = 1 plain-ascend = -9 cost=6886 energy=0.1kwh time=9m 11s -->
<gpx 
 xmlns="http://www.topografix.com/GPX/1/1" 
 xmlns:xsi="http://www.w3.org/2001/XMLSchema-instance" 
 xsi:schemaLocation="http://www.topografix.com/GPX/1/1 http://www.topografix.com/GPX/1/1/gpx.xsd" 
 version="1.1" 
 creator="BRouter-Web 0.18.1">
 <trk>
  <name>221 Pitkäkallio Weiche 112 - Inkeroinen Weiche 213</name>
  <trkseg>
   <trkpt lat="60.764196" lon="26.793894"><ele>45.75</ele></trkpt>
   <trkpt lat="60.764195" lon="26.793895"><ele>45.75</ele></trkpt>
   <trkpt lat="60.763409" lon="26.794769"><ele>47</ele></trkpt>
   <trkpt lat="60.762615" lon="26.795629"><ele>46.25</ele></trkpt>
   <trkpt lat="60.762176" lon="26.796151"><ele>47</ele></trkpt>
   <trkpt lat="60.76135" lon="26.797277"><ele>46</ele></trkpt>
   <trkpt lat="60.760986" lon="26.797824"><ele>46.25</ele></trkpt>
   <trkpt lat="60.76026" lon="26.799026"><ele>44.75</ele></trkpt>
   <trkpt lat="60.759775" lon="26.799942"><ele>43.75</ele></trkpt>
   <trkpt lat="60.759684" lon="26.800113"><ele>43</ele></trkpt>
   <trkpt lat="60.759175" lon="26.80119"><ele>42.25</ele></trkpt>
   <trkpt lat="60.758676" lon="26.802287"><ele>40.25</ele></trkpt>
   <trkpt lat="60.757217" lon="26.805714"><ele>39.5</ele></trkpt>
   <trkpt lat="60.755713" lon="26.809224"><ele>38.75</ele></trkpt>
   <trkpt lat="60.75426" lon="26.812655"><ele>38</ele></trkpt>
   <trkpt lat="60.753742" lon="26.81381"><ele>36.5</ele></trkpt>
   <trkpt lat="60.753615" lon="26.814071"><ele>37.5</ele></trkpt>
   <trkpt lat="60.752992" lon="26.81514"><ele>38</ele></trkpt>
   <trkpt lat="60.752537" lon="26.815797"><ele>37.75</ele></trkpt>
   <trkpt lat="60.7522" lon="26.816248"><ele>37.25</ele></trkpt>
   <trkpt lat="60.751859" lon="26.816654"><ele>37.5</ele></trkpt>
   <trkpt lat="60.751285" lon="26.817236"><ele>37.5</ele></trkpt>
   <trkpt lat="60.751016" lon="26.817448"><ele>37</ele></trkpt>
   <trkpt lat="60.750743" lon="26.817665"><ele>37.25</ele></trkpt>
   <trkpt lat="60.750103" lon="26.818104"><ele>33.5</ele></trkpt>
   <trkpt lat="60.749703" lon="26.818364"><ele>36.5</ele></trkpt>
   <trkpt lat="60.748119" lon="26.819406"><ele>36.75</ele></trkpt>
   <trkpt lat="60.746374" lon="26.820555"><ele>37</ele></trkpt>
   <trkpt lat="60.746214" lon="26.820649"><ele>36.75</ele></trkpt>
   <trkpt lat="60.745273" lon="26.821139"><ele>36.75</ele></trkpt>
   <trkpt lat="60.744852" lon="26.821314"><ele>36.5</ele></trkpt>
   <trkpt lat="60.744101" lon="26.821594"><ele>36.25</ele></trkpt>
   <trkpt lat="60.743753" lon="26.821679"><ele>36.25</ele></trkpt>
   <trkpt lat="60.743264" lon="26.821814"><ele>36</ele></trkpt>
   <trkpt lat="60.742766" lon="26.821921"><ele>35.75</ele></trkpt>
   <trkpt lat="60.740216" lon="26.822255"><ele>36</ele></trkpt>
   <trkpt lat="60.737482" lon="26.822599"><ele>35.5</ele></trkpt>
   <trkpt lat="60.737476" lon="26.8226"><ele>35.5</ele></trkpt>
   <trkpt lat="60.737392" lon="26.82261"><ele>35.75</ele></trkpt>
   <trkpt lat="60.728512" lon="26.823699"><ele>34</ele></trkpt>
   <trkpt lat="60.726548" lon="26.823939"><ele>34.75</ele></trkpt>
   <trkpt lat="60.723219" lon="26.824352"><ele>34.5</ele></trkpt>
   <trkpt lat="60.723161" lon="26.824359"><ele>34.5</ele></trkpt>
   <trkpt lat="60.719547" lon="26.824802"><ele>34.25</ele></trkpt>
   <trkpt lat="60.715759" lon="26.82527"><ele>34.75</ele></trkpt>
   <trkpt lat="60.711346" lon="26.825808"><ele>35.75</ele></trkpt>
   <trkpt lat="60.711327" lon="26.825811"><ele>35.75</ele></trkpt>
   <trkpt lat="60.710582" lon="26.8259"><ele>35</ele></trkpt>
   <trkpt lat="60.707312" lon="26.826301"><ele>35.5</ele></trkpt>
   <trkpt lat="60.707309" lon="26.826301"><ele>35.75</ele></trkpt>
  </trkseg>
 </trk>
</gpx>