<?xml version="1.0" encoding="UTF-8"?>
<!-- track-length = 4 filtered ascend = 0 plain-ascend = 0 cost=10 energy=0.0kwh time= -->
<gpx 
 xmlns="http://www.topografix.com/GPX/1/1" 
 xmlns:xsi="http://www.w3.org/2001/XMLSchema-instance" 
 xsi:schemaLocation="http://www.topografix.com/GPX/1/1 http://www.topografix.com/GPX/1/1/gpx.xsd" 
 version="1.1" 
 creator="BRouter-Web 99.71.0">
 <trk>
  <name>Kreuz Rondo Starołęka Weiche Südost-nach-Nord-Nord - Kreuz Rondo Starołęka Weiche Nordwest-nach-Nord-Nord</name>
  <link href="https://brouter.damsy.net/latest/#map=20/52.38037/16.94343/standard&amp;lonlats=16.943226,52.380428;16.943244,52.380466">
   <text>BRouter-Web</text>
  </link>
  <trkseg>
   <trkpt lat="52.380426" lon="16.943228"><ele>65</ele></trkpt>
   <trkpt lat="52.380465" lon="16.943244"><ele>65</ele></trkpt>
  </trkseg>
 </trk>
</gpx>
