<?xml version="1.0" encoding="UTF-8"?>
<!-- track-length = 351 filtered ascend = 0 plain-ascend = 0 cost=702 energy=0.0kwh time=28s -->
<gpx 
 xmlns="http://www.topografix.com/GPX/1/1" 
 xmlns:xsi="http://www.w3.org/2001/XMLSchema-instance" 
 xsi:schemaLocation="http://www.topografix.com/GPX/1/1 http://www.topografix.com/GPX/1/1/gpx.xsd" 
 version="1.1" 
 creator="BRouter-Web 99.71.0">
 <trk>
  <name>Osiedle Piastowskie (Steig Südost) - Wioślarska (Steig Südost)</name>
  <link href="https://brouter.damsy.net/latest/#map=18/52.39295/16.94899/standard&amp;lonlats=16.94715,52.390058;16.948813,52.393039">
   <text>BRouter-Web</text>
  </link>
  <trkseg>
   <trkpt lat="52.390058" lon="16.94714"><ele>69.5</ele></trkpt>
   <trkpt lat="52.390162" lon="16.947185"><ele>69.25</ele></trkpt>
   <trkpt lat="52.390682" lon="16.947426"><ele>69</ele></trkpt>
   <trkpt lat="52.391103" lon="16.947641"><ele>69</ele></trkpt>
   <trkpt lat="52.3914" lon="16.947816"><ele>69</ele></trkpt>
   <trkpt lat="52.392586" lon="16.94854"><ele>69</ele></trkpt>
   <trkpt lat="52.393036" lon="16.948813"><ele>69</ele></trkpt>
   <trkpt lat="52.393037" lon="16.948814"><ele>69</ele></trkpt>
  </trkseg>
 </trk>
</gpx>