<?xml version="1.0" encoding="UTF-8"?>
<!-- track-length = 529 filtered ascend = 0 plain-ascend = 0 cost=1058 energy=0.0kwh time=42s -->
<gpx 
 xmlns="http://www.topografix.com/GPX/1/1" 
 xmlns:xsi="http://www.w3.org/2001/XMLSchema-instance" 
 xsi:schemaLocation="http://www.topografix.com/GPX/1/1 http://www.topografix.com/GPX/1/1/gpx.xsd" 
 version="1.1" 
 creator="BRouter-Web 99.71.0">
 <trk>
  <name>Osiedle Rzeczypospolitej (Steig Südost) - Osiedle Piastowskie (Steig Südost)</name>
  <link href="https://brouter.damsy.net/latest/#map=20/52.38994/16.94733/standard&amp;lonlats=16.945004,52.385487;16.94715,52.390058">
   <text>BRouter-Web</text>
  </link>
  <trkseg>
   <trkpt lat="52.385487" lon="16.944999"><ele>69.5</ele></trkpt>
   <trkpt lat="52.385491" lon="16.945002"><ele>69.75</ele></trkpt>
   <trkpt lat="52.386085" lon="16.945311"><ele>70</ele></trkpt>
   <trkpt lat="52.38653" lon="16.945522"><ele>70</ele></trkpt>
   <trkpt lat="52.388329" lon="16.946347"><ele>70</ele></trkpt>
   <trkpt lat="52.388355" lon="16.94636"><ele>70</ele></trkpt>
   <trkpt lat="52.389977" lon="16.947105"><ele>70</ele></trkpt>
   <trkpt lat="52.390058" lon="16.94714"><ele>69.25</ele></trkpt>
  </trkseg>
 </trk>
</gpx>