<?xml version="1.0" encoding="UTF-8"?>
<!-- track-length = 498 filtered ascend = 4 plain-ascend = 4 cost=996 energy=0.0kwh time=40s -->
<gpx 
 xmlns="http://www.topografix.com/GPX/1/1" 
 xmlns:xsi="http://www.w3.org/2001/XMLSchema-instance" 
 xsi:schemaLocation="http://www.topografix.com/GPX/1/1 http://www.topografix.com/GPX/1/1/gpx.xsd" 
 version="1.1" 
 creator="BRouter-Web 99.71.0">
 <trk>
  <name>Rondo Starołęka (Steig Nord-Ost) - Osiedle Rzeczypospolitej (Steig Südost)</name>
  <link href="https://brouter.damsy.net/latest/#map=18/52.38080/16.94366/standard&amp;lonlats=16.943437,52.381128;16.945004,52.385487">
   <text>BRouter-Web</text>
  </link>
  <trkseg>
   <trkpt lat="52.381126" lon="16.943444"><ele>65.5</ele></trkpt>
   <trkpt lat="52.38113" lon="16.943445"><ele>65.75</ele></trkpt>
   <trkpt lat="52.382587" lon="16.943689"><ele>67</ele></trkpt>
   <trkpt lat="52.382894" lon="16.943755"><ele>67.25</ele></trkpt>
   <trkpt lat="52.38316" lon="16.94383"><ele>68</ele></trkpt>
   <trkpt lat="52.383356" lon="16.943903"><ele>68</ele></trkpt>
   <trkpt lat="52.383507" lon="16.943966"><ele>68</ele></trkpt>
   <trkpt lat="52.38382" lon="16.944125"><ele>68</ele></trkpt>
   <trkpt lat="52.38391" lon="16.944173"><ele>68</ele></trkpt>
   <trkpt lat="52.384051" lon="16.944248"><ele>68.5</ele></trkpt>
   <trkpt lat="52.384122" lon="16.944285"><ele>68.75</ele></trkpt>
   <trkpt lat="52.385487" lon="16.944999"><ele>69.75</ele></trkpt>
  </trkseg>
 </trk>
</gpx>