<?xml version="1.0" encoding="UTF-8"?>
<!-- track-length = 67 filtered ascend = 0 plain-ascend = 0 cost=136 energy=0.0kwh time=5s -->
<gpx 
 xmlns="http://www.topografix.com/GPX/1/1" 
 xmlns:xsi="http://www.w3.org/2001/XMLSchema-instance" 
 xsi:schemaLocation="http://www.topografix.com/GPX/1/1 http://www.topografix.com/GPX/1/1/gpx.xsd" 
 version="1.1" 
 creator="BRouter-Web 0.18.1">
 <trk>
  <name>Dreieck Dvorce Weiche Nordost-West - Dreieck Dvorce Weiche Südwest-West</name>
  <trkseg>
   <trkpt lat="50.050478" lon="14.415809"><ele>193</ele></trkpt>
   <trkpt lat="50.050308" lon="14.415714"><ele>193</ele></trkpt>
   <trkpt lat="50.050223" lon="14.415668"><ele>193</ele></trkpt>
   <trkpt lat="50.050164" lon="14.415635"><ele>193</ele></trkpt>
   <trkpt lat="50.050095" lon="14.415597"><ele>193</ele></trkpt>
   <trkpt lat="50.049916" lon="14.415498"><ele>193</ele></trkpt>
   <trkpt lat="50.049914" lon="14.415496"><ele>193</ele></trkpt>
  </trkseg>
 </trk>
</gpx>