<?xml version="1.0" encoding="UTF-8"?>
<!-- track-length = 82 filtered ascend = 0 plain-ascend = 0 cost=164 energy=0.0kwh time=7s -->
<gpx 
 xmlns="http://www.topografix.com/GPX/1/1" 
 xmlns:xsi="http://www.w3.org/2001/XMLSchema-instance" 
 xsi:schemaLocation="http://www.topografix.com/GPX/1/1 http://www.topografix.com/GPX/1/1/gpx.xsd" 
 version="1.1" 
 creator="BRouter-Web 0.18.1">
 <trk>
  <name>Abzweig Trammuseum Weiche Nord - Abzweig Wendeschleife Groenenhoek Weiche Nordwest</name>
  <trkseg>
   <trkpt lat="51.200213" lon="4.438855"><ele>9</ele></trkpt>
   <trkpt lat="51.200319" lon="4.438446"><ele>9</ele></trkpt>
   <trkpt lat="51.200487" lon="4.437785"><ele>9</ele></trkpt>
   <trkpt lat="51.200489" lon="4.437777"><ele>8.5</ele></trkpt>
  </trkseg>
 </trk>
</gpx>