<?xml version="1.0" encoding="UTF-8"?>
<!-- track-length = 467 filtered ascend = 6 plain-ascend = 6 cost=934 energy=0.0kwh time=37s -->
<gpx 
 xmlns="http://www.topografix.com/GPX/1/1" 
 xmlns:xsi="http://www.w3.org/2001/XMLSchema-instance" 
 xsi:schemaLocation="http://www.topografix.com/GPX/1/1 http://www.topografix.com/GPX/1/1/gpx.xsd" 
 version="1.1" 
 creator="BRouter-Web 0.18.1">
 <trk>
  <name>Eteläranta (Steig West) - Olympiaterminaali (Steig West)</name>
  <trkseg>
   <trkpt lat="60.165039" lon="24.952591"><ele>2</ele></trkpt>
   <trkpt lat="60.165006" lon="24.952596"><ele>2</ele></trkpt>
   <trkpt lat="60.164989" lon="24.952598"><ele>2</ele></trkpt>
   <trkpt lat="60.164854" lon="24.952613"><ele>2.5</ele></trkpt>
   <trkpt lat="60.16479" lon="24.952622"><ele>2.75</ele></trkpt>
   <trkpt lat="60.164584" lon="24.952679"><ele>3</ele></trkpt>
   <trkpt lat="60.164442" lon="24.952748"><ele>3</ele></trkpt>
   <trkpt lat="60.164375" lon="24.952785"><ele>3</ele></trkpt>
   <trkpt lat="60.164239" lon="24.952883"><ele>3.25</ele></trkpt>
   <trkpt lat="60.164216" lon="24.952902"><ele>3.25</ele></trkpt>
   <trkpt lat="60.164071" lon="24.953032"><ele>3.25</ele></trkpt>
   <trkpt lat="60.164006" lon="24.953103"><ele>3.25</ele></trkpt>
   <trkpt lat="60.163834" lon="24.953321"><ele>3.5</ele></trkpt>
   <trkpt lat="60.162804" lon="24.954852"><ele>4.75</ele></trkpt>
   <trkpt lat="60.161985" lon="24.956071"><ele>7</ele></trkpt>
   <trkpt lat="60.161889" lon="24.956192"><ele>6.5</ele></trkpt>
   <trkpt lat="60.161788" lon="24.956277"><ele>6.75</ele></trkpt>
   <trkpt lat="60.161677" lon="24.956335"><ele>7.75</ele></trkpt>
   <trkpt lat="60.161533" lon="24.956367"><ele>8</ele></trkpt>
   <trkpt lat="60.161421" lon="24.956369"><ele>8</ele></trkpt>
   <trkpt lat="60.161414" lon="24.956368"><ele>8</ele></trkpt>
  </trkseg>
 </trk>
</gpx>