<?xml version="1.0" encoding="UTF-8"?>
<!-- track-length = 311 filtered ascend = 4 plain-ascend = 2 cost=622 energy=0.0kwh time=25s -->
<gpx 
 xmlns="http://www.topografix.com/GPX/1/1" 
 xmlns:xsi="http://www.w3.org/2001/XMLSchema-instance" 
 xsi:schemaLocation="http://www.topografix.com/GPX/1/1 http://www.topografix.com/GPX/1/1/gpx.xsd" 
 version="1.1" 
 creator="BRouter-Web 0.18.1">
 <trk>
  <name>Kaivopuisto (Steig Nordwest) - Neitsytpolku (Steig Nordwest)</name>
  <trkseg>
   <trkpt lat="60.159524" lon="24.954659"><ele>10.25</ele></trkpt>
   <trkpt lat="60.159515" lon="24.954617"><ele>10.5</ele></trkpt>
   <trkpt lat="60.15951" lon="24.954594"><ele>10.75</ele></trkpt>
   <trkpt lat="60.159481" lon="24.954447"><ele>10.75</ele></trkpt>
   <trkpt lat="60.159462" lon="24.954348"><ele>10.75</ele></trkpt>
   <trkpt lat="60.159453" lon="24.954303"><ele>10.75</ele></trkpt>
   <trkpt lat="60.15935" lon="24.953792"><ele>11.75</ele></trkpt>
   <trkpt lat="60.159136" lon="24.952719"><ele>14</ele></trkpt>
   <trkpt lat="60.159051" lon="24.952296"><ele>14.75</ele></trkpt>
   <trkpt lat="60.159018" lon="24.952131"><ele>15</ele></trkpt>
   <trkpt lat="60.159011" lon="24.952094"><ele>15</ele></trkpt>
   <trkpt lat="60.158968" lon="24.951877"><ele>15</ele></trkpt>
   <trkpt lat="60.158961" lon="24.951843"><ele>15</ele></trkpt>
   <trkpt lat="60.158933" lon="24.951705"><ele>15</ele></trkpt>
   <trkpt lat="60.158745" lon="24.950777"><ele>14.75</ele></trkpt>
   <trkpt lat="60.158483" lon="24.949475"><ele>12.25</ele></trkpt>
  </trkseg>
 </trk>
</gpx>