<?xml version="1.0" encoding="UTF-8"?>
<!-- track-length = 243 filtered ascend = 0 plain-ascend = -1 cost=486 energy=0.0kwh time=19s -->
<gpx 
 xmlns="http://www.topografix.com/GPX/1/1" 
 xmlns:xsi="http://www.w3.org/2001/XMLSchema-instance" 
 xsi:schemaLocation="http://www.topografix.com/GPX/1/1 http://www.topografix.com/GPX/1/1/gpx.xsd" 
 version="1.1" 
 creator="BRouter-Web 0.18.1">
 <trk>
  <name>Neitsytpolku (Steig Nordwest) - Kapteeninkatu (Steig Nord)</name>
  <trkseg>
   <trkpt lat="60.158483" lon="24.949475"><ele>12.5</ele></trkpt>
   <trkpt lat="60.158448" lon="24.949301"><ele>12.25</ele></trkpt>
   <trkpt lat="60.158437" lon="24.949233"><ele>12</ele></trkpt>
   <trkpt lat="60.158421" lon="24.949112"><ele>12</ele></trkpt>
   <trkpt lat="60.158408" lon="24.948991"><ele>12.5</ele></trkpt>
   <trkpt lat="60.158404" lon="24.948925"><ele>12.75</ele></trkpt>
   <trkpt lat="60.158275" lon="24.946133"><ele>10</ele></trkpt>
   <trkpt lat="60.158274" lon="24.946104"><ele>9.75</ele></trkpt>
   <trkpt lat="60.158269" lon="24.945967"><ele>9.25</ele></trkpt>
   <trkpt lat="60.15826" lon="24.945745"><ele>9.25</ele></trkpt>
   <trkpt lat="60.158257" lon="24.945692"><ele>9.5</ele></trkpt>
   <trkpt lat="60.158233" lon="24.945152"><ele>10.75</ele></trkpt>
  </trkseg>
 </trk>
</gpx>