<?xml version="1.0" encoding="UTF-8"?>
<!-- track-length = 241 filtered ascend = 2 plain-ascend = 3 cost=482 energy=0.0kwh time=19s -->
<gpx 
 xmlns="http://www.topografix.com/GPX/1/1" 
 xmlns:xsi="http://www.w3.org/2001/XMLSchema-instance" 
 xsi:schemaLocation="http://www.topografix.com/GPX/1/1 http://www.topografix.com/GPX/1/1/gpx.xsd" 
 version="1.1" 
 creator="BRouter-Web 0.18.1">
 <trk>
  <name>Olympiaterminaali (Steig West) - Kaivopuisto (Steig Nordwest)</name>
  <trkseg>
   <trkpt lat="60.161416" lon="24.956368"><ele>8</ele></trkpt>
   <trkpt lat="60.161397" lon="24.956367"><ele>8</ele></trkpt>
   <trkpt lat="60.161313" lon="24.95636"><ele>8</ele></trkpt>
   <trkpt lat="60.161276" lon="24.956351"><ele>8.25</ele></trkpt>
   <trkpt lat="60.161136" lon="24.956281"><ele>8.5</ele></trkpt>
   <trkpt lat="60.161094" lon="24.956249"><ele>8.25</ele></trkpt>
   <trkpt lat="60.161069" lon="24.956229"><ele>8</ele></trkpt>
   <trkpt lat="60.160961" lon="24.956125"><ele>7.75</ele></trkpt>
   <trkpt lat="60.160873" lon="24.956022"><ele>8</ele></trkpt>
   <trkpt lat="60.160847" lon="24.95599"><ele>8</ele></trkpt>
   <trkpt lat="60.160828" lon="24.955969"><ele>7.75</ele></trkpt>
   <trkpt lat="60.160754" lon="24.95591"><ele>7.5</ele></trkpt>
   <trkpt lat="60.160738" lon="24.955901"><ele>7.5</ele></trkpt>
   <trkpt lat="60.160164" lon="24.955559"><ele>8</ele></trkpt>
   <trkpt lat="60.160119" lon="24.955532"><ele>8</ele></trkpt>
   <trkpt lat="60.160106" lon="24.955524"><ele>8</ele></trkpt>
   <trkpt lat="60.16009" lon="24.955514"><ele>8</ele></trkpt>
   <trkpt lat="60.159729" lon="24.955299"><ele>8.75</ele></trkpt>
   <trkpt lat="60.159671" lon="24.955225"><ele>9.5</ele></trkpt>
   <trkpt lat="60.159631" lon="24.955135"><ele>10</ele></trkpt>
   <trkpt lat="60.159612" lon="24.955072"><ele>10</ele></trkpt>
   <trkpt lat="60.159524" lon="24.954659"><ele>10.5</ele></trkpt>
  </trkseg>
 </trk>
</gpx>