<?xml version="1.0" encoding="UTF-8"?>
<!-- track-length = 871 filtered ascend = 1 plain-ascend = 0 cost=871 energy=0.0kwh time=1m 10s -->
<gpx 
 xmlns="http://www.topografix.com/GPX/1/1" 
 xmlns:xsi="http://www.w3.org/2001/XMLSchema-instance" 
 xsi:schemaLocation="http://www.topografix.com/GPX/1/1 http://www.topografix.com/GPX/1/1/gpx.xsd" 
 version="1.1" 
 creator="BRouter-Web 99.71.0">
 <trk>
  <name>C-G Abzweig Hütte Nord/Gleisdreieck Weiche 9440 - Gleisdreieck Nord Weiche 9442</name>
  <link href="https://brouter.damsy.net/latest/#map=17/52.17703/10.42597/standard&amp;lonlats=10.422432,52.177244;10.43055,52.176701&amp;profile=rail">
   <text>BRouter-Web</text>
  </link>
  <trkseg>
   <trkpt lat="52.177244" lon="10.422432"><ele>88</ele></trkpt>
   <trkpt lat="52.177244" lon="10.422433"><ele>88</ele></trkpt>
   <trkpt lat="52.176854" lon="10.42256"><ele>88</ele></trkpt>
   <trkpt lat="52.176777" lon="10.422594"><ele>88</ele></trkpt>
   <trkpt lat="52.176634" lon="10.422671"><ele>88</ele></trkpt>
   <trkpt lat="52.176496" lon="10.422766"><ele>88</ele></trkpt>
   <trkpt lat="52.17634" lon="10.422908"><ele>88</ele></trkpt>
   <trkpt lat="52.175359" lon="10.423922"><ele>88</ele></trkpt>
   <trkpt lat="52.175237" lon="10.424076"><ele>88</ele></trkpt>
   <trkpt lat="52.175114" lon="10.424251"><ele>88</ele></trkpt>
   <trkpt lat="52.175015" lon="10.424416"><ele>88</ele></trkpt>
   <trkpt lat="52.174905" lon="10.424625"><ele>88</ele></trkpt>
   <trkpt lat="52.174818" lon="10.424816"><ele>88</ele></trkpt>
   <trkpt lat="52.174737" lon="10.425018"><ele>88</ele></trkpt>
   <trkpt lat="52.174669" lon="10.425217"><ele>88</ele></trkpt>
   <trkpt lat="52.174604" lon="10.425441"><ele>88</ele></trkpt>
   <trkpt lat="52.174547" lon="10.425675"><ele>88</ele></trkpt>
   <trkpt lat="52.174501" lon="10.425912"><ele>88</ele></trkpt>
   <trkpt lat="52.17446" lon="10.426184"><ele>88</ele></trkpt>
   <trkpt lat="52.174435" lon="10.426449"><ele>88</ele></trkpt>
   <trkpt lat="52.174419" lon="10.426738"><ele>89</ele></trkpt>
   <trkpt lat="52.17442" lon="10.427136"><ele>89</ele></trkpt>
   <trkpt lat="52.174433" lon="10.427342"><ele>89</ele></trkpt>
   <trkpt lat="52.174454" lon="10.427557"><ele>89</ele></trkpt>
   <trkpt lat="52.174483" lon="10.427776"><ele>89</ele></trkpt>
   <trkpt lat="52.174564" lon="10.4282"><ele>89</ele></trkpt>
   <trkpt lat="52.174618" lon="10.428407"><ele>89</ele></trkpt>
   <trkpt lat="52.174675" lon="10.4286"><ele>89</ele></trkpt>
   <trkpt lat="52.174806" lon="10.428954"><ele>89</ele></trkpt>
   <trkpt lat="52.174948" lon="10.429257"><ele>89</ele></trkpt>
   <trkpt lat="52.175112" lon="10.429541"><ele>88.75</ele></trkpt>
   <trkpt lat="52.175203" lon="10.429674"><ele>89</ele></trkpt>
   <trkpt lat="52.175387" lon="10.429905"><ele>89</ele></trkpt>
   <trkpt lat="52.17559" lon="10.430108"><ele>88.75</ele></trkpt>
   <trkpt lat="52.175828" lon="10.430289"><ele>89</ele></trkpt>
   <trkpt lat="52.176077" lon="10.430424"><ele>89</ele></trkpt>
   <trkpt lat="52.176326" lon="10.430511"><ele>88</ele></trkpt>
   <trkpt lat="52.176533" lon="10.430548"><ele>88</ele></trkpt>
   <trkpt lat="52.176699" lon="10.430555"><ele>88</ele></trkpt>
   <trkpt lat="52.176701" lon="10.430555"><ele>87.75</ele></trkpt>
  </trkseg>
 </trk>
</gpx>