<?xml version="1.0" encoding="UTF-8"?>
<!-- track-length = 32 filtered ascend = 0 plain-ascend = 0 cost=32 energy=0.0kwh time=3s -->
<gpx 
 xmlns="http://www.topografix.com/GPX/1/1" 
 xmlns:xsi="http://www.w3.org/2001/XMLSchema-instance" 
 xsi:schemaLocation="http://www.topografix.com/GPX/1/1 http://www.topografix.com/GPX/1/1/gpx.xsd" 
 version="1.1" 
 creator="BRouter-Web 0.18.1">
 <trk>
  <name>006 Lahti Weiche 618 - Lahti Weiche 614</name>
  <trkseg>
   <trkpt lat="60.97564" lon="25.671557"><ele>99</ele></trkpt>
   <trkpt lat="60.975613" lon="25.672136"><ele>99</ele></trkpt>
  </trkseg>
 </trk>
</gpx>