<?xml version="1.0" encoding="UTF-8"?>
<!-- track-length = 269 filtered ascend = 0 plain-ascend = -1 cost=269 energy=0.0kwh time=22s -->
<gpx 
 xmlns="http://www.topografix.com/GPX/1/1" 
 xmlns:xsi="http://www.w3.org/2001/XMLSchema-instance" 
 xsi:schemaLocation="http://www.topografix.com/GPX/1/1 http://www.topografix.com/GPX/1/1/gpx.xsd" 
 version="1.1" 
 creator="BRouter-Web 0.18.1">
 <trk>
  <name>006 Lahti Weiche 630 - Lahti Weiche 618</name>
  <trkseg>
   <trkpt lat="60.975858" lon="25.666635"><ele>101</ele></trkpt>
   <trkpt lat="60.975844" lon="25.667006"><ele>101</ele></trkpt>
   <trkpt lat="60.975695" lon="25.670308"><ele>99.5</ele></trkpt>
   <trkpt lat="60.975641" lon="25.671553"><ele>99.25</ele></trkpt>
   <trkpt lat="60.97564" lon="25.671557"><ele>99</ele></trkpt>
  </trkseg>
 </trk>
</gpx>