<?xml version="1.0" encoding="UTF-8"?>
<!-- track-length = 311 filtered ascend = 2 plain-ascend = 0 cost=311 energy=0.0kwh time=25s -->
<gpx 
 xmlns="http://www.topografix.com/GPX/1/1" 
 xmlns:xsi="http://www.w3.org/2001/XMLSchema-instance" 
 xsi:schemaLocation="http://www.topografix.com/GPX/1/1 http://www.topografix.com/GPX/1/1/gpx.xsd" 
 version="1.1" 
 creator="BRouter-Web 0.18.1">
 <trk>
  <name>006 Lahti (Gleis 4) - Lahti Weiche 644</name>
  <trkseg>
   <trkpt lat="60.976484" lon="25.658349"><ele>100.25</ele></trkpt>
   <trkpt lat="60.976483" lon="25.658699"><ele>98.25</ele></trkpt>
   <trkpt lat="60.976433" lon="25.660292"><ele>103</ele></trkpt>
   <trkpt lat="60.976374" lon="25.661642"><ele>103</ele></trkpt>
   <trkpt lat="60.976272" lon="25.663479"><ele>103</ele></trkpt>
   <trkpt lat="60.976251" lon="25.663793"><ele>102.25</ele></trkpt>
   <trkpt lat="60.97623" lon="25.664069"><ele>100.25</ele></trkpt>
  </trkseg>
 </trk>
</gpx>