<?xml version="1.0" encoding="UTF-8"?>
<!-- track-length = 193 filtered ascend = 1 plain-ascend = 2 cost=386 energy=0.0kwh time=15s -->
<gpx 
 xmlns="http://www.topografix.com/GPX/1/1" 
 xmlns:xsi="http://www.w3.org/2001/XMLSchema-instance" 
 xsi:schemaLocation="http://www.topografix.com/GPX/1/1 http://www.topografix.com/GPX/1/1/gpx.xsd" 
 version="1.1" 
 creator="BRouter-Web 0.18.1">
 <trk>
  <name>Dreieck Depo Krasňany Weiche Südwest-West - Abzweig Wendeschleife Stanica Vinohrady Nordost Weiche West</name>
  <trkseg>
   <trkpt lat="48.187573" lon="17.134934"><ele>139.25</ele></trkpt>
   <trkpt lat="48.187474" lon="17.134862"><ele>139.25</ele></trkpt>
   <trkpt lat="48.186383" lon="17.134052"><ele>140.25</ele></trkpt>
   <trkpt lat="48.186194" lon="17.133889"><ele>140.75</ele></trkpt>
   <trkpt lat="48.186036" lon="17.133727"><ele>141</ele></trkpt>
   <trkpt lat="48.186032" lon="17.133722"><ele>141</ele></trkpt>
  </trkseg>
 </trk>
</gpx>