<?xml version="1.0" encoding="UTF-8"?>
<!-- track-length = 64 filtered ascend = 0 plain-ascend = 0 cost=128 energy=0.0kwh time=5s -->
<gpx 
 xmlns="http://www.topografix.com/GPX/1/1" 
 xmlns:xsi="http://www.w3.org/2001/XMLSchema-instance" 
 xsi:schemaLocation="http://www.topografix.com/GPX/1/1 http://www.topografix.com/GPX/1/1/gpx.xsd" 
 version="1.1" 
 creator="BRouter-Web 0.18.1">
 <trk>
  <name>Dreieck Depo Krasňany Weiche Nordost-West - Dreieck Depo Krasňany Weiche Südwest-West</name>
  <trkseg>
   <trkpt lat="48.188073" lon="17.135326"><ele>139</ele></trkpt>
   <trkpt lat="48.188071" lon="17.135325"><ele>139</ele></trkpt>
   <trkpt lat="48.187983" lon="17.135252"><ele>139</ele></trkpt>
   <trkpt lat="48.187689" lon="17.135024"><ele>139</ele></trkpt>
   <trkpt lat="48.187575" lon="17.134935"><ele>139.25</ele></trkpt>
   <trkpt lat="48.187573" lon="17.134934"><ele>139.25</ele></trkpt>
  </trkseg>
 </trk>
</gpx>