<?xml version="1.0" encoding="UTF-8"?>
<!-- track-length = 472 filtered ascend = 0 plain-ascend = 0 cost=944 energy=0.0kwh time=38s -->
<gpx 
 xmlns="http://www.topografix.com/GPX/1/1" 
 xmlns:xsi="http://www.w3.org/2001/XMLSchema-instance" 
 xsi:schemaLocation="http://www.topografix.com/GPX/1/1 http://www.topografix.com/GPX/1/1/gpx.xsd" 
 version="1.1" 
 creator="BRouter-Web 0.18.1">
 <trk>
  <name>Mladá garda (Steig A) - Riazanská (Steig A)</name>
  <trkseg>
   <trkpt lat="48.177361" lon="17.128"><ele>141</ele></trkpt>
   <trkpt lat="48.177306" lon="17.12799"><ele>141</ele></trkpt>
   <trkpt lat="48.175871" lon="17.127723"><ele>141</ele></trkpt>
   <trkpt lat="48.175111" lon="17.127567"><ele>141</ele></trkpt>
   <trkpt lat="48.174706" lon="17.127504"><ele>141</ele></trkpt>
   <trkpt lat="48.17376" lon="17.127325"><ele>140</ele></trkpt>
   <trkpt lat="48.173151" lon="17.127203"><ele>140</ele></trkpt>
   <trkpt lat="48.173145" lon="17.127202"><ele>140</ele></trkpt>
  </trkseg>
 </trk>
</gpx>