<?xml version="1.0" encoding="UTF-8"?>
<!-- track-length = 596 filtered ascend = 0 plain-ascend = -3 cost=1192 energy=0.0kwh time=48s -->
<gpx 
 xmlns="http://www.topografix.com/GPX/1/1" 
 xmlns:xsi="http://www.w3.org/2001/XMLSchema-instance" 
 xsi:schemaLocation="http://www.topografix.com/GPX/1/1 http://www.topografix.com/GPX/1/1/gpx.xsd" 
 version="1.1" 
 creator="BRouter-Web 0.18.1">
 <trk>
  <name>Paavalinkirkko (Steig Ost) - Kumpulan kampus (Steig Süd)</name>
  <trkseg>
   <trkpt lat="60.198572" lon="24.96178"><ele>10</ele></trkpt>
   <trkpt lat="60.198577" lon="24.96178"><ele>10</ele></trkpt>
   <trkpt lat="60.198616" lon="24.961777"><ele>9.75</ele></trkpt>
   <trkpt lat="60.198837" lon="24.961779"><ele>9</ele></trkpt>
   <trkpt lat="60.198905" lon="24.96178"><ele>9</ele></trkpt>
   <trkpt lat="60.199217" lon="24.961819"><ele>9</ele></trkpt>
   <trkpt lat="60.199435" lon="24.961863"><ele>9</ele></trkpt>
   <trkpt lat="60.199748" lon="24.961952"><ele>8.75</ele></trkpt>
   <trkpt lat="60.20017" lon="24.96213"><ele>8.5</ele></trkpt>
   <trkpt lat="60.200354" lon="24.96222"><ele>8.5</ele></trkpt>
   <trkpt lat="60.200534" lon="24.962323"><ele>8.25</ele></trkpt>
   <trkpt lat="60.200771" lon="24.962484"><ele>8.25</ele></trkpt>
   <trkpt lat="60.201" lon="24.96266"><ele>8</ele></trkpt>
   <trkpt lat="60.201431" lon="24.963034"><ele>7.75</ele></trkpt>
   <trkpt lat="60.201886" lon="24.963518"><ele>8</ele></trkpt>
   <trkpt lat="60.202089" lon="24.963768"><ele>8</ele></trkpt>
   <trkpt lat="60.20219" lon="24.9639"><ele>7.75</ele></trkpt>
   <trkpt lat="60.202612" lon="24.9645"><ele>7</ele></trkpt>
   <trkpt lat="60.202882" lon="24.964851"><ele>7</ele></trkpt>
   <trkpt lat="60.202958" lon="24.964992"><ele>7.5</ele></trkpt>
   <trkpt lat="60.203013" lon="24.965186"><ele>7.75</ele></trkpt>
   <trkpt lat="60.20302" lon="24.965219"><ele>7.75</ele></trkpt>
   <trkpt lat="60.203032" lon="24.965308"><ele>7.75</ele></trkpt>
   <trkpt lat="60.20304" lon="24.965459"><ele>7.75</ele></trkpt>
   <trkpt lat="60.203039" lon="24.965521"><ele>7.75</ele></trkpt>
   <trkpt lat="60.203008" lon="24.966034"><ele>6.75</ele></trkpt>
   <trkpt lat="60.203008" lon="24.966119"><ele>6.5</ele></trkpt>
  </trkseg>
 </trk>
</gpx>