<?xml version="1.0" encoding="UTF-8"?>
<!-- track-length = 109 filtered ascend = 0 plain-ascend = -1 cost=218 energy=0.0kwh time=9s -->
<gpx 
 xmlns="http://www.topografix.com/GPX/1/1" 
 xmlns:xsi="http://www.w3.org/2001/XMLSchema-instance" 
 xsi:schemaLocation="http://www.topografix.com/GPX/1/1 http://www.topografix.com/GPX/1/1/gpx.xsd" 
 version="1.1" 
 creator="BRouter-Web 0.18.1">
 <trk>
  <name>Töölöntulli (Steig West-Süd) - Abzweig Töölöntulli Weiche Südwest</name>
  <trkseg>
   <trkpt lat="60.191134" lon="24.911594"><ele>16.75</ele></trkpt>
   <trkpt lat="60.191131" lon="24.911794"><ele>16.5</ele></trkpt>
   <trkpt lat="60.191127" lon="24.911969"><ele>16</ele></trkpt>
   <trkpt lat="60.191127" lon="24.912"><ele>16</ele></trkpt>
   <trkpt lat="60.191113" lon="24.912685"><ele>15</ele></trkpt>
   <trkpt lat="60.19111" lon="24.912752"><ele>15</ele></trkpt>
   <trkpt lat="60.191107" lon="24.912907"><ele>15</ele></trkpt>
   <trkpt lat="60.191101" lon="24.913048"><ele>15</ele></trkpt>
   <trkpt lat="60.191087" lon="24.913149"><ele>15</ele></trkpt>
   <trkpt lat="60.191068" lon="24.913232"><ele>15</ele></trkpt>
   <trkpt lat="60.191039" lon="24.913324"><ele>15</ele></trkpt>
   <trkpt lat="60.19099" lon="24.913444"><ele>15</ele></trkpt>
   <trkpt lat="60.19099" lon="24.913442"><ele>15</ele></trkpt>
  </trkseg>
 </trk>
</gpx>