<?xml version="1.0" encoding="UTF-8"?>
<!-- track-length = 365 filtered ascend = 0 plain-ascend = -15 cost=730 energy=0.0kwh time=29s -->
<gpx 
 xmlns="http://www.topografix.com/GPX/1/1" 
 xmlns:xsi="http://www.w3.org/2001/XMLSchema-instance" 
 xsi:schemaLocation="http://www.topografix.com/GPX/1/1 http://www.topografix.com/GPX/1/1/gpx.xsd" 
 version="1.1" 
 creator="BRouter-Web 0.18.1">
 <trk>
  <name>Adamstuen (Steig Nordwest) - Stensgata (Steig Nordwest)</name>
  <trkseg>
   <trkpt lat="59.932642" lon="10.734669"><ele>66.75</ele></trkpt>
   <trkpt lat="59.932537" lon="10.734613"><ele>67</ele></trkpt>
   <trkpt lat="59.932414" lon="10.734552"><ele>66.5</ele></trkpt>
   <trkpt lat="59.932362" lon="10.734527"><ele>66.5</ele></trkpt>
   <trkpt lat="59.932303" lon="10.734497"><ele>66.25</ele></trkpt>
   <trkpt lat="59.932245" lon="10.734466"><ele>66</ele></trkpt>
   <trkpt lat="59.931231" lon="10.733909"><ele>60.75</ele></trkpt>
   <trkpt lat="59.931177" lon="10.733878"><ele>60.25</ele></trkpt>
   <trkpt lat="59.931113" lon="10.733843"><ele>60</ele></trkpt>
   <trkpt lat="59.930251" lon="10.733372"><ele>55</ele></trkpt>
   <trkpt lat="59.929579" lon="10.733008"><ele>51.25</ele></trkpt>
   <trkpt lat="59.929482" lon="10.732954"><ele>50.5</ele></trkpt>
  </trkseg>
 </trk>
</gpx>