<?xml version="1.0" encoding="UTF-8"?>
<!-- track-length = 69 filtered ascend = 0 plain-ascend = 0 cost=138 energy=0.0kwh time=6s -->
<gpx 
 xmlns="http://www.topografix.com/GPX/1/1" 
 xmlns:xsi="http://www.w3.org/2001/XMLSchema-instance" 
 xsi:schemaLocation="http://www.topografix.com/GPX/1/1 http://www.topografix.com/GPX/1/1/gpx.xsd" 
 version="1.1" 
 creator="BRouter-Web 0.18.1">
 <trk>
  <name>Bislett (Steig A) - Abzweig Pilestredet/Josefines gate Weiche West</name>
  <trkseg>
   <trkpt lat="59.925874" lon="10.730997"><ele>40.75</ele></trkpt>
   <trkpt lat="59.925779" lon="10.730945"><ele>40.75</ele></trkpt>
   <trkpt lat="59.925651" lon="10.730888"><ele>40.25</ele></trkpt>
   <trkpt lat="59.925451" lon="10.730831"><ele>40</ele></trkpt>
   <trkpt lat="59.925297" lon="10.73081"><ele>40</ele></trkpt>
   <trkpt lat="59.925269" lon="10.730809"><ele>39.75</ele></trkpt>
  </trkseg>
 </trk>
</gpx>