<?xml version="1.0" encoding="UTF-8"?>
<!-- track-length = 417 filtered ascend = 0 plain-ascend = -9 cost=834 energy=0.0kwh time=33s -->
<gpx 
 xmlns="http://www.topografix.com/GPX/1/1" 
 xmlns:xsi="http://www.w3.org/2001/XMLSchema-instance" 
 xsi:schemaLocation="http://www.topografix.com/GPX/1/1 http://www.topografix.com/GPX/1/1/gpx.xsd" 
 version="1.1" 
 creator="BRouter-Web 0.18.1">
 <trk>
  <name>Stensgata (Steig Nordwest) - Bislett (Steig A)</name>
  <trkseg>
   <trkpt lat="59.929482" lon="10.732954"><ele>50.75</ele></trkpt>
   <trkpt lat="59.929391" lon="10.732903"><ele>50.5</ele></trkpt>
   <trkpt lat="59.92932" lon="10.732865"><ele>50</ele></trkpt>
   <trkpt lat="59.927768" lon="10.732023"><ele>44.75</ele></trkpt>
   <trkpt lat="59.927335" lon="10.731788"><ele>44</ele></trkpt>
   <trkpt lat="59.927253" lon="10.731746"><ele>44</ele></trkpt>
   <trkpt lat="59.927168" lon="10.731703"><ele>43.75</ele></trkpt>
   <trkpt lat="59.925983" lon="10.731056"><ele>41</ele></trkpt>
   <trkpt lat="59.925873" lon="10.730996"><ele>40.75</ele></trkpt>
  </trkseg>
 </trk>
</gpx>