<?xml version="1.0" encoding="UTF-8"?>
<!-- track-length = 402 filtered ascend = 0 plain-ascend = -9 cost=804 energy=0.0kwh time=32s -->
<gpx 
 xmlns="http://www.topografix.com/GPX/1/1" 
 xmlns:xsi="http://www.w3.org/2001/XMLSchema-instance" 
 xsi:schemaLocation="http://www.topografix.com/GPX/1/1 http://www.topografix.com/GPX/1/1/gpx.xsd" 
 version="1.1" 
 creator="BRouter-Web 0.18.1">
 <trk>
  <name>Ullevål sykehus (Steig Südwest) - Üst Adamstuen Weiche Südwest</name>
  <trkseg>
   <trkpt lat="59.936141" lon="10.732092"><ele>76.25</ele></trkpt>
   <trkpt lat="59.936081" lon="10.732178"><ele>76</ele></trkpt>
   <trkpt lat="59.936011" lon="10.732275"><ele>76</ele></trkpt>
   <trkpt lat="59.935911" lon="10.732415"><ele>76</ele></trkpt>
   <trkpt lat="59.93585" lon="10.7325"><ele>76</ele></trkpt>
   <trkpt lat="59.93462" lon="10.73421"><ele>69.75</ele></trkpt>
   <trkpt lat="59.934573" lon="10.734275"><ele>69.75</ele></trkpt>
   <trkpt lat="59.934004" lon="10.735073"><ele>68.25</ele></trkpt>
   <trkpt lat="59.933892" lon="10.735195"><ele>68</ele></trkpt>
   <trkpt lat="59.933792" lon="10.735242"><ele>67.5</ele></trkpt>
   <trkpt lat="59.933769" lon="10.735245"><ele>67.5</ele></trkpt>
   <trkpt lat="59.933735" lon="10.735247"><ele>67.5</ele></trkpt>
   <trkpt lat="59.933651" lon="10.735225"><ele>67.25</ele></trkpt>
   <trkpt lat="59.933044" lon="10.73489"><ele>67</ele></trkpt>
   <trkpt lat="59.933041" lon="10.734888"><ele>66.75</ele></trkpt>
  </trkseg>
 </trk>
</gpx>