<?xml version="1.0" encoding="UTF-8"?>
<!-- track-length = 46 filtered ascend = 0 plain-ascend = 0 cost=92 energy=0.0kwh time=4s -->
<gpx 
 xmlns="http://www.topografix.com/GPX/1/1" 
 xmlns:xsi="http://www.w3.org/2001/XMLSchema-instance" 
 xsi:schemaLocation="http://www.topografix.com/GPX/1/1 http://www.topografix.com/GPX/1/1/gpx.xsd" 
 version="1.1" 
 creator="BRouter-Web 0.18.1">
 <trk>
  <name>Üst Adamstuen Weiche Südwest - Adamstuen (Steig Nordwest)</name>
  <trkseg>
   <trkpt lat="59.933041" lon="10.734888"><ele>66.75</ele></trkpt>
   <trkpt lat="59.93277" lon="10.734738"><ele>66.75</ele></trkpt>
   <trkpt lat="59.932762" lon="10.734734"><ele>66.75</ele></trkpt>
   <trkpt lat="59.932642" lon="10.734669"><ele>67</ele></trkpt>
  </trkseg>
 </trk>
</gpx>