<?xml version="1.0" encoding="UTF-8"?>
<!-- track-length = 452 filtered ascend = 0 plain-ascend = 0 cost=904 energy=0.0kwh time=36s -->
<gpx 
 xmlns="http://www.topografix.com/GPX/1/1" 
 xmlns:xsi="http://www.w3.org/2001/XMLSchema-instance" 
 xsi:schemaLocation="http://www.topografix.com/GPX/1/1 http://www.topografix.com/GPX/1/1/gpx.xsd" 
 version="1.1" 
 creator="BRouter-Web 0.18.1">
 <trk>
  <name>Cenisio M5 (Steig Süd) - Kreuz Cimitiero Monumentale Weiche Nordwest-nach-Ost-Nordwest</name>
  <trkseg>
   <trkpt lat="45.487431" lon="9.173376"><ele>125</ele></trkpt>
   <trkpt lat="45.487421" lon="9.173779"><ele>125</ele></trkpt>
   <trkpt lat="45.487401" lon="9.173991"><ele>125</ele></trkpt>
   <trkpt lat="45.487375" lon="9.174133"><ele>125</ele></trkpt>
   <trkpt lat="45.487338" lon="9.174286"><ele>125</ele></trkpt>
   <trkpt lat="45.487284" lon="9.174451"><ele>124.75</ele></trkpt>
   <trkpt lat="45.48723" lon="9.174574"><ele>124.75</ele></trkpt>
   <trkpt lat="45.48717" lon="9.174678"><ele>125</ele></trkpt>
   <trkpt lat="45.487086" lon="9.174783"><ele>125</ele></trkpt>
   <trkpt lat="45.486989" lon="9.174873"><ele>125</ele></trkpt>
   <trkpt lat="45.486715" lon="9.175075"><ele>125</ele></trkpt>
   <trkpt lat="45.484966" lon="9.176367"><ele>125</ele></trkpt>
   <trkpt lat="45.484851" lon="9.176471"><ele>124.75</ele></trkpt>
   <trkpt lat="45.484789" lon="9.176545"><ele>124.5</ele></trkpt>
   <trkpt lat="45.484725" lon="9.176633"><ele>124</ele></trkpt>
   <trkpt lat="45.484644" lon="9.176763"><ele>124.25</ele></trkpt>
   <trkpt lat="45.484607" lon="9.176816"><ele>124.5</ele></trkpt>
   <trkpt lat="45.484529" lon="9.176902"><ele>124.75</ele></trkpt>
  </trkseg>
 </trk>
</gpx>