<?xml version="1.0" encoding="UTF-8"?>
<!-- track-length = 33 filtered ascend = 0 plain-ascend = 0 cost=66 energy=0.0kwh time=3s -->
<gpx 
 xmlns="http://www.topografix.com/GPX/1/1" 
 xmlns:xsi="http://www.w3.org/2001/XMLSchema-instance" 
 xsi:schemaLocation="http://www.topografix.com/GPX/1/1 http://www.topografix.com/GPX/1/1/gpx.xsd" 
 version="1.1" 
 creator="BRouter-Web 0.18.1">
 <trk>
  <name>Dreieck Cenisio Weiche Ost-Süd - Cenisio M5 (Steig Süd)</name>
  <trkseg>
   <trkpt lat="45.487442" lon="9.172954"><ele>125</ele></trkpt>
   <trkpt lat="45.487436" lon="9.173209"><ele>125</ele></trkpt>
   <trkpt lat="45.487431" lon="9.173376"><ele>125</ele></trkpt>
  </trkseg>
 </trk>
</gpx>