<?xml version="1.0" encoding="UTF-8"?>
<!-- track-length = 128 filtered ascend = 0 plain-ascend = 0 cost=256 energy=0.0kwh time=10s -->
<gpx 
 xmlns="http://www.topografix.com/GPX/1/1" 
 xmlns:xsi="http://www.w3.org/2001/XMLSchema-instance" 
 xsi:schemaLocation="http://www.topografix.com/GPX/1/1 http://www.topografix.com/GPX/1/1/gpx.xsd" 
 version="1.1" 
 creator="BRouter-Web 0.18.1">
 <trk>
  <name>Dreieck Dahlienweg Weiche 78 - Dreieck Dahlienweg Weiche West-Nord</name>
  <trkseg>
   <trkpt lat="51.044825" lon="13.67979"><ele>141.5</ele></trkpt>
   <trkpt lat="51.044828" lon="13.67979"><ele>141.5</ele></trkpt>
   <trkpt lat="51.044945" lon="13.679766"><ele>141</ele></trkpt>
   <trkpt lat="51.045044" lon="13.679729"><ele>140.75</ele></trkpt>
   <trkpt lat="51.045142" lon="13.679659"><ele>140.5</ele></trkpt>
   <trkpt lat="51.045211" lon="13.679583"><ele>140.25</ele></trkpt>
   <trkpt lat="51.045287" lon="13.679477"><ele>139.75</ele></trkpt>
   <trkpt lat="51.045349" lon="13.679336"><ele>139.5</ele></trkpt>
   <trkpt lat="51.045375" lon="13.67924"><ele>139.5</ele></trkpt>
   <trkpt lat="51.045399" lon="13.679098"><ele>139.5</ele></trkpt>
   <trkpt lat="51.045407" lon="13.678983"><ele>139.5</ele></trkpt>
   <trkpt lat="51.04541" lon="13.678842"><ele>139.5</ele></trkpt>
   <trkpt lat="51.045396" lon="13.678513"><ele>140.25</ele></trkpt>
   <trkpt lat="51.045395" lon="13.678509"><ele>141</ele></trkpt>
  </trkseg>
 </trk>
</gpx>