<?xml version="1.0" encoding="UTF-8"?>
<!-- track-length = 13 filtered ascend = 3 plain-ascend = 3 cost=26 energy=0.0kwh time=1s -->
<gpx 
 xmlns="http://www.topografix.com/GPX/1/1" 
 xmlns:xsi="http://www.w3.org/2001/XMLSchema-instance" 
 xsi:schemaLocation="http://www.topografix.com/GPX/1/1 http://www.topografix.com/GPX/1/1/gpx.xsd" 
 version="1.1" 
 creator="BRouter-Web 0.18.1">
 <trk>
  <name>Üst Amalie-Dietrich-Platz Ost Weiche Nordwest - Üst Amalie-Dietrich-Platz West Weiche Nordost</name>
  <trkseg>
   <trkpt lat="51.045226" lon="13.676814"><ele>143.5</ele></trkpt>
   <trkpt lat="51.04521" lon="13.67665"><ele>145</ele></trkpt>
   <trkpt lat="51.045209" lon="13.676648"><ele>146.5</ele></trkpt>
  </trkseg>
 </trk>
</gpx>