<?xml version="1.0" encoding="UTF-8"?>
<!-- track-length = 495 filtered ascend = 22 plain-ascend = 22 cost=990 energy=0.0kwh time=40s -->
<gpx 
 xmlns="http://www.topografix.com/GPX/1/1" 
 xmlns:xsi="http://www.w3.org/2001/XMLSchema-instance" 
 xsi:schemaLocation="http://www.topografix.com/GPX/1/1 http://www.topografix.com/GPX/1/1/gpx.xsd" 
 version="1.1" 
 creator="BRouter-Web 0.18.1">
 <trk>
  <name>Üst Amalie-Dietrich-Platz West Weiche Nordost - Merianplatz (Steig 2)</name>
  <trkseg>
   <trkpt lat="51.045209" lon="13.676648"><ele>145</ele></trkpt>
   <trkpt lat="51.045162" lon="13.676156"><ele>146.5</ele></trkpt>
   <trkpt lat="51.044858" lon="13.673104"><ele>154.75</ele></trkpt>
   <trkpt lat="51.044607" lon="13.670564"><ele>164.75</ele></trkpt>
   <trkpt lat="51.044539" lon="13.669869"><ele>167</ele></trkpt>
   <trkpt lat="51.044519" lon="13.669671"><ele>167.25</ele></trkpt>
  </trkseg>
 </trk>
</gpx>