<?xml version="1.0" encoding="UTF-8"?>
<!-- track-length = 21 filtered ascend = 0 plain-ascend = 1 cost=42 energy=0.0kwh time=2s -->
<gpx 
 xmlns="http://www.topografix.com/GPX/1/1" 
 xmlns:xsi="http://www.w3.org/2001/XMLSchema-instance" 
 xsi:schemaLocation="http://www.topografix.com/GPX/1/1 http://www.topografix.com/GPX/1/1/gpx.xsd" 
 version="1.1" 
 creator="BRouter-Web 0.18.1">
 <trk>
  <name>Üst Gorbitz Betriebshof Nordost Weiche Südwest - Üst Gorbitz Betriebshof Südwest Weiche Nordost</name>
  <trkseg>
   <trkpt lat="51.047723" lon="13.654489"><ele>204</ele></trkpt>
   <trkpt lat="51.047612" lon="13.65424"><ele>204.75</ele></trkpt>
  </trkseg>
 </trk>
</gpx>