<?xml version="1.0" encoding="UTF-8"?>
<!-- track-length = 52 filtered ascend = 3 plain-ascend = 4 cost=104 energy=0.0kwh time=4s -->
<gpx 
 xmlns="http://www.topografix.com/GPX/1/1" 
 xmlns:xsi="http://www.w3.org/2001/XMLSchema-instance" 
 xsi:schemaLocation="http://www.topografix.com/GPX/1/1 http://www.topografix.com/GPX/1/1/gpx.xsd" 
 version="1.1" 
 creator="BRouter-Web 0.18.1">
 <trk>
  <name>Dreieck Liisankatu Weiche Südwest-Ost - Dreieck Liisankatu Weiche Ost-Süd</name>
  <trkseg>
   <trkpt lat="60.17387" lon="24.949886"><ele>6</ele></trkpt>
   <trkpt lat="60.173872" lon="24.949889"><ele>6</ele></trkpt>
   <trkpt lat="60.173941" lon="24.949989"><ele>5.75</ele></trkpt>
   <trkpt lat="60.173975" lon="24.950076"><ele>5.75</ele></trkpt>
   <trkpt lat="60.173994" lon="24.950166"><ele>6</ele></trkpt>
   <trkpt lat="60.174001" lon="24.950268"><ele>6.5</ele></trkpt>
   <trkpt lat="60.174004" lon="24.950359"><ele>6.75</ele></trkpt>
   <trkpt lat="60.174011" lon="24.950555"><ele>7</ele></trkpt>
   <trkpt lat="60.174014" lon="24.950695"><ele>8</ele></trkpt>
   <trkpt lat="60.174014" lon="24.950698"><ele>9.75</ele></trkpt>
  </trkseg>
 </trk>
</gpx>