<?xml version="1.0" encoding="UTF-8"?>
<!-- track-length = 90 filtered ascend = 2 plain-ascend = 2 cost=180 energy=0.0kwh time=7s -->
<gpx 
 xmlns="http://www.topografix.com/GPX/1/1" 
 xmlns:xsi="http://www.w3.org/2001/XMLSchema-instance" 
 xsi:schemaLocation="http://www.topografix.com/GPX/1/1 http://www.topografix.com/GPX/1/1/gpx.xsd" 
 version="1.1" 
 creator="BRouter-Web 0.18.1">
 <trk>
  <name>Dreieck Liisankatu Weiche Ost-Süd - Snellmaninkatu (Steig Süd)</name>
  <trkseg>
   <trkpt lat="60.174014" lon="24.9507"><ele>8</ele></trkpt>
   <trkpt lat="60.174038" lon="24.951714"><ele>9.75</ele></trkpt>
   <trkpt lat="60.174038" lon="24.951931"><ele>10.25</ele></trkpt>
   <trkpt lat="60.17405" lon="24.952324"><ele>9.5</ele></trkpt>
  </trkseg>
 </trk>
</gpx>