<?xml version="1.0" encoding="UTF-8"?>
<!-- track-length = 56 filtered ascend = 4 plain-ascend = 5 cost=114 energy=0.0kwh time=5s -->
<gpx 
 xmlns="http://www.topografix.com/GPX/1/1" 
 xmlns:xsi="http://www.w3.org/2001/XMLSchema-instance" 
 xsi:schemaLocation="http://www.topografix.com/GPX/1/1 http://www.topografix.com/GPX/1/1/gpx.xsd" 
 version="1.1" 
 creator="BRouter-Web 0.18.1">
 <trk>
  <name>Dreieck Liisankatu Weiche Nordost-West - Dreieck Liisankatu Weiche Ost-Süd</name>
  <trkseg>
   <trkpt lat="60.174357" lon="24.950266"><ele>5</ele></trkpt>
   <trkpt lat="60.174333" lon="24.950254"><ele>5.25</ele></trkpt>
   <trkpt lat="60.174276" lon="24.950229"><ele>5.25</ele></trkpt>
   <trkpt lat="60.174208" lon="24.950225"><ele>5.5</ele></trkpt>
   <trkpt lat="60.174143" lon="24.950254"><ele>5.75</ele></trkpt>
   <trkpt lat="60.174091" lon="24.950319"><ele>6.25</ele></trkpt>
   <trkpt lat="60.174058" lon="24.95039"><ele>6.5</ele></trkpt>
   <trkpt lat="60.174033" lon="24.950479"><ele>6.75</ele></trkpt>
   <trkpt lat="60.174024" lon="24.950534"><ele>6.75</ele></trkpt>
   <trkpt lat="60.17402" lon="24.950558"><ele>7</ele></trkpt>
   <trkpt lat="60.174014" lon="24.950695"><ele>8</ele></trkpt>
   <trkpt lat="60.174014" lon="24.9507"><ele>9.75</ele></trkpt>
  </trkseg>
 </trk>
</gpx>