<?xml version="1.0" encoding="UTF-8"?>
<!-- track-length = 85 filtered ascend = 0 plain-ascend = -2 cost=170 energy=0.0kwh time=7s -->
<gpx 
 xmlns="http://www.topografix.com/GPX/1/1" 
 xmlns:xsi="http://www.w3.org/2001/XMLSchema-instance" 
 xsi:schemaLocation="http://www.topografix.com/GPX/1/1 http://www.topografix.com/GPX/1/1/gpx.xsd" 
 version="1.1" 
 creator="BRouter-Web 0.18.1">
 <trk>
  <name>Hallituskatu (Steig West) - Kreuz Senaatintori Weiche Nord-nach-West-oder-Ost</name>
  <trkseg>
   <trkpt lat="60.170116" lon="24.9535"><ele>9</ele></trkpt>
   <trkpt lat="60.170059" lon="24.953509"><ele>9</ele></trkpt>
   <trkpt lat="60.169919" lon="24.953527"><ele>8.5</ele></trkpt>
   <trkpt lat="60.169833" lon="24.953517"><ele>8.25</ele></trkpt>
   <trkpt lat="60.169807" lon="24.953507"><ele>8.25</ele></trkpt>
   <trkpt lat="60.169657" lon="24.953435"><ele>7.5</ele></trkpt>
   <trkpt lat="60.169582" lon="24.953423"><ele>7</ele></trkpt>
   <trkpt lat="60.169359" lon="24.953434"><ele>5.75</ele></trkpt>
  </trkseg>
 </trk>
</gpx>