<?xml version="1.0" encoding="UTF-8"?>
<!-- track-length = 204 filtered ascend = 0 plain-ascend = -3 cost=408 energy=0.0kwh time=16s -->
<gpx 
 xmlns="http://www.topografix.com/GPX/1/1" 
 xmlns:xsi="http://www.w3.org/2001/XMLSchema-instance" 
 xsi:schemaLocation="http://www.topografix.com/GPX/1/1 http://www.topografix.com/GPX/1/1/gpx.xsd" 
 version="1.1" 
 creator="BRouter-Web 0.18.1">
 <trk>
  <name>Kansallisarkisto (Steig West) - Hallituskatu (Steig West)</name>
  <trkseg>
   <trkpt lat="60.171941" lon="24.953249"><ele>12.75</ele></trkpt>
   <trkpt lat="60.171866" lon="24.953257"><ele>13.25</ele></trkpt>
   <trkpt lat="60.17161" lon="24.953336"><ele>12.75</ele></trkpt>
   <trkpt lat="60.171555" lon="24.953342"><ele>12.5</ele></trkpt>
   <trkpt lat="60.171505" lon="24.953348"><ele>12.25</ele></trkpt>
   <trkpt lat="60.171456" lon="24.953353"><ele>12</ele></trkpt>
   <trkpt lat="60.170952" lon="24.953405"><ele>10.25</ele></trkpt>
   <trkpt lat="60.170909" lon="24.95341"><ele>10</ele></trkpt>
   <trkpt lat="60.170849" lon="24.953414"><ele>9.75</ele></trkpt>
   <trkpt lat="60.170787" lon="24.953419"><ele>9.5</ele></trkpt>
   <trkpt lat="60.170169" lon="24.953493"><ele>9</ele></trkpt>
   <trkpt lat="60.170116" lon="24.9535"><ele>9</ele></trkpt>
  </trkseg>
 </trk>
</gpx>