<?xml version="1.0" encoding="UTF-8"?>
<!-- track-length = 43 filtered ascend = 0 plain-ascend = 0 cost=86 energy=0.0kwh time=3s -->
<gpx 
 xmlns="http://www.topografix.com/GPX/1/1" 
 xmlns:xsi="http://www.w3.org/2001/XMLSchema-instance" 
 xsi:schemaLocation="http://www.topografix.com/GPX/1/1 http://www.topografix.com/GPX/1/1/gpx.xsd" 
 version="1.1" 
 creator="BRouter-Web 0.18.1">
 <trk>
  <name>Kreuz Náměstí Hrdinů Weiche 15 - Kreuz Náměstí Hrdinů Weiche 29</name>
  <trkseg>
   <trkpt lat="49.595639" lon="17.247553"><ele>215</ele></trkpt>
   <trkpt lat="49.595639" lon="17.247554"><ele>215</ele></trkpt>
   <trkpt lat="49.595661" lon="17.2474"><ele>215</ele></trkpt>
   <trkpt lat="49.595668" lon="17.247352"><ele>215</ele></trkpt>
   <trkpt lat="49.595674" lon="17.247323"><ele>215</ele></trkpt>
   <trkpt lat="49.595679" lon="17.24728"><ele>215</ele></trkpt>
   <trkpt lat="49.595692" lon="17.247195"><ele>215</ele></trkpt>
   <trkpt lat="49.595712" lon="17.247052"><ele>215</ele></trkpt>
   <trkpt lat="49.595714" lon="17.247035"><ele>215</ele></trkpt>
   <trkpt lat="49.59572" lon="17.246997"><ele>215</ele></trkpt>
   <trkpt lat="49.59572" lon="17.246996"><ele>215</ele></trkpt>
  </trkseg>
 </trk>
</gpx>