<?xml version="1.0" encoding="UTF-8"?>
<!-- track-length = 81 filtered ascend = 0 plain-ascend = 0 cost=162 energy=0.0kwh time=6s -->
<gpx 
 xmlns="http://www.topografix.com/GPX/1/1" 
 xmlns:xsi="http://www.w3.org/2001/XMLSchema-instance" 
 xsi:schemaLocation="http://www.topografix.com/GPX/1/1 http://www.topografix.com/GPX/1/1/gpx.xsd" 
 version="1.1" 
 creator="BRouter-Web 0.18.1">
 <trk>
  <name>Kreuz Náměstí Hrdinů Weiche 28 - Palackého (Steig D)</name>
  <trkseg>
   <trkpt lat="49.595746" lon="17.24681"><ele>215</ele></trkpt>
   <trkpt lat="49.595754" lon="17.246758"><ele>215</ele></trkpt>
   <trkpt lat="49.595905" lon="17.245717"><ele>215</ele></trkpt>
  </trkseg>
 </trk>
</gpx>