<?xml version="1.0" encoding="UTF-8"?>
<!-- track-length = 306 filtered ascend = 2 plain-ascend = 2 cost=612 energy=0.0kwh time=24s -->
<gpx 
 xmlns="http://www.topografix.com/GPX/1/1" 
 xmlns:xsi="http://www.w3.org/2001/XMLSchema-instance" 
 xsi:schemaLocation="http://www.topografix.com/GPX/1/1 http://www.topografix.com/GPX/1/1/gpx.xsd" 
 version="1.1" 
 creator="BRouter-Web 0.18.1">
 <trk>
  <name>Palackého (Steig D) - Nádraží Město (Steig Nordwest)</name>
  <trkseg>
   <trkpt lat="49.595905" lon="17.245717"><ele>215</ele></trkpt>
   <trkpt lat="49.595908" lon="17.245698"><ele>215</ele></trkpt>
   <trkpt lat="49.595931" lon="17.245439"><ele>215.5</ele></trkpt>
   <trkpt lat="49.595932" lon="17.245194"><ele>216</ele></trkpt>
   <trkpt lat="49.595918" lon="17.245"><ele>216</ele></trkpt>
   <trkpt lat="49.5959" lon="17.244836"><ele>216</ele></trkpt>
   <trkpt lat="49.595867" lon="17.244643"><ele>216</ele></trkpt>
   <trkpt lat="49.595796" lon="17.244354"><ele>216</ele></trkpt>
   <trkpt lat="49.595776" lon="17.244267"><ele>216.25</ele></trkpt>
   <trkpt lat="49.595579" lon="17.243434"><ele>216.75</ele></trkpt>
   <trkpt lat="49.595393" lon="17.242653"><ele>217</ele></trkpt>
   <trkpt lat="49.595166" lon="17.24169"><ele>217</ele></trkpt>
   <trkpt lat="49.595165" lon="17.241686"><ele>217</ele></trkpt>
  </trkseg>
 </trk>
</gpx>