<?xml version="1.0" encoding="UTF-8"?>
<!-- track-length = 225 filtered ascend = 2 plain-ascend = 2 cost=450 energy=0.0kwh time=18s -->
<gpx 
 xmlns="http://www.topografix.com/GPX/1/1" 
 xmlns:xsi="http://www.w3.org/2001/XMLSchema-instance" 
 xsi:schemaLocation="http://www.topografix.com/GPX/1/1 http://www.topografix.com/GPX/1/1/gpx.xsd" 
 version="1.1" 
 creator="BRouter-Web 0.18.1">
 <trk>
  <name>Pražská (Steig Nord) - U Kovárny (Steig Nord)</name>
  <trkseg>
   <trkpt lat="49.596556" lon="17.231023"><ele>226</ele></trkpt>
   <trkpt lat="49.596531" lon="17.229932"><ele>227</ele></trkpt>
   <trkpt lat="49.596529" lon="17.22982"><ele>227</ele></trkpt>
   <trkpt lat="49.59649" lon="17.227946"><ele>228</ele></trkpt>
   <trkpt lat="49.596489" lon="17.227921"><ele>228</ele></trkpt>
  </trkseg>
 </trk>
</gpx>