<?xml version="1.0" encoding="UTF-8"?>
<!-- track-length = 418 filtered ascend = 11 plain-ascend = 11 cost=836 energy=0.0kwh time=33s -->
<gpx 
 xmlns="http://www.topografix.com/GPX/1/1" 
 xmlns:xsi="http://www.w3.org/2001/XMLSchema-instance" 
 xsi:schemaLocation="http://www.topografix.com/GPX/1/1 http://www.topografix.com/GPX/1/1/gpx.xsd" 
 version="1.1" 
 creator="BRouter-Web 0.18.1">
 <trk>
  <name>U Kovárny (Steig Nord) - Hřbitovy (Steig Nord)</name>
  <trkseg>
   <trkpt lat="49.596489" lon="17.227921"><ele>228</ele></trkpt>
   <trkpt lat="49.596489" lon="17.227888"><ele>228</ele></trkpt>
   <trkpt lat="49.596488" lon="17.227855"><ele>228.25</ele></trkpt>
   <trkpt lat="49.596483" lon="17.227623"><ele>228.5</ele></trkpt>
   <trkpt lat="49.59648" lon="17.227551"><ele>228.75</ele></trkpt>
   <trkpt lat="49.596472" lon="17.227365"><ele>229</ele></trkpt>
   <trkpt lat="49.596421" lon="17.226748"><ele>229</ele></trkpt>
   <trkpt lat="49.596245" lon="17.225268"><ele>232.5</ele></trkpt>
   <trkpt lat="49.596125" lon="17.224264"><ele>234</ele></trkpt>
   <trkpt lat="49.59612" lon="17.224224"><ele>234</ele></trkpt>
   <trkpt lat="49.596096" lon="17.224026"><ele>234.5</ele></trkpt>
   <trkpt lat="49.596045" lon="17.223655"><ele>236</ele></trkpt>
   <trkpt lat="49.595929" lon="17.222863"><ele>238</ele></trkpt>
   <trkpt lat="49.595857" lon="17.222234"><ele>239</ele></trkpt>
   <trkpt lat="49.595855" lon="17.222218"><ele>239</ele></trkpt>
  </trkseg>
 </trk>
</gpx>