<?xml version="1.0" encoding="UTF-8"?>
<!-- track-length = 211 filtered ascend = 6 plain-ascend = 7 cost=422 energy=0.0kwh time=17s -->
<gpx 
 xmlns="http://www.topografix.com/GPX/1/1" 
 xmlns:xsi="http://www.w3.org/2001/XMLSchema-instance" 
 xsi:schemaLocation="http://www.topografix.com/GPX/1/1 http://www.topografix.com/GPX/1/1/gpx.xsd" 
 version="1.1" 
 creator="BRouter-Web 0.18.1">
 <trk>
  <name>Dreieck Knöllgasse Weiche Südwest-Nordwest - Davidgasse (Steig Nordwest)</name>
  <trkseg>
   <trkpt lat="48.177174" lon="16.357905"><ele>211.5</ele></trkpt>
   <trkpt lat="48.176971" lon="16.357743"><ele>212</ele></trkpt>
   <trkpt lat="48.176822" lon="16.357601"><ele>212.25</ele></trkpt>
   <trkpt lat="48.176082" lon="16.356887"><ele>215.25</ele></trkpt>
   <trkpt lat="48.175623" lon="16.356447"><ele>217.5</ele></trkpt>
   <trkpt lat="48.175576" lon="16.356401"><ele>218</ele></trkpt>
  </trkseg>
 </trk>
</gpx>