<?xml version="1.0" encoding="UTF-8"?>
<!-- track-length = 292 filtered ascend = 4 plain-ascend = 4 cost=584 energy=0.0kwh time=23s -->
<gpx 
 xmlns="http://www.topografix.com/GPX/1/1" 
 xmlns:xsi="http://www.w3.org/2001/XMLSchema-instance" 
 xsi:schemaLocation="http://www.topografix.com/GPX/1/1 http://www.topografix.com/GPX/1/1/gpx.xsd" 
 version="1.1" 
 creator="BRouter-Web 0.18.1">
 <trk>
  <name>Windtenstraße (Steig Nordwest) - Stefan-Fadinger-Platz Weiche 10-07/01</name>
  <trkseg>
   <trkpt lat="48.17063" lon="16.351645"><ele>236.5</ele></trkpt>
   <trkpt lat="48.170565" lon="16.351586"><ele>236.75</ele></trkpt>
   <trkpt lat="48.170532" lon="16.351564"><ele>237</ele></trkpt>
   <trkpt lat="48.170493" lon="16.35155"><ele>237.25</ele></trkpt>
   <trkpt lat="48.170423" lon="16.351552"><ele>237.5</ele></trkpt>
   <trkpt lat="48.170358" lon="16.351587"><ele>237.75</ele></trkpt>
   <trkpt lat="48.170305" lon="16.351647"><ele>237.75</ele></trkpt>
   <trkpt lat="48.169482" lon="16.353035"><ele>239.75</ele></trkpt>
   <trkpt lat="48.168984" lon="16.353848"><ele>240.75</ele></trkpt>
   <trkpt lat="48.168934" lon="16.353928"><ele>241</ele></trkpt>
   <trkpt lat="48.16878" lon="16.354174"><ele>240.75</ele></trkpt>
  </trkseg>
 </trk>
</gpx>