<?xml version="1.0" encoding="UTF-8"?>
<!-- track-length = 20 filtered ascend = 0 plain-ascend = 0 cost=40 energy=0.0kwh time=2s -->
<gpx 
 xmlns="http://www.topografix.com/GPX/1/1" 
 xmlns:xsi="http://www.w3.org/2001/XMLSchema-instance" 
 xsi:schemaLocation="http://www.topografix.com/GPX/1/1 http://www.topografix.com/GPX/1/1/gpx.xsd" 
 version="1.1" 
 creator="BRouter-Web 0.18.1">
 <trk>
  <name>Asemapäällikönkatu (Steig Südost-Nordost) - Dreieck Asemapäällikönkatu Weiche 56</name>
  <trkseg>
   <trkpt lat="60.198444" lon="24.940333"><ele>26.25</ele></trkpt>
   <trkpt lat="60.198545" lon="24.940285"><ele>26.25</ele></trkpt>
   <trkpt lat="60.198579" lon="24.940269"><ele>26</ele></trkpt>
   <trkpt lat="60.198601" lon="24.940258"><ele>26</ele></trkpt>
   <trkpt lat="60.198601" lon="24.940257"><ele>26</ele></trkpt>
  </trkseg>
 </trk>
</gpx>
