<?xml version="1.0" encoding="UTF-8"?>
<!-- track-length = 222 filtered ascend = 3 plain-ascend = 3 cost=444 energy=0.0kwh time=18s -->
<gpx 
 xmlns="http://www.topografix.com/GPX/1/1" 
 xmlns:xsi="http://www.w3.org/2001/XMLSchema-instance" 
 xsi:schemaLocation="http://www.topografix.com/GPX/1/1 http://www.topografix.com/GPX/1/1/gpx.xsd" 
 version="1.1" 
 creator="BRouter-Web 0.18.1">
 <trk>
  <name>Jämsänkatu (Steig Nord) - Asemapäällikönkatu (Steig Südost-Nordost)</name>
  <trkseg>
   <trkpt lat="60.196713" lon="24.941728"><ele>23.25</ele></trkpt>
   <trkpt lat="60.196714" lon="24.941492"><ele>23.25</ele></trkpt>
   <trkpt lat="60.19672" lon="24.941444"><ele>23.25</ele></trkpt>
   <trkpt lat="60.196737" lon="24.941358"><ele>23.25</ele></trkpt>
   <trkpt lat="60.196762" lon="24.941287"><ele>23.5</ele></trkpt>
   <trkpt lat="60.196825" lon="24.941186"><ele>23.5</ele></trkpt>
   <trkpt lat="60.196839" lon="24.941168"><ele>23.5</ele></trkpt>
   <trkpt lat="60.196887" lon="24.94113"><ele>23.75</ele></trkpt>
   <trkpt lat="60.197335" lon="24.940934"><ele>25.5</ele></trkpt>
   <trkpt lat="60.197474" lon="24.940873"><ele>26</ele></trkpt>
   <trkpt lat="60.197528" lon="24.940841"><ele>26</ele></trkpt>
   <trkpt lat="60.19798" lon="24.940559"><ele>26.5</ele></trkpt>
   <trkpt lat="60.198444" lon="24.940333"><ele>26.25</ele></trkpt>
  </trkseg>
 </trk>
</gpx>