<?xml version="1.0" encoding="UTF-8"?>
<!-- track-length = 346 filtered ascend = 2 plain-ascend = 2 cost=692 energy=0.0kwh time=28s -->
<gpx 
 xmlns="http://www.topografix.com/GPX/1/1" 
 xmlns:xsi="http://www.w3.org/2001/XMLSchema-instance" 
 xsi:schemaLocation="http://www.topografix.com/GPX/1/1 http://www.topografix.com/GPX/1/1/gpx.xsd" 
 version="1.1" 
 creator="BRouter-Web 0.18.1">
 <trk>
  <name>Sturenkatu (Steig Nordost) - Kotkankatu (Steig Nordost)</name>
  <trkseg>
   <trkpt lat="60.191061" lon="24.948387"><ele>16</ele></trkpt>
   <trkpt lat="60.191137" lon="24.948208"><ele>16</ele></trkpt>
   <trkpt lat="60.191182" lon="24.948102"><ele>16.25</ele></trkpt>
   <trkpt lat="60.19181" lon="24.946603"><ele>16.75</ele></trkpt>
   <trkpt lat="60.191921" lon="24.946332"><ele>16.25</ele></trkpt>
   <trkpt lat="60.191998" lon="24.946142"><ele>16.75</ele></trkpt>
   <trkpt lat="60.192009" lon="24.946115"><ele>16.75</ele></trkpt>
   <trkpt lat="60.192669" lon="24.944536"><ele>17</ele></trkpt>
   <trkpt lat="60.192791" lon="24.944248"><ele>17</ele></trkpt>
   <trkpt lat="60.192862" lon="24.94408"><ele>17</ele></trkpt>
   <trkpt lat="60.19288" lon="24.944036"><ele>17</ele></trkpt>
   <trkpt lat="60.193034" lon="24.943669"><ele>17.75</ele></trkpt>
   <trkpt lat="60.193056" lon="24.943616"><ele>18</ele></trkpt>
  </trkseg>
 </trk>
</gpx>