<?xml version="1.0" encoding="UTF-8"?>
<!-- track-length = 57 filtered ascend = 2 plain-ascend = 2 cost=114 energy=0.0kwh time=5s -->
<gpx 
 xmlns="http://www.topografix.com/GPX/1/1" 
 xmlns:xsi="http://www.w3.org/2001/XMLSchema-instance" 
 xsi:schemaLocation="http://www.topografix.com/GPX/1/1 http://www.topografix.com/GPX/1/1/gpx.xsd" 
 version="1.1" 
 creator="BRouter-Web 0.18.1">
 <trk>
  <name>Ylioppilastalo (Steig Ost-Nord) - Dreieck Ylioppilastalo Weiche Nordost-Nordwest</name>
  <trkseg>
   <trkpt lat="60.168828" lon="24.942094"><ele>4</ele></trkpt>
   <trkpt lat="60.168824" lon="24.941877"><ele>4.25</ele></trkpt>
   <trkpt lat="60.168815" lon="24.941753"><ele>4.75</ele></trkpt>
   <trkpt lat="60.16879" lon="24.94162"><ele>5</ele></trkpt>
   <trkpt lat="60.168636" lon="24.941189"><ele>5.5</ele></trkpt>
   <trkpt lat="60.168634" lon="24.941184"><ele>6</ele></trkpt>
  </trkseg>
 </trk>
</gpx>