<?xml version="1.0" encoding="UTF-8"?>
<!-- track-length = 62 filtered ascend = 0 plain-ascend = 0 cost=124 energy=0.0kwh time=5s -->
<gpx 
 xmlns="http://www.topografix.com/GPX/1/1" 
 xmlns:xsi="http://www.w3.org/2001/XMLSchema-instance" 
 xsi:schemaLocation="http://www.topografix.com/GPX/1/1 http://www.topografix.com/GPX/1/1/gpx.xsd" 
 version="1.1" 
 creator="BRouter-Web 0.18.1">
 <trk>
  <name>Kreuz Cimitiero Monumentale Weiche Nordwest-nach-Ost-Ost - Piazzale Cimitero Monumentale Via Brabante (Steig Südwest)</name>
  <trkseg>
   <trkpt lat="45.484319" lon="9.177718"><ele>124</ele></trkpt>
   <trkpt lat="45.484295" lon="9.177871"><ele>124</ele></trkpt>
   <trkpt lat="45.484285" lon="9.177939"><ele>124</ele></trkpt>
   <trkpt lat="45.484232" lon="9.178281"><ele>124</ele></trkpt>
   <trkpt lat="45.484207" lon="9.178492"><ele>124</ele></trkpt>
   <trkpt lat="45.484206" lon="9.178505"><ele>124</ele></trkpt>
  </trkseg>
 </trk>
</gpx>