<?xml version="1.0" encoding="UTF-8"?>
<!-- track-length = 55 filtered ascend = 0 plain-ascend = 0 cost=55 energy=0.0kwh time=4s -->
<gpx 
 xmlns="http://www.topografix.com/GPX/1/1" 
 xmlns:xsi="http://www.w3.org/2001/XMLSchema-instance" 
 xsi:schemaLocation="http://www.topografix.com/GPX/1/1 http://www.topografix.com/GPX/1/1/gpx.xsd" 
 version="1.1" 
 creator="BRouter-Web 99.71.0">
 <trk>
  <name>Junkersdorf Abzweig Schleife Weiche West - Junkersdorf (Steig 1)</name>
  <link href="https://brouter.damsy.net/latest/#map=19/50.93780/6.86809/standard&amp;lonlats=6.868256,50.937662;6.869047,50.937658&amp;nogos=6.781752,51.218852,6&amp;profile=rail">
   <text>BRouter-Web</text>
  </link>
  <trkseg>
   <trkpt lat="50.93766" lon="6.868255"><ele>61.75</ele></trkpt>
   <trkpt lat="50.937659" lon="6.868998"><ele>62</ele></trkpt>
   <trkpt lat="50.937658" lon="6.869047"><ele>62</ele></trkpt>
  </trkseg>
 </trk>
</gpx>