<?xml version="1.0" encoding="UTF-8"?>
<!-- track-length = 43 filtered ascend = 0 plain-ascend = 0 cost=43 energy=0.0kwh time=3s -->
<gpx 
 xmlns="http://www.topografix.com/GPX/1/1" 
 xmlns:xsi="http://www.w3.org/2001/XMLSchema-instance" 
 xsi:schemaLocation="http://www.topografix.com/GPX/1/1 http://www.topografix.com/GPX/1/1/gpx.xsd" 
 version="1.1" 
 creator="BRouter-Web 0.18.1">
 <trk>
  <name>Suomen Kirkonkellomuseon puistorautatie Kimonkylä</name>
  <trkseg>
   <trkpt lat="60.70686" lon="26.300366"><ele>28</ele></trkpt>
   <trkpt lat="60.706916" lon="26.300323"><ele>28</ele></trkpt>
   <trkpt lat="60.706977" lon="26.300236"><ele>28</ele></trkpt>
   <trkpt lat="60.707171" lon="26.299896"><ele>28</ele></trkpt>
  </trkseg>
 </trk>
</gpx>