<?xml version="1.0" encoding="UTF-8"?>
<!-- track-length = 5 filtered ascend = 0 plain-ascend = 0 cost=6 energy=0.0kwh time= -->
<gpx 
 xmlns="http://www.topografix.com/GPX/1/1" 
 xmlns:xsi="http://www.w3.org/2001/XMLSchema-instance" 
 xsi:schemaLocation="http://www.topografix.com/GPX/1/1 http://www.topografix.com/GPX/1/1/gpx.xsd" 
 version="1.1" 
 creator="BRouter-Web 0.18.1">
 <trk>
  <name>6208 Horka Gbf Weiche 41 - Horka Gbf Weiche 42</name>
  <trkseg>
   <trkpt lat="51.305295" lon="14.915092"><ele>165</ele></trkpt>
   <trkpt lat="51.305286" lon="14.915017"><ele>165</ele></trkpt>
  </trkseg>
 </trk>
</gpx>