<?xml version="1.0" encoding="UTF-8"?>
<!-- track-length = 1167 filtered ascend = 1 plain-ascend = 1 cost=1167 energy=0.0kwh time=1m 34s -->
<gpx 
 xmlns="http://www.topografix.com/GPX/1/1" 
 xmlns:xsi="http://www.w3.org/2001/XMLSchema-instance" 
 xsi:schemaLocation="http://www.topografix.com/GPX/1/1 http://www.topografix.com/GPX/1/1/gpx.xsd" 
 version="1.1" 
 creator="BRouter-Web 0.18.1">
 <trk>
  <name>6208 Horka Gbf Weiche 12 - Horka Gbf Weiche 41</name>
  <trkseg>
   <trkpt lat="51.30319" lon="14.931302"><ele>165.75</ele></trkpt>
   <trkpt lat="51.30319" lon="14.931304"><ele>165.75</ele></trkpt>
   <trkpt lat="51.303717" lon="14.928665"><ele>165</ele></trkpt>
   <trkpt lat="51.304558" lon="14.924456"><ele>165</ele></trkpt>
   <trkpt lat="51.304665" lon="14.923858"><ele>165</ele></trkpt>
   <trkpt lat="51.30501" lon="14.922111"><ele>165</ele></trkpt>
   <trkpt lat="51.305092" lon="14.921656"><ele>165</ele></trkpt>
   <trkpt lat="51.305166" lon="14.921201"><ele>165</ele></trkpt>
   <trkpt lat="51.30526" lon="14.920508"><ele>164.75</ele></trkpt>
   <trkpt lat="51.305327" lon="14.91988"><ele>165</ele></trkpt>
   <trkpt lat="51.305391" lon="14.91905"><ele>164.75</ele></trkpt>
   <trkpt lat="51.305412" lon="14.918641"><ele>165</ele></trkpt>
   <trkpt lat="51.305432" lon="14.917907"><ele>165</ele></trkpt>
   <trkpt lat="51.305433" lon="14.917412"><ele>165</ele></trkpt>
   <trkpt lat="51.305417" lon="14.916761"><ele>164.5</ele></trkpt>
   <trkpt lat="51.305352" lon="14.915733"><ele>164.5</ele></trkpt>
   <trkpt lat="51.305352" lon="14.915731"><ele>164.5</ele></trkpt>
   <trkpt lat="51.305318" lon="14.915299"><ele>165.5</ele></trkpt>
   <trkpt lat="51.305296" lon="14.915099"><ele>165</ele></trkpt>
   <trkpt lat="51.305295" lon="14.915094"><ele>165</ele></trkpt>
  </trkseg>
 </trk>
</gpx>