<?xml version="1.0" encoding="UTF-8"?>
<!-- track-length = 119 filtered ascend = 0 plain-ascend = 1 cost=119 energy=0.0kwh time=10s -->
<gpx 
 xmlns="http://www.topografix.com/GPX/1/1" 
 xmlns:xsi="http://www.w3.org/2001/XMLSchema-instance" 
 xsi:schemaLocation="http://www.topografix.com/GPX/1/1 http://www.topografix.com/GPX/1/1/gpx.xsd" 
 version="1.1" 
 creator="BRouter-Web 0.18.1">
 <trk>
  <name>6208 Horka Gbf Weiche 42 - Horka Gbf Weiche 51</name>
  <trkseg>
   <trkpt lat="51.305286" lon="14.915017"><ele>165</ele></trkpt>
   <trkpt lat="51.30523" lon="14.914612"><ele>164.75</ele></trkpt>
   <trkpt lat="51.305094" lon="14.913841"><ele>164</ele></trkpt>
   <trkpt lat="51.305028" lon="14.913377"><ele>165.5</ele></trkpt>
   <trkpt lat="51.305027" lon="14.913375"><ele>165.75</ele></trkpt>
  </trkseg>
 </trk>
</gpx>