<?xml version="1.0" encoding="UTF-8"?>
<!-- track-length = 450 filtered ascend = 0 plain-ascend = 0 cost=900 energy=0.0kwh time=36s -->
<gpx 
 xmlns="http://www.topografix.com/GPX/1/1" 
 xmlns:xsi="http://www.w3.org/2001/XMLSchema-instance" 
 xsi:schemaLocation="http://www.topografix.com/GPX/1/1 http://www.topografix.com/GPX/1/1/gpx.xsd" 
 version="1.1" 
 creator="BRouter-Web 0.18.1">
 <trk>
  <name>Abzweig Franz-Mehring-Straße Weiche 1-21 - Hauptbahnhof (Steig A)</name>
  <trkseg>
   <trkpt lat="53.630301" lon="11.410124"><ele>46.5</ele></trkpt>
   <trkpt lat="53.630302" lon="11.410124"><ele>46.5</ele></trkpt>
   <trkpt lat="53.630473" lon="11.410059"><ele>46.75</ele></trkpt>
   <trkpt lat="53.631228" lon="11.409861"><ele>47</ele></trkpt>
   <trkpt lat="53.631765" lon="11.409738"><ele>46.75</ele></trkpt>
   <trkpt lat="53.633692" lon="11.409209"><ele>46.75</ele></trkpt>
   <trkpt lat="53.633772" lon="11.409199"><ele>46.75</ele></trkpt>
   <trkpt lat="53.633877" lon="11.409191"><ele>46.75</ele></trkpt>
   <trkpt lat="53.634115" lon="11.4092"><ele>46.75</ele></trkpt>
   <trkpt lat="53.634299" lon="11.409201"><ele>46.75</ele></trkpt>
  </trkseg>
 </trk>
</gpx>