<?xml version="1.0" encoding="UTF-8"?>
<!-- track-length = 96 filtered ascend = 0 plain-ascend = 0 cost=192 energy=0.0kwh time=8s -->
<gpx 
 xmlns="http://www.topografix.com/GPX/1/1" 
 xmlns:xsi="http://www.w3.org/2001/XMLSchema-instance" 
 xsi:schemaLocation="http://www.topografix.com/GPX/1/1 http://www.topografix.com/GPX/1/1/gpx.xsd" 
 version="1.1" 
 creator="BRouter-Web 99.71.0">
 <trk>
  <name>Dreieck Rondo Rataje Weiche Nordost-Südost - Rondo Rataje (Steig Nordost-Südost)</name>
  <link href="https://brouter.damsy.net/latest/#map=19/52.39682/16.95111/standard&amp;lonlats=16.950614,52.396021;16.951088,52.396838">
   <text>BRouter-Web</text>
  </link>
  <trkseg>
   <trkpt lat="52.396019" lon="16.950618"><ele>68</ele></trkpt>
   <trkpt lat="52.39611" lon="16.950673"><ele>68</ele></trkpt>
   <trkpt lat="52.396255" lon="16.950756"><ele>68</ele></trkpt>
   <trkpt lat="52.396297" lon="16.950779"><ele>68</ele></trkpt>
   <trkpt lat="52.396792" lon="16.951062"><ele>67.25</ele></trkpt>
   <trkpt lat="52.396837" lon="16.951087"><ele>67</ele></trkpt>
  </trkseg>
 </trk>
</gpx>