<?xml version="1.0" encoding="UTF-8"?>
<!-- track-length = 318 filtered ascend = 0 plain-ascend = 0 cost=318 energy=0.0kwh time=25s -->
<gpx 
 xmlns="http://www.topografix.com/GPX/1/1" 
 xmlns:xsi="http://www.w3.org/2001/XMLSchema-instance" 
 xsi:schemaLocation="http://www.topografix.com/GPX/1/1 http://www.topografix.com/GPX/1/1/gpx.xsd" 
 version="1.1" 
 creator="BRouter-Web 0.18.1">
 <trk>
  <name>Tehdas (Steig B) - Dreieck Hiedenranta Weiche Nordost-West</name>
  <trkseg>
   <trkpt lat="61.516973" lon="23.681849"><ele>109</ele></trkpt>
   <trkpt lat="61.516876" lon="23.681807"><ele>109</ele></trkpt>
   <trkpt lat="61.51685" lon="23.681796"><ele>109</ele></trkpt>
   <trkpt lat="61.515984" lon="23.681432"><ele>109</ele></trkpt>
   <trkpt lat="61.515433" lon="23.681193"><ele>109</ele></trkpt>
   <trkpt lat="61.51522" lon="23.681075"><ele>109</ele></trkpt>
   <trkpt lat="61.515142" lon="23.681"><ele>109</ele></trkpt>
   <trkpt lat="61.515014" lon="23.680835"><ele>109.75</ele></trkpt>
   <trkpt lat="61.514793" lon="23.680433"><ele>109</ele></trkpt>
   <trkpt lat="61.514509" lon="23.679914"><ele>109</ele></trkpt>
   <trkpt lat="61.514406" lon="23.679726"><ele>108.75</ele></trkpt>
   <trkpt lat="61.514404" lon="23.679722"><ele>108.5</ele></trkpt>
  </trkseg>
 </trk>
</gpx>