<?xml version="1.0" encoding="UTF-8"?>
<!-- track-length = 278 filtered ascend = 9 plain-ascend = 9 cost=278 energy=0.0kwh time=22s -->
<gpx 
 xmlns="http://www.topografix.com/GPX/1/1" 
 xmlns:xsi="http://www.w3.org/2001/XMLSchema-instance" 
 xsi:schemaLocation="http://www.topografix.com/GPX/1/1 http://www.topografix.com/GPX/1/1/gpx.xsd" 
 version="1.1" 
 creator="BRouter-Web 0.18.1">
 <trk>
  <name>Üst Tehdas Weiche Süd - Tehdas (Steig B)</name>
  <trkseg>
   <trkpt lat="61.519447" lon="23.682758"><ele>100</ele></trkpt>
   <trkpt lat="61.51891" lon="23.682636"><ele>102.25</ele></trkpt>
   <trkpt lat="61.51889" lon="23.682629"><ele>102.5</ele></trkpt>
   <trkpt lat="61.5187" lon="23.682567"><ele>102.75</ele></trkpt>
   <trkpt lat="61.518314" lon="23.682409"><ele>104.25</ele></trkpt>
   <trkpt lat="61.518295" lon="23.682401"><ele>104.25</ele></trkpt>
   <trkpt lat="61.518235" lon="23.682375"><ele>104.75</ele></trkpt>
   <trkpt lat="61.518196" lon="23.682359"><ele>105</ele></trkpt>
   <trkpt lat="61.517492" lon="23.682062"><ele>109.5</ele></trkpt>
   <trkpt lat="61.517012" lon="23.681866"><ele>109</ele></trkpt>
   <trkpt lat="61.516975" lon="23.681849"><ele>109</ele></trkpt>
  </trkseg>
 </trk>
</gpx>