<?xml version="1.0" encoding="UTF-8"?>
<!-- track-length = 228 filtered ascend = 1 plain-ascend = 1 cost=228 energy=0.0kwh time=18s -->
<gpx 
 xmlns="http://www.topografix.com/GPX/1/1" 
 xmlns:xsi="http://www.w3.org/2001/XMLSchema-instance" 
 xsi:schemaLocation="http://www.topografix.com/GPX/1/1 http://www.topografix.com/GPX/1/1/gpx.xsd" 
 version="1.1" 
 creator="BRouter-Web 0.18.1">
 <trk>
  <name>Üst Pyhällonpuisto Süd Weiche Nordwest - Lentävänniemi (Steig B)</name>
  <trkseg>
   <trkpt lat="61.527755" lon="23.704459"><ele>107.75</ele></trkpt>
   <trkpt lat="61.527754" lon="23.70446"><ele>107.75</ele></trkpt>
   <trkpt lat="61.527555" lon="23.704453"><ele>107</ele></trkpt>
   <trkpt lat="61.527364" lon="23.704416"><ele>106.5</ele></trkpt>
   <trkpt lat="61.527321" lon="23.704401"><ele>106.25</ele></trkpt>
   <trkpt lat="61.527254" lon="23.70435"><ele>106</ele></trkpt>
   <trkpt lat="61.5272" lon="23.704257"><ele>106</ele></trkpt>
   <trkpt lat="61.52718" lon="23.704213"><ele>106</ele></trkpt>
   <trkpt lat="61.527158" lon="23.704135"><ele>106</ele></trkpt>
   <trkpt lat="61.527144" lon="23.704043"><ele>106</ele></trkpt>
   <trkpt lat="61.527138" lon="23.703953"><ele>106</ele></trkpt>
   <trkpt lat="61.527135" lon="23.703568"><ele>107</ele></trkpt>
   <trkpt lat="61.527128" lon="23.703418"><ele>107</ele></trkpt>
   <trkpt lat="61.527098" lon="23.703153"><ele>107</ele></trkpt>
   <trkpt lat="61.527075" lon="23.703022"><ele>107</ele></trkpt>
   <trkpt lat="61.527031" lon="23.702842"><ele>107</ele></trkpt>
   <trkpt lat="61.526978" lon="23.702675"><ele>107.25</ele></trkpt>
   <trkpt lat="61.526665" lon="23.701682"><ele>108.75</ele></trkpt>
   <trkpt lat="61.52661" lon="23.701518"><ele>109</ele></trkpt>
  </trkseg>
 </trk>
</gpx>