<?xml version="1.0" encoding="UTF-8"?>
<!-- track-length = 450 filtered ascend = 0 plain-ascend = -1 cost=900 energy=0.0kwh time=36s -->
<gpx 
 xmlns="http://www.topografix.com/GPX/1/1" 
 xmlns:xsi="http://www.w3.org/2001/XMLSchema-instance" 
 xsi:schemaLocation="http://www.topografix.com/GPX/1/1 http://www.topografix.com/GPX/1/1/gpx.xsd" 
 version="1.1" 
 creator="BRouter-Web 0.18.1">
 <trk>
  <name>Kreuz Hobujaama Weiche West-nach-Nord-Nord - Laeva (Steig Ost)</name>
  <trkseg>
   <trkpt lat="59.437462" lon="24.757278"><ele>4.5</ele></trkpt>
   <trkpt lat="59.43755" lon="24.757271"><ele>4.5</ele></trkpt>
   <trkpt lat="59.437655" lon="24.757286"><ele>4.25</ele></trkpt>
   <trkpt lat="59.437705" lon="24.757311"><ele>4</ele></trkpt>
   <trkpt lat="59.437753" lon="24.757347"><ele>4</ele></trkpt>
   <trkpt lat="59.437845" lon="24.757447"><ele>4</ele></trkpt>
   <trkpt lat="59.438229" lon="24.757971"><ele>3</ele></trkpt>
   <trkpt lat="59.438436" lon="24.758244"><ele>2.75</ele></trkpt>
   <trkpt lat="59.43859" lon="24.758418"><ele>3</ele></trkpt>
   <trkpt lat="59.438642" lon="24.758463"><ele>2.75</ele></trkpt>
   <trkpt lat="59.438824" lon="24.75861"><ele>2</ele></trkpt>
   <trkpt lat="59.439155" lon="24.758875"><ele>2</ele></trkpt>
   <trkpt lat="59.439317" lon="24.758987"><ele>2.5</ele></trkpt>
   <trkpt lat="59.439435" lon="24.759065"><ele>2.75</ele></trkpt>
   <trkpt lat="59.439529" lon="24.75912"><ele>2.5</ele></trkpt>
   <trkpt lat="59.439699" lon="24.759218"><ele>2</ele></trkpt>
   <trkpt lat="59.439771" lon="24.759245"><ele>2</ele></trkpt>
   <trkpt lat="59.439831" lon="24.759252"><ele>2.25</ele></trkpt>
   <trkpt lat="59.439892" lon="24.759242"><ele>2.5</ele></trkpt>
   <trkpt lat="59.439929" lon="24.75923"><ele>2.5</ele></trkpt>
   <trkpt lat="59.439955" lon="24.759204"><ele>2.75</ele></trkpt>
   <trkpt lat="59.439996" lon="24.759156"><ele>2.75</ele></trkpt>
   <trkpt lat="59.44005" lon="24.759029"><ele>2.25</ele></trkpt>
   <trkpt lat="59.440191" lon="24.758347"><ele>3</ele></trkpt>
   <trkpt lat="59.440214" lon="24.758261"><ele>3</ele></trkpt>
   <trkpt lat="59.440251" lon="24.75818"><ele>3</ele></trkpt>
   <trkpt lat="59.440324" lon="24.7581"><ele>2.75</ele></trkpt>
   <trkpt lat="59.440384" lon="24.758073"><ele>2.5</ele></trkpt>
   <trkpt lat="59.440437" lon="24.758069"><ele>2.25</ele></trkpt>
   <trkpt lat="59.440492" lon="24.758082"><ele>2</ele></trkpt>
   <trkpt lat="59.440901" lon="24.758222"><ele>2.25</ele></trkpt>
   <trkpt lat="59.440909" lon="24.758224"><ele>2.25</ele></trkpt>
  </trkseg>
 </trk>
</gpx>