<?xml version="1.0" encoding="UTF-8"?>
<!-- track-length = 474 filtered ascend = 0 plain-ascend = 0 cost=948 energy=0.0kwh time=38s -->
<gpx 
 xmlns="http://www.topografix.com/GPX/1/1" 
 xmlns:xsi="http://www.w3.org/2001/XMLSchema-instance" 
 xsi:schemaLocation="http://www.topografix.com/GPX/1/1 http://www.topografix.com/GPX/1/1/gpx.xsd" 
 version="1.1" 
 creator="BRouter-Web 0.18.1">
 <trk>
  <name>Laeva (Steig Ost) - Vanasadam (Steig Südost)</name>
  <trkseg>
   <trkpt lat="59.440909" lon="24.758224"><ele>2.25</ele></trkpt>
   <trkpt lat="59.440968" lon="24.758247"><ele>2.25</ele></trkpt>
   <trkpt lat="59.441118" lon="24.758281"><ele>2.75</ele></trkpt>
   <trkpt lat="59.441189" lon="24.758266"><ele>2.5</ele></trkpt>
   <trkpt lat="59.441274" lon="24.758228"><ele>2.25</ele></trkpt>
   <trkpt lat="59.441404" lon="24.758139"><ele>2</ele></trkpt>
   <trkpt lat="59.442861" lon="24.757096"><ele>2</ele></trkpt>
   <trkpt lat="59.442972" lon="24.757023"><ele>2</ele></trkpt>
   <trkpt lat="59.443054" lon="24.757004"><ele>2</ele></trkpt>
   <trkpt lat="59.443154" lon="24.757021"><ele>2</ele></trkpt>
   <trkpt lat="59.443205" lon="24.757058"><ele>2</ele></trkpt>
   <trkpt lat="59.443255" lon="24.757124"><ele>2</ele></trkpt>
   <trkpt lat="59.443305" lon="24.757226"><ele>2</ele></trkpt>
   <trkpt lat="59.443339" lon="24.757335"><ele>2</ele></trkpt>
   <trkpt lat="59.44338" lon="24.75752"><ele>2</ele></trkpt>
   <trkpt lat="59.443633" lon="24.758746"><ele>1.75</ele></trkpt>
   <trkpt lat="59.443648" lon="24.7588"><ele>2</ele></trkpt>
   <trkpt lat="59.443692" lon="24.75895"><ele>2</ele></trkpt>
   <trkpt lat="59.443729" lon="24.759045"><ele>2</ele></trkpt>
   <trkpt lat="59.443762" lon="24.759104"><ele>2</ele></trkpt>
   <trkpt lat="59.443851" lon="24.75923"><ele>2</ele></trkpt>
   <trkpt lat="59.443928" lon="24.759298"><ele>2</ele></trkpt>
   <trkpt lat="59.444362" lon="24.759562"><ele>2</ele></trkpt>
  </trkseg>
 </trk>
</gpx>