<?xml version="1.0" encoding="UTF-8"?>
<!-- track-length = 38 filtered ascend = 0 plain-ascend = 0 cost=78 energy=0.0kwh time=3s -->
<gpx 
 xmlns="http://www.topografix.com/GPX/1/1" 
 xmlns:xsi="http://www.w3.org/2001/XMLSchema-instance" 
 xsi:schemaLocation="http://www.topografix.com/GPX/1/1 http://www.topografix.com/GPX/1/1/gpx.xsd" 
 version="1.1" 
 creator="BRouter-Web 0.18.1">
 <trk>
  <name>Heinrichstraße (Steig A) - Abzweig Heinrich-/Breitscheidstraße Weiche Ost</name>
  <trkseg>
   <trkpt lat="50.875898" lon="12.079458"><ele>194</ele></trkpt>
   <trkpt lat="50.876046" lon="12.079721"><ele>194</ele></trkpt>
   <trkpt lat="50.876118" lon="12.07986"><ele>194</ele></trkpt>
  </trkseg>
 </trk>
</gpx>