<?xml version="1.0" encoding="UTF-8"?>
<!-- track-length = 391 filtered ascend = 0 plain-ascend = -7 cost=782 energy=0.0kwh time=31s -->
<gpx 
 xmlns="http://www.topografix.com/GPX/1/1" 
 xmlns:xsi="http://www.w3.org/2001/XMLSchema-instance" 
 xsi:schemaLocation="http://www.topografix.com/GPX/1/1 http://www.topografix.com/GPX/1/1/gpx.xsd" 
 version="1.1" 
 creator="BRouter-Web 0.18.1">
 <trk>
  <name>Kampintori (Steig Nordwest) - Ruoholahden villat (Steig Nordwest)</name>
  <trkseg>
   <trkpt lat="60.167639" lon="24.931202"><ele>17.25</ele></trkpt>
   <trkpt lat="60.167605" lon="24.931185"><ele>17.25</ele></trkpt>
   <trkpt lat="60.167544" lon="24.931155"><ele>17</ele></trkpt>
   <trkpt lat="60.167375" lon="24.931075"><ele>16.5</ele></trkpt>
   <trkpt lat="60.167327" lon="24.931052"><ele>16.25</ele></trkpt>
   <trkpt lat="60.167305" lon="24.931041"><ele>16.25</ele></trkpt>
   <trkpt lat="60.166698" lon="24.930719"><ele>13</ele></trkpt>
   <trkpt lat="60.166586" lon="24.930634"><ele>12.5</ele></trkpt>
   <trkpt lat="60.166554" lon="24.93058"><ele>12.5</ele></trkpt>
   <trkpt lat="60.166539" lon="24.930537"><ele>12.5</ele></trkpt>
   <trkpt lat="60.166503" lon="24.9304"><ele>12.25</ele></trkpt>
   <trkpt lat="60.166488" lon="24.930269"><ele>12.25</ele></trkpt>
   <trkpt lat="60.16647" lon="24.930042"><ele>12.25</ele></trkpt>
   <trkpt lat="60.166463" lon="24.929947"><ele>12.25</ele></trkpt>
   <trkpt lat="60.166438" lon="24.929801"><ele>12</ele></trkpt>
   <trkpt lat="60.166426" lon="24.929755"><ele>12</ele></trkpt>
   <trkpt lat="60.166408" lon="24.929701"><ele>12</ele></trkpt>
   <trkpt lat="60.166175" lon="24.929037"><ele>10</ele></trkpt>
   <trkpt lat="60.166098" lon="24.928819"><ele>10</ele></trkpt>
   <trkpt lat="60.166034" lon="24.928627"><ele>10</ele></trkpt>
   <trkpt lat="60.166026" lon="24.928603"><ele>9.75</ele></trkpt>
   <trkpt lat="60.166017" lon="24.928572"><ele>9.75</ele></trkpt>
   <trkpt lat="60.16566" lon="24.927526"><ele>9.5</ele></trkpt>
   <trkpt lat="60.16565" lon="24.927498"><ele>9.5</ele></trkpt>
   <trkpt lat="60.165627" lon="24.927429"><ele>9.5</ele></trkpt>
   <trkpt lat="60.165544" lon="24.927179"><ele>9</ele></trkpt>
   <trkpt lat="60.165518" lon="24.927104"><ele>9</ele></trkpt>
   <trkpt lat="60.165509" lon="24.927077"><ele>9</ele></trkpt>
   <trkpt lat="60.165334" lon="24.926583"><ele>9</ele></trkpt>
  </trkseg>
 </trk>
</gpx>