<?xml version="1.0" encoding="UTF-8"?>
<!-- track-length = 263 filtered ascend = 0 plain-ascend = -4 cost=526 energy=0.0kwh time=21s -->
<gpx 
 xmlns="http://www.topografix.com/GPX/1/1" 
 xmlns:xsi="http://www.w3.org/2001/XMLSchema-instance" 
 xsi:schemaLocation="http://www.topografix.com/GPX/1/1 http://www.topografix.com/GPX/1/1/gpx.xsd" 
 version="1.1" 
 creator="BRouter-Web 0.18.1">
 <trk>
  <name>Ruoholahden villat (Steig Nordwest) - Abzweig Ruoholahdenkatu Weiche Nordwest</name>
  <trkseg>
   <trkpt lat="60.165334" lon="24.926581"><ele>9</ele></trkpt>
   <trkpt lat="60.165323" lon="24.926549"><ele>9</ele></trkpt>
   <trkpt lat="60.165315" lon="24.926525"><ele>9</ele></trkpt>
   <trkpt lat="60.165302" lon="24.926494"><ele>9</ele></trkpt>
   <trkpt lat="60.165179" lon="24.92617"><ele>9</ele></trkpt>
   <trkpt lat="60.165056" lon="24.925819"><ele>8</ele></trkpt>
   <trkpt lat="60.165042" lon="24.925782"><ele>8</ele></trkpt>
   <trkpt lat="60.164979" lon="24.925618"><ele>8</ele></trkpt>
   <trkpt lat="60.164946" lon="24.925533"><ele>8</ele></trkpt>
   <trkpt lat="60.164904" lon="24.925422"><ele>8</ele></trkpt>
   <trkpt lat="60.164813" lon="24.925188"><ele>8</ele></trkpt>
   <trkpt lat="60.1648" lon="24.925152"><ele>8</ele></trkpt>
   <trkpt lat="60.164675" lon="24.924806"><ele>8</ele></trkpt>
   <trkpt lat="60.164655" lon="24.924748"><ele>8</ele></trkpt>
   <trkpt lat="60.164306" lon="24.923738"><ele>6</ele></trkpt>
   <trkpt lat="60.164294" lon="24.923698"><ele>6</ele></trkpt>
   <trkpt lat="60.164257" lon="24.923581"><ele>5.75</ele></trkpt>
   <trkpt lat="60.164211" lon="24.923452"><ele>5.75</ele></trkpt>
   <trkpt lat="60.1642" lon="24.923421"><ele>5.75</ele></trkpt>
   <trkpt lat="60.16397" lon="24.92277"><ele>4</ele></trkpt>
   <trkpt lat="60.163969" lon="24.922768"><ele>4</ele></trkpt>
  </trkseg>
 </trk>
</gpx>