<?xml version="1.0" encoding="UTF-8"?>
<!-- track-length = 262 filtered ascend = 0 plain-ascend = 0 cost=262 energy=0.0kwh time=21s -->
<gpx 
 xmlns="http://www.topografix.com/GPX/1/1" 
 xmlns:xsi="http://www.w3.org/2001/XMLSchema-instance" 
 xsi:schemaLocation="http://www.topografix.com/GPX/1/1 http://www.topografix.com/GPX/1/1/gpx.xsd" 
 version="1.1" 
 creator="BRouter-Web 0.18.1">
 <trk>
  <name>Kalevan kirkko (Steig A) - Abzweig Sammonaukio Weiche Nord</name>
  <trkseg>
   <trkpt lat="61.500067" lon="23.792289"><ele>106.25</ele></trkpt>
   <trkpt lat="61.500039" lon="23.792134"><ele>106</ele></trkpt>
   <trkpt lat="61.499754" lon="23.790651"><ele>106</ele></trkpt>
   <trkpt lat="61.499654" lon="23.790119"><ele>106</ele></trkpt>
   <trkpt lat="61.499556" lon="23.789646"><ele>106</ele></trkpt>
   <trkpt lat="61.499391" lon="23.78906"><ele>105</ele></trkpt>
   <trkpt lat="61.499334" lon="23.788894"><ele>105</ele></trkpt>
   <trkpt lat="61.499243" lon="23.78859"><ele>105</ele></trkpt>
   <trkpt lat="61.499199" lon="23.788451"><ele>105</ele></trkpt>
   <trkpt lat="61.499148" lon="23.788231"><ele>105</ele></trkpt>
   <trkpt lat="61.499136" lon="23.788162"><ele>105</ele></trkpt>
   <trkpt lat="61.499104" lon="23.787833"><ele>104.75</ele></trkpt>
   <trkpt lat="61.499103" lon="23.78783"><ele>105</ele></trkpt>
  </trkseg>
 </trk>
</gpx>