<?xml version="1.0" encoding="UTF-8"?>
<!-- track-length = 88 filtered ascend = 0 plain-ascend = 0 cost=88 energy=0.0kwh time=7s -->
<gpx 
 xmlns="http://www.topografix.com/GPX/1/1" 
 xmlns:xsi="http://www.w3.org/2001/XMLSchema-instance" 
 xsi:schemaLocation="http://www.topografix.com/GPX/1/1 http://www.topografix.com/GPX/1/1/gpx.xsd" 
 version="1.1" 
 creator="BRouter-Web 0.18.1">
 <trk>
  <name>Kaupin kampus (Steig A) - Üst Kaupin kampus West Weiche Nordost</name>
  <trkseg>
   <trkpt lat="61.504585" lon="23.820803"><ele>106</ele></trkpt>
   <trkpt lat="61.504579" lon="23.820792"><ele>106</ele></trkpt>
   <trkpt lat="61.504522" lon="23.820676"><ele>106</ele></trkpt>
   <trkpt lat="61.504357" lon="23.82034"><ele>105.5</ele></trkpt>
   <trkpt lat="61.504291" lon="23.820162"><ele>105.25</ele></trkpt>
   <trkpt lat="61.504256" lon="23.820046"><ele>105.25</ele></trkpt>
   <trkpt lat="61.504216" lon="23.819843"><ele>105.5</ele></trkpt>
   <trkpt lat="61.504163" lon="23.819485"><ele>105.75</ele></trkpt>
   <trkpt lat="61.504162" lon="23.819481"><ele>105.5</ele></trkpt>
  </trkseg>
 </trk>
</gpx>