<?xml version="1.0" encoding="UTF-8"?>
<!-- track-length = 873 filtered ascend = 3 plain-ascend = 2 cost=873 energy=0.0kwh time=1m 10s -->
<gpx 
 xmlns="http://www.topografix.com/GPX/1/1" 
 xmlns:xsi="http://www.w3.org/2001/XMLSchema-instance" 
 xsi:schemaLocation="http://www.topografix.com/GPX/1/1 http://www.topografix.com/GPX/1/1/gpx.xsd" 
 version="1.1" 
 creator="BRouter-Web 0.18.1">
 <trk>
  <name>TAYS (Steig A) - Hippos (Steig A)</name>
  <trkseg>
   <trkpt lat="61.504091" lon="23.811803"><ele>109</ele></trkpt>
   <trkpt lat="61.504143" lon="23.811686"><ele>108.75</ele></trkpt>
   <trkpt lat="61.504523" lon="23.81083"><ele>109</ele></trkpt>
   <trkpt lat="61.50464" lon="23.810603"><ele>110.5</ele></trkpt>
   <trkpt lat="61.504674" lon="23.810547"><ele>110.75</ele></trkpt>
   <trkpt lat="61.504756" lon="23.810443"><ele>110.75</ele></trkpt>
   <trkpt lat="61.505089" lon="23.810165"><ele>111</ele></trkpt>
   <trkpt lat="61.505149" lon="23.8101"><ele>111</ele></trkpt>
   <trkpt lat="61.505198" lon="23.810026"><ele>111</ele></trkpt>
   <trkpt lat="61.505255" lon="23.809898"><ele>111.25</ele></trkpt>
   <trkpt lat="61.505306" lon="23.809715"><ele>111.75</ele></trkpt>
   <trkpt lat="61.505312" lon="23.809683"><ele>111.75</ele></trkpt>
   <trkpt lat="61.505323" lon="23.809618"><ele>111.75</ele></trkpt>
   <trkpt lat="61.505331" lon="23.809556"><ele>111.75</ele></trkpt>
   <trkpt lat="61.505336" lon="23.809494"><ele>111.75</ele></trkpt>
   <trkpt lat="61.505338" lon="23.809444"><ele>111.75</ele></trkpt>
   <trkpt lat="61.505338" lon="23.80935"><ele>111.75</ele></trkpt>
   <trkpt lat="61.505335" lon="23.809227"><ele>111.5</ele></trkpt>
   <trkpt lat="61.505325" lon="23.809088"><ele>111.5</ele></trkpt>
   <trkpt lat="61.505316" lon="23.808934"><ele>111.5</ele></trkpt>
   <trkpt lat="61.505275" lon="23.808302"><ele>110.75</ele></trkpt>
   <trkpt lat="61.505263" lon="23.808191"><ele>110.5</ele></trkpt>
   <trkpt lat="61.50524" lon="23.808056"><ele>110</ele></trkpt>
   <trkpt lat="61.505233" lon="23.808021"><ele>110</ele></trkpt>
   <trkpt lat="61.505186" lon="23.807864"><ele>110</ele></trkpt>
   <trkpt lat="61.50512" lon="23.807731"><ele>109.75</ele></trkpt>
   <trkpt lat="61.504811" lon="23.807189"><ele>108.75</ele></trkpt>
   <trkpt lat="61.504171" lon="23.806075"><ele>109.75</ele></trkpt>
   <trkpt lat="61.503995" lon="23.805783"><ele>109.5</ele></trkpt>
   <trkpt lat="61.503839" lon="23.805549"><ele>110</ele></trkpt>
   <trkpt lat="61.503412" lon="23.804966"><ele>109.5</ele></trkpt>
   <trkpt lat="61.502846" lon="23.804197"><ele>109</ele></trkpt>
   <trkpt lat="61.502377" lon="23.803552"><ele>112</ele></trkpt>
   <trkpt lat="61.502257" lon="23.803374"><ele>112</ele></trkpt>
   <trkpt lat="61.502193" lon="23.803259"><ele>111</ele></trkpt>
   <trkpt lat="61.502118" lon="23.80308"><ele>109.75</ele></trkpt>
   <trkpt lat="61.502049" lon="23.802873"><ele>110.5</ele></trkpt>
   <trkpt lat="61.50197" lon="23.802524"><ele>111.75</ele></trkpt>
   <trkpt lat="61.501897" lon="23.801951"><ele>111.75</ele></trkpt>
   <trkpt lat="61.501855" lon="23.80171"><ele>111.5</ele></trkpt>
   <trkpt lat="61.501818" lon="23.801492"><ele>111</ele></trkpt>
   <trkpt lat="61.501771" lon="23.801221"><ele>111</ele></trkpt>
   <trkpt lat="61.501587" lon="23.800249"><ele>110.75</ele></trkpt>
   <trkpt lat="61.501583" lon="23.800229"><ele>110.5</ele></trkpt>
  </trkseg>
 </trk>
</gpx>