<?xml version="1.0" encoding="UTF-8"?>
<!-- track-length = 29 filtered ascend = 0 plain-ascend = 0 cost=58 energy=0.0kwh time=2s -->
<gpx 
 xmlns="http://www.topografix.com/GPX/1/1" 
 xmlns:xsi="http://www.w3.org/2001/XMLSchema-instance" 
 xsi:schemaLocation="http://www.topografix.com/GPX/1/1 http://www.topografix.com/GPX/1/1/gpx.xsd" 
 version="1.1" 
 creator="BRouter-Web 99.71.0">
 <trk>
  <name>Rondo Starołęka (Steig Südost-Nordost) - Kreuz Kreuz Rondo Starołęka Weiche Südost-nach-Süd-Südost</name>
  <link href="https://brouter.damsy.net/latest/#map=18/52.37993/16.94428/standard&amp;lonlats=16.943961,52.379945;16.943573,52.38006">
   <text>BRouter-Web</text>
  </link>
  <trkseg>
   <trkpt lat="52.379944" lon="16.94396"><ele>66.25</ele></trkpt>
   <trkpt lat="52.380001" lon="16.943771"><ele>66</ele></trkpt>
   <trkpt lat="52.380033" lon="16.943662"><ele>66</ele></trkpt>
   <trkpt lat="52.380059" lon="16.943572"><ele>66</ele></trkpt>
  </trkseg>
 </trk>
</gpx>
