<?xml version="1.0" encoding="UTF-8"?>
<!-- track-length = 223 filtered ascend = 2 plain-ascend = 0 cost=446 energy=0.0kwh time=18s -->
<gpx 
 xmlns="http://www.topografix.com/GPX/1/1" 
 xmlns:xsi="http://www.w3.org/2001/XMLSchema-instance" 
 xsi:schemaLocation="http://www.topografix.com/GPX/1/1 http://www.topografix.com/GPX/1/1/gpx.xsd" 
 version="1.1" 
 creator="BRouter-Web 0.18.1">
 <trk>
  <name>Fleminginkatu (Steig West) - Abzweig Helsinginkatu Weiche Nord</name>
  <trkseg>
   <trkpt lat="60.188872" lon="24.952937"><ele>18.25</ele></trkpt>
   <trkpt lat="60.188419" lon="24.952989"><ele>20.5</ele></trkpt>
   <trkpt lat="60.18834" lon="24.952994"><ele>20.75</ele></trkpt>
   <trkpt lat="60.188273" lon="24.952999"><ele>21</ele></trkpt>
   <trkpt lat="60.187644" lon="24.953071"><ele>19.5</ele></trkpt>
   <trkpt lat="60.1876" lon="24.953076"><ele>19.25</ele></trkpt>
   <trkpt lat="60.187231" lon="24.953106"><ele>18</ele></trkpt>
   <trkpt lat="60.187198" lon="24.953105"><ele>18</ele></trkpt>
   <trkpt lat="60.187146" lon="24.953084"><ele>18</ele></trkpt>
   <trkpt lat="60.187116" lon="24.953062"><ele>18</ele></trkpt>
   <trkpt lat="60.18706" lon="24.952977"><ele>18</ele></trkpt>
   <trkpt lat="60.187036" lon="24.952912"><ele>18</ele></trkpt>
   <trkpt lat="60.187008" lon="24.952792"><ele>18</ele></trkpt>
   <trkpt lat="60.186994" lon="24.952681"><ele>18</ele></trkpt>
   <trkpt lat="60.186994" lon="24.952682"><ele>18</ele></trkpt>
  </trkseg>
 </trk>
</gpx>