<?xml version="1.0" encoding="UTF-8"?>
<!-- track-length = 101 filtered ascend = 6 plain-ascend = 7 cost=202 energy=0.0kwh time=8s -->
<gpx 
 xmlns="http://www.topografix.com/GPX/1/1" 
 xmlns:xsi="http://www.w3.org/2001/XMLSchema-instance" 
 xsi:schemaLocation="http://www.topografix.com/GPX/1/1 http://www.topografix.com/GPX/1/1/gpx.xsd" 
 version="1.1" 
 creator="BRouter-Web 0.18.1">
 <trk>
  <name>Abzweig Lautatarhankatu Weiche Ost - Lautatarhankatu (Steig Nord-Ost)</name>
  <trkseg>
   <trkpt lat="60.189456" lon="24.964201"><ele>14.5</ele></trkpt>
   <trkpt lat="60.189461" lon="24.964204"><ele>14.5</ele></trkpt>
   <trkpt lat="60.189558" lon="24.964253"><ele>16.75</ele></trkpt>
   <trkpt lat="60.189673" lon="24.964311"><ele>19</ele></trkpt>
   <trkpt lat="60.189717" lon="24.964333"><ele>19.75</ele></trkpt>
   <trkpt lat="60.189857" lon="24.964404"><ele>20.25</ele></trkpt>
   <trkpt lat="60.189908" lon="24.964423"><ele>20.5</ele></trkpt>
   <trkpt lat="60.190251" lon="24.964519"><ele>21</ele></trkpt>
   <trkpt lat="60.190341" lon="24.964542"><ele>21</ele></trkpt>
  </trkseg>
 </trk>
</gpx>