<?xml version="1.0" encoding="UTF-8"?>
<!-- track-length = 9 filtered ascend = 0 plain-ascend = 0 cost=18 energy=0.0kwh time=1s -->
<gpx 
 xmlns="http://www.topografix.com/GPX/1/1" 
 xmlns:xsi="http://www.w3.org/2001/XMLSchema-instance" 
 xsi:schemaLocation="http://www.topografix.com/GPX/1/1 http://www.topografix.com/GPX/1/1/gpx.xsd" 
 version="1.1" 
 creator="BRouter-Web 0.18.1">
 <trk>
  <name>Vallilan varikko (Steig Nordost) - Dreieck Vallilan varikko Weiche Südost-Ost</name>
  <trkseg>
   <trkpt lat="60.196663" lon="24.96241"><ele>15</ele></trkpt>
   <trkpt lat="60.196664" lon="24.96241"><ele>15</ele></trkpt>
   <trkpt lat="60.196731" lon="24.962378"><ele>15</ele></trkpt>
  </trkseg>
 </trk>
</gpx>
