<?xml version="1.0" encoding="UTF-8"?>
<!-- track-length = 82 filtered ascend = 0 plain-ascend = 0 cost=166 energy=0.0kwh time=7s -->
<gpx 
 xmlns="http://www.topografix.com/GPX/1/1" 
 xmlns:xsi="http://www.w3.org/2001/XMLSchema-instance" 
 xsi:schemaLocation="http://www.topografix.com/GPX/1/1 http://www.topografix.com/GPX/1/1/gpx.xsd" 
 version="1.1" 
 creator="BRouter-Web 99.71.0">
 <trk>
  <name>Abzweig Wendeschleife Levského Weiche Ost - Levského (Steig A)</name>
  <link href="https://brouter.damsy.net/latest/#map=18/50.00540/14.43604/standard&amp;lonlats=14.437221,50.005271;14.436108,50.005105&amp;profile=rail">
   <text>BRouter-Web</text>
  </link>
  <trkseg>
   <trkpt lat="50.00527" lon="14.437221"><ele>286.75</ele></trkpt>
   <trkpt lat="50.005226" lon="14.436966"><ele>286.75</ele></trkpt>
   <trkpt lat="50.005146" lon="14.436461"><ele>287</ele></trkpt>
   <trkpt lat="50.005104" lon="14.436107"><ele>286.25</ele></trkpt>
  </trkseg>
 </trk>
</gpx>