<?xml version="1.0" encoding="UTF-8"?>
<!-- track-length = 717 filtered ascend = 1 plain-ascend = 1 cost=1434 energy=0.0kwh time=57s -->
<gpx 
 xmlns="http://www.topografix.com/GPX/1/1" 
 xmlns:xsi="http://www.w3.org/2001/XMLSchema-instance" 
 xsi:schemaLocation="http://www.topografix.com/GPX/1/1 http://www.topografix.com/GPX/1/1/gpx.xsd" 
 version="1.1" 
 creator="BRouter-Web 99.71.0">
 <trk>
  <name>Černý kůň (Steig A) - Nádraží Braník (Steig A)</name>
  <link href="https://brouter.damsy.net/latest/#map=17/50.02894/14.40716/standard&amp;lonlats=14.403696,50.023052;14.405344,50.02924&amp;profile=rail">
   <text>BRouter-Web</text>
  </link>
  <trkseg>
   <trkpt lat="50.02305" lon="14.403702"><ele>195.75</ele></trkpt>
   <trkpt lat="50.023064" lon="14.403704"><ele>195.75</ele></trkpt>
   <trkpt lat="50.023106" lon="14.40371"><ele>195.25</ele></trkpt>
   <trkpt lat="50.023174" lon="14.403718"><ele>194.25</ele></trkpt>
   <trkpt lat="50.023539" lon="14.403765"><ele>194.25</ele></trkpt>
   <trkpt lat="50.024076" lon="14.403828"><ele>194</ele></trkpt>
   <trkpt lat="50.024467" lon="14.40384"><ele>192.75</ele></trkpt>
   <trkpt lat="50.024723" lon="14.403841"><ele>192</ele></trkpt>
   <trkpt lat="50.025306" lon="14.403813"><ele>191.25</ele></trkpt>
   <trkpt lat="50.025687" lon="14.403804"><ele>191.75</ele></trkpt>
   <trkpt lat="50.026155" lon="14.403803"><ele>192.5</ele></trkpt>
   <trkpt lat="50.027189" lon="14.403847"><ele>194.5</ele></trkpt>
   <trkpt lat="50.027357" lon="14.403878"><ele>194.75</ele></trkpt>
   <trkpt lat="50.027624" lon="14.403952"><ele>194.5</ele></trkpt>
   <trkpt lat="50.027849" lon="14.404052"><ele>194.5</ele></trkpt>
   <trkpt lat="50.028002" lon="14.404146"><ele>195.5</ele></trkpt>
   <trkpt lat="50.028228" lon="14.404302"><ele>195</ele></trkpt>
   <trkpt lat="50.0284" lon="14.404453"><ele>195.25</ele></trkpt>
   <trkpt lat="50.029239" lon="14.405342"><ele>196.75</ele></trkpt>
  </trkseg>
 </trk>
</gpx>