<?xml version="1.0" encoding="UTF-8"?>
<!-- track-length = 56559 filtered ascend = 332 plain-ascend = -284 cost=67566 energy=5.7kwh time=56m 0.23999999999978172s -->
<gpx 
 xmlns="http://www.topografix.com/GPX/1/1" 
 xmlns:xsi="http://www.w3.org/2001/XMLSchema-instance" 
 xsi:schemaLocation="http://www.topografix.com/GPX/1/1 http://www.topografix.com/GPX/1/1/gpx.xsd" 
 version="1.1" 
 creator="BRouter-Web 0.18.1">
 <trk>
  <name>Arriva Bus 395 Příbram aut.nádr. (ul. Čs.armády) - Praha Livovar</name>
  <trkseg>
   <trkpt lat="49.690259" lon="14.003924"><ele>480</ele></trkpt>
   <trkpt lat="49.690739" lon="14.003513"><ele>479.5</ele></trkpt>
   <trkpt lat="49.6908" lon="14.003463"><ele>479.5</ele></trkpt>
   <trkpt lat="49.69119" lon="14.003166"><ele>479.75</ele></trkpt>
   <trkpt lat="49.691342" lon="14.003085"><ele>479.75</ele></trkpt>
   <trkpt lat="49.69147" lon="14.003039"><ele>480</ele></trkpt>
   <trkpt lat="49.691596" lon="14.003024"><ele>480</ele></trkpt>
   <trkpt lat="49.691678" lon="14.003029"><ele>480</ele></trkpt>
   <trkpt lat="49.691764" lon="14.003049"><ele>480</ele></trkpt>
   <trkpt lat="49.691852" lon="14.003086"><ele>479.75</ele></trkpt>
   <trkpt lat="49.691939" lon="14.003136"><ele>479.5</ele></trkpt>
   <trkpt lat="49.692033" lon="14.00323"><ele>479.5</ele></trkpt>
   <trkpt lat="49.692067" lon="14.003264"><ele>479.5</ele></trkpt>
   <trkpt lat="49.692151" lon="14.00337"><ele>479.5</ele></trkpt>
   <trkpt lat="49.692115" lon="14.00344"><ele>479.25</ele></trkpt>
   <trkpt lat="49.692088" lon="14.003518"><ele>479</ele></trkpt>
   <trkpt lat="49.692071" lon="14.003603"><ele>479</ele></trkpt>
   <trkpt lat="49.692064" lon="14.003692"><ele>479</ele></trkpt>
   <trkpt lat="49.692067" lon="14.003781"><ele>479</ele></trkpt>
   <trkpt lat="49.692082" lon="14.003867"><ele>479</ele></trkpt>
   <trkpt lat="49.692106" lon="14.003948"><ele>478.75</ele></trkpt>
   <trkpt lat="49.692139" lon="14.00402"><ele>478.75</ele></trkpt>
   <trkpt lat="49.69218" lon="14.004082"><ele>478.75</ele></trkpt>
   <trkpt lat="49.692228" lon="14.004132"><ele>479</ele></trkpt>
   <trkpt lat="49.692175" lon="14.0043"><ele>478.75</ele></trkpt>
   <trkpt lat="49.692136" lon="14.004415"><ele>478.5</ele></trkpt>
   <trkpt lat="49.692056" lon="14.004576"><ele>479</ele></trkpt>
   <trkpt lat="49.691961" lon="14.0047"><ele>479.75</ele></trkpt>
   <trkpt lat="49.691802" lon="14.004842"><ele>479.5</ele></trkpt>
   <trkpt lat="49.691529" lon="14.005016"><ele>480.5</ele></trkpt>
   <trkpt lat="49.691342" lon="14.005136"><ele>480.5</ele></trkpt>
   <trkpt lat="49.691213" lon="14.005233"><ele>481.25</ele></trkpt>
   <trkpt lat="49.691127" lon="14.005311"><ele>481.75</ele></trkpt>
   <trkpt lat="49.691046" lon="14.005402"><ele>481.5</ele></trkpt>
   <trkpt lat="49.690989" lon="14.005471"><ele>481.5</ele></trkpt>
   <trkpt lat="49.69093" lon="14.005563"><ele>482</ele></trkpt>
   <trkpt lat="49.690868" lon="14.005679"><ele>482.5</ele></trkpt>
   <trkpt lat="49.690753" lon="14.005939"><ele>483.25</ele></trkpt>
   <trkpt lat="49.690434" lon="14.006712"><ele>485.5</ele></trkpt>
   <trkpt lat="49.690336" lon="14.006953"><ele>486</ele></trkpt>
   <trkpt lat="49.690254" lon="14.007131"><ele>486.5</ele></trkpt>
   <trkpt lat="49.690044" lon="14.007508"><ele>489</ele></trkpt>
   <trkpt lat="49.689914" lon="14.007719"><ele>489.5</ele></trkpt>
   <trkpt lat="49.68977" lon="14.007913"><ele>490.75</ele></trkpt>
   <trkpt lat="49.689619" lon="14.008089"><ele>492</ele></trkpt>
   <trkpt lat="49.689371" lon="14.00832"><ele>494.5</ele></trkpt>
   <trkpt lat="49.689271" lon="14.008397"><ele>496</ele></trkpt>
   <trkpt lat="49.689045" lon="14.00855"><ele>497</ele></trkpt>
   <trkpt lat="49.688927" lon="14.00864"><ele>498</ele></trkpt>
   <trkpt lat="49.688841" lon="14.008721"><ele>498.5</ele></trkpt>
   <trkpt lat="49.688787" lon="14.008768"><ele>499</ele></trkpt>
   <trkpt lat="49.688763" lon="14.008739"><ele>499</ele></trkpt>
   <trkpt lat="49.688733" lon="14.008724"><ele>499.25</ele></trkpt>
   <trkpt lat="49.688702" lon="14.008725"><ele>499.25</ele></trkpt>
   <trkpt lat="49.688673" lon="14.008743"><ele>499.5</ele></trkpt>
   <trkpt lat="49.68865" lon="14.008774"><ele>499.75</ele></trkpt>
   <trkpt lat="49.688635" lon="14.008816"><ele>499.75</ele></trkpt>
   <trkpt lat="49.68863" lon="14.008864"><ele>499.75</ele></trkpt>
   <trkpt lat="49.688635" lon="14.008911"><ele>500</ele></trkpt>
   <trkpt lat="49.688651" lon="14.008953"><ele>500</ele></trkpt>
   <trkpt lat="49.688676" lon="14.008984"><ele>500</ele></trkpt>
   <trkpt lat="49.688705" lon="14.009"><ele>500</ele></trkpt>
   <trkpt lat="49.688737" lon="14.009"><ele>500</ele></trkpt>
   <trkpt lat="49.688766" lon="14.008983"><ele>499.75</ele></trkpt>
   <trkpt lat="49.68881" lon="14.009118"><ele>500.5</ele></trkpt>
   <trkpt lat="49.688822" lon="14.009153"><ele>500.75</ele></trkpt>
   <trkpt lat="49.688872" lon="14.009296"><ele>501.25</ele></trkpt>
   <trkpt lat="49.688896" lon="14.009394"><ele>501.75</ele></trkpt>
   <trkpt lat="49.688945" lon="14.009735"><ele>503</ele></trkpt>
   <trkpt lat="49.688973" lon="14.010005"><ele>503.25</ele></trkpt>
   <trkpt lat="49.689005" lon="14.010401"><ele>504.25</ele></trkpt>
   <trkpt lat="49.689004" lon="14.010465"><ele>504.25</ele></trkpt>
   <trkpt lat="49.688996" lon="14.010927"><ele>503</ele></trkpt>
   <trkpt lat="49.689003" lon="14.011044"><ele>502.75</ele></trkpt>
   <trkpt lat="49.689019" lon="14.01118"><ele>502.5</ele></trkpt>
   <trkpt lat="49.689049" lon="14.011304"><ele>502</ele></trkpt>
   <trkpt lat="49.689102" lon="14.01147"><ele>501.75</ele></trkpt>
   <trkpt lat="49.689277" lon="14.011864"><ele>503.25</ele></trkpt>
   <trkpt lat="49.689329" lon="14.011992"><ele>503.5</ele></trkpt>
   <trkpt lat="49.689371" lon="14.012117"><ele>503.5</ele></trkpt>
   <trkpt lat="49.689404" lon="14.012223"><ele>503.75</ele></trkpt>
   <trkpt lat="49.689531" lon="14.012823"><ele>505.25</ele></trkpt>
   <trkpt lat="49.689681" lon="14.013587"><ele>506.75</ele></trkpt>
   <trkpt lat="49.689697" lon="14.013677"><ele>507</ele></trkpt>
   <trkpt lat="49.689705" lon="14.013724"><ele>507.25</ele></trkpt>
   <trkpt lat="49.689719" lon="14.013797"><ele>507.5</ele></trkpt>
   <trkpt lat="49.68988" lon="14.014706"><ele>510.5</ele></trkpt>
   <trkpt lat="49.689973" lon="14.015289"><ele>512.75</ele></trkpt>
   <trkpt lat="49.69" lon="14.015474"><ele>513.5</ele></trkpt>
   <trkpt lat="49.690016" lon="14.015667"><ele>514.25</ele></trkpt>
   <trkpt lat="49.690049" lon="14.016177"><ele>516.25</ele></trkpt>
   <trkpt lat="49.690106" lon="14.018367"><ele>525.75</ele></trkpt>
   <trkpt lat="49.690102" lon="14.018512"><ele>526.75</ele></trkpt>
   <trkpt lat="49.690085" lon="14.018652"><ele>527.25</ele></trkpt>
   <trkpt lat="49.689846" lon="14.019774"><ele>531</ele></trkpt>
   <trkpt lat="49.689753" lon="14.020255"><ele>533.75</ele></trkpt>
   <trkpt lat="49.689699" lon="14.020524"><ele>534.75</ele></trkpt>
   <trkpt lat="49.689662" lon="14.02072"><ele>535.5</ele></trkpt>
   <trkpt lat="49.689634" lon="14.020875"><ele>536</ele></trkpt>
   <trkpt lat="49.689596" lon="14.021122"><ele>537</ele></trkpt>
   <trkpt lat="49.689591" lon="14.021374"><ele>537.75</ele></trkpt>
   <trkpt lat="49.689601" lon="14.021528"><ele>538</ele></trkpt>
   <trkpt lat="49.689718" lon="14.022481"><ele>539.75</ele></trkpt>
   <trkpt lat="49.689838" lon="14.023476"><ele>543.5</ele></trkpt>
   <trkpt lat="49.689965" lon="14.024554"><ele>547.25</ele></trkpt>
   <trkpt lat="49.689983" lon="14.024704"><ele>547.75</ele></trkpt>
   <trkpt lat="49.69005" lon="14.025263"><ele>549.75</ele></trkpt>
   <trkpt lat="49.690102" lon="14.025834"><ele>551.25</ele></trkpt>
   <trkpt lat="49.690115" lon="14.026025"><ele>551.25</ele></trkpt>
   <trkpt lat="49.690202" lon="14.027204"><ele>553.25</ele></trkpt>
   <trkpt lat="49.690245" lon="14.027771"><ele>554.5</ele></trkpt>
   <trkpt lat="49.690262" lon="14.027993"><ele>554.75</ele></trkpt>
   <trkpt lat="49.690278" lon="14.028182"><ele>555</ele></trkpt>
   <trkpt lat="49.690313" lon="14.028639"><ele>555</ele></trkpt>
   <trkpt lat="49.69038" lon="14.029575"><ele>556</ele></trkpt>
   <trkpt lat="49.690453" lon="14.03049"><ele>556.25</ele></trkpt>
   <trkpt lat="49.690519" lon="14.031422"><ele>557.5</ele></trkpt>
   <trkpt lat="49.690565" lon="14.032064"><ele>558</ele></trkpt>
   <trkpt lat="49.690629" lon="14.032891"><ele>558.25</ele></trkpt>
   <trkpt lat="49.690692" lon="14.033725"><ele>559.25</ele></trkpt>
   <trkpt lat="49.690716" lon="14.034036"><ele>559.25</ele></trkpt>
   <trkpt lat="49.690731" lon="14.034235"><ele>559.5</ele></trkpt>
   <trkpt lat="49.690777" lon="14.034899"><ele>560.5</ele></trkpt>
   <trkpt lat="49.690828" lon="14.03524"><ele>560</ele></trkpt>
   <trkpt lat="49.690851" lon="14.035354"><ele>560.25</ele></trkpt>
   <trkpt lat="49.69101" lon="14.035883"><ele>559.75</ele></trkpt>
   <trkpt lat="49.691257" lon="14.03665"><ele>555.75</ele></trkpt>
   <trkpt lat="49.691482" lon="14.037348"><ele>550.75</ele></trkpt>
   <trkpt lat="49.691674" lon="14.037946"><ele>545.75</ele></trkpt>
   <trkpt lat="49.691807" lon="14.038358"><ele>543.25</ele></trkpt>
   <trkpt lat="49.691967" lon="14.038854"><ele>540.75</ele></trkpt>
   <trkpt lat="49.692069" lon="14.039169"><ele>538</ele></trkpt>
   <trkpt lat="49.692107" lon="14.039289"><ele>537.75</ele></trkpt>
   <trkpt lat="49.692705" lon="14.041143"><ele>528</ele></trkpt>
   <trkpt lat="49.69402" lon="14.045219"><ele>503.5</ele></trkpt>
   <trkpt lat="49.694064" lon="14.045354"><ele>503.5</ele></trkpt>
   <trkpt lat="49.694297" lon="14.046082"><ele>502</ele></trkpt>
   <trkpt lat="49.694372" lon="14.046351"><ele>501.25</ele></trkpt>
   <trkpt lat="49.694435" lon="14.046631"><ele>501.75</ele></trkpt>
   <trkpt lat="49.694524" lon="14.04714"><ele>499.75</ele></trkpt>
   <trkpt lat="49.694792" lon="14.048747"><ele>495.25</ele></trkpt>
   <trkpt lat="49.694857" lon="14.049174"><ele>493.75</ele></trkpt>
   <trkpt lat="49.694915" lon="14.049711"><ele>492.25</ele></trkpt>
   <trkpt lat="49.694928" lon="14.050062"><ele>491.25</ele></trkpt>
   <trkpt lat="49.694928" lon="14.050483"><ele>489.5</ele></trkpt>
   <trkpt lat="49.694946" lon="14.050691"><ele>489</ele></trkpt>
   <trkpt lat="49.694971" lon="14.050809"><ele>488.75</ele></trkpt>
   <trkpt lat="49.695006" lon="14.050906"><ele>489</ele></trkpt>
   <trkpt lat="49.695048" lon="14.050991"><ele>489</ele></trkpt>
   <trkpt lat="49.695634" lon="14.051658"><ele>487</ele></trkpt>
   <trkpt lat="49.695774" lon="14.051801"><ele>486.5</ele></trkpt>
   <trkpt lat="49.695908" lon="14.051946"><ele>485.75</ele></trkpt>
   <trkpt lat="49.696141" lon="14.05219"><ele>485</ele></trkpt>
   <trkpt lat="49.696392" lon="14.052437"><ele>483.75</ele></trkpt>
   <trkpt lat="49.696909" lon="14.052872"><ele>481.5</ele></trkpt>
   <trkpt lat="49.697035" lon="14.052974"><ele>481</ele></trkpt>
   <trkpt lat="49.697218" lon="14.053123"><ele>480</ele></trkpt>
   <trkpt lat="49.697702" lon="14.053518"><ele>478</ele></trkpt>
   <trkpt lat="49.697801" lon="14.053597"><ele>477.75</ele></trkpt>
   <trkpt lat="49.698037" lon="14.053819"><ele>476.75</ele></trkpt>
   <trkpt lat="49.698694" lon="14.054493"><ele>476</ele></trkpt>
   <trkpt lat="49.698914" lon="14.054715"><ele>476</ele></trkpt>
   <trkpt lat="49.699013" lon="14.054846"><ele>476</ele></trkpt>
   <trkpt lat="49.699106" lon="14.054986"><ele>476.25</ele></trkpt>
   <trkpt lat="49.699285" lon="14.055331"><ele>476</ele></trkpt>
   <trkpt lat="49.699497" lon="14.055784"><ele>476</ele></trkpt>
   <trkpt lat="49.700072" lon="14.056987"><ele>476.25</ele></trkpt>
   <trkpt lat="49.70017" lon="14.057171"><ele>476.25</ele></trkpt>
   <trkpt lat="49.700243" lon="14.057292"><ele>476.75</ele></trkpt>
   <trkpt lat="49.700322" lon="14.057403"><ele>477.5</ele></trkpt>
   <trkpt lat="49.700407" lon="14.057504"><ele>477.75</ele></trkpt>
   <trkpt lat="49.700573" lon="14.057657"><ele>478</ele></trkpt>
   <trkpt lat="49.700755" lon="14.057776"><ele>478.5</ele></trkpt>
   <trkpt lat="49.700908" lon="14.05784"><ele>479</ele></trkpt>
   <trkpt lat="49.701095" lon="14.057885"><ele>479.75</ele></trkpt>
   <trkpt lat="49.701552" lon="14.057884"><ele>482</ele></trkpt>
   <trkpt lat="49.702872" lon="14.068233"><ele>463.25</ele></trkpt>
   <trkpt lat="49.703103" lon="14.070047"><ele>461</ele></trkpt>
   <trkpt lat="49.70394" lon="14.076829"><ele>452</ele></trkpt>
   <trkpt lat="49.704705" lon="14.08273"><ele>451</ele></trkpt>
   <trkpt lat="49.704805" lon="14.08355"><ele>449.75</ele></trkpt>
   <trkpt lat="49.704892" lon="14.084397"><ele>449.5</ele></trkpt>
   <trkpt lat="49.704947" lon="14.085059"><ele>449.75</ele></trkpt>
   <trkpt lat="49.705005" lon="14.086091"><ele>449.75</ele></trkpt>
   <trkpt lat="49.705015" lon="14.086536"><ele>449.75</ele></trkpt>
   <trkpt lat="49.70503" lon="14.086943"><ele>449.75</ele></trkpt>
   <trkpt lat="49.705029" lon="14.087358"><ele>449.5</ele></trkpt>
   <trkpt lat="49.705039" lon="14.088381"><ele>447.75</ele></trkpt>
   <trkpt lat="49.705038" lon="14.088833"><ele>450.5</ele></trkpt>
   <trkpt lat="49.705021" lon="14.088953"><ele>451</ele></trkpt>
   <trkpt lat="49.704979" lon="14.088945"><ele>451</ele></trkpt>
   <trkpt lat="49.704937" lon="14.088952"><ele>450.75</ele></trkpt>
   <trkpt lat="49.704897" lon="14.088973"><ele>450.75</ele></trkpt>
   <trkpt lat="49.704861" lon="14.089007"><ele>450.5</ele></trkpt>
   <trkpt lat="49.704831" lon="14.089053"><ele>450.5</ele></trkpt>
   <trkpt lat="49.704808" lon="14.089107"><ele>450.5</ele></trkpt>
   <trkpt lat="49.704726" lon="14.089057"><ele>450</ele></trkpt>
   <trkpt lat="49.704642" lon="14.089023"><ele>449.5</ele></trkpt>
   <trkpt lat="49.704533" lon="14.089001"><ele>449.25</ele></trkpt>
   <trkpt lat="49.704303" lon="14.08898"><ele>448.5</ele></trkpt>
   <trkpt lat="49.704233" lon="14.088963"><ele>448.25</ele></trkpt>
   <trkpt lat="49.704165" lon="14.08893"><ele>447.5</ele></trkpt>
   <trkpt lat="49.704091" lon="14.088876"><ele>447.75</ele></trkpt>
   <trkpt lat="49.704041" lon="14.088818"><ele>448.5</ele></trkpt>
   <trkpt lat="49.704001" lon="14.088758"><ele>448.75</ele></trkpt>
   <trkpt lat="49.703967" lon="14.088693"><ele>448.5</ele></trkpt>
   <trkpt lat="49.703939" lon="14.088618"><ele>448.25</ele></trkpt>
   <trkpt lat="49.7039" lon="14.088446"><ele>446.25</ele></trkpt>
   <trkpt lat="49.703893" lon="14.088181"><ele>445</ele></trkpt>
   <trkpt lat="49.703939" lon="14.088019"><ele>445.75</ele></trkpt>
   <trkpt lat="49.703999" lon="14.087888"><ele>445.5</ele></trkpt>
   <trkpt lat="49.704075" lon="14.087765"><ele>444.25</ele></trkpt>
   <trkpt lat="49.704097" lon="14.087742"><ele>443.75</ele></trkpt>
   <trkpt lat="49.704146" lon="14.087692"><ele>443.75</ele></trkpt>
   <trkpt lat="49.704221" lon="14.087642"><ele>443.5</ele></trkpt>
   <trkpt lat="49.704292" lon="14.087623"><ele>443.25</ele></trkpt>
   <trkpt lat="49.704379" lon="14.087622"><ele>443.25</ele></trkpt>
   <trkpt lat="49.704477" lon="14.087656"><ele>443.25</ele></trkpt>
   <trkpt lat="49.704804" lon="14.087819"><ele>443.25</ele></trkpt>
   <trkpt lat="49.705262" lon="14.088214"><ele>443</ele></trkpt>
   <trkpt lat="49.705847" lon="14.088749"><ele>442</ele></trkpt>
   <trkpt lat="49.706292" lon="14.089175"><ele>442.25</ele></trkpt>
   <trkpt lat="49.706774" lon="14.089679"><ele>442.5</ele></trkpt>
   <trkpt lat="49.706861" lon="14.089773"><ele>442.25</ele></trkpt>
   <trkpt lat="49.707409" lon="14.090423"><ele>442</ele></trkpt>
   <trkpt lat="49.707872" lon="14.091016"><ele>442.5</ele></trkpt>
   <trkpt lat="49.708344" lon="14.091642"><ele>442</ele></trkpt>
   <trkpt lat="49.709111" lon="14.092802"><ele>442</ele></trkpt>
   <trkpt lat="49.70917" lon="14.092902"><ele>441.75</ele></trkpt>
   <trkpt lat="49.709562" lon="14.093571"><ele>441.25</ele></trkpt>
   <trkpt lat="49.709983" lon="14.094333"><ele>442</ele></trkpt>
   <trkpt lat="49.71043" lon="14.095228"><ele>441.75</ele></trkpt>
   <trkpt lat="49.710866" lon="14.096127"><ele>443.75</ele></trkpt>
   <trkpt lat="49.712441" lon="14.099562"><ele>445</ele></trkpt>
   <trkpt lat="49.713763" lon="14.102273"><ele>445.75</ele></trkpt>
   <trkpt lat="49.714076" lon="14.102875"><ele>446</ele></trkpt>
   <trkpt lat="49.714682" lon="14.10396"><ele>446.25</ele></trkpt>
   <trkpt lat="49.715576" lon="14.105454"><ele>446</ele></trkpt>
   <trkpt lat="49.716385" lon="14.106672"><ele>445</ele></trkpt>
   <trkpt lat="49.717016" lon="14.10757"><ele>444.5</ele></trkpt>
   <trkpt lat="49.71916" lon="14.110467"><ele>438</ele></trkpt>
   <trkpt lat="49.719781" lon="14.111327"><ele>435.25</ele></trkpt>
   <trkpt lat="49.720317" lon="14.112048"><ele>434</ele></trkpt>
   <trkpt lat="49.720857" lon="14.112862"><ele>432.5</ele></trkpt>
   <trkpt lat="49.721583" lon="14.114089"><ele>431.5</ele></trkpt>
   <trkpt lat="49.722121" lon="14.115053"><ele>430.5</ele></trkpt>
   <trkpt lat="49.722431" lon="14.115656"><ele>430</ele></trkpt>
   <trkpt lat="49.722666" lon="14.116152"><ele>429.75</ele></trkpt>
   <trkpt lat="49.723096" lon="14.117106"><ele>428.5</ele></trkpt>
   <trkpt lat="49.723412" lon="14.117866"><ele>428</ele></trkpt>
   <trkpt lat="49.723901" lon="14.119174"><ele>426</ele></trkpt>
   <trkpt lat="49.724283" lon="14.120304"><ele>427</ele></trkpt>
   <trkpt lat="49.724586" lon="14.121293"><ele>426.25</ele></trkpt>
   <trkpt lat="49.725985" lon="14.125965"><ele>423</ele></trkpt>
   <trkpt lat="49.726516" lon="14.127542"><ele>422.5</ele></trkpt>
   <trkpt lat="49.726877" lon="14.128511"><ele>422</ele></trkpt>
   <trkpt lat="49.727233" lon="14.129384"><ele>422</ele></trkpt>
   <trkpt lat="49.727725" lon="14.130521"><ele>421.5</ele></trkpt>
   <trkpt lat="49.728208" lon="14.131501"><ele>421</ele></trkpt>
   <trkpt lat="49.728603" lon="14.132266"><ele>419.5</ele></trkpt>
   <trkpt lat="49.729375" lon="14.133593"><ele>418.75</ele></trkpt>
   <trkpt lat="49.72964" lon="14.134016"><ele>418.75</ele></trkpt>
   <trkpt lat="49.730025" lon="14.134602"><ele>416.75</ele></trkpt>
   <trkpt lat="49.730503" lon="14.135268"><ele>416.25</ele></trkpt>
   <trkpt lat="49.730912" lon="14.135822"><ele>414.5</ele></trkpt>
   <trkpt lat="49.731428" lon="14.136453"><ele>413.75</ele></trkpt>
   <trkpt lat="49.73215" lon="14.137263"><ele>411.25</ele></trkpt>
   <trkpt lat="49.732506" lon="14.137631"><ele>410.75</ele></trkpt>
   <trkpt lat="49.732986" lon="14.138106"><ele>408.75</ele></trkpt>
   <trkpt lat="49.733413" lon="14.138506"><ele>407.5</ele></trkpt>
   <trkpt lat="49.73408" lon="14.13908"><ele>406.25</ele></trkpt>
   <trkpt lat="49.73464" lon="14.139536"><ele>404.5</ele></trkpt>
   <trkpt lat="49.735229" lon="14.13999"><ele>403.75</ele></trkpt>
   <trkpt lat="49.736108" lon="14.140574"><ele>401.5</ele></trkpt>
   <trkpt lat="49.736745" lon="14.14096"><ele>399</ele></trkpt>
   <trkpt lat="49.73935" lon="14.142447"><ele>392.5</ele></trkpt>
   <trkpt lat="49.739748" lon="14.142683"><ele>391.25</ele></trkpt>
   <trkpt lat="49.740172" lon="14.14296"><ele>391</ele></trkpt>
   <trkpt lat="49.740678" lon="14.143326"><ele>390.5</ele></trkpt>
   <trkpt lat="49.741291" lon="14.143787"><ele>390.25</ele></trkpt>
   <trkpt lat="49.7421" lon="14.144505"><ele>389.5</ele></trkpt>
   <trkpt lat="49.742517" lon="14.144907"><ele>389</ele></trkpt>
   <trkpt lat="49.743166" lon="14.145591"><ele>388.75</ele></trkpt>
   <trkpt lat="49.74373" lon="14.146267"><ele>388.25</ele></trkpt>
   <trkpt lat="49.744303" lon="14.146996"><ele>388.5</ele></trkpt>
   <trkpt lat="49.745086" lon="14.148106"><ele>389.5</ele></trkpt>
   <trkpt lat="49.745877" lon="14.149279"><ele>390.25</ele></trkpt>
   <trkpt lat="49.747237" lon="14.151224"><ele>393.75</ele></trkpt>
   <trkpt lat="49.747635" lon="14.151752"><ele>394.75</ele></trkpt>
   <trkpt lat="49.748485" lon="14.152812"><ele>395</ele></trkpt>
   <trkpt lat="49.74889" lon="14.153289"><ele>396</ele></trkpt>
   <trkpt lat="49.749433" lon="14.153877"><ele>396</ele></trkpt>
   <trkpt lat="49.749983" lon="14.154415"><ele>396.25</ele></trkpt>
   <trkpt lat="49.750755" lon="14.155102"><ele>396.75</ele></trkpt>
   <trkpt lat="49.751273" lon="14.155555"><ele>396.25</ele></trkpt>
   <trkpt lat="49.75206" lon="14.156174"><ele>395.75</ele></trkpt>
   <trkpt lat="49.752954" lon="14.156754"><ele>394.25</ele></trkpt>
   <trkpt lat="49.755506" lon="14.158304"><ele>389</ele></trkpt>
   <trkpt lat="49.755777" lon="14.158459"><ele>388.5</ele></trkpt>
   <trkpt lat="49.75686" lon="14.159125"><ele>387.75</ele></trkpt>
   <trkpt lat="49.758115" lon="14.159961"><ele>386</ele></trkpt>
   <trkpt lat="49.758618" lon="14.160365"><ele>385.5</ele></trkpt>
   <trkpt lat="49.759175" lon="14.160836"><ele>384.75</ele></trkpt>
   <trkpt lat="49.759729" lon="14.16134"><ele>383</ele></trkpt>
   <trkpt lat="49.760264" lon="14.161862"><ele>382.25</ele></trkpt>
   <trkpt lat="49.761106" lon="14.162781"><ele>381</ele></trkpt>
   <trkpt lat="49.761482" lon="14.163236"><ele>381.25</ele></trkpt>
   <trkpt lat="49.761856" lon="14.163703"><ele>380.25</ele></trkpt>
   <trkpt lat="49.762131" lon="14.16407"><ele>379.5</ele></trkpt>
   <trkpt lat="49.762498" lon="14.164579"><ele>379</ele></trkpt>
   <trkpt lat="49.762775" lon="14.164997"><ele>378</ele></trkpt>
   <trkpt lat="49.763008" lon="14.165355"><ele>375</ele></trkpt>
   <trkpt lat="49.763361" lon="14.16607"><ele>376.75</ele></trkpt>
   <trkpt lat="49.763407" lon="14.166251"><ele>376.5</ele></trkpt>
   <trkpt lat="49.76342" lon="14.16642"><ele>376.25</ele></trkpt>
   <trkpt lat="49.763414" lon="14.166506"><ele>376</ele></trkpt>
   <trkpt lat="49.763401" lon="14.166589"><ele>376</ele></trkpt>
   <trkpt lat="49.763349" lon="14.166747"><ele>376</ele></trkpt>
   <trkpt lat="49.763311" lon="14.166818"><ele>375.75</ele></trkpt>
   <trkpt lat="49.763266" lon="14.166879"><ele>375.75</ele></trkpt>
   <trkpt lat="49.763216" lon="14.166928"><ele>375.5</ele></trkpt>
   <trkpt lat="49.763088" lon="14.167002"><ele>374.75</ele></trkpt>
   <trkpt lat="49.763032" lon="14.167014"><ele>374.5</ele></trkpt>
   <trkpt lat="49.762973" lon="14.167016"><ele>374.5</ele></trkpt>
   <trkpt lat="49.76291" lon="14.166998"><ele>374.5</ele></trkpt>
   <trkpt lat="49.762849" lon="14.166967"><ele>374.75</ele></trkpt>
   <trkpt lat="49.762794" lon="14.166921"><ele>375</ele></trkpt>
   <trkpt lat="49.762743" lon="14.166858"><ele>375</ele></trkpt>
   <trkpt lat="49.762533" lon="14.16652"><ele>375</ele></trkpt>
   <trkpt lat="49.762448" lon="14.16629"><ele>375</ele></trkpt>
   <trkpt lat="49.762419" lon="14.166135"><ele>375</ele></trkpt>
   <trkpt lat="49.762421" lon="14.165993"><ele>374.25</ele></trkpt>
   <trkpt lat="49.762443" lon="14.165893"><ele>373.5</ele></trkpt>
   <trkpt lat="49.762504" lon="14.165755"><ele>374</ele></trkpt>
   <trkpt lat="49.762631" lon="14.165572"><ele>375</ele></trkpt>
   <trkpt lat="49.763385" lon="14.164405"><ele>371.75</ele></trkpt>
   <trkpt lat="49.763525" lon="14.164226"><ele>372</ele></trkpt>
   <trkpt lat="49.763647" lon="14.164085"><ele>370</ele></trkpt>
   <trkpt lat="49.763777" lon="14.163967"><ele>370</ele></trkpt>
   <trkpt lat="49.763851" lon="14.163921"><ele>370</ele></trkpt>
   <trkpt lat="49.763964" lon="14.163867"><ele>370</ele></trkpt>
   <trkpt lat="49.764088" lon="14.163831"><ele>370.25</ele></trkpt>
   <trkpt lat="49.764187" lon="14.163817"><ele>370</ele></trkpt>
   <trkpt lat="49.76428" lon="14.163815"><ele>369.5</ele></trkpt>
   <trkpt lat="49.764399" lon="14.163835"><ele>369</ele></trkpt>
   <trkpt lat="49.764504" lon="14.163864"><ele>368.75</ele></trkpt>
   <trkpt lat="49.764646" lon="14.163921"><ele>368.75</ele></trkpt>
   <trkpt lat="49.764765" lon="14.163987"><ele>367.75</ele></trkpt>
   <trkpt lat="49.764973" lon="14.164136"><ele>366.75</ele></trkpt>
   <trkpt lat="49.765041" lon="14.164185"><ele>367</ele></trkpt>
   <trkpt lat="49.766521" lon="14.165324"><ele>372</ele></trkpt>
   <trkpt lat="49.766773" lon="14.165432"><ele>373</ele></trkpt>
   <trkpt lat="49.767011" lon="14.165481"><ele>373.75</ele></trkpt>
   <trkpt lat="49.768306" lon="14.165552"><ele>369</ele></trkpt>
   <trkpt lat="49.7703" lon="14.166389"><ele>375</ele></trkpt>
   <trkpt lat="49.771774" lon="14.166775"><ele>377.75</ele></trkpt>
   <trkpt lat="49.771983" lon="14.166826"><ele>378</ele></trkpt>
   <trkpt lat="49.773454" lon="14.167217"><ele>378</ele></trkpt>
   <trkpt lat="49.773942" lon="14.167345"><ele>378.5</ele></trkpt>
   <trkpt lat="49.774335" lon="14.167457"><ele>379.75</ele></trkpt>
   <trkpt lat="49.775043" lon="14.167651"><ele>381.5</ele></trkpt>
   <trkpt lat="49.775185" lon="14.167686"><ele>382.25</ele></trkpt>
   <trkpt lat="49.775337" lon="14.167722"><ele>383</ele></trkpt>
   <trkpt lat="49.775562" lon="14.167782"><ele>383</ele></trkpt>
   <trkpt lat="49.776312" lon="14.167996"><ele>385</ele></trkpt>
   <trkpt lat="49.777111" lon="14.168188"><ele>385.75</ele></trkpt>
   <trkpt lat="49.777165" lon="14.168201"><ele>385.75</ele></trkpt>
   <trkpt lat="49.777978" lon="14.168413"><ele>386</ele></trkpt>
   <trkpt lat="49.778132" lon="14.168452"><ele>385.5</ele></trkpt>
   <trkpt lat="49.778844" lon="14.168631"><ele>383.75</ele></trkpt>
   <trkpt lat="49.779083" lon="14.168613"><ele>383.25</ele></trkpt>
   <trkpt lat="49.779219" lon="14.168559"><ele>382.75</ele></trkpt>
   <trkpt lat="49.779741" lon="14.168334"><ele>380.75</ele></trkpt>
   <trkpt lat="49.779917" lon="14.168274"><ele>381</ele></trkpt>
   <trkpt lat="49.780005" lon="14.168259"><ele>380.75</ele></trkpt>
   <trkpt lat="49.780093" lon="14.168257"><ele>380.5</ele></trkpt>
   <trkpt lat="49.780289" lon="14.168294"><ele>379.75</ele></trkpt>
   <trkpt lat="49.780379" lon="14.168329"><ele>379.5</ele></trkpt>
   <trkpt lat="49.780611" lon="14.168459"><ele>378.75</ele></trkpt>
   <trkpt lat="49.780704" lon="14.168514"><ele>378.5</ele></trkpt>
   <trkpt lat="49.780779" lon="14.168579"><ele>378.25</ele></trkpt>
   <trkpt lat="49.780871" lon="14.168709"><ele>377.75</ele></trkpt>
   <trkpt lat="49.780928" lon="14.168819"><ele>377.5</ele></trkpt>
   <trkpt lat="49.781039" lon="14.168754"><ele>377.5</ele></trkpt>
   <trkpt lat="49.781113" lon="14.168705"><ele>377.5</ele></trkpt>
   <trkpt lat="49.781136" lon="14.168681"><ele>377.5</ele></trkpt>
   <trkpt lat="49.781149" lon="14.168652"><ele>377.75</ele></trkpt>
   <trkpt lat="49.781192" lon="14.168748"><ele>377.5</ele></trkpt>
   <trkpt lat="49.781229" lon="14.168874"><ele>377</ele></trkpt>
   <trkpt lat="49.781319" lon="14.169502"><ele>376.25</ele></trkpt>
   <trkpt lat="49.781427" lon="14.170082"><ele>375.75</ele></trkpt>
   <trkpt lat="49.781548" lon="14.170592"><ele>375.25</ele></trkpt>
   <trkpt lat="49.781639" lon="14.170768"><ele>375</ele></trkpt>
   <trkpt lat="49.781659" lon="14.170793"><ele>375</ele></trkpt>
   <trkpt lat="49.781705" lon="14.170853"><ele>375</ele></trkpt>
   <trkpt lat="49.781783" lon="14.1709"><ele>375</ele></trkpt>
   <trkpt lat="49.781959" lon="14.17096"><ele>375</ele></trkpt>
   <trkpt lat="49.782156" lon="14.171098"><ele>375</ele></trkpt>
   <trkpt lat="49.782364" lon="14.171203"><ele>374.25</ele></trkpt>
   <trkpt lat="49.782439" lon="14.171209"><ele>374</ele></trkpt>
   <trkpt lat="49.782481" lon="14.171222"><ele>374</ele></trkpt>
   <trkpt lat="49.782714" lon="14.171307"><ele>374</ele></trkpt>
   <trkpt lat="49.782812" lon="14.171323"><ele>373.75</ele></trkpt>
   <trkpt lat="49.782903" lon="14.171321"><ele>373.5</ele></trkpt>
   <trkpt lat="49.782937" lon="14.171312"><ele>373.25</ele></trkpt>
   <trkpt lat="49.783179" lon="14.171168"><ele>372.5</ele></trkpt>
   <trkpt lat="49.783667" lon="14.170918"><ele>370.75</ele></trkpt>
   <trkpt lat="49.783798" lon="14.170867"><ele>370.25</ele></trkpt>
   <trkpt lat="49.784062" lon="14.170788"><ele>369</ele></trkpt>
   <trkpt lat="49.784192" lon="14.17074"><ele>368.75</ele></trkpt>
   <trkpt lat="49.784218" lon="14.170727"><ele>368.75</ele></trkpt>
   <trkpt lat="49.784225" lon="14.170762"><ele>369</ele></trkpt>
   <trkpt lat="49.78424" lon="14.170792"><ele>369</ele></trkpt>
   <trkpt lat="49.784272" lon="14.170819"><ele>369.25</ele></trkpt>
   <trkpt lat="49.784297" lon="14.170821"><ele>369.25</ele></trkpt>
   <trkpt lat="49.784321" lon="14.170809"><ele>369.5</ele></trkpt>
   <trkpt lat="49.784347" lon="14.170772"><ele>369.5</ele></trkpt>
   <trkpt lat="49.784369" lon="14.170806"><ele>369.5</ele></trkpt>
   <trkpt lat="49.784436" lon="14.170867"><ele>369.75</ele></trkpt>
   <trkpt lat="49.785082" lon="14.171412"><ele>372</ele></trkpt>
   <trkpt lat="49.785734" lon="14.171857"><ele>370.5</ele></trkpt>
   <trkpt lat="49.785781" lon="14.17189"><ele>370.25</ele></trkpt>
   <trkpt lat="49.786012" lon="14.172038"><ele>369.75</ele></trkpt>
   <trkpt lat="49.786233" lon="14.172153"><ele>368.75</ele></trkpt>
   <trkpt lat="49.786311" lon="14.172195"><ele>368.25</ele></trkpt>
   <trkpt lat="49.786397" lon="14.172286"><ele>367.75</ele></trkpt>
   <trkpt lat="49.786442" lon="14.172367"><ele>367.75</ele></trkpt>
   <trkpt lat="49.786604" lon="14.172721"><ele>366.25</ele></trkpt>
   <trkpt lat="49.786733" lon="14.172952"><ele>364.75</ele></trkpt>
   <trkpt lat="49.786837" lon="14.173199"><ele>364</ele></trkpt>
   <trkpt lat="49.786868" lon="14.173329"><ele>364</ele></trkpt>
   <trkpt lat="49.786929" lon="14.173687"><ele>364.75</ele></trkpt>
   <trkpt lat="49.787015" lon="14.174172"><ele>364.75</ele></trkpt>
   <trkpt lat="49.787129" lon="14.174709"><ele>362.5</ele></trkpt>
   <trkpt lat="49.787189" lon="14.174963"><ele>364.75</ele></trkpt>
   <trkpt lat="49.787245" lon="14.175158"><ele>366.25</ele></trkpt>
   <trkpt lat="49.787279" lon="14.175282"><ele>366.75</ele></trkpt>
   <trkpt lat="49.787729" lon="14.175562"><ele>366</ele></trkpt>
   <trkpt lat="49.788127" lon="14.175853"><ele>366.75</ele></trkpt>
   <trkpt lat="49.788272" lon="14.176019"><ele>366.5</ele></trkpt>
   <trkpt lat="49.788409" lon="14.176212"><ele>366.25</ele></trkpt>
   <trkpt lat="49.788569" lon="14.176483"><ele>366.75</ele></trkpt>
   <trkpt lat="49.78872" lon="14.176719"><ele>366.75</ele></trkpt>
   <trkpt lat="49.788824" lon="14.176866"><ele>366.75</ele></trkpt>
   <trkpt lat="49.788929" lon="14.176991"><ele>366.5</ele></trkpt>
   <trkpt lat="49.789077" lon="14.177155"><ele>366.5</ele></trkpt>
   <trkpt lat="49.789577" lon="14.177531"><ele>367.75</ele></trkpt>
   <trkpt lat="49.789708" lon="14.177632"><ele>367.75</ele></trkpt>
   <trkpt lat="49.789921" lon="14.177807"><ele>367.75</ele></trkpt>
   <trkpt lat="49.790333" lon="14.178125"><ele>369</ele></trkpt>
   <trkpt lat="49.790503" lon="14.178259"><ele>369.75</ele></trkpt>
   <trkpt lat="49.790845" lon="14.178541"><ele>371.25</ele></trkpt>
   <trkpt lat="49.790952" lon="14.178644"><ele>371.75</ele></trkpt>
   <trkpt lat="49.791153" lon="14.17889"><ele>373.25</ele></trkpt>
   <trkpt lat="49.791236" lon="14.179003"><ele>373.75</ele></trkpt>
   <trkpt lat="49.791532" lon="14.179394"><ele>376</ele></trkpt>
   <trkpt lat="49.791755" lon="14.179715"><ele>377.75</ele></trkpt>
   <trkpt lat="49.791979" lon="14.180032"><ele>379.25</ele></trkpt>
   <trkpt lat="49.792082" lon="14.180173"><ele>379.75</ele></trkpt>
   <trkpt lat="49.792612" lon="14.180922"><ele>386</ele></trkpt>
   <trkpt lat="49.79294" lon="14.181377"><ele>388.75</ele></trkpt>
   <trkpt lat="49.793006" lon="14.181552"><ele>389.25</ele></trkpt>
   <trkpt lat="49.793048" lon="14.181752"><ele>389.75</ele></trkpt>
   <trkpt lat="49.793058" lon="14.182054"><ele>387.5</ele></trkpt>
   <trkpt lat="49.793123" lon="14.183948"><ele>387.5</ele></trkpt>
   <trkpt lat="49.793111" lon="14.184234"><ele>387.5</ele></trkpt>
   <trkpt lat="49.793081" lon="14.184585"><ele>387</ele></trkpt>
   <trkpt lat="49.79291" lon="14.185628"><ele>385</ele></trkpt>
   <trkpt lat="49.792857" lon="14.185897"><ele>384.75</ele></trkpt>
   <trkpt lat="49.792515" lon="14.187043"><ele>382</ele></trkpt>
   <trkpt lat="49.79247" lon="14.187192"><ele>381.75</ele></trkpt>
   <trkpt lat="49.792426" lon="14.18735"><ele>381.5</ele></trkpt>
   <trkpt lat="49.792362" lon="14.187556"><ele>381.25</ele></trkpt>
   <trkpt lat="49.792499" lon="14.1877"><ele>381.75</ele></trkpt>
   <trkpt lat="49.79278" lon="14.188013"><ele>384</ele></trkpt>
   <trkpt lat="49.793118" lon="14.188421"><ele>386.25</ele></trkpt>
   <trkpt lat="49.793315" lon="14.188662"><ele>387.5</ele></trkpt>
   <trkpt lat="49.793712" lon="14.189149"><ele>390</ele></trkpt>
   <trkpt lat="49.794323" lon="14.189892"><ele>392.25</ele></trkpt>
   <trkpt lat="49.794449" lon="14.190045"><ele>392.75</ele></trkpt>
   <trkpt lat="49.794477" lon="14.190079"><ele>392.5</ele></trkpt>
   <trkpt lat="49.794656" lon="14.190299"><ele>392.5</ele></trkpt>
   <trkpt lat="49.794684" lon="14.190333"><ele>392.75</ele></trkpt>
   <trkpt lat="49.794815" lon="14.19049"><ele>393</ele></trkpt>
   <trkpt lat="49.795169" lon="14.190916"><ele>394.25</ele></trkpt>
   <trkpt lat="49.795398" lon="14.191188"><ele>395.25</ele></trkpt>
   <trkpt lat="49.795817" lon="14.191688"><ele>396.75</ele></trkpt>
   <trkpt lat="49.796746" lon="14.192823"><ele>398.75</ele></trkpt>
   <trkpt lat="49.796942" lon="14.19309"><ele>399.75</ele></trkpt>
   <trkpt lat="49.797113" lon="14.193432"><ele>399.75</ele></trkpt>
   <trkpt lat="49.797225" lon="14.193707"><ele>400</ele></trkpt>
   <trkpt lat="49.797359" lon="14.194107"><ele>399.5</ele></trkpt>
   <trkpt lat="49.797432" lon="14.194354"><ele>399</ele></trkpt>
   <trkpt lat="49.797454" lon="14.194423"><ele>399</ele></trkpt>
   <trkpt lat="49.797603" lon="14.194726"><ele>398.25</ele></trkpt>
   <trkpt lat="49.79772" lon="14.194889"><ele>397.5</ele></trkpt>
   <trkpt lat="49.798266" lon="14.195346"><ele>396.25</ele></trkpt>
   <trkpt lat="49.798791" lon="14.195769"><ele>398.25</ele></trkpt>
   <trkpt lat="49.799173" lon="14.196073"><ele>400.75</ele></trkpt>
   <trkpt lat="49.799329" lon="14.1962"><ele>402</ele></trkpt>
   <trkpt lat="49.799458" lon="14.196311"><ele>403</ele></trkpt>
   <trkpt lat="49.799704" lon="14.196549"><ele>405</ele></trkpt>
   <trkpt lat="49.799782" lon="14.196638"><ele>405.75</ele></trkpt>
   <trkpt lat="49.799934" lon="14.196838"><ele>406.5</ele></trkpt>
   <trkpt lat="49.800005" lon="14.19695"><ele>407</ele></trkpt>
   <trkpt lat="49.800067" lon="14.197063"><ele>407.25</ele></trkpt>
   <trkpt lat="49.800122" lon="14.197185"><ele>407.75</ele></trkpt>
   <trkpt lat="49.800168" lon="14.197309"><ele>408.25</ele></trkpt>
   <trkpt lat="49.800206" lon="14.197439"><ele>409</ele></trkpt>
   <trkpt lat="49.80024" lon="14.197623"><ele>409.75</ele></trkpt>
   <trkpt lat="49.800254" lon="14.197848"><ele>410</ele></trkpt>
   <trkpt lat="49.800252" lon="14.198031"><ele>410.5</ele></trkpt>
   <trkpt lat="49.800221" lon="14.198466"><ele>411.25</ele></trkpt>
   <trkpt lat="49.800191" lon="14.198807"><ele>411.5</ele></trkpt>
   <trkpt lat="49.800187" lon="14.198962"><ele>411.5</ele></trkpt>
   <trkpt lat="49.800192" lon="14.199148"><ele>411.75</ele></trkpt>
   <trkpt lat="49.800211" lon="14.199341"><ele>412</ele></trkpt>
   <trkpt lat="49.800248" lon="14.199526"><ele>412.25</ele></trkpt>
   <trkpt lat="49.800275" lon="14.199625"><ele>412.25</ele></trkpt>
   <trkpt lat="49.800347" lon="14.199809"><ele>411.75</ele></trkpt>
   <trkpt lat="49.80044" lon="14.19997"><ele>411.5</ele></trkpt>
   <trkpt lat="49.800551" lon="14.200104"><ele>412.25</ele></trkpt>
   <trkpt lat="49.800612" lon="14.200158"><ele>412.5</ele></trkpt>
   <trkpt lat="49.800724" lon="14.200253"><ele>411.75</ele></trkpt>
   <trkpt lat="49.800794" lon="14.200293"><ele>411.25</ele></trkpt>
   <trkpt lat="49.800949" lon="14.200339"><ele>411.75</ele></trkpt>
   <trkpt lat="49.801087" lon="14.200349"><ele>412</ele></trkpt>
   <trkpt lat="49.801461" lon="14.200307"><ele>411.5</ele></trkpt>
   <trkpt lat="49.801647" lon="14.200297"><ele>411.25</ele></trkpt>
   <trkpt lat="49.80186" lon="14.200314"><ele>411.5</ele></trkpt>
   <trkpt lat="49.802016" lon="14.200356"><ele>412.25</ele></trkpt>
   <trkpt lat="49.802173" lon="14.200441"><ele>412.25</ele></trkpt>
   <trkpt lat="49.802248" lon="14.200498"><ele>412</ele></trkpt>
   <trkpt lat="49.802785" lon="14.200993"><ele>413.5</ele></trkpt>
   <trkpt lat="49.803994" lon="14.202399"><ele>416.75</ele></trkpt>
   <trkpt lat="49.805311" lon="14.203901"><ele>414.25</ele></trkpt>
   <trkpt lat="49.807313" lon="14.206254"><ele>409.75</ele></trkpt>
   <trkpt lat="49.808707" lon="14.207903"><ele>404.25</ele></trkpt>
   <trkpt lat="49.809477" lon="14.208792"><ele>400</ele></trkpt>
   <trkpt lat="49.809898" lon="14.209342"><ele>398.75</ele></trkpt>
   <trkpt lat="49.810442" lon="14.210134"><ele>396.5</ele></trkpt>
   <trkpt lat="49.810864" lon="14.21079"><ele>393</ele></trkpt>
   <trkpt lat="49.811297" lon="14.211603"><ele>391.75</ele></trkpt>
   <trkpt lat="49.81171" lon="14.212453"><ele>388</ele></trkpt>
   <trkpt lat="49.811905" lon="14.212869"><ele>387.5</ele></trkpt>
   <trkpt lat="49.812093" lon="14.213318"><ele>386</ele></trkpt>
   <trkpt lat="49.812347" lon="14.214015"><ele>385</ele></trkpt>
   <trkpt lat="49.813301" lon="14.216763"><ele>382.75</ele></trkpt>
   <trkpt lat="49.813605" lon="14.217494"><ele>382.75</ele></trkpt>
   <trkpt lat="49.813809" lon="14.217891"><ele>382</ele></trkpt>
   <trkpt lat="49.814002" lon="14.218253"><ele>381</ele></trkpt>
   <trkpt lat="49.814233" lon="14.218615"><ele>380.5</ele></trkpt>
   <trkpt lat="49.814465" lon="14.218955"><ele>379.5</ele></trkpt>
   <trkpt lat="49.814666" lon="14.219221"><ele>379.5</ele></trkpt>
   <trkpt lat="49.814863" lon="14.219438"><ele>379.25</ele></trkpt>
   <trkpt lat="49.815071" lon="14.219658"><ele>378.75</ele></trkpt>
   <trkpt lat="49.815482" lon="14.220031"><ele>379</ele></trkpt>
   <trkpt lat="49.816545" lon="14.220912"><ele>379.75</ele></trkpt>
   <trkpt lat="49.817557" lon="14.221833"><ele>380.5</ele></trkpt>
   <trkpt lat="49.818765" lon="14.222854"><ele>380.75</ele></trkpt>
   <trkpt lat="49.819582" lon="14.223623"><ele>382</ele></trkpt>
   <trkpt lat="49.8201" lon="14.224131"><ele>382.5</ele></trkpt>
   <trkpt lat="49.820744" lon="14.224836"><ele>383.5</ele></trkpt>
   <trkpt lat="49.821072" lon="14.225211"><ele>384</ele></trkpt>
   <trkpt lat="49.821821" lon="14.226067"><ele>385</ele></trkpt>
   <trkpt lat="49.822047" lon="14.226338"><ele>385.75</ele></trkpt>
   <trkpt lat="49.82461" lon="14.229244"><ele>395.5</ele></trkpt>
   <trkpt lat="49.826842" lon="14.231828"><ele>403.75</ele></trkpt>
   <trkpt lat="49.828873" lon="14.234158"><ele>412.75</ele></trkpt>
   <trkpt lat="49.834092" lon="14.240107"><ele>437</ele></trkpt>
   <trkpt lat="49.837007" lon="14.243451"><ele>453</ele></trkpt>
   <trkpt lat="49.837495" lon="14.243997"><ele>455.25</ele></trkpt>
   <trkpt lat="49.838033" lon="14.244612"><ele>458.5</ele></trkpt>
   <trkpt lat="49.838903" lon="14.245543"><ele>462</ele></trkpt>
   <trkpt lat="49.83925" lon="14.245883"><ele>461.5</ele></trkpt>
   <trkpt lat="49.839423" lon="14.246042"><ele>461</ele></trkpt>
   <trkpt lat="49.839981" lon="14.246534"><ele>465.5</ele></trkpt>
   <trkpt lat="49.840458" lon="14.2469"><ele>466.5</ele></trkpt>
   <trkpt lat="49.841081" lon="14.247334"><ele>467.25</ele></trkpt>
   <trkpt lat="49.84165" lon="14.247688"><ele>467.5</ele></trkpt>
   <trkpt lat="49.842354" lon="14.248106"><ele>466.5</ele></trkpt>
   <trkpt lat="49.845742" lon="14.249841"><ele>463.5</ele></trkpt>
   <trkpt lat="49.847424" lon="14.250642"><ele>462</ele></trkpt>
   <trkpt lat="49.848211" lon="14.251059"><ele>460.5</ele></trkpt>
   <trkpt lat="49.849687" lon="14.251899"><ele>457.25</ele></trkpt>
   <trkpt lat="49.850243" lon="14.252223"><ele>456</ele></trkpt>
   <trkpt lat="49.851105" lon="14.25276"><ele>453</ele></trkpt>
   <trkpt lat="49.852971" lon="14.253976"><ele>447.5</ele></trkpt>
   <trkpt lat="49.853743" lon="14.254519"><ele>445.5</ele></trkpt>
   <trkpt lat="49.85475" lon="14.255315"><ele>441.75</ele></trkpt>
   <trkpt lat="49.855246" lon="14.255786"><ele>439.5</ele></trkpt>
   <trkpt lat="49.855877" lon="14.256461"><ele>436.5</ele></trkpt>
   <trkpt lat="49.856297" lon="14.256972"><ele>434.5</ele></trkpt>
   <trkpt lat="49.856731" lon="14.257571"><ele>431.5</ele></trkpt>
   <trkpt lat="49.857106" lon="14.258116"><ele>429.5</ele></trkpt>
   <trkpt lat="49.857528" lon="14.258813"><ele>427</ele></trkpt>
   <trkpt lat="49.857956" lon="14.259579"><ele>424</ele></trkpt>
   <trkpt lat="49.858397" lon="14.260489"><ele>421</ele></trkpt>
   <trkpt lat="49.859052" lon="14.26193"><ele>416</ele></trkpt>
   <trkpt lat="49.859177" lon="14.2622"><ele>415.75</ele></trkpt>
   <trkpt lat="49.85973" lon="14.263343"><ele>411.75</ele></trkpt>
   <trkpt lat="49.860135" lon="14.264131"><ele>408</ele></trkpt>
   <trkpt lat="49.860435" lon="14.264656"><ele>406.5</ele></trkpt>
   <trkpt lat="49.860675" lon="14.265059"><ele>405</ele></trkpt>
   <trkpt lat="49.860994" lon="14.265535"><ele>402.75</ele></trkpt>
   <trkpt lat="49.861141" lon="14.265752"><ele>402</ele></trkpt>
   <trkpt lat="49.861379" lon="14.266073"><ele>401</ele></trkpt>
   <trkpt lat="49.861742" lon="14.266536"><ele>399.5</ele></trkpt>
   <trkpt lat="49.862262" lon="14.267118"><ele>396.75</ele></trkpt>
   <trkpt lat="49.862858" lon="14.267675"><ele>393.75</ele></trkpt>
   <trkpt lat="49.863309" lon="14.268057"><ele>391</ele></trkpt>
   <trkpt lat="49.863657" lon="14.268326"><ele>389.5</ele></trkpt>
   <trkpt lat="49.864171" lon="14.26868"><ele>387.25</ele></trkpt>
   <trkpt lat="49.864716" lon="14.268973"><ele>385.25</ele></trkpt>
   <trkpt lat="49.865195" lon="14.269213"><ele>382.5</ele></trkpt>
   <trkpt lat="49.865761" lon="14.269425"><ele>380.25</ele></trkpt>
   <trkpt lat="49.866319" lon="14.269585"><ele>378.25</ele></trkpt>
   <trkpt lat="49.86675" lon="14.269673"><ele>376.5</ele></trkpt>
   <trkpt lat="49.867358" lon="14.269743"><ele>375.25</ele></trkpt>
   <trkpt lat="49.867741" lon="14.269773"><ele>374.25</ele></trkpt>
   <trkpt lat="49.868434" lon="14.269803"><ele>372.25</ele></trkpt>
   <trkpt lat="49.868713" lon="14.269804"><ele>370.75</ele></trkpt>
   <trkpt lat="49.870018" lon="14.269811"><ele>376.25</ele></trkpt>
   <trkpt lat="49.870291" lon="14.269822"><ele>377.5</ele></trkpt>
   <trkpt lat="49.871119" lon="14.269859"><ele>380</ele></trkpt>
   <trkpt lat="49.871775" lon="14.269939"><ele>382.25</ele></trkpt>
   <trkpt lat="49.87224" lon="14.270032"><ele>384</ele></trkpt>
   <trkpt lat="49.872594" lon="14.270095"><ele>385.25</ele></trkpt>
   <trkpt lat="49.873114" lon="14.270242"><ele>387</ele></trkpt>
   <trkpt lat="49.873475" lon="14.27036"><ele>387.75</ele></trkpt>
   <trkpt lat="49.873918" lon="14.270529"><ele>389.25</ele></trkpt>
   <trkpt lat="49.874441" lon="14.270763"><ele>390.75</ele></trkpt>
   <trkpt lat="49.874792" lon="14.270937"><ele>391.75</ele></trkpt>
   <trkpt lat="49.875801" lon="14.2715"><ele>394.75</ele></trkpt>
   <trkpt lat="49.87684" lon="14.272206"><ele>397.5</ele></trkpt>
   <trkpt lat="49.877365" lon="14.272606"><ele>398.25</ele></trkpt>
   <trkpt lat="49.877924" lon="14.273068"><ele>399.75</ele></trkpt>
   <trkpt lat="49.879258" lon="14.274242"><ele>403.25</ele></trkpt>
   <trkpt lat="49.880431" lon="14.27535"><ele>406.5</ele></trkpt>
   <trkpt lat="49.88263" lon="14.277581"><ele>411.25</ele></trkpt>
   <trkpt lat="49.884455" lon="14.27963"><ele>414</ele></trkpt>
   <trkpt lat="49.885254" lon="14.280575"><ele>414.75</ele></trkpt>
   <trkpt lat="49.885619" lon="14.281053"><ele>415</ele></trkpt>
   <trkpt lat="49.886027" lon="14.281604"><ele>415.25</ele></trkpt>
   <trkpt lat="49.88675" lon="14.282653"><ele>415</ele></trkpt>
   <trkpt lat="49.887403" lon="14.283746"><ele>415.25</ele></trkpt>
   <trkpt lat="49.887836" lon="14.284552"><ele>414.75</ele></trkpt>
   <trkpt lat="49.888281" lon="14.285494"><ele>414.75</ele></trkpt>
   <trkpt lat="49.888624" lon="14.286323"><ele>414</ele></trkpt>
   <trkpt lat="49.888883" lon="14.287029"><ele>413</ele></trkpt>
   <trkpt lat="49.889077" lon="14.28761"><ele>413</ele></trkpt>
   <trkpt lat="49.889268" lon="14.288268"><ele>412</ele></trkpt>
   <trkpt lat="49.889496" lon="14.289152"><ele>410.75</ele></trkpt>
   <trkpt lat="49.88974" lon="14.290295"><ele>408.75</ele></trkpt>
   <trkpt lat="49.889944" lon="14.291395"><ele>407</ele></trkpt>
   <trkpt lat="49.89021" lon="14.292931"><ele>404.75</ele></trkpt>
   <trkpt lat="49.890697" lon="14.295561"><ele>400.75</ele></trkpt>
   <trkpt lat="49.890945" lon="14.296788"><ele>398.75</ele></trkpt>
   <trkpt lat="49.89113" lon="14.297665"><ele>396</ele></trkpt>
   <trkpt lat="49.891391" lon="14.298854"><ele>394</ele></trkpt>
   <trkpt lat="49.891785" lon="14.300396"><ele>390.5</ele></trkpt>
   <trkpt lat="49.892245" lon="14.302118"><ele>387</ele></trkpt>
   <trkpt lat="49.892592" lon="14.303298"><ele>385.5</ele></trkpt>
   <trkpt lat="49.893052" lon="14.304802"><ele>382</ele></trkpt>
   <trkpt lat="49.893222" lon="14.305363"><ele>380.75</ele></trkpt>
   <trkpt lat="49.893389" lon="14.305893"><ele>379.5</ele></trkpt>
   <trkpt lat="49.895016" lon="14.311155"><ele>369.5</ele></trkpt>
   <trkpt lat="49.895857" lon="14.313843"><ele>365</ele></trkpt>
   <trkpt lat="49.896238" lon="14.314998"><ele>363</ele></trkpt>
   <trkpt lat="49.896353" lon="14.315345"><ele>362.75</ele></trkpt>
   <trkpt lat="49.896642" lon="14.316157"><ele>361</ele></trkpt>
   <trkpt lat="49.896895" lon="14.316848"><ele>360</ele></trkpt>
   <trkpt lat="49.897199" lon="14.317635"><ele>358.5</ele></trkpt>
   <trkpt lat="49.897722" lon="14.3189"><ele>356</ele></trkpt>
   <trkpt lat="49.898036" lon="14.319605"><ele>354.25</ele></trkpt>
   <trkpt lat="49.898495" lon="14.320601"><ele>353</ele></trkpt>
   <trkpt lat="49.898718" lon="14.321061"><ele>352</ele></trkpt>
   <trkpt lat="49.898896" lon="14.321419"><ele>351.75</ele></trkpt>
   <trkpt lat="49.899577" lon="14.32272"><ele>350</ele></trkpt>
   <trkpt lat="49.900126" lon="14.323713"><ele>349.75</ele></trkpt>
   <trkpt lat="49.90052" lon="14.32438"><ele>349.75</ele></trkpt>
   <trkpt lat="49.900809" lon="14.324838"><ele>349.75</ele></trkpt>
   <trkpt lat="49.901744" lon="14.326264"><ele>351.25</ele></trkpt>
   <trkpt lat="49.902616" lon="14.327485"><ele>352.75</ele></trkpt>
   <trkpt lat="49.903125" lon="14.328183"><ele>353.5</ele></trkpt>
   <trkpt lat="49.905555" lon="14.33139"><ele>360.75</ele></trkpt>
   <trkpt lat="49.905928" lon="14.331884"><ele>362</ele></trkpt>
   <trkpt lat="49.906196" lon="14.332228"><ele>363</ele></trkpt>
   <trkpt lat="49.906842" lon="14.333018"><ele>363.75</ele></trkpt>
   <trkpt lat="49.90774" lon="14.333978"><ele>363.5</ele></trkpt>
   <trkpt lat="49.908375" lon="14.334543"><ele>363</ele></trkpt>
   <trkpt lat="49.909028" lon="14.335093"><ele>360.25</ele></trkpt>
   <trkpt lat="49.909267" lon="14.335277"><ele>360</ele></trkpt>
   <trkpt lat="49.910026" lon="14.335774"><ele>360.75</ele></trkpt>
   <trkpt lat="49.910847" lon="14.336264"><ele>358.75</ele></trkpt>
   <trkpt lat="49.911498" lon="14.336586"><ele>357.5</ele></trkpt>
   <trkpt lat="49.911913" lon="14.336757"><ele>356.25</ele></trkpt>
   <trkpt lat="49.912324" lon="14.336905"><ele>355.5</ele></trkpt>
   <trkpt lat="49.912761" lon="14.337046"><ele>354.75</ele></trkpt>
   <trkpt lat="49.91338" lon="14.337204"><ele>352.75</ele></trkpt>
   <trkpt lat="49.91388" lon="14.337306"><ele>352.5</ele></trkpt>
   <trkpt lat="49.914358" lon="14.337372"><ele>351</ele></trkpt>
   <trkpt lat="49.915019" lon="14.337426"><ele>349</ele></trkpt>
   <trkpt lat="49.915587" lon="14.337432"><ele>347.75</ele></trkpt>
   <trkpt lat="49.916166" lon="14.337418"><ele>346.5</ele></trkpt>
   <trkpt lat="49.916914" lon="14.337328"><ele>345</ele></trkpt>
   <trkpt lat="49.917657" lon="14.337184"><ele>343.75</ele></trkpt>
   <trkpt lat="49.918489" lon="14.33698"><ele>343</ele></trkpt>
   <trkpt lat="49.91942" lon="14.336713"><ele>342.5</ele></trkpt>
   <trkpt lat="49.920421" lon="14.336411"><ele>343.75</ele></trkpt>
   <trkpt lat="49.920913" lon="14.336274"><ele>344</ele></trkpt>
   <trkpt lat="49.921063" lon="14.336233"><ele>344.25</ele></trkpt>
   <trkpt lat="49.921613" lon="14.336116"><ele>345.75</ele></trkpt>
   <trkpt lat="49.921727" lon="14.336098"><ele>346</ele></trkpt>
   <trkpt lat="49.92184" lon="14.336081"><ele>346</ele></trkpt>
   <trkpt lat="49.922315" lon="14.336057"><ele>347</ele></trkpt>
   <trkpt lat="49.922561" lon="14.336059"><ele>347</ele></trkpt>
   <trkpt lat="49.922982" lon="14.3361"><ele>347.5</ele></trkpt>
   <trkpt lat="49.923415" lon="14.336179"><ele>348</ele></trkpt>
   <trkpt lat="49.923775" lon="14.336281"><ele>348.75</ele></trkpt>
   <trkpt lat="49.924259" lon="14.336449"><ele>350</ele></trkpt>
   <trkpt lat="49.924601" lon="14.336612"><ele>350.5</ele></trkpt>
   <trkpt lat="49.924805" lon="14.336723"><ele>351</ele></trkpt>
   <trkpt lat="49.924985" lon="14.336836"><ele>351.25</ele></trkpt>
   <trkpt lat="49.925263" lon="14.337015"><ele>352</ele></trkpt>
   <trkpt lat="49.925545" lon="14.337216"><ele>352</ele></trkpt>
   <trkpt lat="49.925852" lon="14.337476"><ele>352</ele></trkpt>
   <trkpt lat="49.92595" lon="14.337558"><ele>352.75</ele></trkpt>
   <trkpt lat="49.926286" lon="14.337877"><ele>353.5</ele></trkpt>
   <trkpt lat="49.926529" lon="14.338139"><ele>354</ele></trkpt>
   <trkpt lat="49.926894" lon="14.338573"><ele>355</ele></trkpt>
   <trkpt lat="49.927073" lon="14.338809"><ele>356</ele></trkpt>
   <trkpt lat="49.927288" lon="14.339116"><ele>355.5</ele></trkpt>
   <trkpt lat="49.927567" lon="14.339552"><ele>356.25</ele></trkpt>
   <trkpt lat="49.927852" lon="14.340058"><ele>357</ele></trkpt>
   <trkpt lat="49.927981" lon="14.340307"><ele>356.5</ele></trkpt>
   <trkpt lat="49.928106" lon="14.340562"><ele>357</ele></trkpt>
   <trkpt lat="49.928296" lon="14.34098"><ele>357.5</ele></trkpt>
   <trkpt lat="49.928382" lon="14.341185"><ele>357.75</ele></trkpt>
   <trkpt lat="49.928528" lon="14.341576"><ele>355.75</ele></trkpt>
   <trkpt lat="49.928656" lon="14.341919"><ele>356.75</ele></trkpt>
   <trkpt lat="49.928902" lon="14.342625"><ele>359.5</ele></trkpt>
   <trkpt lat="49.928994" lon="14.342895"><ele>359.25</ele></trkpt>
   <trkpt lat="49.929293" lon="14.343783"><ele>360</ele></trkpt>
   <trkpt lat="49.929985" lon="14.345835"><ele>366.5</ele></trkpt>
   <trkpt lat="49.930191" lon="14.346451"><ele>367.25</ele></trkpt>
   <trkpt lat="49.930759" lon="14.348148"><ele>374.25</ele></trkpt>
   <trkpt lat="49.931135" lon="14.349255"><ele>377.5</ele></trkpt>
   <trkpt lat="49.931357" lon="14.349888"><ele>379.5</ele></trkpt>
   <trkpt lat="49.931618" lon="14.350575"><ele>381.75</ele></trkpt>
   <trkpt lat="49.931857" lon="14.351133"><ele>383.75</ele></trkpt>
   <trkpt lat="49.932121" lon="14.351715"><ele>386</ele></trkpt>
   <trkpt lat="49.93257" lon="14.352622"><ele>388.25</ele></trkpt>
   <trkpt lat="49.934288" lon="14.355992"><ele>392</ele></trkpt>
   <trkpt lat="49.934586" lon="14.356564"><ele>392.25</ele></trkpt>
   <trkpt lat="49.934966" lon="14.35724"><ele>392.75</ele></trkpt>
   <trkpt lat="49.935215" lon="14.357653"><ele>392.5</ele></trkpt>
   <trkpt lat="49.935612" lon="14.358273"><ele>392.25</ele></trkpt>
   <trkpt lat="49.936052" lon="14.358911"><ele>391.25</ele></trkpt>
   <trkpt lat="49.939205" lon="14.363236"><ele>373</ele></trkpt>
   <trkpt lat="49.941027" lon="14.365776"><ele>362</ele></trkpt>
   <trkpt lat="49.942277" lon="14.367534"><ele>359</ele></trkpt>
   <trkpt lat="49.943253" lon="14.368936"><ele>356.25</ele></trkpt>
   <trkpt lat="49.943587" lon="14.369393"><ele>355</ele></trkpt>
   <trkpt lat="49.94487" lon="14.37123"><ele>350.25</ele></trkpt>
   <trkpt lat="49.945678" lon="14.372359"><ele>348</ele></trkpt>
   <trkpt lat="49.945945" lon="14.372685"><ele>347</ele></trkpt>
   <trkpt lat="49.946115" lon="14.372873"><ele>346.25</ele></trkpt>
   <trkpt lat="49.946316" lon="14.373074"><ele>345.5</ele></trkpt>
   <trkpt lat="49.946539" lon="14.373279"><ele>344.25</ele></trkpt>
   <trkpt lat="49.946938" lon="14.373603"><ele>342</ele></trkpt>
   <trkpt lat="49.94707" lon="14.373696"><ele>341.5</ele></trkpt>
   <trkpt lat="49.947298" lon="14.373837"><ele>340.25</ele></trkpt>
   <trkpt lat="49.947532" lon="14.373962"><ele>339</ele></trkpt>
   <trkpt lat="49.947745" lon="14.374064"><ele>337.75</ele></trkpt>
   <trkpt lat="49.948064" lon="14.374185"><ele>336</ele></trkpt>
   <trkpt lat="49.948417" lon="14.374286"><ele>333.25</ele></trkpt>
   <trkpt lat="49.948688" lon="14.374346"><ele>331.5</ele></trkpt>
   <trkpt lat="49.94935" lon="14.374432"><ele>328.25</ele></trkpt>
   <trkpt lat="49.949778" lon="14.37448"><ele>325.5</ele></trkpt>
   <trkpt lat="49.950083" lon="14.37453"><ele>323.5</ele></trkpt>
   <trkpt lat="49.95038" lon="14.374584"><ele>321.25</ele></trkpt>
   <trkpt lat="49.95073" lon="14.374675"><ele>319.25</ele></trkpt>
   <trkpt lat="49.951056" lon="14.374778"><ele>317</ele></trkpt>
   <trkpt lat="49.951357" lon="14.374907"><ele>315.5</ele></trkpt>
   <trkpt lat="49.951714" lon="14.375078"><ele>314.75</ele></trkpt>
   <trkpt lat="49.951968" lon="14.375233"><ele>313.75</ele></trkpt>
   <trkpt lat="49.952244" lon="14.375418"><ele>312.75</ele></trkpt>
   <trkpt lat="49.952514" lon="14.375627"><ele>310.75</ele></trkpt>
   <trkpt lat="49.952772" lon="14.375865"><ele>308.5</ele></trkpt>
   <trkpt lat="49.953008" lon="14.376102"><ele>307</ele></trkpt>
   <trkpt lat="49.953488" lon="14.376622"><ele>304</ele></trkpt>
   <trkpt lat="49.953816" lon="14.37701"><ele>301</ele></trkpt>
   <trkpt lat="49.954384" lon="14.377665"><ele>297</ele></trkpt>
   <trkpt lat="49.95466" lon="14.377956"><ele>295.25</ele></trkpt>
   <trkpt lat="49.954855" lon="14.378148"><ele>294</ele></trkpt>
   <trkpt lat="49.955148" lon="14.378408"><ele>292</ele></trkpt>
   <trkpt lat="49.95533" lon="14.378559"><ele>290.75</ele></trkpt>
   <trkpt lat="49.955537" lon="14.378717"><ele>290</ele></trkpt>
   <trkpt lat="49.955745" lon="14.37886"><ele>288.5</ele></trkpt>
   <trkpt lat="49.955828" lon="14.378915"><ele>288</ele></trkpt>
   <trkpt lat="49.956282" lon="14.379177"><ele>285.75</ele></trkpt>
   <trkpt lat="49.956421" lon="14.379245"><ele>285.5</ele></trkpt>
   <trkpt lat="49.956588" lon="14.379321"><ele>284.75</ele></trkpt>
   <trkpt lat="49.95708" lon="14.379499"><ele>282</ele></trkpt>
   <trkpt lat="49.957596" lon="14.379615"><ele>279.25</ele></trkpt>
   <trkpt lat="49.957864" lon="14.379658"><ele>277.25</ele></trkpt>
   <trkpt lat="49.95826" lon="14.379686"><ele>275.25</ele></trkpt>
   <trkpt lat="49.95883" lon="14.379665"><ele>272</ele></trkpt>
   <trkpt lat="49.959262" lon="14.379596"><ele>269.5</ele></trkpt>
   <trkpt lat="49.959462" lon="14.379546"><ele>268.75</ele></trkpt>
   <trkpt lat="49.95991" lon="14.379408"><ele>266</ele></trkpt>
   <trkpt lat="49.960238" lon="14.379274"><ele>264</ele></trkpt>
   <trkpt lat="49.960807" lon="14.378986"><ele>261</ele></trkpt>
   <trkpt lat="49.962261" lon="14.378011"><ele>252.75</ele></trkpt>
   <trkpt lat="49.962917" lon="14.377585"><ele>249.75</ele></trkpt>
   <trkpt lat="49.963346" lon="14.377324"><ele>247.25</ele></trkpt>
   <trkpt lat="49.96382" lon="14.377062"><ele>245.25</ele></trkpt>
   <trkpt lat="49.964154" lon="14.376897"><ele>243</ele></trkpt>
   <trkpt lat="49.964639" lon="14.376691"><ele>240.5</ele></trkpt>
   <trkpt lat="49.965109" lon="14.37652"><ele>238.75</ele></trkpt>
   <trkpt lat="49.965442" lon="14.376412"><ele>236.75</ele></trkpt>
   <trkpt lat="49.965753" lon="14.37633"><ele>235</ele></trkpt>
   <trkpt lat="49.966159" lon="14.376239"><ele>234.25</ele></trkpt>
   <trkpt lat="49.966475" lon="14.376184"><ele>232.5</ele></trkpt>
   <trkpt lat="49.966877" lon="14.376132"><ele>229.75</ele></trkpt>
   <trkpt lat="49.967266" lon="14.3761"><ele>226.75</ele></trkpt>
   <trkpt lat="49.967711" lon="14.376083"><ele>225</ele></trkpt>
   <trkpt lat="49.968052" lon="14.376086"><ele>223</ele></trkpt>
   <trkpt lat="49.968777" lon="14.376146"><ele>214.25</ele></trkpt>
   <trkpt lat="49.969326" lon="14.376237"><ele>213.25</ele></trkpt>
   <trkpt lat="49.969702" lon="14.376325"><ele>216</ele></trkpt>
   <trkpt lat="49.970186" lon="14.376454"><ele>215</ele></trkpt>
   <trkpt lat="49.970749" lon="14.376657"><ele>212.5</ele></trkpt>
   <trkpt lat="49.971315" lon="14.376884"><ele>210.5</ele></trkpt>
   <trkpt lat="49.971669" lon="14.377055"><ele>209.75</ele></trkpt>
   <trkpt lat="49.972012" lon="14.377248"><ele>208.25</ele></trkpt>
   <trkpt lat="49.972477" lon="14.377526"><ele>207.5</ele></trkpt>
   <trkpt lat="49.972994" lon="14.377868"><ele>206</ele></trkpt>
   <trkpt lat="49.97334" lon="14.378127"><ele>205.75</ele></trkpt>
   <trkpt lat="49.973704" lon="14.378419"><ele>205.25</ele></trkpt>
   <trkpt lat="49.974034" lon="14.378703"><ele>204</ele></trkpt>
   <trkpt lat="49.97457" lon="14.379206"><ele>199.25</ele></trkpt>
   <trkpt lat="49.974846" lon="14.379475"><ele>197.5</ele></trkpt>
   <trkpt lat="49.975189" lon="14.379848"><ele>200.25</ele></trkpt>
   <trkpt lat="49.975563" lon="14.380292"><ele>199.75</ele></trkpt>
   <trkpt lat="49.975905" lon="14.380734"><ele>198</ele></trkpt>
   <trkpt lat="49.976067" lon="14.380952"><ele>198</ele></trkpt>
   <trkpt lat="49.976604" lon="14.381724"><ele>197</ele></trkpt>
   <trkpt lat="49.980253" lon="14.387513"><ele>195.5</ele></trkpt>
   <trkpt lat="49.981185" lon="14.388978"><ele>194.75</ele></trkpt>
   <trkpt lat="49.982303" lon="14.390764"><ele>195.75</ele></trkpt>
   <trkpt lat="49.983587" lon="14.392802"><ele>193.25</ele></trkpt>
   <trkpt lat="49.983674" lon="14.392941"><ele>194.5</ele></trkpt>
   <trkpt lat="49.985033" lon="14.395089"><ele>194.25</ele></trkpt>
   <trkpt lat="49.985208" lon="14.395355"><ele>194.25</ele></trkpt>
   <trkpt lat="49.985601" lon="14.39591"><ele>196.25</ele></trkpt>
   <trkpt lat="49.985838" lon="14.396218"><ele>196.5</ele></trkpt>
   <trkpt lat="49.986092" lon="14.396525"><ele>195.75</ele></trkpt>
   <trkpt lat="49.98654" lon="14.397009"><ele>195.75</ele></trkpt>
   <trkpt lat="49.986997" lon="14.397441"><ele>195</ele></trkpt>
   <trkpt lat="49.987097" lon="14.397527"><ele>195.5</ele></trkpt>
   <trkpt lat="49.987509" lon="14.397858"><ele>196.25</ele></trkpt>
   <trkpt lat="49.9877" lon="14.397996"><ele>196.75</ele></trkpt>
   <trkpt lat="49.988001" lon="14.398196"><ele>196.25</ele></trkpt>
   <trkpt lat="49.9883" lon="14.398375"><ele>195.75</ele></trkpt>
   <trkpt lat="49.988548" lon="14.398503"><ele>196.25</ele></trkpt>
   <trkpt lat="49.988793" lon="14.398629"><ele>196</ele></trkpt>
   <trkpt lat="49.988976" lon="14.398712"><ele>195.75</ele></trkpt>
   <trkpt lat="49.989284" lon="14.398836"><ele>196.25</ele></trkpt>
   <trkpt lat="49.989753" lon="14.398986"><ele>196</ele></trkpt>
   <trkpt lat="49.990064" lon="14.399062"><ele>196</ele></trkpt>
   <trkpt lat="49.990541" lon="14.399148"><ele>196</ele></trkpt>
   <trkpt lat="49.990855" lon="14.399181"><ele>196</ele></trkpt>
   <trkpt lat="49.991333" lon="14.399196"><ele>196.5</ele></trkpt>
   <trkpt lat="49.99149" lon="14.399188"><ele>196.5</ele></trkpt>
   <trkpt lat="49.991809" lon="14.399148"><ele>197.25</ele></trkpt>
   <trkpt lat="49.992127" lon="14.399068"><ele>197.75</ele></trkpt>
   <trkpt lat="49.992282" lon="14.39902"><ele>198</ele></trkpt>
   <trkpt lat="49.992445" lon="14.398961"><ele>198.5</ele></trkpt>
   <trkpt lat="49.992679" lon="14.398857"><ele>199.5</ele></trkpt>
   <trkpt lat="49.993005" lon="14.398671"><ele>199.25</ele></trkpt>
   <trkpt lat="49.993315" lon="14.398465"><ele>199</ele></trkpt>
   <trkpt lat="49.994259" lon="14.397794"><ele>198.25</ele></trkpt>
   <trkpt lat="49.994594" lon="14.397572"><ele>197.75</ele></trkpt>
   <trkpt lat="49.994918" lon="14.39739"><ele>198</ele></trkpt>
   <trkpt lat="49.995307" lon="14.397209"><ele>196.75</ele></trkpt>
   <trkpt lat="49.99562" lon="14.397092"><ele>195.75</ele></trkpt>
   <trkpt lat="49.995764" lon="14.397047"><ele>195.5</ele></trkpt>
   <trkpt lat="49.996265" lon="14.396921"><ele>195</ele></trkpt>
   <trkpt lat="49.996774" lon="14.39677"><ele>195</ele></trkpt>
   <trkpt lat="49.997208" lon="14.396649"><ele>195</ele></trkpt>
   <trkpt lat="49.999408" lon="14.396047"><ele>194.75</ele></trkpt>
   <trkpt lat="50.000027" lon="14.395886"><ele>194.75</ele></trkpt>
   <trkpt lat="50.001131" lon="14.395582"><ele>194.75</ele></trkpt>
   <trkpt lat="50.001396" lon="14.395518"><ele>194.75</ele></trkpt>
   <trkpt lat="50.001858" lon="14.395414"><ele>194.5</ele></trkpt>
   <trkpt lat="50.00225" lon="14.395327"><ele>194.75</ele></trkpt>
   <trkpt lat="50.00271" lon="14.395251"><ele>194.75</ele></trkpt>
   <trkpt lat="50.003231" lon="14.395182"><ele>195</ele></trkpt>
   <trkpt lat="50.003842" lon="14.395107"><ele>194.5</ele></trkpt>
   <trkpt lat="50.004323" lon="14.395074"><ele>194.5</ele></trkpt>
   <trkpt lat="50.006076" lon="14.394968"><ele>194.75</ele></trkpt>
   <trkpt lat="50.009579" lon="14.394751"><ele>192.25</ele></trkpt>
   <trkpt lat="50.010903" lon="14.394564"><ele>194</ele></trkpt>
   <trkpt lat="50.012206" lon="14.394359"><ele>194.75</ele></trkpt>
   <trkpt lat="50.013032" lon="14.394223"><ele>194.75</ele></trkpt>
   <trkpt lat="50.013429" lon="14.394157"><ele>194.75</ele></trkpt>
   <trkpt lat="50.013848" lon="14.394109"><ele>194.75</ele></trkpt>
   <trkpt lat="50.014272" lon="14.394084"><ele>195</ele></trkpt>
   <trkpt lat="50.014735" lon="14.394085"><ele>195</ele></trkpt>
   <trkpt lat="50.017777" lon="14.394154"><ele>194.75</ele></trkpt>
   <trkpt lat="50.021044" lon="14.394195"><ele>194.5</ele></trkpt>
   <trkpt lat="50.02215" lon="14.394251"><ele>194.25</ele></trkpt>
   <trkpt lat="50.022448" lon="14.39426"><ele>194.25</ele></trkpt>
   <trkpt lat="50.022947" lon="14.394313"><ele>194.75</ele></trkpt>
   <trkpt lat="50.023611" lon="14.394422"><ele>195</ele></trkpt>
   <trkpt lat="50.024061" lon="14.394517"><ele>194</ele></trkpt>
   <trkpt lat="50.024503" lon="14.394633"><ele>193.75</ele></trkpt>
   <trkpt lat="50.025371" lon="14.394941"><ele>194.75</ele></trkpt>
   <trkpt lat="50.025648" lon="14.395063"><ele>194</ele></trkpt>
   <trkpt lat="50.025873" lon="14.395181"><ele>193.75</ele></trkpt>
   <trkpt lat="50.026451" lon="14.395528"><ele>194.25</ele></trkpt>
   <trkpt lat="50.026747" lon="14.395734"><ele>193.5</ele></trkpt>
   <trkpt lat="50.02703" lon="14.395941"><ele>193.5</ele></trkpt>
   <trkpt lat="50.029019" lon="14.397629"><ele>193.25</ele></trkpt>
   <trkpt lat="50.031293" lon="14.399584"><ele>193.25</ele></trkpt>
   <trkpt lat="50.031987" lon="14.400174"><ele>193.75</ele></trkpt>
   <trkpt lat="50.033562" lon="14.401522"><ele>193</ele></trkpt>
   <trkpt lat="50.034704" lon="14.402488"><ele>193.75</ele></trkpt>
   <trkpt lat="50.035079" lon="14.402777"><ele>194</ele></trkpt>
   <trkpt lat="50.035434" lon="14.403031"><ele>193.5</ele></trkpt>
   <trkpt lat="50.035808" lon="14.403275"><ele>193.5</ele></trkpt>
   <trkpt lat="50.036141" lon="14.403495"><ele>193.25</ele></trkpt>
   <trkpt lat="50.036992" lon="14.404055"><ele>193.5</ele></trkpt>
   <trkpt lat="50.037482" lon="14.404371"><ele>193.75</ele></trkpt>
   <trkpt lat="50.037726" lon="14.404548"><ele>192.25</ele></trkpt>
   <trkpt lat="50.037993" lon="14.404756"><ele>192.5</ele></trkpt>
   <trkpt lat="50.038347" lon="14.404974"><ele>193</ele></trkpt>
   <trkpt lat="50.03905" lon="14.405428"><ele>193</ele></trkpt>
   <trkpt lat="50.039421" lon="14.405691"><ele>193.25</ele></trkpt>
   <trkpt lat="50.039768" lon="14.405959"><ele>193.25</ele></trkpt>
   <trkpt lat="50.040141" lon="14.406293"><ele>194</ele></trkpt>
   <trkpt lat="50.040555" lon="14.406643"><ele>193.5</ele></trkpt>
   <trkpt lat="50.040692" lon="14.406738"><ele>192.5</ele></trkpt>
   <trkpt lat="50.040842" lon="14.406827"><ele>192.75</ele></trkpt>
   <trkpt lat="50.04118" lon="14.407002"><ele>193.5</ele></trkpt>
   <trkpt lat="50.04217" lon="14.407469"><ele>190.75</ele></trkpt>
   <trkpt lat="50.042529" lon="14.407636"><ele>193.75</ele></trkpt>
   <trkpt lat="50.042715" lon="14.407727"><ele>195.5</ele></trkpt>
   <trkpt lat="50.043175" lon="14.407953"><ele>195.75</ele></trkpt>
   <trkpt lat="50.043651" lon="14.40821"><ele>195.75</ele></trkpt>
   <trkpt lat="50.044262" lon="14.408431"><ele>195.25</ele></trkpt>
   <trkpt lat="50.044598" lon="14.408694"><ele>194</ele></trkpt>
   <trkpt lat="50.044975" lon="14.408958"><ele>193.5</ele></trkpt>
   <trkpt lat="50.045312" lon="14.409171"><ele>193.75</ele></trkpt>
   <trkpt lat="50.045663" lon="14.409356"><ele>194</ele></trkpt>
   <trkpt lat="50.046473" lon="14.409704"><ele>194</ele></trkpt>
   <trkpt lat="50.04682" lon="14.409938"><ele>192.5</ele></trkpt>
   <trkpt lat="50.046915" lon="14.409989"><ele>193.5</ele></trkpt>
   <trkpt lat="50.047322" lon="14.410132"><ele>192.25</ele></trkpt>
   <trkpt lat="50.047477" lon="14.410177"><ele>192.75</ele></trkpt>
   <trkpt lat="50.048653" lon="14.410455"><ele>192.25</ele></trkpt>
   <trkpt lat="50.048968" lon="14.410531"><ele>194</ele></trkpt>
   <trkpt lat="50.049313" lon="14.410602"><ele>193.75</ele></trkpt>
   <trkpt lat="50.049584" lon="14.410651"><ele>193.25</ele></trkpt>
   <trkpt lat="50.04986" lon="14.410682"><ele>193.5</ele></trkpt>
   <trkpt lat="50.049875" lon="14.410683"><ele>193.75</ele></trkpt>
   <trkpt lat="50.050257120016006" lon="14.410319028006933"/>
   <trkpt lat="50.05067641053329" lon="14.40998209942338"/>
  </trkseg>
 </trk>
</gpx>
