<?xml version="1.0" encoding="UTF-8"?>
<!-- track-length = 32490 filtered ascend = 302 plain-ascend = 25 cost=41063 energy=3.9kwh time=38m 11s -->
<gpx 
 xmlns="http://www.topografix.com/GPX/1/1" 
 xmlns:xsi="http://www.w3.org/2001/XMLSchema-instance" 
 xsi:schemaLocation="http://www.topografix.com/GPX/1/1 http://www.topografix.com/GPX/1/1/gpx.xsd" 
 version="1.1" 
 creator="BRouter-Web 0.18.1">
 <trk>
  <name>SEV Moravský Beroun - Bruntál</name>
  <trkseg>
   <trkpt lat="49.784661" lon="17.432551"><ele>536.5</ele></trkpt>
   <trkpt lat="49.784544" lon="17.432799"><ele>536.5</ele></trkpt>
   <trkpt lat="49.783172" lon="17.43568"><ele>534.5</ele></trkpt>
   <trkpt lat="49.782678" lon="17.436701"><ele>530.5</ele></trkpt>
   <trkpt lat="49.782583" lon="17.436936"><ele>528.25</ele></trkpt>
   <trkpt lat="49.782503" lon="17.437481"><ele>527</ele></trkpt>
   <trkpt lat="49.782559" lon="17.438048"><ele>525</ele></trkpt>
   <trkpt lat="49.782584" lon="17.438209"><ele>525.25</ele></trkpt>
   <trkpt lat="49.782684" lon="17.438596"><ele>525.75</ele></trkpt>
   <trkpt lat="49.782771" lon="17.438817"><ele>526</ele></trkpt>
   <trkpt lat="49.782875" lon="17.438994"><ele>526.25</ele></trkpt>
   <trkpt lat="49.783099" lon="17.438962"><ele>527</ele></trkpt>
   <trkpt lat="49.783503" lon="17.438967"><ele>528.5</ele></trkpt>
   <trkpt lat="49.783632" lon="17.438999"><ele>529</ele></trkpt>
   <trkpt lat="49.784021" lon="17.439135"><ele>531.5</ele></trkpt>
   <trkpt lat="49.784273" lon="17.439169"><ele>532.25</ele></trkpt>
   <trkpt lat="49.784634" lon="17.439237"><ele>533.25</ele></trkpt>
   <trkpt lat="49.785599" lon="17.439294"><ele>536.25</ele></trkpt>
   <trkpt lat="49.785919" lon="17.439321"><ele>538.75</ele></trkpt>
   <trkpt lat="49.786256" lon="17.439318"><ele>542</ele></trkpt>
   <trkpt lat="49.786812" lon="17.439286"><ele>545.5</ele></trkpt>
   <trkpt lat="49.786969" lon="17.439302"><ele>546.5</ele></trkpt>
   <trkpt lat="49.787105" lon="17.439333"><ele>547.5</ele></trkpt>
   <trkpt lat="49.787438" lon="17.439437"><ele>548.75</ele></trkpt>
   <trkpt lat="49.78759" lon="17.439472"><ele>549</ele></trkpt>
   <trkpt lat="49.787854" lon="17.439512"><ele>550</ele></trkpt>
   <trkpt lat="49.788023" lon="17.43952"><ele>551.25</ele></trkpt>
   <trkpt lat="49.788534" lon="17.439671"><ele>551.5</ele></trkpt>
   <trkpt lat="49.789958" lon="17.44018"><ele>554.75</ele></trkpt>
   <trkpt lat="49.79032" lon="17.440306"><ele>554.75</ele></trkpt>
   <trkpt lat="49.790531" lon="17.439891"><ele>558.5</ele></trkpt>
   <trkpt lat="49.790547" lon="17.439858"><ele>564</ele></trkpt>
   <trkpt lat="49.790831" lon="17.439299"><ele>564</ele></trkpt>
   <trkpt lat="49.791186" lon="17.438625"><ele>568.5</ele></trkpt>
   <trkpt lat="49.791276" lon="17.438487"><ele>570</ele></trkpt>
   <trkpt lat="49.791366" lon="17.438391"><ele>571.5</ele></trkpt>
   <trkpt lat="49.791404" lon="17.43836"><ele>571.75</ele></trkpt>
   <trkpt lat="49.791379" lon="17.438269"><ele>572</ele></trkpt>
   <trkpt lat="49.791045" lon="17.437071"><ele>574.75</ele></trkpt>
   <trkpt lat="49.790883" lon="17.436477"><ele>576</ele></trkpt>
   <trkpt lat="49.790875" lon="17.436448"><ele>576</ele></trkpt>
   <trkpt lat="49.790714" lon="17.435869"><ele>576.5</ele></trkpt>
   <trkpt lat="49.790692" lon="17.435791"><ele>576.25</ele></trkpt>
   <trkpt lat="49.790148" lon="17.433848"><ele>570.75</ele></trkpt>
   <trkpt lat="49.789541" lon="17.431681"><ele>557.25</ele></trkpt>
   <trkpt lat="49.789012" lon="17.429791"><ele>550</ele></trkpt>
   <trkpt lat="49.788998" lon="17.429743"><ele>549.75</ele></trkpt>
   <trkpt lat="49.788704" lon="17.4287"><ele>542.75</ele></trkpt>
   <trkpt lat="49.788646" lon="17.42852"><ele>541</ele></trkpt>
   <trkpt lat="49.788538" lon="17.428251"><ele>538.5</ele></trkpt>
   <trkpt lat="49.788488" lon="17.428156"><ele>538.25</ele></trkpt>
   <trkpt lat="49.78835" lon="17.427917"><ele>538.75</ele></trkpt>
   <trkpt lat="49.788215" lon="17.427653"><ele>536.25</ele></trkpt>
   <trkpt lat="49.78801" lon="17.42725"><ele>537.5</ele></trkpt>
   <trkpt lat="49.787774" lon="17.426788"><ele>539.5</ele></trkpt>
   <trkpt lat="49.787651" lon="17.426551"><ele>540</ele></trkpt>
   <trkpt lat="49.787045" lon="17.425381"><ele>546</ele></trkpt>
   <trkpt lat="49.781733" lon="17.415169"><ele>600.75</ele></trkpt>
   <trkpt lat="49.780315" lon="17.412477"><ele>590</ele></trkpt>
   <trkpt lat="49.780177" lon="17.412209"><ele>587.75</ele></trkpt>
   <trkpt lat="49.78006" lon="17.41196"><ele>586.25</ele></trkpt>
   <trkpt lat="49.780013" lon="17.411839"><ele>585.5</ele></trkpt>
   <trkpt lat="49.779966" lon="17.411692"><ele>584.75</ele></trkpt>
   <trkpt lat="49.779877" lon="17.411374"><ele>583.5</ele></trkpt>
   <trkpt lat="49.779111" lon="17.408564"><ele>575.25</ele></trkpt>
   <trkpt lat="49.779086" lon="17.408474"><ele>575.25</ele></trkpt>
   <trkpt lat="49.778942" lon="17.407944"><ele>576.75</ele></trkpt>
   <trkpt lat="49.778803" lon="17.407402"><ele>579</ele></trkpt>
   <trkpt lat="49.778713" lon="17.406969"><ele>581</ele></trkpt>
   <trkpt lat="49.778658" lon="17.406589"><ele>583.25</ele></trkpt>
   <trkpt lat="49.778371" lon="17.404298"><ele>588.5</ele></trkpt>
   <trkpt lat="49.778244" lon="17.403414"><ele>586.75</ele></trkpt>
   <trkpt lat="49.776983" lon="17.395569"><ele>570.5</ele></trkpt>
   <trkpt lat="49.776967" lon="17.395473"><ele>571</ele></trkpt>
   <trkpt lat="49.776726" lon="17.393973"><ele>574</ele></trkpt>
   <trkpt lat="49.776392" lon="17.391892"><ele>582</ele></trkpt>
   <trkpt lat="49.776393" lon="17.391658"><ele>583</ele></trkpt>
   <trkpt lat="49.776402" lon="17.391551"><ele>583.25</ele></trkpt>
   <trkpt lat="49.776414" lon="17.391489"><ele>583.5</ele></trkpt>
   <trkpt lat="49.776432" lon="17.39144"><ele>583.75</ele></trkpt>
   <trkpt lat="49.776474" lon="17.391365"><ele>584</ele></trkpt>
   <trkpt lat="49.776497" lon="17.391337"><ele>584</ele></trkpt>
   <trkpt lat="49.776553" lon="17.391295"><ele>584</ele></trkpt>
   <trkpt lat="49.776637" lon="17.391259"><ele>584</ele></trkpt>
   <trkpt lat="49.776728" lon="17.391232"><ele>583.75</ele></trkpt>
   <trkpt lat="49.778882" lon="17.390793"><ele>585</ele></trkpt>
   <trkpt lat="49.779301" lon="17.390679"><ele>584.75</ele></trkpt>
   <trkpt lat="49.779412" lon="17.390639"><ele>584.5</ele></trkpt>
   <trkpt lat="49.779718" lon="17.3905"><ele>584</ele></trkpt>
   <trkpt lat="49.780765" lon="17.389994"><ele>580.75</ele></trkpt>
   <trkpt lat="49.781381" lon="17.389696"><ele>579.75</ele></trkpt>
   <trkpt lat="49.781458" lon="17.389658"><ele>579.5</ele></trkpt>
   <trkpt lat="49.782801" lon="17.389013"><ele>585</ele></trkpt>
   <trkpt lat="49.783071" lon="17.388906"><ele>587</ele></trkpt>
   <trkpt lat="49.78319" lon="17.388869"><ele>587.75</ele></trkpt>
   <trkpt lat="49.783479" lon="17.388818"><ele>590</ele></trkpt>
   <trkpt lat="49.784167" lon="17.388737"><ele>593</ele></trkpt>
   <trkpt lat="49.784283" lon="17.388717"><ele>593.5</ele></trkpt>
   <trkpt lat="49.784652" lon="17.388648"><ele>595.25</ele></trkpt>
   <trkpt lat="49.784982" lon="17.388574"><ele>595.75</ele></trkpt>
   <trkpt lat="49.785722" lon="17.38839"><ele>598.5</ele></trkpt>
   <trkpt lat="49.786016" lon="17.388307"><ele>600.5</ele></trkpt>
   <trkpt lat="49.788437" lon="17.387624"><ele>600.5</ele></trkpt>
   <trkpt lat="49.789859" lon="17.387214"><ele>604.25</ele></trkpt>
   <trkpt lat="49.790165" lon="17.387135"><ele>605.5</ele></trkpt>
   <trkpt lat="49.790285" lon="17.387116"><ele>606</ele></trkpt>
   <trkpt lat="49.790461" lon="17.387106"><ele>607</ele></trkpt>
   <trkpt lat="49.790587" lon="17.387113"><ele>607.75</ele></trkpt>
   <trkpt lat="49.790697" lon="17.387123"><ele>608.25</ele></trkpt>
   <trkpt lat="49.790896" lon="17.387159"><ele>609</ele></trkpt>
   <trkpt lat="49.791356" lon="17.387258"><ele>610.75</ele></trkpt>
   <trkpt lat="49.792218" lon="17.387493"><ele>613.75</ele></trkpt>
   <trkpt lat="49.794601" lon="17.388152"><ele>620</ele></trkpt>
   <trkpt lat="49.796408" lon="17.388639"><ele>627.75</ele></trkpt>
   <trkpt lat="49.796728" lon="17.388773"><ele>628</ele></trkpt>
   <trkpt lat="49.798324" lon="17.389561"><ele>631</ele></trkpt>
   <trkpt lat="49.800722" lon="17.390642"><ele>632.25</ele></trkpt>
   <trkpt lat="49.801874" lon="17.391265"><ele>627.75</ele></trkpt>
   <trkpt lat="49.802" lon="17.391345"><ele>627.5</ele></trkpt>
   <trkpt lat="49.802141" lon="17.391409"><ele>627.25</ele></trkpt>
   <trkpt lat="49.802343" lon="17.391471"><ele>626.5</ele></trkpt>
   <trkpt lat="49.802499" lon="17.391478"><ele>626</ele></trkpt>
   <trkpt lat="49.804148" lon="17.391628"><ele>622</ele></trkpt>
   <trkpt lat="49.807949" lon="17.391973"><ele>619.25</ele></trkpt>
   <trkpt lat="49.812778" lon="17.392421"><ele>598.75</ele></trkpt>
   <trkpt lat="49.813187" lon="17.392463"><ele>597.75</ele></trkpt>
   <trkpt lat="49.8147" lon="17.392621"><ele>596.5</ele></trkpt>
   <trkpt lat="49.815082" lon="17.392686"><ele>597</ele></trkpt>
   <trkpt lat="49.815319" lon="17.392749"><ele>597.75</ele></trkpt>
   <trkpt lat="49.815514" lon="17.392802"><ele>597.75</ele></trkpt>
   <trkpt lat="49.815569" lon="17.392818"><ele>597.75</ele></trkpt>
   <trkpt lat="49.815706" lon="17.392858"><ele>597.5</ele></trkpt>
   <trkpt lat="49.815897" lon="17.39293"><ele>598.25</ele></trkpt>
   <trkpt lat="49.816021" lon="17.392987"><ele>598.75</ele></trkpt>
   <trkpt lat="49.816669" lon="17.393207"><ele>598.5</ele></trkpt>
   <trkpt lat="49.820778" lon="17.394647"><ele>600</ele></trkpt>
   <trkpt lat="49.823767" lon="17.39569"><ele>601.25</ele></trkpt>
   <trkpt lat="49.824516" lon="17.395957"><ele>602.25</ele></trkpt>
   <trkpt lat="49.826128" lon="17.396528"><ele>604.5</ele></trkpt>
   <trkpt lat="49.826259" lon="17.396595"><ele>604.75</ele></trkpt>
   <trkpt lat="49.826337" lon="17.396646"><ele>605.5</ele></trkpt>
   <trkpt lat="49.826422" lon="17.39673"><ele>605.75</ele></trkpt>
   <trkpt lat="49.826727" lon="17.397089"><ele>606</ele></trkpt>
   <trkpt lat="49.826799" lon="17.397163"><ele>606</ele></trkpt>
   <trkpt lat="49.828019" lon="17.39815"><ele>604.75</ele></trkpt>
   <trkpt lat="49.828469" lon="17.398509"><ele>605.25</ele></trkpt>
   <trkpt lat="49.829069" lon="17.39896"><ele>605</ele></trkpt>
   <trkpt lat="49.829321" lon="17.399127"><ele>605</ele></trkpt>
   <trkpt lat="49.829927" lon="17.399495"><ele>606</ele></trkpt>
   <trkpt lat="49.830353" lon="17.399773"><ele>607</ele></trkpt>
   <trkpt lat="49.830395" lon="17.3998"><ele>607</ele></trkpt>
   <trkpt lat="49.830518" lon="17.399878"><ele>607</ele></trkpt>
   <trkpt lat="49.830712" lon="17.399988"><ele>607.5</ele></trkpt>
   <trkpt lat="49.830778" lon="17.400026"><ele>607.75</ele></trkpt>
   <trkpt lat="49.831022" lon="17.40013"><ele>607.5</ele></trkpt>
   <trkpt lat="49.831103" lon="17.400161"><ele>607.5</ele></trkpt>
   <trkpt lat="49.83121" lon="17.400203"><ele>607.5</ele></trkpt>
   <trkpt lat="49.831519" lon="17.400322"><ele>608</ele></trkpt>
   <trkpt lat="49.831875" lon="17.400459"><ele>608.25</ele></trkpt>
   <trkpt lat="49.833122" lon="17.400941"><ele>609</ele></trkpt>
   <trkpt lat="49.833873" lon="17.401231"><ele>609.25</ele></trkpt>
   <trkpt lat="49.83395" lon="17.40126"><ele>609.5</ele></trkpt>
   <trkpt lat="49.834067" lon="17.401303"><ele>609.5</ele></trkpt>
   <trkpt lat="49.834208" lon="17.401357"><ele>609.75</ele></trkpt>
   <trkpt lat="49.834522" lon="17.401477"><ele>610.5</ele></trkpt>
   <trkpt lat="49.835427" lon="17.401834"><ele>612.75</ele></trkpt>
   <trkpt lat="49.835776" lon="17.40196"><ele>614.75</ele></trkpt>
   <trkpt lat="49.838749" lon="17.403093"><ele>624</ele></trkpt>
   <trkpt lat="49.841695" lon="17.404219"><ele>631</ele></trkpt>
   <trkpt lat="49.842934" lon="17.404692"><ele>631.25</ele></trkpt>
   <trkpt lat="49.844843" lon="17.405422"><ele>632.5</ele></trkpt>
   <trkpt lat="49.846404" lon="17.406092"><ele>632.75</ele></trkpt>
   <trkpt lat="49.847871" lon="17.406744"><ele>632.75</ele></trkpt>
   <trkpt lat="49.850783" lon="17.408063"><ele>633</ele></trkpt>
   <trkpt lat="49.852197" lon="17.408663"><ele>631</ele></trkpt>
   <trkpt lat="49.855249" lon="17.409861"><ele>623</ele></trkpt>
   <trkpt lat="49.855452" lon="17.409952"><ele>622.25</ele></trkpt>
   <trkpt lat="49.855522" lon="17.409995"><ele>622</ele></trkpt>
   <trkpt lat="49.855816" lon="17.410247"><ele>621.75</ele></trkpt>
   <trkpt lat="49.855941" lon="17.410332"><ele>621.5</ele></trkpt>
   <trkpt lat="49.856018" lon="17.410358"><ele>621.25</ele></trkpt>
   <trkpt lat="49.856076" lon="17.410359"><ele>621</ele></trkpt>
   <trkpt lat="49.856162" lon="17.41034"><ele>620.75</ele></trkpt>
   <trkpt lat="49.856341" lon="17.410286"><ele>620.75</ele></trkpt>
   <trkpt lat="49.856427" lon="17.410273"><ele>620.5</ele></trkpt>
   <trkpt lat="49.856493" lon="17.410289"><ele>620</ele></trkpt>
   <trkpt lat="49.856692" lon="17.410418"><ele>619.5</ele></trkpt>
   <trkpt lat="49.856847" lon="17.410498"><ele>619.75</ele></trkpt>
   <trkpt lat="49.856876" lon="17.41051"><ele>619.75</ele></trkpt>
   <trkpt lat="49.857272" lon="17.410661"><ele>618.75</ele></trkpt>
   <trkpt lat="49.860528" lon="17.411964"><ele>610</ele></trkpt>
   <trkpt lat="49.862457" lon="17.412736"><ele>607.75</ele></trkpt>
   <trkpt lat="49.86388" lon="17.413309"><ele>605</ele></trkpt>
   <trkpt lat="49.864101" lon="17.413379"><ele>604.5</ele></trkpt>
   <trkpt lat="49.864388" lon="17.413418"><ele>603.75</ele></trkpt>
   <trkpt lat="49.867214" lon="17.413643"><ele>595.75</ele></trkpt>
   <trkpt lat="49.86873" lon="17.413775"><ele>593</ele></trkpt>
   <trkpt lat="49.869034" lon="17.413806"><ele>592.5</ele></trkpt>
   <trkpt lat="49.869149" lon="17.413828"><ele>592.25</ele></trkpt>
   <trkpt lat="49.869343" lon="17.413887"><ele>592</ele></trkpt>
   <trkpt lat="49.86949" lon="17.413961"><ele>591.5</ele></trkpt>
   <trkpt lat="49.869591" lon="17.414029"><ele>590.75</ele></trkpt>
   <trkpt lat="49.869811" lon="17.414198"><ele>589.5</ele></trkpt>
   <trkpt lat="49.870651" lon="17.414863"><ele>588.5</ele></trkpt>
   <trkpt lat="49.871006" lon="17.415148"><ele>588.75</ele></trkpt>
   <trkpt lat="49.871219" lon="17.415322"><ele>588.25</ele></trkpt>
   <trkpt lat="49.871456" lon="17.415489"><ele>587.75</ele></trkpt>
   <trkpt lat="49.87176" lon="17.415654"><ele>586.5</ele></trkpt>
   <trkpt lat="49.872951" lon="17.416258"><ele>583.25</ele></trkpt>
   <trkpt lat="49.87358" lon="17.416566"><ele>582.25</ele></trkpt>
   <trkpt lat="49.87385" lon="17.416706"><ele>581.75</ele></trkpt>
   <trkpt lat="49.873994" lon="17.416793"><ele>581.5</ele></trkpt>
   <trkpt lat="49.874621" lon="17.417162"><ele>581</ele></trkpt>
   <trkpt lat="49.875238" lon="17.417511"><ele>581.75</ele></trkpt>
   <trkpt lat="49.87587" lon="17.417808"><ele>580.5</ele></trkpt>
   <trkpt lat="49.877219" lon="17.418607"><ele>576</ele></trkpt>
   <trkpt lat="49.877618" lon="17.418866"><ele>575.5</ele></trkpt>
   <trkpt lat="49.877721" lon="17.418946"><ele>574.75</ele></trkpt>
   <trkpt lat="49.877995" lon="17.419188"><ele>574.5</ele></trkpt>
   <trkpt lat="49.879235" lon="17.42028"><ele>571.75</ele></trkpt>
   <trkpt lat="49.879434" lon="17.420448"><ele>571.25</ele></trkpt>
   <trkpt lat="49.879705" lon="17.42064"><ele>570.5</ele></trkpt>
   <trkpt lat="49.880138" lon="17.420959"><ele>570.25</ele></trkpt>
   <trkpt lat="49.880295" lon="17.421076"><ele>569.75</ele></trkpt>
   <trkpt lat="49.881886" lon="17.42216"><ele>571.75</ele></trkpt>
   <trkpt lat="49.882487" lon="17.422573"><ele>571.5</ele></trkpt>
   <trkpt lat="49.882766" lon="17.422785"><ele>570</ele></trkpt>
   <trkpt lat="49.885567" lon="17.425366"><ele>565.25</ele></trkpt>
   <trkpt lat="49.885664" lon="17.425455"><ele>564.75</ele></trkpt>
   <trkpt lat="49.885837" lon="17.425616"><ele>564.25</ele></trkpt>
   <trkpt lat="49.886056" lon="17.425852"><ele>563.5</ele></trkpt>
   <trkpt lat="49.886196" lon="17.426016"><ele>563</ele></trkpt>
   <trkpt lat="49.886314" lon="17.426184"><ele>562.75</ele></trkpt>
   <trkpt lat="49.886453" lon="17.426432"><ele>561.75</ele></trkpt>
   <trkpt lat="49.886693" lon="17.426908"><ele>560.5</ele></trkpt>
   <trkpt lat="49.886821" lon="17.427214"><ele>560.75</ele></trkpt>
   <trkpt lat="49.886968" lon="17.427786"><ele>559.75</ele></trkpt>
   <trkpt lat="49.887102" lon="17.428334"><ele>559.75</ele></trkpt>
   <trkpt lat="49.887195" lon="17.428644"><ele>559.5</ele></trkpt>
   <trkpt lat="49.887271" lon="17.428849"><ele>560</ele></trkpt>
   <trkpt lat="49.887389" lon="17.429063"><ele>559.75</ele></trkpt>
   <trkpt lat="49.887544" lon="17.429245"><ele>559.25</ele></trkpt>
   <trkpt lat="49.887691" lon="17.429365"><ele>559.25</ele></trkpt>
   <trkpt lat="49.887944" lon="17.429507"><ele>558.25</ele></trkpt>
   <trkpt lat="49.888116" lon="17.429575"><ele>557.5</ele></trkpt>
   <trkpt lat="49.888313" lon="17.429613"><ele>557.25</ele></trkpt>
   <trkpt lat="49.888513" lon="17.429617"><ele>557</ele></trkpt>
   <trkpt lat="49.888717" lon="17.429609"><ele>556.5</ele></trkpt>
   <trkpt lat="49.889094" lon="17.429529"><ele>555.25</ele></trkpt>
   <trkpt lat="49.889523" lon="17.429358"><ele>555.5</ele></trkpt>
   <trkpt lat="49.889699" lon="17.429301"><ele>555</ele></trkpt>
   <trkpt lat="49.889823" lon="17.429283"><ele>555</ele></trkpt>
   <trkpt lat="49.889946" lon="17.429279"><ele>555.25</ele></trkpt>
   <trkpt lat="49.890013" lon="17.429285"><ele>555.25</ele></trkpt>
   <trkpt lat="49.890277" lon="17.429328"><ele>555</ele></trkpt>
   <trkpt lat="49.891242" lon="17.429499"><ele>553.5</ele></trkpt>
   <trkpt lat="49.892144" lon="17.429659"><ele>554.5</ele></trkpt>
   <trkpt lat="49.892528" lon="17.429727"><ele>556</ele></trkpt>
   <trkpt lat="49.892951" lon="17.429802"><ele>556.75</ele></trkpt>
   <trkpt lat="49.895248" lon="17.430248"><ele>557.5</ele></trkpt>
   <trkpt lat="49.895427" lon="17.430309"><ele>558</ele></trkpt>
   <trkpt lat="49.895533" lon="17.430367"><ele>558</ele></trkpt>
   <trkpt lat="49.895621" lon="17.430478"><ele>557.75</ele></trkpt>
   <trkpt lat="49.895663" lon="17.430528"><ele>557.75</ele></trkpt>
   <trkpt lat="49.895707" lon="17.430566"><ele>558</ele></trkpt>
   <trkpt lat="49.89577" lon="17.430584"><ele>558.25</ele></trkpt>
   <trkpt lat="49.895863" lon="17.430585"><ele>558</ele></trkpt>
   <trkpt lat="49.896673" lon="17.430538"><ele>557.75</ele></trkpt>
   <trkpt lat="49.898894" lon="17.430948"><ele>563</ele></trkpt>
   <trkpt lat="49.899526" lon="17.43106"><ele>564.25</ele></trkpt>
   <trkpt lat="49.899779" lon="17.431121"><ele>564.5</ele></trkpt>
   <trkpt lat="49.8999" lon="17.431159"><ele>564</ele></trkpt>
   <trkpt lat="49.900039" lon="17.431245"><ele>563.75</ele></trkpt>
   <trkpt lat="49.900795" lon="17.431781"><ele>563</ele></trkpt>
   <trkpt lat="49.901585" lon="17.432343"><ele>562.25</ele></trkpt>
   <trkpt lat="49.903593" lon="17.433725"><ele>559.25</ele></trkpt>
   <trkpt lat="49.904627" lon="17.43437"><ele>556</ele></trkpt>
   <trkpt lat="49.909584" lon="17.437305"><ele>549.5</ele></trkpt>
   <trkpt lat="49.909772" lon="17.437416"><ele>549</ele></trkpt>
   <trkpt lat="49.912074" lon="17.438818"><ele>540.5</ele></trkpt>
   <trkpt lat="49.91237" lon="17.439039"><ele>539.25</ele></trkpt>
   <trkpt lat="49.912668" lon="17.439315"><ele>538.25</ele></trkpt>
   <trkpt lat="49.914756" lon="17.441595"><ele>527.25</ele></trkpt>
   <trkpt lat="49.915197" lon="17.442104"><ele>525.75</ele></trkpt>
   <trkpt lat="49.915607" lon="17.442502"><ele>523.5</ele></trkpt>
   <trkpt lat="49.916086" lon="17.442897"><ele>521</ele></trkpt>
   <trkpt lat="49.91654" lon="17.443185"><ele>518.25</ele></trkpt>
   <trkpt lat="49.916936" lon="17.443356"><ele>515</ele></trkpt>
   <trkpt lat="49.91704" lon="17.44339"><ele>514.25</ele></trkpt>
   <trkpt lat="49.91746" lon="17.443491"><ele>511.25</ele></trkpt>
   <trkpt lat="49.917926" lon="17.443521"><ele>507.75</ele></trkpt>
   <trkpt lat="49.918264" lon="17.443501"><ele>506.75</ele></trkpt>
   <trkpt lat="49.918677" lon="17.443423"><ele>509.25</ele></trkpt>
   <trkpt lat="49.919011" lon="17.443305"><ele>510.75</ele></trkpt>
   <trkpt lat="49.919572" lon="17.443041"><ele>512.5</ele></trkpt>
   <trkpt lat="49.919657" lon="17.442982"><ele>512.75</ele></trkpt>
   <trkpt lat="49.919876" lon="17.44283"><ele>513.75</ele></trkpt>
   <trkpt lat="49.92062" lon="17.442198"><ele>517.25</ele></trkpt>
   <trkpt lat="49.921995" lon="17.440851"><ele>521.25</ele></trkpt>
   <trkpt lat="49.922861" lon="17.439993"><ele>521.5</ele></trkpt>
   <trkpt lat="49.925731" lon="17.437159"><ele>523</ele></trkpt>
   <trkpt lat="49.92615" lon="17.436741"><ele>521.75</ele></trkpt>
   <trkpt lat="49.92647" lon="17.436434"><ele>521.25</ele></trkpt>
   <trkpt lat="49.926565" lon="17.436357"><ele>521.25</ele></trkpt>
   <trkpt lat="49.926637" lon="17.436309"><ele>521</ele></trkpt>
   <trkpt lat="49.926708" lon="17.436275"><ele>521</ele></trkpt>
   <trkpt lat="49.926856" lon="17.436235"><ele>521</ele></trkpt>
   <trkpt lat="49.926936" lon="17.436233"><ele>521</ele></trkpt>
   <trkpt lat="49.927024" lon="17.436239"><ele>520.75</ele></trkpt>
   <trkpt lat="49.928174" lon="17.436421"><ele>523</ele></trkpt>
   <trkpt lat="49.931052" lon="17.43688"><ele>526.75</ele></trkpt>
   <trkpt lat="49.931507" lon="17.436951"><ele>525.25</ele></trkpt>
   <trkpt lat="49.931977" lon="17.437035"><ele>525.75</ele></trkpt>
   <trkpt lat="49.932139" lon="17.437083"><ele>526.25</ele></trkpt>
   <trkpt lat="49.932255" lon="17.437129"><ele>526.25</ele></trkpt>
   <trkpt lat="49.932376" lon="17.437197"><ele>525.75</ele></trkpt>
   <trkpt lat="49.932771" lon="17.437503"><ele>524.75</ele></trkpt>
   <trkpt lat="49.933099" lon="17.437751"><ele>525.5</ele></trkpt>
   <trkpt lat="49.933247" lon="17.437864"><ele>525.25</ele></trkpt>
   <trkpt lat="49.933402" lon="17.437982"><ele>525.25</ele></trkpt>
   <trkpt lat="49.933479" lon="17.438043"><ele>525</ele></trkpt>
   <trkpt lat="49.933862" lon="17.438336"><ele>524.75</ele></trkpt>
   <trkpt lat="49.935216" lon="17.439386"><ele>523</ele></trkpt>
   <trkpt lat="49.935734" lon="17.439781"><ele>521.5</ele></trkpt>
   <trkpt lat="49.935837" lon="17.43986"><ele>521</ele></trkpt>
   <trkpt lat="49.936227" lon="17.440203"><ele>519.5</ele></trkpt>
   <trkpt lat="49.93669" lon="17.440642"><ele>518.5</ele></trkpt>
   <trkpt lat="49.936772" lon="17.440721"><ele>518.25</ele></trkpt>
   <trkpt lat="49.936921" lon="17.440861"><ele>517.75</ele></trkpt>
   <trkpt lat="49.937206" lon="17.441119"><ele>516</ele></trkpt>
   <trkpt lat="49.937462" lon="17.44132"><ele>517.25</ele></trkpt>
   <trkpt lat="49.937618" lon="17.441424"><ele>517</ele></trkpt>
   <trkpt lat="49.937875" lon="17.44158"><ele>516.75</ele></trkpt>
   <trkpt lat="49.938017" lon="17.441656"><ele>517.75</ele></trkpt>
   <trkpt lat="49.938195" lon="17.441732"><ele>517.25</ele></trkpt>
   <trkpt lat="49.938374" lon="17.441795"><ele>517</ele></trkpt>
   <trkpt lat="49.938618" lon="17.441853"><ele>517.5</ele></trkpt>
   <trkpt lat="49.938798" lon="17.441882"><ele>517.75</ele></trkpt>
   <trkpt lat="49.939246" lon="17.441917"><ele>518.75</ele></trkpt>
   <trkpt lat="49.939458" lon="17.441915"><ele>518.75</ele></trkpt>
   <trkpt lat="49.939702" lon="17.441886"><ele>519.5</ele></trkpt>
   <trkpt lat="49.941143" lon="17.441686"><ele>521</ele></trkpt>
   <trkpt lat="49.943209" lon="17.441413"><ele>526.5</ele></trkpt>
   <trkpt lat="49.945633" lon="17.4411"><ele>536</ele></trkpt>
   <trkpt lat="49.945762" lon="17.441086"><ele>536.5</ele></trkpt>
   <trkpt lat="49.94587" lon="17.441089"><ele>537</ele></trkpt>
   <trkpt lat="49.946048" lon="17.441117"><ele>537.75</ele></trkpt>
   <trkpt lat="49.946138" lon="17.441145"><ele>537.75</ele></trkpt>
   <trkpt lat="49.946247" lon="17.441195"><ele>537.75</ele></trkpt>
   <trkpt lat="49.947041" lon="17.441629"><ele>539.75</ele></trkpt>
   <trkpt lat="49.953684" lon="17.445314"><ele>546.75</ele></trkpt>
   <trkpt lat="49.954778" lon="17.445923"><ele>549</ele></trkpt>
   <trkpt lat="49.957616" lon="17.447497"><ele>555.25</ele></trkpt>
   <trkpt lat="49.958061" lon="17.447726"><ele>556.75</ele></trkpt>
   <trkpt lat="49.958281" lon="17.447818"><ele>556.75</ele></trkpt>
   <trkpt lat="49.9592" lon="17.448164"><ele>556.5</ele></trkpt>
   <trkpt lat="49.963612" lon="17.44978"><ele>550.75</ele></trkpt>
   <trkpt lat="49.964308" lon="17.450062"><ele>551.25</ele></trkpt>
   <trkpt lat="49.965085" lon="17.450402"><ele>553.25</ele></trkpt>
   <trkpt lat="49.965439" lon="17.450569"><ele>553.75</ele></trkpt>
   <trkpt lat="49.965702" lon="17.450705"><ele>553.75</ele></trkpt>
   <trkpt lat="49.965957" lon="17.450862"><ele>553.75</ele></trkpt>
   <trkpt lat="49.966284" lon="17.451115"><ele>553.75</ele></trkpt>
   <trkpt lat="49.966691" lon="17.451475"><ele>551.5</ele></trkpt>
   <trkpt lat="49.967855" lon="17.452607"><ele>547.25</ele></trkpt>
   <trkpt lat="49.967907" lon="17.452658"><ele>547.25</ele></trkpt>
   <trkpt lat="49.968464" lon="17.453207"><ele>547.25</ele></trkpt>
   <trkpt lat="49.968943" lon="17.453707"><ele>548.75</ele></trkpt>
   <trkpt lat="49.969544" lon="17.454367"><ele>549.5</ele></trkpt>
   <trkpt lat="49.969816" lon="17.454688"><ele>549.25</ele></trkpt>
   <trkpt lat="49.969902" lon="17.454808"><ele>549.5</ele></trkpt>
   <trkpt lat="49.97011" lon="17.455151"><ele>549</ele></trkpt>
   <trkpt lat="49.970248" lon="17.455399"><ele>549.25</ele></trkpt>
   <trkpt lat="49.970375" lon="17.455648"><ele>549</ele></trkpt>
   <trkpt lat="49.970482" lon="17.455875"><ele>549.25</ele></trkpt>
   <trkpt lat="49.970606" lon="17.456176"><ele>548.75</ele></trkpt>
   <trkpt lat="49.970706" lon="17.456443"><ele>549</ele></trkpt>
   <trkpt lat="49.970926" lon="17.457123"><ele>550</ele></trkpt>
   <trkpt lat="49.971079" lon="17.457633"><ele>551.5</ele></trkpt>
   <trkpt lat="49.971366" lon="17.458659"><ele>552.75</ele></trkpt>
   <trkpt lat="49.971675" lon="17.459794"><ele>555</ele></trkpt>
   <trkpt lat="49.971895" lon="17.460647"><ele>555.5</ele></trkpt>
   <trkpt lat="49.972848" lon="17.464328"><ele>554</ele></trkpt>
   <trkpt lat="49.973256" lon="17.464049"><ele>556</ele></trkpt>
   <trkpt lat="49.973542" lon="17.463947"><ele>556.75</ele></trkpt>
   <trkpt lat="49.973711" lon="17.463925"><ele>557</ele></trkpt>
   <trkpt lat="49.973964" lon="17.463928"><ele>557.75</ele></trkpt>
   <trkpt lat="49.974156" lon="17.463945"><ele>557.75</ele></trkpt>
   <trkpt lat="49.974249" lon="17.463984"><ele>557.75</ele></trkpt>
   <trkpt lat="49.974842" lon="17.464193"><ele>556.25</ele></trkpt>
   <trkpt lat="49.975239" lon="17.46429"><ele>555</ele></trkpt>
   <trkpt lat="49.975466" lon="17.464314"><ele>553.75</ele></trkpt>
   <trkpt lat="49.976022" lon="17.464304"><ele>552.5</ele></trkpt>
   <trkpt lat="49.976322" lon="17.464274"><ele>551.75</ele></trkpt>
   <trkpt lat="49.976514" lon="17.46422"><ele>551.25</ele></trkpt>
   <trkpt lat="49.976707" lon="17.464129"><ele>550.75</ele></trkpt>
   <trkpt lat="49.976804" lon="17.464073"><ele>550.75</ele></trkpt>
   <trkpt lat="49.977098" lon="17.463865"><ele>549.75</ele></trkpt>
   <trkpt lat="49.977681" lon="17.463385"><ele>546.5</ele></trkpt>
   <trkpt lat="49.978592" lon="17.462628"><ele>541</ele></trkpt>
   <trkpt lat="49.978835" lon="17.462416"><ele>539.25</ele></trkpt>
   <trkpt lat="49.979336" lon="17.461999"><ele>536.5</ele></trkpt>
   <trkpt lat="49.979452" lon="17.461918"><ele>536.75</ele></trkpt>
   <trkpt lat="49.979571" lon="17.461852"><ele>536</ele></trkpt>
   <trkpt lat="49.979675" lon="17.46181"><ele>535.5</ele></trkpt>
   <trkpt lat="49.979799" lon="17.461775"><ele>535.25</ele></trkpt>
   <trkpt lat="49.979906" lon="17.46176"><ele>535</ele></trkpt>
   <trkpt lat="49.980039" lon="17.461753"><ele>534.75</ele></trkpt>
   <trkpt lat="49.981135" lon="17.461763"><ele>531</ele></trkpt>
   <trkpt lat="49.981435" lon="17.461779"><ele>530</ele></trkpt>
   <trkpt lat="49.981682" lon="17.461816"><ele>529.25</ele></trkpt>
   <trkpt lat="49.981871" lon="17.461861"><ele>529.25</ele></trkpt>
   <trkpt lat="49.981978" lon="17.46189"><ele>529</ele></trkpt>
   <trkpt lat="49.982185" lon="17.461954"><ele>529</ele></trkpt>
   <trkpt lat="49.982381" lon="17.462036"><ele>529</ele></trkpt>
   <trkpt lat="49.982484" lon="17.462079"><ele>529</ele></trkpt>
   <trkpt lat="49.982601" lon="17.462131"><ele>528.75</ele></trkpt>
   <trkpt lat="49.982655" lon="17.462154"><ele>528.5</ele></trkpt>
   <trkpt lat="49.982749" lon="17.462195"><ele>528</ele></trkpt>
   <trkpt lat="49.982768" lon="17.462203"><ele>528</ele></trkpt>
   <trkpt lat="49.98345" lon="17.462491"><ele>528</ele></trkpt>
   <trkpt lat="49.983824" lon="17.462648"><ele>528.5</ele></trkpt>
   <trkpt lat="49.983933" lon="17.462694"><ele>529</ele></trkpt>
   <trkpt lat="49.984102" lon="17.462775"><ele>529</ele></trkpt>
   <trkpt lat="49.98424" lon="17.462844"><ele>529</ele></trkpt>
   <trkpt lat="49.984844" lon="17.463097"><ele>530.5</ele></trkpt>
   <trkpt lat="49.984964" lon="17.46315"><ele>530.75</ele></trkpt>
   <trkpt lat="49.98558" lon="17.463432"><ele>532.25</ele></trkpt>
   <trkpt lat="49.985848" lon="17.463549"><ele>534</ele></trkpt>
   <trkpt lat="49.986135" lon="17.463609"><ele>535</ele></trkpt>
   <trkpt lat="49.986248" lon="17.463622"><ele>535.5</ele></trkpt>
   <trkpt lat="49.986303" lon="17.463621"><ele>535.5</ele></trkpt>
   <trkpt lat="49.986369" lon="17.463605"><ele>535.75</ele></trkpt>
   <trkpt lat="49.986439" lon="17.463574"><ele>536</ele></trkpt>
   <trkpt lat="49.986538" lon="17.463513"><ele>536.5</ele></trkpt>
   <trkpt lat="49.986651" lon="17.463419"><ele>536.75</ele></trkpt>
   <trkpt lat="49.98705" lon="17.462885"><ele>537.75</ele></trkpt>
   <trkpt lat="49.987278" lon="17.46256"><ele>539.75</ele></trkpt>
   <trkpt lat="49.98738" lon="17.462437"><ele>539.75</ele></trkpt>
   <trkpt lat="49.987439" lon="17.462379"><ele>540</ele></trkpt>
   <trkpt lat="49.987542" lon="17.462299"><ele>540.75</ele></trkpt>
   <trkpt lat="49.98764" lon="17.462243"><ele>541.5</ele></trkpt>
   <trkpt lat="49.987722" lon="17.462213"><ele>541.5</ele></trkpt>
   <trkpt lat="49.987812" lon="17.462192"><ele>541.75</ele></trkpt>
   <trkpt lat="49.98793" lon="17.46218"><ele>542</ele></trkpt>
   <trkpt lat="49.988092" lon="17.462187"><ele>542.75</ele></trkpt>
   <trkpt lat="49.988182" lon="17.462205"><ele>542.75</ele></trkpt>
   <trkpt lat="49.988286" lon="17.462237"><ele>543</ele></trkpt>
   <trkpt lat="49.989268" lon="17.462657"><ele>546.25</ele></trkpt>
   <trkpt lat="49.989319" lon="17.462679"><ele>546.5</ele></trkpt>
   <trkpt lat="49.98949" lon="17.462742"><ele>547</ele></trkpt>
   <trkpt lat="49.989745" lon="17.462879"><ele>547</ele></trkpt>
   <trkpt lat="49.989806" lon="17.462912"><ele>547</ele></trkpt>
   <trkpt lat="49.990747" lon="17.463446"><ele>544.75</ele></trkpt>
   <trkpt lat="49.990808" lon="17.46348"><ele>544.5</ele></trkpt>
   <trkpt lat="49.991248" lon="17.463813"><ele>542</ele></trkpt>
   <trkpt lat="49.991369" lon="17.463918"><ele>541</ele></trkpt>
   <trkpt lat="49.991501" lon="17.464037"><ele>540</ele></trkpt>
   <trkpt lat="49.991599" lon="17.464151"><ele>539.25</ele></trkpt>
   <trkpt lat="49.991671" lon="17.464252"><ele>538.5</ele></trkpt>
   <trkpt lat="49.991798" lon="17.464445"><ele>537.5</ele></trkpt>
   <trkpt lat="49.99186" lon="17.46456"><ele>537</ele></trkpt>
   <trkpt lat="49.991985" lon="17.464859"><ele>536.25</ele></trkpt>
   <trkpt lat="49.992029" lon="17.465003"><ele>535.5</ele></trkpt>
   <trkpt lat="49.992069" lon="17.465199"><ele>535</ele></trkpt>
   <trkpt lat="49.992093" lon="17.465408"><ele>535</ele></trkpt>
   <trkpt lat="49.992099" lon="17.465643"><ele>534.75</ele></trkpt>
   <trkpt lat="49.992078" lon="17.465934"><ele>534.25</ele></trkpt>
   <trkpt lat="49.99206" lon="17.466065"><ele>534</ele></trkpt>
   <trkpt lat="49.992003" lon="17.466329"><ele>534</ele></trkpt>
   <trkpt lat="49.991924" lon="17.466592"><ele>534</ele></trkpt>
   <trkpt lat="49.991831" lon="17.466818"><ele>534</ele></trkpt>
   <trkpt lat="49.991681" lon="17.467104"><ele>533.75</ele></trkpt>
   <trkpt lat="49.991328" lon="17.467651"><ele>533</ele></trkpt>
   <trkpt lat="49.991063" lon="17.468068"><ele>533</ele></trkpt>
   <trkpt lat="49.990802" lon="17.46845"><ele>533</ele></trkpt>
   <trkpt lat="49.990757" lon="17.468593"><ele>533.25</ele></trkpt>
   <trkpt lat="49.990746" lon="17.468719"><ele>533</ele></trkpt>
   <trkpt lat="49.990735" lon="17.468833"><ele>533</ele></trkpt>
   <trkpt lat="49.990749" lon="17.468961"><ele>533</ele></trkpt>
   <trkpt lat="49.990763" lon="17.46902"><ele>533</ele></trkpt>
   <trkpt lat="49.990794" lon="17.469109"><ele>533</ele></trkpt>
   <trkpt lat="49.990831" lon="17.469186"><ele>533</ele></trkpt>
   <trkpt lat="49.990872" lon="17.469237"><ele>532.5</ele></trkpt>
   <trkpt lat="49.990943" lon="17.469314"><ele>532</ele></trkpt>
   <trkpt lat="49.991126" lon="17.469447"><ele>532</ele></trkpt>
   <trkpt lat="49.991193" lon="17.46949"><ele>532.25</ele></trkpt>
   <trkpt lat="49.991297" lon="17.469566"><ele>532.75</ele></trkpt>
   <trkpt lat="49.991971" lon="17.470061"><ele>535.5</ele></trkpt>
   <trkpt lat="49.992402" lon="17.470375"><ele>537.25</ele></trkpt>
   <trkpt lat="49.992561" lon="17.470484"><ele>537.75</ele></trkpt>
   <trkpt lat="49.99305" lon="17.470828"><ele>539.75</ele></trkpt>
   <trkpt lat="49.993132" lon="17.470887"><ele>540.5</ele></trkpt>
   <trkpt lat="49.993278" lon="17.470998"><ele>541.5</ele></trkpt>
   <trkpt lat="49.99354" lon="17.471212"><ele>542.5</ele></trkpt>
   <trkpt lat="49.993915" lon="17.471565"><ele>543</ele></trkpt>
   <trkpt lat="49.994165" lon="17.471845"><ele>543.75</ele></trkpt>
   <trkpt lat="49.994244" lon="17.471934"><ele>543.75</ele></trkpt>
   <trkpt lat="49.994614" lon="17.4724"><ele>546</ele></trkpt>
   <trkpt lat="49.994639" lon="17.472431"><ele>546</ele></trkpt>
   <trkpt lat="49.99494" lon="17.472798"><ele>547.75</ele></trkpt>
   <trkpt lat="49.994999" lon="17.472879"><ele>547.75</ele></trkpt>
   <trkpt lat="49.995043" lon="17.472954"><ele>548</ele></trkpt>
   <trkpt lat="49.995068" lon="17.47302"><ele>548</ele></trkpt>
   <trkpt lat="49.995166" lon="17.473397"><ele>549.5</ele></trkpt>
   <trkpt lat="49.995227" lon="17.473661"><ele>550</ele></trkpt>
   <trkpt lat="49.995104" lon="17.473711"><ele>550.25</ele></trkpt>
   <trkpt lat="49.995024" lon="17.473722"><ele>550.25</ele></trkpt>
   <trkpt lat="49.99491" lon="17.473707"><ele>550.75</ele></trkpt>
   <trkpt lat="49.994822" lon="17.473688"><ele>551.25</ele></trkpt>
   <trkpt lat="49.994791" lon="17.47407"><ele>552.5</ele></trkpt>
   <trkpt lat="49.994852" lon="17.474087"><ele>552.5</ele></trkpt>
   <trkpt lat="49.9951" lon="17.474156"><ele>552.75</ele></trkpt>
   <trkpt lat="49.995158" lon="17.474195"><ele>553</ele></trkpt>
   <trkpt lat="49.995187" lon="17.474265"><ele>553</ele></trkpt>
   <trkpt lat="49.995194" lon="17.474362"><ele>553</ele></trkpt>
   <trkpt lat="49.99518" lon="17.474452"><ele>553</ele></trkpt>
   <trkpt lat="49.99514" lon="17.47451"><ele>553</ele></trkpt>
   <trkpt lat="49.995082" lon="17.474532"><ele>553.25</ele></trkpt>
   <trkpt lat="49.994926" lon="17.474481"><ele>553</ele></trkpt>
   <trkpt lat="49.994435" lon="17.474321"><ele>553</ele></trkpt>
   <trkpt lat="49.994397" lon="17.474247"><ele>553</ele></trkpt>
   <trkpt lat="49.994403" lon="17.474136"><ele>553</ele></trkpt>
   <trkpt lat="49.994449" lon="17.474014"><ele>552.75</ele></trkpt>
   <trkpt lat="49.994496" lon="17.47398"><ele>552.75</ele></trkpt>
   <trkpt lat="49.994628" lon="17.47402"><ele>552.5</ele></trkpt>
  </trkseg>
 </trk>
</gpx>