<?xml version="1.0" encoding="UTF-8"?>
<!-- track-length = 172 filtered ascend = 0 plain-ascend = 0 cost=344 energy=0.0kwh time=14s -->
<gpx 
 xmlns="http://www.topografix.com/GPX/1/1" 
 xmlns:xsi="http://www.w3.org/2001/XMLSchema-instance" 
 xsi:schemaLocation="http://www.topografix.com/GPX/1/1 http://www.topografix.com/GPX/1/1/gpx.xsd" 
 version="1.1" 
 creator="BRouter-Web 0.18.1">
 <trk>
  <name>Abzweig Aleksanterinkatu/Mikonkatu Weiche Nord - Mikonkatu (Steig Ost)</name>
  <trkseg>
   <trkpt lat="60.168919" lon="24.945996"><ele>2</ele></trkpt>
   <trkpt lat="60.168919" lon="24.945995"><ele>2</ele></trkpt>
   <trkpt lat="60.168922" lon="24.945832"><ele>2</ele></trkpt>
   <trkpt lat="60.168931" lon="24.945738"><ele>2</ele></trkpt>
   <trkpt lat="60.168956" lon="24.945634"><ele>2</ele></trkpt>
   <trkpt lat="60.168978" lon="24.94559"><ele>2</ele></trkpt>
   <trkpt lat="60.169018" lon="24.945535"><ele>2</ele></trkpt>
   <trkpt lat="60.169085" lon="24.945502"><ele>2</ele></trkpt>
   <trkpt lat="60.169753" lon="24.94542"><ele>2</ele></trkpt>
   <trkpt lat="60.169787" lon="24.945418"><ele>1.75</ele></trkpt>
   <trkpt lat="60.169885" lon="24.945406"><ele>2</ele></trkpt>
   <trkpt lat="60.17029" lon="24.945353"><ele>2</ele></trkpt>
  </trkseg>
 </trk>
</gpx>