<?xml version="1.0" encoding="UTF-8"?>
<!-- track-length = 69 filtered ascend = 0 plain-ascend = 0 cost=140 energy=0.0kwh time=6s -->
<gpx 
 xmlns="http://www.topografix.com/GPX/1/1" 
 xmlns:xsi="http://www.w3.org/2001/XMLSchema-instance" 
 xsi:schemaLocation="http://www.topografix.com/GPX/1/1 http://www.topografix.com/GPX/1/1/gpx.xsd" 
 version="1.1" 
 creator="BRouter-Web 0.18.1">
 <trk>
  <name>Mikonkatu (Steig Ost) - Abzweig Kaivokatu/Mikonkatu Weiche Nord</name>
  <trkseg>
   <trkpt lat="60.17029" lon="24.945353"><ele>2</ele></trkpt>
   <trkpt lat="60.17041" lon="24.945338"><ele>2</ele></trkpt>
   <trkpt lat="60.170469" lon="24.945291"><ele>2</ele></trkpt>
   <trkpt lat="60.170498" lon="24.945252"><ele>2</ele></trkpt>
   <trkpt lat="60.170541" lon="24.945163"><ele>2</ele></trkpt>
   <trkpt lat="60.170562" lon="24.945089"><ele>2</ele></trkpt>
   <trkpt lat="60.170568" lon="24.945056"><ele>2</ele></trkpt>
   <trkpt lat="60.170575" lon="24.945005"><ele>2</ele></trkpt>
   <trkpt lat="60.170579" lon="24.944874"><ele>2</ele></trkpt>
   <trkpt lat="60.17057" lon="24.944765"><ele>2</ele></trkpt>
   <trkpt lat="60.170542" lon="24.944507"><ele>2</ele></trkpt>
  </trkseg>
 </trk>
</gpx>