<?xml version="1.0" encoding="UTF-8"?>
<!-- track-length = 9 filtered ascend = 0 plain-ascend = 0 cost=9 energy=0.0kwh time=1s -->
<gpx 
 xmlns="http://www.topografix.com/GPX/1/1" 
 xmlns:xsi="http://www.w3.org/2001/XMLSchema-instance" 
 xsi:schemaLocation="http://www.topografix.com/GPX/1/1 http://www.topografix.com/GPX/1/1/gpx.xsd" 
 version="1.1" 
 creator="BRouter-Web 99.71.0">
 <trk>
  <name>1100 Lübeck Hbf Weiche 12 - Lübeck Hbf Weiche 9</name>
  <link href="https://brouter.damsy.net/latest/#map=19/53.87011/10.67432/standard&amp;lonlats=10.674227,53.870239;10.674161,53.870169&amp;profile=rail">
   <text>BRouter-Web</text>
  </link>
  <trkseg>
   <trkpt lat="53.870236" lon="10.67423"><ele>6.5</ele></trkpt>
   <trkpt lat="53.870219" lon="10.674213"><ele>6.5</ele></trkpt>
   <trkpt lat="53.87017" lon="10.674163"><ele>6.5</ele></trkpt>
   <trkpt lat="53.870168" lon="10.67416"><ele>6.75</ele></trkpt>
  </trkseg>
 </trk>
</gpx>