<?xml version="1.0" encoding="UTF-8"?>
<!-- track-length = 93 filtered ascend = 0 plain-ascend = 0 cost=93 energy=0.0kwh time=7s -->
<gpx 
 xmlns="http://www.topografix.com/GPX/1/1" 
 xmlns:xsi="http://www.w3.org/2001/XMLSchema-instance" 
 xsi:schemaLocation="http://www.topografix.com/GPX/1/1 http://www.topografix.com/GPX/1/1/gpx.xsd" 
 version="1.1" 
 creator="BRouter-Web 99.71.0">
 <trk>
  <name>1100 Lübeck Hbf Weiche 6 - Lübeck Hbf Weiche 3</name>
  <link href="https://brouter.damsy.net/latest/#map=19/53.87164/10.67616/standard&amp;lonlats=10.674846,53.870845;10.675576,53.871562&amp;profile=rail">
   <text>BRouter-Web</text>
  </link>
  <trkseg>
   <trkpt lat="53.870843" lon="10.674851"><ele>6.5</ele></trkpt>
   <trkpt lat="53.871406" lon="10.675429"><ele>6</ele></trkpt>
   <trkpt lat="53.871558" lon="10.675583"><ele>6</ele></trkpt>
  </trkseg>
 </trk>
</gpx>