<?xml version="1.0" encoding="UTF-8"?>
<!-- track-length = 267 filtered ascend = 1 plain-ascend = 2 cost=267 energy=0.0kwh time=22s -->
<gpx 
 xmlns="http://www.topografix.com/GPX/1/1" 
 xmlns:xsi="http://www.w3.org/2001/XMLSchema-instance" 
 xsi:schemaLocation="http://www.topografix.com/GPX/1/1 http://www.topografix.com/GPX/1/1/gpx.xsd" 
 version="1.1" 
 creator="BRouter-Web 99.71.0">
 <trk>
  <name>1100 Lübeck Hbf Weiche 1 - Lübeck Hbf Weiche 10</name>
  <link href="https://brouter.damsy.net/latest/#map=18/53.87019/10.67365/standard&amp;lonlats=10.67633,53.872362;10.674601,53.870675;10.674243,53.870332&amp;profile=rail">
   <text>BRouter-Web</text>
  </link>
  <trkseg>
   <trkpt lat="53.872361" lon="10.676327"><ele>5.5</ele></trkpt>
   <trkpt lat="53.872365" lon="10.67633"><ele>5.5</ele></trkpt>
   <trkpt lat="53.871424" lon="10.675367"><ele>6.5</ele></trkpt>
   <trkpt lat="53.87075" lon="10.674676"><ele>6.75</ele></trkpt>
   <trkpt lat="53.870675" lon="10.674598"><ele>7</ele></trkpt>
   <trkpt lat="53.870332" lon="10.674245"><ele>7</ele></trkpt>
   <trkpt lat="53.870331" lon="10.674243"><ele>6.75</ele></trkpt>
  </trkseg>
 </trk>
</gpx>