<?xml version="1.0" encoding="UTF-8"?>
<!-- track-length = 85 filtered ascend = 0 plain-ascend = 1 cost=85 energy=0.0kwh time=7s -->
<gpx 
 xmlns="http://www.topografix.com/GPX/1/1" 
 xmlns:xsi="http://www.w3.org/2001/XMLSchema-instance" 
 xsi:schemaLocation="http://www.topografix.com/GPX/1/1 http://www.topografix.com/GPX/1/1/gpx.xsd" 
 version="1.1" 
 creator="BRouter-Web 99.71.0">
 <trk>
  <name>1100 Lübeck Hbf Weiche 11 - Lübeck Hbf Weiche 16</name>
  <link href="https://brouter.damsy.net/latest/#map=19/53.86971/10.67384/standard&amp;lonlats=10.674147,53.870242;10.673448,53.869612&amp;profile=rail">
   <text>BRouter-Web</text>
  </link>
  <trkseg>
   <trkpt lat="53.87024" lon="10.674149"><ele>6.75</ele></trkpt>
   <trkpt lat="53.87024" lon="10.674148"><ele>6.75</ele></trkpt>
   <trkpt lat="53.869804" lon="10.673682"><ele>7</ele></trkpt>
   <trkpt lat="53.869612" lon="10.673451"><ele>7.25</ele></trkpt>
   <trkpt lat="53.86961" lon="10.673449"><ele>7.25</ele></trkpt>
  </trkseg>
 </trk>
</gpx>