<?xml version="1.0" encoding="UTF-8"?>
<!-- track-length = 50 filtered ascend = 0 plain-ascend = 0 cost=100 energy=0.0kwh time=4s -->
<gpx 
 xmlns="http://www.topografix.com/GPX/1/1" 
 xmlns:xsi="http://www.w3.org/2001/XMLSchema-instance" 
 xsi:schemaLocation="http://www.topografix.com/GPX/1/1 http://www.topografix.com/GPX/1/1/gpx.xsd" 
 version="1.1" 
 creator="BRouter-Web 0.18.1">
 <trk>
  <name>Nacionālā opera (Steig Südwest) - Dreieck Aspazijas bulvāris/Krišjāņa Barona iela Weiche Nordwest-Südwest</name>
  <trkseg>
   <trkpt lat="56.948527" lon="24.11402"><ele>5.25</ele></trkpt>
   <trkpt lat="56.948527" lon="24.114021"><ele>5.25</ele></trkpt>
   <trkpt lat="56.948117" lon="24.114286"><ele>4.5</ele></trkpt>
   <trkpt lat="56.948116" lon="24.114286"><ele>4</ele></trkpt>
  </trkseg>
 </trk>
</gpx>