<?xml version="1.0" encoding="UTF-8"?>
<!-- track-length = 129 filtered ascend = 0 plain-ascend = -1 cost=258 energy=0.0kwh time=10s -->
<gpx 
 xmlns="http://www.topografix.com/GPX/1/1" 
 xmlns:xsi="http://www.w3.org/2001/XMLSchema-instance" 
 xsi:schemaLocation="http://www.topografix.com/GPX/1/1 http://www.topografix.com/GPX/1/1/gpx.xsd" 
 version="1.1" 
 creator="BRouter-Web 0.18.1">
 <trk>
  <name>Abzweig Arkadiankatu Weiche Nord - Hanken (Steig Nord)</name>
  <trkseg>
   <trkpt lat="60.171227" lon="24.9272"><ele>15.75</ele></trkpt>
   <trkpt lat="60.171241" lon="24.92659"><ele>15.5</ele></trkpt>
   <trkpt lat="60.171256" lon="24.925897"><ele>15</ele></trkpt>
   <trkpt lat="60.171259" lon="24.925795"><ele>15</ele></trkpt>
   <trkpt lat="60.171278" lon="24.924898"><ele>14</ele></trkpt>
  </trkseg>
 </trk>
</gpx>