<?xml version="1.0" encoding="UTF-8"?>
<!-- track-length = 277 filtered ascend = 1 plain-ascend = 0 cost=554 energy=0.0kwh time=22s -->
<gpx 
 xmlns="http://www.topografix.com/GPX/1/1" 
 xmlns:xsi="http://www.w3.org/2001/XMLSchema-instance" 
 xsi:schemaLocation="http://www.topografix.com/GPX/1/1 http://www.topografix.com/GPX/1/1/gpx.xsd" 
 version="1.1" 
 creator="BRouter-Web 0.18.1">
 <trk>
  <name>Hanken (Steig Nord) - Sammonkatu (Steig Nordost)</name>
  <trkseg>
   <trkpt lat="60.171278" lon="24.924898"><ele>14</ele></trkpt>
   <trkpt lat="60.171281" lon="24.924792"><ele>14</ele></trkpt>
   <trkpt lat="60.17129" lon="24.924695"><ele>14</ele></trkpt>
   <trkpt lat="60.171313" lon="24.924588"><ele>14</ele></trkpt>
   <trkpt lat="60.171336" lon="24.92452"><ele>14</ele></trkpt>
   <trkpt lat="60.171376" lon="24.924436"><ele>14</ele></trkpt>
   <trkpt lat="60.171472" lon="24.924304"><ele>14</ele></trkpt>
   <trkpt lat="60.171689" lon="24.924018"><ele>14.5</ele></trkpt>
   <trkpt lat="60.171803" lon="24.923896"><ele>14.75</ele></trkpt>
   <trkpt lat="60.171927" lon="24.92377"><ele>15</ele></trkpt>
   <trkpt lat="60.172243" lon="24.923489"><ele>15</ele></trkpt>
   <trkpt lat="60.172309" lon="24.923433"><ele>15.25</ele></trkpt>
   <trkpt lat="60.172378" lon="24.923375"><ele>15.5</ele></trkpt>
   <trkpt lat="60.173063" lon="24.922868"><ele>15.75</ele></trkpt>
   <trkpt lat="60.173215" lon="24.922741"><ele>15.25</ele></trkpt>
   <trkpt lat="60.173378" lon="24.922638"><ele>14.75</ele></trkpt>
   <trkpt lat="60.173421" lon="24.922614"><ele>13.75</ele></trkpt>
  </trkseg>
 </trk>
</gpx>