<?xml version="1.0" encoding="UTF-8"?>
<!-- track-length = 51 filtered ascend = 0 plain-ascend = 1 cost=102 energy=0.0kwh time=4s -->
<gpx 
 xmlns="http://www.topografix.com/GPX/1/1" 
 xmlns:xsi="http://www.w3.org/2001/XMLSchema-instance" 
 xsi:schemaLocation="http://www.topografix.com/GPX/1/1 http://www.topografix.com/GPX/1/1/gpx.xsd" 
 version="1.1" 
 creator="BRouter-Web 99.71.0">
 <trk>
  <name>Abzweig Wendeschleife Nové sady smyčka Weiche West-Ost - Abzweig Wendeschleife Nové sady smyčka Weiche 709</name>
  <link href="https://brouter.damsy.net/latest/#map=18/49.18910/16.60957/standard&amp;lonlats=16.606737,49.189139;16.607444,49.189123&amp;profile=rail">
   <text>BRouter-Web</text>
  </link>
  <trkseg>
   <trkpt lat="49.189139" lon="16.606737"><ele>201</ele></trkpt>
   <trkpt lat="49.18913" lon="16.607046"><ele>201.75</ele></trkpt>
   <trkpt lat="49.189121" lon="16.60728"><ele>201.75</ele></trkpt>
   <trkpt lat="49.189119" lon="16.607341"><ele>201.75</ele></trkpt>
   <trkpt lat="49.189122" lon="16.607443"><ele>201.75</ele></trkpt>
  </trkseg>
 </trk>
</gpx>