<?xml version="1.0" encoding="UTF-8"?>
<!-- track-length = 49 filtered ascend = 0 plain-ascend = 0 cost=98 energy=0.0kwh time=4s -->
<gpx 
 xmlns="http://www.topografix.com/GPX/1/1" 
 xmlns:xsi="http://www.w3.org/2001/XMLSchema-instance" 
 xsi:schemaLocation="http://www.topografix.com/GPX/1/1 http://www.topografix.com/GPX/1/1/gpx.xsd" 
 version="1.1" 
 creator="BRouter-Web 0.18.1">
 <trk>
  <name>Abzweig Helsinginkatu Weiche Nord - Helsinginkatu (Steig West)</name>
  <trkseg>
   <trkpt lat="60.186994" lon="24.952684"><ele>18</ele></trkpt>
   <trkpt lat="60.186994" lon="24.952681"><ele>18</ele></trkpt>
   <trkpt lat="60.186957" lon="24.951962"><ele>18</ele></trkpt>
   <trkpt lat="60.18695" lon="24.951819"><ele>18</ele></trkpt>
  </trkseg>
 </trk>
</gpx>