<?xml version="1.0" encoding="UTF-8"?>
<!-- track-length = 37 filtered ascend = 0 plain-ascend = 0 cost=74 energy=0.0kwh time=3s -->
<gpx 
 xmlns="http://www.topografix.com/GPX/1/1" 
 xmlns:xsi="http://www.w3.org/2001/XMLSchema-instance" 
 xsi:schemaLocation="http://www.topografix.com/GPX/1/1 http://www.topografix.com/GPX/1/1/gpx.xsd" 
 version="1.1" 
 creator="BRouter-Web 0.18.1">
 <trk>
  <name>Helsinginkatu (Steig West) - Dreieck Kaarlenkatu Weiche Nordost-West</name>
  <trkseg>
   <trkpt lat="60.18695" lon="24.951817"><ele>18</ele></trkpt>
   <trkpt lat="60.186948" lon="24.951766"><ele>18</ele></trkpt>
   <trkpt lat="60.186943" lon="24.951698"><ele>18</ele></trkpt>
   <trkpt lat="60.186926" lon="24.951592"><ele>17.5</ele></trkpt>
   <trkpt lat="60.186886" lon="24.951464"><ele>17.25</ele></trkpt>
   <trkpt lat="60.186782" lon="24.951262"><ele>17.5</ele></trkpt>
  </trkseg>
 </trk>
</gpx>