<?xml version="1.0" encoding="UTF-8"?>
<!-- track-length = 10 filtered ascend = 0 plain-ascend = 0 cost=20 energy=0.0kwh time=1s -->
<gpx 
 xmlns="http://www.topografix.com/GPX/1/1" 
 xmlns:xsi="http://www.w3.org/2001/XMLSchema-instance" 
 xsi:schemaLocation="http://www.topografix.com/GPX/1/1 http://www.topografix.com/GPX/1/1/gpx.xsd" 
 version="1.1" 
 creator="BRouter-Web 0.18.1">
 <trk>
  <name>Palackého náměstí (Steig K) - Kreuz Palackého náměstí Weiche 646.P</name>
  <trkseg>
   <trkpt lat="50.073248" lon="14.414564"><ele>197.5</ele></trkpt>
   <trkpt lat="50.073245" lon="14.414519"><ele>197.5</ele></trkpt>
   <trkpt lat="50.073242" lon="14.414424"><ele>197.25</ele></trkpt>
  </trkseg>
 </trk>
</gpx>