<?xml version="1.0" encoding="UTF-8"?>
<!-- track-length = 43 filtered ascend = 0 plain-ascend = 0 cost=86 energy=0.0kwh time=3s -->
<gpx 
 xmlns="http://www.topografix.com/GPX/1/1" 
 xmlns:xsi="http://www.w3.org/2001/XMLSchema-instance" 
 xsi:schemaLocation="http://www.topografix.com/GPX/1/1 http://www.topografix.com/GPX/1/1/gpx.xsd" 
 version="1.1" 
 creator="BRouter-Web 0.18.1">
 <trk>
  <name>Abzweig Palkkatilanportti Weiche West - Abzweig Palkkatilanportti Weiche Nord</name>
  <trkseg>
   <trkpt lat="60.195864" lon="24.928636"><ele>20.75</ele></trkpt>
   <trkpt lat="60.195866" lon="24.928645"><ele>20.75</ele></trkpt>
   <trkpt lat="60.19589" lon="24.928789"><ele>21</ele></trkpt>
   <trkpt lat="60.19592" lon="24.928896"><ele>20.75</ele></trkpt>
   <trkpt lat="60.19594" lon="24.928934"><ele>20.75</ele></trkpt>
   <trkpt lat="60.195961" lon="24.928975"><ele>20.75</ele></trkpt>
   <trkpt lat="60.196008" lon="24.929035"><ele>20.75</ele></trkpt>
   <trkpt lat="60.196044" lon="24.929059"><ele>20.75</ele></trkpt>
   <trkpt lat="60.196094" lon="24.92907"><ele>20.75</ele></trkpt>
   <trkpt lat="60.196106" lon="24.92907"><ele>20.75</ele></trkpt>
   <trkpt lat="60.196134" lon="24.92907"><ele>21</ele></trkpt>
   <trkpt lat="60.196134" lon="24.929069"><ele>21</ele></trkpt>
  </trkseg>
 </trk>
</gpx>