<?xml version="1.0" encoding="UTF-8"?>
<!-- track-length = 105 filtered ascend = 3 plain-ascend = 4 cost=210 energy=0.0kwh time=8s -->
<gpx 
 xmlns="http://www.topografix.com/GPX/1/1" 
 xmlns:xsi="http://www.w3.org/2001/XMLSchema-instance" 
 xsi:schemaLocation="http://www.topografix.com/GPX/1/1 http://www.topografix.com/GPX/1/1/gpx.xsd" 
 version="1.1" 
 creator="BRouter-Web 0.18.1">
 <trk>
  <name>Abzweig Palkkatilanportti Weiche Nord - Palkkatilanportti (Steig Nordost)</name>
  <trkseg>
   <trkpt lat="60.196134" lon="24.929069"><ele>21</ele></trkpt>
   <trkpt lat="60.196174" lon="24.929058"><ele>21</ele></trkpt>
   <trkpt lat="60.196235" lon="24.929035"><ele>21.25</ele></trkpt>
   <trkpt lat="60.197052" lon="24.928647"><ele>24.5</ele></trkpt>
  </trkseg>
 </trk>
</gpx>