<?xml version="1.0" encoding="UTF-8"?>
<!-- track-length = 456 filtered ascend = 0 plain-ascend = -6 cost=912 energy=0.0kwh time=36s -->
<gpx 
 xmlns="http://www.topografix.com/GPX/1/1" 
 xmlns:xsi="http://www.w3.org/2001/XMLSchema-instance" 
 xsi:schemaLocation="http://www.topografix.com/GPX/1/1 http://www.topografix.com/GPX/1/1/gpx.xsd" 
 version="1.1" 
 creator="BRouter-Web 99.71.0">
 <trk>
  <name>Abzweig Baumgarten Weiche 14-13/32 - Linzer Straße/Hochsatzengasse (Steig Südwest)</name>
  <link href="https://brouter.damsy.net/latest/#map=19/48.19712/16.27765/standard&amp;lonlats=16.271441,48.199047;16.276706,48.197012">
   <text>BRouter-Web</text>
  </link>
  <trkseg>
   <trkpt lat="48.199047" lon="16.271441"><ele>220</ele></trkpt>
   <trkpt lat="48.199019" lon="16.271513"><ele>220</ele></trkpt>
   <trkpt lat="48.198975" lon="16.271582"><ele>220</ele></trkpt>
   <trkpt lat="48.198871" lon="16.271689"><ele>219.75</ele></trkpt>
   <trkpt lat="48.198832" lon="16.271744"><ele>219.25</ele></trkpt>
   <trkpt lat="48.198797" lon="16.271815"><ele>219</ele></trkpt>
   <trkpt lat="48.198505" lon="16.272556"><ele>217</ele></trkpt>
   <trkpt lat="48.198027" lon="16.27377"><ele>214.25</ele></trkpt>
   <trkpt lat="48.197877" lon="16.274149"><ele>214.25</ele></trkpt>
   <trkpt lat="48.197686" lon="16.274662"><ele>213.25</ele></trkpt>
   <trkpt lat="48.197407" lon="16.275449"><ele>212.25</ele></trkpt>
   <trkpt lat="48.197288" lon="16.275821"><ele>214</ele></trkpt>
   <trkpt lat="48.197067" lon="16.27655"><ele>213.25</ele></trkpt>
   <trkpt lat="48.197011" lon="16.276705"><ele>213.25</ele></trkpt>
  </trkseg>
 </trk>
</gpx>