<?xml version="1.0" encoding="UTF-8"?>
<!-- track-length = 410 filtered ascend = 7 plain-ascend = 7 cost=820 energy=0.0kwh time=33s -->
<gpx 
 xmlns="http://www.topografix.com/GPX/1/1" 
 xmlns:xsi="http://www.w3.org/2001/XMLSchema-instance" 
 xsi:schemaLocation="http://www.topografix.com/GPX/1/1 http://www.topografix.com/GPX/1/1/gpx.xsd" 
 version="1.1" 
 creator="BRouter-Web 99.71.0">
 <trk>
  <name>Gusenleithnergasse (Steig Süd) - Linzer Straße/Lützowgasse (Steig Süd)</name>
  <link href="https://brouter.damsy.net/latest/#map=19/48.19422/16.29550/standard&amp;lonlats=16.289946,48.194628;16.295372,48.194326">
   <text>BRouter-Web</text>
  </link>
  <trkseg>
   <trkpt lat="48.194629" lon="16.289946"><ele>208.25</ele></trkpt>
   <trkpt lat="48.194629" lon="16.289953"><ele>208.5</ele></trkpt>
   <trkpt lat="48.19462" lon="16.290035"><ele>208.5</ele></trkpt>
   <trkpt lat="48.194574" lon="16.290343"><ele>209</ele></trkpt>
   <trkpt lat="48.194475" lon="16.290787"><ele>209</ele></trkpt>
   <trkpt lat="48.19431" lon="16.291527"><ele>210.25</ele></trkpt>
   <trkpt lat="48.194281" lon="16.291683"><ele>211</ele></trkpt>
   <trkpt lat="48.194249" lon="16.291907"><ele>211.25</ele></trkpt>
   <trkpt lat="48.194229" lon="16.292182"><ele>211</ele></trkpt>
   <trkpt lat="48.194237" lon="16.292587"><ele>212.25</ele></trkpt>
   <trkpt lat="48.194309" lon="16.294548"><ele>216</ele></trkpt>
   <trkpt lat="48.194326" lon="16.294965"><ele>216</ele></trkpt>
   <trkpt lat="48.19433" lon="16.29537"><ele>215.25</ele></trkpt>
  </trkseg>
 </trk>
</gpx>