<?xml version="1.0" encoding="UTF-8"?>
<!-- track-length = 408 filtered ascend = 2 plain-ascend = 2 cost=816 energy=0.0kwh time=33s -->
<gpx 
 xmlns="http://www.topografix.com/GPX/1/1" 
 xmlns:xsi="http://www.w3.org/2001/XMLSchema-instance" 
 xsi:schemaLocation="http://www.topografix.com/GPX/1/1 http://www.topografix.com/GPX/1/1/gpx.xsd" 
 version="1.1" 
 creator="BRouter-Web 0.18.1">
 <trk>
  <name>Helsinginkatu (Steig Süd) - Dreieck Sörnäinen Weiche West-Süd</name>
  <trkseg>
   <trkpt lat="60.187073" lon="24.95397"><ele>18</ele></trkpt>
   <trkpt lat="60.187083" lon="24.954085"><ele>18</ele></trkpt>
   <trkpt lat="60.187235" lon="24.955849"><ele>18</ele></trkpt>
   <trkpt lat="60.18724" lon="24.955902"><ele>18</ele></trkpt>
   <trkpt lat="60.18726" lon="24.956125"><ele>18</ele></trkpt>
   <trkpt lat="60.187278" lon="24.95633"><ele>18</ele></trkpt>
   <trkpt lat="60.187283" lon="24.956383"><ele>18</ele></trkpt>
   <trkpt lat="60.187358" lon="24.957236"><ele>18</ele></trkpt>
   <trkpt lat="60.187371" lon="24.957388"><ele>18</ele></trkpt>
   <trkpt lat="60.187385" lon="24.957558"><ele>18</ele></trkpt>
   <trkpt lat="60.18739" lon="24.957609"><ele>18</ele></trkpt>
   <trkpt lat="60.187469" lon="24.958535"><ele>18</ele></trkpt>
   <trkpt lat="60.187474" lon="24.958588"><ele>18</ele></trkpt>
   <trkpt lat="60.187488" lon="24.958764"><ele>18.5</ele></trkpt>
   <trkpt lat="60.187497" lon="24.958872"><ele>18.75</ele></trkpt>
   <trkpt lat="60.187535" lon="24.959424"><ele>19</ele></trkpt>
   <trkpt lat="60.187567" lon="24.959916"><ele>19</ele></trkpt>
   <trkpt lat="60.18757" lon="24.959982"><ele>19.25</ele></trkpt>
   <trkpt lat="60.18758" lon="24.960157"><ele>19.5</ele></trkpt>
   <trkpt lat="60.187588" lon="24.96029"><ele>20</ele></trkpt>
   <trkpt lat="60.18759" lon="24.960335"><ele>20</ele></trkpt>
   <trkpt lat="60.187626" lon="24.961195"><ele>20</ele></trkpt>
  </trkseg>
 </trk>
</gpx>