<?xml version="1.0" encoding="UTF-8"?>
<!-- track-length = 13832 filtered ascend = 14 plain-ascend = -7 cost=19868 energy=1.5kwh time=18m 57s -->
<gpx 
 xmlns="http://www.topografix.com/GPX/1/1" 
 xmlns:xsi="http://www.w3.org/2001/XMLSchema-instance" 
 xsi:schemaLocation="http://www.topografix.com/GPX/1/1 http://www.topografix.com/GPX/1/1/gpx.xsd" 
 version="1.1" 
 creator="BRouter-Web 0.18.1">
 <trk>
  <name>Revon Turistiliikenne Bus 40 Turkansaari - Oulu Linja-autoasema</name>
  <trkseg>
   <trkpt lat="64.944789" lon="25.685778"><ele>20.25</ele></trkpt>
   <trkpt lat="64.944828" lon="25.685671"><ele>20.25</ele></trkpt>
   <trkpt lat="64.945439" lon="25.684004"><ele>19.25</ele></trkpt>
   <trkpt lat="64.945913" lon="25.682821"><ele>18.75</ele></trkpt>
   <trkpt lat="64.946533" lon="25.681409"><ele>18</ele></trkpt>
   <trkpt lat="64.946647" lon="25.681167"><ele>18.5</ele></trkpt>
   <trkpt lat="64.947656" lon="25.679032"><ele>19</ele></trkpt>
   <trkpt lat="64.94827" lon="25.67794"><ele>21</ele></trkpt>
   <trkpt lat="64.949684" lon="25.675344"><ele>24.75</ele></trkpt>
   <trkpt lat="64.949726" lon="25.675275"><ele>24.75</ele></trkpt>
   <trkpt lat="64.950018" lon="25.674709"><ele>25.75</ele></trkpt>
   <trkpt lat="64.950657" lon="25.673354"><ele>25.5</ele></trkpt>
   <trkpt lat="64.951312" lon="25.671872"><ele>25.5</ele></trkpt>
   <trkpt lat="64.951607" lon="25.67113"><ele>26.5</ele></trkpt>
   <trkpt lat="64.952272" lon="25.669314"><ele>26.25</ele></trkpt>
   <trkpt lat="64.952687" lon="25.668137"><ele>25.75</ele></trkpt>
   <trkpt lat="64.952909" lon="25.667492"><ele>25</ele></trkpt>
   <trkpt lat="64.953117" lon="25.66693"><ele>25</ele></trkpt>
   <trkpt lat="64.953536" lon="25.66561"><ele>24.25</ele></trkpt>
   <trkpt lat="64.9539" lon="25.664401"><ele>23.75</ele></trkpt>
   <trkpt lat="64.953983" lon="25.664056"><ele>22.5</ele></trkpt>
   <trkpt lat="64.954402" lon="25.66233"><ele>22</ele></trkpt>
   <trkpt lat="64.955018" lon="25.65956"><ele>21.75</ele></trkpt>
   <trkpt lat="64.956238" lon="25.654075"><ele>22.25</ele></trkpt>
   <trkpt lat="64.95679" lon="25.651764"><ele>23</ele></trkpt>
   <trkpt lat="64.957206" lon="25.650193"><ele>22.75</ele></trkpt>
   <trkpt lat="64.958164" lon="25.646811"><ele>20.5</ele></trkpt>
   <trkpt lat="64.958873" lon="25.644759"><ele>20.75</ele></trkpt>
   <trkpt lat="64.959788" lon="25.642399"><ele>19.25</ele></trkpt>
   <trkpt lat="64.960648" lon="25.640492"><ele>19.5</ele></trkpt>
   <trkpt lat="64.962259" lon="25.637352"><ele>20</ele></trkpt>
   <trkpt lat="64.963802" lon="25.634631"><ele>19.75</ele></trkpt>
   <trkpt lat="64.965927" lon="25.63076"><ele>17.25</ele></trkpt>
   <trkpt lat="64.966861" lon="25.628795"><ele>17.25</ele></trkpt>
   <trkpt lat="64.967754" lon="25.626649"><ele>18.25</ele></trkpt>
   <trkpt lat="64.968706" lon="25.623842"><ele>17.5</ele></trkpt>
   <trkpt lat="64.969365" lon="25.621538"><ele>17</ele></trkpt>
   <trkpt lat="64.969728" lon="25.620076"><ele>16.75</ele></trkpt>
   <trkpt lat="64.969906" lon="25.619302"><ele>16.25</ele></trkpt>
   <trkpt lat="64.970146" lon="25.618169"><ele>15.5</ele></trkpt>
   <trkpt lat="64.970516" lon="25.616237"><ele>17</ele></trkpt>
   <trkpt lat="64.97085" lon="25.614695"><ele>16.75</ele></trkpt>
   <trkpt lat="64.971395" lon="25.611619"><ele>15.75</ele></trkpt>
   <trkpt lat="64.971792" lon="25.609246"><ele>15</ele></trkpt>
   <trkpt lat="64.971954" lon="25.608141"><ele>14.75</ele></trkpt>
   <trkpt lat="64.972149" lon="25.606904"><ele>11.75</ele></trkpt>
   <trkpt lat="64.972241" lon="25.606401"><ele>13.75</ele></trkpt>
   <trkpt lat="64.973334" lon="25.600253"><ele>18</ele></trkpt>
   <trkpt lat="64.975041" lon="25.591451"><ele>21.75</ele></trkpt>
   <trkpt lat="64.976156" lon="25.586449"><ele>19</ele></trkpt>
   <trkpt lat="64.97717" lon="25.581452"><ele>18</ele></trkpt>
   <trkpt lat="64.977349" lon="25.580408"><ele>18</ele></trkpt>
   <trkpt lat="64.977434" lon="25.579967"><ele>17.75</ele></trkpt>
   <trkpt lat="64.977816" lon="25.577823"><ele>17.75</ele></trkpt>
   <trkpt lat="64.978066" lon="25.576349"><ele>17.75</ele></trkpt>
   <trkpt lat="64.979511" lon="25.567379"><ele>16.75</ele></trkpt>
   <trkpt lat="64.979758" lon="25.565972"><ele>16.75</ele></trkpt>
   <trkpt lat="64.980195" lon="25.56384"><ele>15.5</ele></trkpt>
   <trkpt lat="64.980514" lon="25.562428"><ele>15.5</ele></trkpt>
   <trkpt lat="64.980698" lon="25.561605"><ele>16</ele></trkpt>
   <trkpt lat="64.980753" lon="25.561372"><ele>16</ele></trkpt>
   <trkpt lat="64.980789" lon="25.561209"><ele>16</ele></trkpt>
   <trkpt lat="64.980859" lon="25.560959"><ele>15.75</ele></trkpt>
   <trkpt lat="64.981037" lon="25.56026"><ele>15</ele></trkpt>
   <trkpt lat="64.981713" lon="25.557719"><ele>15.5</ele></trkpt>
   <trkpt lat="64.981895" lon="25.557065"><ele>14.75</ele></trkpt>
   <trkpt lat="64.98277" lon="25.554302"><ele>14.75</ele></trkpt>
   <trkpt lat="64.98304" lon="25.55351"><ele>14.75</ele></trkpt>
   <trkpt lat="64.983362" lon="25.552617"><ele>14.75</ele></trkpt>
   <trkpt lat="64.983986" lon="25.55099"><ele>14.25</ele></trkpt>
   <trkpt lat="64.984366" lon="25.550069"><ele>14.5</ele></trkpt>
   <trkpt lat="64.984707" lon="25.549282"><ele>14.5</ele></trkpt>
   <trkpt lat="64.985511" lon="25.547549"><ele>14.5</ele></trkpt>
   <trkpt lat="64.985879" lon="25.546795"><ele>14.5</ele></trkpt>
   <trkpt lat="64.98666" lon="25.545329"><ele>14.75</ele></trkpt>
   <trkpt lat="64.987087" lon="25.544582"><ele>14</ele></trkpt>
   <trkpt lat="64.988329" lon="25.54249"><ele>13.75</ele></trkpt>
   <trkpt lat="64.98867" lon="25.541901"><ele>13.75</ele></trkpt>
   <trkpt lat="64.989295" lon="25.540851"><ele>12.5</ele></trkpt>
   <trkpt lat="64.989441" lon="25.540601"><ele>13.25</ele></trkpt>
   <trkpt lat="64.990081" lon="25.539547"><ele>13.5</ele></trkpt>
   <trkpt lat="64.990508" lon="25.538797"><ele>13.25</ele></trkpt>
   <trkpt lat="64.990623" lon="25.538595"><ele>13.75</ele></trkpt>
   <trkpt lat="64.991085" lon="25.537703"><ele>13</ele></trkpt>
   <trkpt lat="64.99117" lon="25.537541"><ele>13.5</ele></trkpt>
   <trkpt lat="64.991238" lon="25.537408"><ele>13.5</ele></trkpt>
   <trkpt lat="64.991638" lon="25.5366"><ele>14</ele></trkpt>
   <trkpt lat="64.991793" lon="25.536284"><ele>13.5</ele></trkpt>
   <trkpt lat="64.991916" lon="25.536032"><ele>13.75</ele></trkpt>
   <trkpt lat="64.992245" lon="25.535312"><ele>13.75</ele></trkpt>
   <trkpt lat="64.992388" lon="25.534999"><ele>12.75</ele></trkpt>
   <trkpt lat="64.996546" lon="25.525501"><ele>13</ele></trkpt>
   <trkpt lat="64.997898" lon="25.522622"><ele>12.25</ele></trkpt>
   <trkpt lat="64.998443" lon="25.521661"><ele>12</ele></trkpt>
   <trkpt lat="64.998592" lon="25.521404"><ele>12</ele></trkpt>
   <trkpt lat="64.999112" lon="25.520504"><ele>12.25</ele></trkpt>
   <trkpt lat="64.999242" lon="25.520287"><ele>12.5</ele></trkpt>
   <trkpt lat="64.99954" lon="25.521632"><ele>12</ele></trkpt>
   <trkpt lat="64.999642" lon="25.521983"><ele>12</ele></trkpt>
   <trkpt lat="64.999777" lon="25.5224"><ele>12</ele></trkpt>
   <trkpt lat="64.999972" lon="25.523168"><ele>12</ele></trkpt>
   <trkpt lat="65.000425" lon="25.524854"><ele>12</ele></trkpt>
   <trkpt lat="65.000721" lon="25.525889"><ele>12</ele></trkpt>
   <trkpt lat="65.001367" lon="25.52787"><ele>13.25</ele></trkpt>
   <trkpt lat="65.001722" lon="25.528793"><ele>13.5</ele></trkpt>
   <trkpt lat="65.001883" lon="25.529107"><ele>14</ele></trkpt>
   <trkpt lat="65.002026" lon="25.529332"><ele>14.75</ele></trkpt>
   <trkpt lat="65.002175" lon="25.529528"><ele>15</ele></trkpt>
   <trkpt lat="65.002286" lon="25.529673"><ele>14.5</ele></trkpt>
   <trkpt lat="65.002873" lon="25.53025"><ele>15.25</ele></trkpt>
   <trkpt lat="65.003131" lon="25.530385"><ele>16</ele></trkpt>
   <trkpt lat="65.003398" lon="25.530457"><ele>16.5</ele></trkpt>
   <trkpt lat="65.00365" lon="25.530452"><ele>17</ele></trkpt>
   <trkpt lat="65.003782" lon="25.530442"><ele>17.25</ele></trkpt>
   <trkpt lat="65.004039" lon="25.530343"><ele>17</ele></trkpt>
   <trkpt lat="65.005188" lon="25.529779"><ele>18</ele></trkpt>
   <trkpt lat="65.005536" lon="25.529531"><ele>18</ele></trkpt>
   <trkpt lat="65.005933" lon="25.529289"><ele>18</ele></trkpt>
   <trkpt lat="65.006057" lon="25.529213"><ele>18.5</ele></trkpt>
   <trkpt lat="65.006465" lon="25.528963"><ele>19</ele></trkpt>
   <trkpt lat="65.006586" lon="25.528882"><ele>19</ele></trkpt>
   <trkpt lat="65.007084" lon="25.52855"><ele>19</ele></trkpt>
   <trkpt lat="65.007269" lon="25.528545"><ele>18.75</ele></trkpt>
   <trkpt lat="65.007856" lon="25.528218"><ele>18.5</ele></trkpt>
   <trkpt lat="65.007846" lon="25.528099"><ele>18.75</ele></trkpt>
   <trkpt lat="65.007357" lon="25.528346"><ele>18.75</ele></trkpt>
   <trkpt lat="65.007255" lon="25.528398"><ele>18.75</ele></trkpt>
   <trkpt lat="65.007168" lon="25.528475"><ele>19</ele></trkpt>
   <trkpt lat="65.007084" lon="25.52855"><ele>19</ele></trkpt>
   <trkpt lat="65.007269" lon="25.528545"><ele>18.75</ele></trkpt>
   <trkpt lat="65.007856" lon="25.528218"><ele>18.5</ele></trkpt>
   <trkpt lat="65.008093" lon="25.528116"><ele>18</ele></trkpt>
   <trkpt lat="65.008553" lon="25.527951"><ele>18</ele></trkpt>
   <trkpt lat="65.008585" lon="25.527939"><ele>18</ele></trkpt>
   <trkpt lat="65.008722" lon="25.527885"><ele>18</ele></trkpt>
   <trkpt lat="65.008865" lon="25.527819"><ele>18</ele></trkpt>
   <trkpt lat="65.008926" lon="25.527557"><ele>18</ele></trkpt>
   <trkpt lat="65.009127" lon="25.526716"><ele>18.5</ele></trkpt>
   <trkpt lat="65.009971" lon="25.523692"><ele>19</ele></trkpt>
   <trkpt lat="65.010117" lon="25.523134"><ele>18.5</ele></trkpt>
   <trkpt lat="65.010198" lon="25.522774"><ele>19</ele></trkpt>
   <trkpt lat="65.010483" lon="25.521326"><ele>19</ele></trkpt>
   <trkpt lat="65.010567" lon="25.520961"><ele>18.75</ele></trkpt>
   <trkpt lat="65.010905" lon="25.519191"><ele>18.5</ele></trkpt>
   <trkpt lat="65.011329" lon="25.516909"><ele>19</ele></trkpt>
   <trkpt lat="65.01155" lon="25.515704"><ele>19</ele></trkpt>
   <trkpt lat="65.0116" lon="25.51543"><ele>19</ele></trkpt>
   <trkpt lat="65.011887" lon="25.513874"><ele>20</ele></trkpt>
   <trkpt lat="65.011899" lon="25.513813"><ele>20</ele></trkpt>
   <trkpt lat="65.011935" lon="25.513596"><ele>20</ele></trkpt>
   <trkpt lat="65.011965" lon="25.5134"><ele>19.75</ele></trkpt>
   <trkpt lat="65.012037" lon="25.512863"><ele>19.5</ele></trkpt>
   <trkpt lat="65.012078" lon="25.512491"><ele>19.5</ele></trkpt>
   <trkpt lat="65.012111" lon="25.512116"><ele>20</ele></trkpt>
   <trkpt lat="65.012161" lon="25.511272"><ele>20</ele></trkpt>
   <trkpt lat="65.012173" lon="25.510816"><ele>20</ele></trkpt>
   <trkpt lat="65.012171" lon="25.510263"><ele>20</ele></trkpt>
   <trkpt lat="65.012149" lon="25.509473"><ele>20</ele></trkpt>
   <trkpt lat="65.012087" lon="25.508346"><ele>19.75</ele></trkpt>
   <trkpt lat="65.012073" lon="25.508103"><ele>20</ele></trkpt>
   <trkpt lat="65.012054" lon="25.507841"><ele>19.5</ele></trkpt>
   <trkpt lat="65.012011" lon="25.507115"><ele>19</ele></trkpt>
   <trkpt lat="65.011931" lon="25.505803"><ele>19.75</ele></trkpt>
   <trkpt lat="65.011899" lon="25.50521"><ele>19.5</ele></trkpt>
   <trkpt lat="65.011871" lon="25.504649"><ele>19.5</ele></trkpt>
   <trkpt lat="65.011853" lon="25.504329"><ele>19</ele></trkpt>
   <trkpt lat="65.011838" lon="25.504057"><ele>19</ele></trkpt>
   <trkpt lat="65.011729" lon="25.502018"><ele>17.5</ele></trkpt>
   <trkpt lat="65.011672" lon="25.501045"><ele>17</ele></trkpt>
   <trkpt lat="65.011647" lon="25.500595"><ele>17</ele></trkpt>
   <trkpt lat="65.011469" lon="25.497293"><ele>15.5</ele></trkpt>
   <trkpt lat="65.011421" lon="25.496256"><ele>15</ele></trkpt>
   <trkpt lat="65.0114" lon="25.495178"><ele>15</ele></trkpt>
   <trkpt lat="65.011399" lon="25.495129"><ele>15</ele></trkpt>
   <trkpt lat="65.011398" lon="25.494804"><ele>15</ele></trkpt>
   <trkpt lat="65.011407" lon="25.494527"><ele>15</ele></trkpt>
   <trkpt lat="65.01144" lon="25.493441"><ele>14.75</ele></trkpt>
   <trkpt lat="65.011509" lon="25.492442"><ele>14</ele></trkpt>
   <trkpt lat="65.011569" lon="25.491926"><ele>14</ele></trkpt>
   <trkpt lat="65.011667" lon="25.491188"><ele>13.75</ele></trkpt>
   <trkpt lat="65.011969" lon="25.48966"><ele>12.75</ele></trkpt>
   <trkpt lat="65.012035" lon="25.489339"><ele>13</ele></trkpt>
   <trkpt lat="65.012065" lon="25.489214"><ele>13</ele></trkpt>
   <trkpt lat="65.012137" lon="25.488885"><ele>12.75</ele></trkpt>
   <trkpt lat="65.012073" lon="25.488674"><ele>13</ele></trkpt>
   <trkpt lat="65.012003" lon="25.488576"><ele>12.75</ele></trkpt>
   <trkpt lat="65.011837" lon="25.488376"><ele>13</ele></trkpt>
   <trkpt lat="65.011691" lon="25.488295"><ele>13</ele></trkpt>
   <trkpt lat="65.011634" lon="25.488209"><ele>13</ele></trkpt>
   <trkpt lat="65.011573" lon="25.488116"><ele>13</ele></trkpt>
   <trkpt lat="65.01153" lon="25.48805"><ele>12.75</ele></trkpt>
   <trkpt lat="65.011462" lon="25.487957"><ele>12.5</ele></trkpt>
   <trkpt lat="65.011431" lon="25.487909"><ele>12.5</ele></trkpt>
   <trkpt lat="65.010735" lon="25.486865"><ele>13</ele></trkpt>
   <trkpt lat="65.010643" lon="25.486726"><ele>12.75</ele></trkpt>
   <trkpt lat="65.010528" lon="25.486552"><ele>13</ele></trkpt>
   <trkpt lat="65.009984" lon="25.485762"><ele>12</ele></trkpt>
  </trkseg>
 </trk>
</gpx>