<?xml version="1.0" encoding="UTF-8"?>
<!-- track-length = 63 filtered ascend = 0 plain-ascend = -3 cost=126 energy=0.0kwh time=5s -->
<gpx 
 xmlns="http://www.topografix.com/GPX/1/1" 
 xmlns:xsi="http://www.w3.org/2001/XMLSchema-instance" 
 xsi:schemaLocation="http://www.topografix.com/GPX/1/1 http://www.topografix.com/GPX/1/1/gpx.xsd" 
 version="1.1" 
 creator="BRouter-Web 0.18.1">
 <trk>
  <name>Palkkatilanportti (Steig Südwest) - Abzweig Palkkatilanportti Weiche Süd</name>
  <trkseg>
   <trkpt lat="60.196283" lon="24.928936"><ele>21.25</ele></trkpt>
   <trkpt lat="60.196228" lon="24.928962"><ele>21.25</ele></trkpt>
   <trkpt lat="60.196163" lon="24.928994"><ele>21</ele></trkpt>
   <trkpt lat="60.196101" lon="24.929014"><ele>20.75</ele></trkpt>
   <trkpt lat="60.196008" lon="24.929035"><ele>20.75</ele></trkpt>
   <trkpt lat="60.195925" lon="24.929052"><ele>20.5</ele></trkpt>
   <trkpt lat="60.195846" lon="24.929084"><ele>20.25</ele></trkpt>
   <trkpt lat="60.195724" lon="24.929166"><ele>19.5</ele></trkpt>
   <trkpt lat="60.195722" lon="24.929167"><ele>17</ele></trkpt>
  </trkseg>
 </trk>
</gpx>