<?xml version="1.0" encoding="UTF-8"?>
<!-- track-length = 96 filtered ascend = 0 plain-ascend = 0 cost=192 energy=0.0kwh time=8s -->
<gpx 
 xmlns="http://www.topografix.com/GPX/1/1" 
 xmlns:xsi="http://www.w3.org/2001/XMLSchema-instance" 
 xsi:schemaLocation="http://www.topografix.com/GPX/1/1 http://www.topografix.com/GPX/1/1/gpx.xsd" 
 version="1.1" 
 creator="BRouter-Web 0.18.1">
 <trk>
  <name>Abzweig Martin-Greif-Straße Weiche 32 - Hermann-Lingg-Straße (Steig Süd)</name>
  <trkseg>
   <trkpt lat="48.13897" lon="11.550123"><ele>520.25</ele></trkpt>
   <trkpt lat="48.138987" lon="11.550604"><ele>520</ele></trkpt>
   <trkpt lat="48.138996" lon="11.55087"><ele>520</ele></trkpt>
   <trkpt lat="48.138998" lon="11.550933"><ele>520</ele></trkpt>
   <trkpt lat="48.139011" lon="11.551301"><ele>520</ele></trkpt>
   <trkpt lat="48.139014" lon="11.551409"><ele>519.75</ele></trkpt>
  </trkseg>
 </trk>
</gpx>
