<?xml version="1.0" encoding="UTF-8"?>
<!-- track-length = 317 filtered ascend = 0 plain-ascend = 0 cost=634 energy=0.0kwh time=25s -->
<gpx 
 xmlns="http://www.topografix.com/GPX/1/1" 
 xmlns:xsi="http://www.w3.org/2001/XMLSchema-instance" 
 xsi:schemaLocation="http://www.topografix.com/GPX/1/1 http://www.topografix.com/GPX/1/1/gpx.xsd" 
 version="1.1" 
 creator="BRouter-Web 0.18.1">
 <trk>
  <name>Hermann-Lingg-Straße (Steig Süd) - Holzkirchner Bahnhof (Steig Süd)</name>
  <trkseg>
   <trkpt lat="48.139014" lon="11.551409"><ele>519.75</ele></trkpt>
   <trkpt lat="48.139018" lon="11.551516"><ele>519.75</ele></trkpt>
   <trkpt lat="48.139019" lon="11.551548"><ele>519.5</ele></trkpt>
   <trkpt lat="48.139023" lon="11.551659"><ele>519.25</ele></trkpt>
   <trkpt lat="48.139028" lon="11.551811"><ele>519.75</ele></trkpt>
   <trkpt lat="48.139047" lon="11.552425"><ele>519.75</ele></trkpt>
   <trkpt lat="48.139069" lon="11.553103"><ele>519.75</ele></trkpt>
   <trkpt lat="48.139116" lon="11.554522"><ele>519</ele></trkpt>
   <trkpt lat="48.139148" lon="11.555497"><ele>519</ele></trkpt>
   <trkpt lat="48.139152" lon="11.555661"><ele>519</ele></trkpt>
  </trkseg>
 </trk>
</gpx>