<?xml version="1.0" encoding="UTF-8"?>
<!-- track-length = 69 filtered ascend = 0 plain-ascend = 0 cost=138 energy=0.0kwh time=6s -->
<gpx 
 xmlns="http://www.topografix.com/GPX/1/1" 
 xmlns:xsi="http://www.w3.org/2001/XMLSchema-instance" 
 xsi:schemaLocation="http://www.topografix.com/GPX/1/1 http://www.topografix.com/GPX/1/1/gpx.xsd" 
 version="1.1" 
 creator="BRouter-Web 0.18.1">
 <trk>
  <name>Kreuz Náměstí Hrdinů Weiche 26 - Náměstí Hrdinů (Steig B)</name>
  <trkseg>
   <trkpt lat="49.59536" lon="17.247209"><ele>215</ele></trkpt>
   <trkpt lat="49.595315" lon="17.247194"><ele>215</ele></trkpt>
   <trkpt lat="49.595213" lon="17.247167"><ele>215</ele></trkpt>
   <trkpt lat="49.595132" lon="17.247164"><ele>215</ele></trkpt>
   <trkpt lat="49.594749" lon="17.247199"><ele>215</ele></trkpt>
  </trkseg>
 </trk>
</gpx>