<?xml version="1.0" encoding="UTF-8"?>
<!-- track-length = 337 filtered ascend = 0 plain-ascend = 0 cost=674 energy=0.0kwh time=27s -->
<gpx 
 xmlns="http://www.topografix.com/GPX/1/1" 
 xmlns:xsi="http://www.w3.org/2001/XMLSchema-instance" 
 xsi:schemaLocation="http://www.topografix.com/GPX/1/1 http://www.topografix.com/GPX/1/1/gpx.xsd" 
 version="1.1" 
 creator="BRouter-Web 0.18.1">
 <trk>
  <name>Náměstí Hrdinů (Steig B) - Okresní soud (Steig Nordwest)</name>
  <trkseg>
   <trkpt lat="49.594749" lon="17.247199"><ele>215</ele></trkpt>
   <trkpt lat="49.594749" lon="17.2472"><ele>215</ele></trkpt>
   <trkpt lat="49.594608" lon="17.247215"><ele>215</ele></trkpt>
   <trkpt lat="49.594194" lon="17.247294"><ele>215</ele></trkpt>
   <trkpt lat="49.59395" lon="17.247347"><ele>215</ele></trkpt>
   <trkpt lat="49.59386" lon="17.247384"><ele>215</ele></trkpt>
   <trkpt lat="49.593781" lon="17.24743"><ele>215</ele></trkpt>
   <trkpt lat="49.59374" lon="17.247457"><ele>215</ele></trkpt>
   <trkpt lat="49.593636" lon="17.247552"><ele>215</ele></trkpt>
   <trkpt lat="49.593461" lon="17.247746"><ele>215</ele></trkpt>
   <trkpt lat="49.593109" lon="17.248153"><ele>215</ele></trkpt>
   <trkpt lat="49.592918" lon="17.248397"><ele>215.25</ele></trkpt>
   <trkpt lat="49.592769" lon="17.248597"><ele>215</ele></trkpt>
   <trkpt lat="49.592168" lon="17.249362"><ele>215</ele></trkpt>
  </trkseg>
 </trk>
</gpx>