<?xml version="1.0" encoding="UTF-8"?>
<!-- track-length = 235 filtered ascend = 0 plain-ascend = -9 cost=470 energy=0.0kwh time=19s -->
<gpx 
 xmlns="http://www.topografix.com/GPX/1/1" 
 xmlns:xsi="http://www.w3.org/2001/XMLSchema-instance" 
 xsi:schemaLocation="http://www.topografix.com/GPX/1/1 http://www.topografix.com/GPX/1/1/gpx.xsd" 
 version="1.1" 
 creator="BRouter-Web 0.18.1">
 <trk>
  <name>Abzweig Holtegata Weiche Südwest - Abzweig Hegdehaugsveien/Josefines gate Weiche West</name>
  <trkseg>
   <trkpt lat="59.924728" lon="10.724043"><ele>48</ele></trkpt>
   <trkpt lat="59.924726" lon="10.724048"><ele>48</ele></trkpt>
   <trkpt lat="59.924684" lon="10.724137"><ele>47.75</ele></trkpt>
   <trkpt lat="59.92463" lon="10.724251"><ele>47.25</ele></trkpt>
   <trkpt lat="59.924615" lon="10.724283"><ele>47</ele></trkpt>
   <trkpt lat="59.924537" lon="10.724434"><ele>46.25</ele></trkpt>
   <trkpt lat="59.923945" lon="10.725543"><ele>43.5</ele></trkpt>
   <trkpt lat="59.923865" lon="10.725686"><ele>43</ele></trkpt>
   <trkpt lat="59.923739" lon="10.725863"><ele>42.25</ele></trkpt>
   <trkpt lat="59.923603" lon="10.725997"><ele>41.25</ele></trkpt>
   <trkpt lat="59.923477" lon="10.726079"><ele>40</ele></trkpt>
   <trkpt lat="59.923238" lon="10.726192"><ele>38.25</ele></trkpt>
   <trkpt lat="59.923094" lon="10.726258"><ele>38</ele></trkpt>
   <trkpt lat="59.923023" lon="10.726291"><ele>37.75</ele></trkpt>
   <trkpt lat="59.923022" lon="10.726291"><ele>37.75</ele></trkpt>
  </trkseg>
 </trk>
</gpx>
