<?xml version="1.0" encoding="UTF-8"?>
<!-- track-length = 2320 filtered ascend = 25 plain-ascend = 26 cost=2320 energy=0.0kwh time=3m 6s -->
<gpx 
 xmlns="http://www.topografix.com/GPX/1/1" 
 xmlns:xsi="http://www.w3.org/2001/XMLSchema-instance" 
 xsi:schemaLocation="http://www.topografix.com/GPX/1/1 http://www.topografix.com/GPX/1/1/gpx.xsd" 
 version="1.1" 
 creator="BRouter-Web 0.18.1">
 <trk>
  <name>76500 Litovel předměstí Weiche 1 - Myslechovice</name>
  <trkseg>
   <trkpt lat="49.691129" lon="17.069519"><ele>233.75</ele></trkpt>
   <trkpt lat="49.691128" lon="17.069519"><ele>233.75</ele></trkpt>
   <trkpt lat="49.690969" lon="17.069375"><ele>234</ele></trkpt>
   <trkpt lat="49.690829" lon="17.069231"><ele>234</ele></trkpt>
   <trkpt lat="49.690674" lon="17.069037"><ele>233.5</ele></trkpt>
   <trkpt lat="49.689869" lon="17.067926"><ele>233.5</ele></trkpt>
   <trkpt lat="49.687721" lon="17.064953"><ele>237</ele></trkpt>
   <trkpt lat="49.687193" lon="17.064222"><ele>238.25</ele></trkpt>
   <trkpt lat="49.686375" lon="17.063085"><ele>238</ele></trkpt>
   <trkpt lat="49.682205" lon="17.05731"><ele>248.25</ele></trkpt>
   <trkpt lat="49.681402" lon="17.056187"><ele>249.75</ele></trkpt>
   <trkpt lat="49.681217" lon="17.055885"><ele>250.5</ele></trkpt>
   <trkpt lat="49.681039" lon="17.055522"><ele>250.25</ele></trkpt>
   <trkpt lat="49.680934" lon="17.055274"><ele>250.5</ele></trkpt>
   <trkpt lat="49.680841" lon="17.05502"><ele>250.75</ele></trkpt>
   <trkpt lat="49.680759" lon="17.054758"><ele>251.25</ele></trkpt>
   <trkpt lat="49.680647" lon="17.054321"><ele>251.5</ele></trkpt>
   <trkpt lat="49.680596" lon="17.054075"><ele>251.75</ele></trkpt>
   <trkpt lat="49.680558" lon="17.05383"><ele>251.75</ele></trkpt>
   <trkpt lat="49.680513" lon="17.053458"><ele>252</ele></trkpt>
   <trkpt lat="49.680313" lon="17.05077"><ele>253.5</ele></trkpt>
   <trkpt lat="49.680283" lon="17.050481"><ele>254</ele></trkpt>
   <trkpt lat="49.68021" lon="17.050089"><ele>254.25</ele></trkpt>
   <trkpt lat="49.680096" lon="17.049716"><ele>255.5</ele></trkpt>
   <trkpt lat="49.680032" lon="17.049544"><ele>255.75</ele></trkpt>
   <trkpt lat="49.67994" lon="17.049344"><ele>256</ele></trkpt>
   <trkpt lat="49.679827" lon="17.049148"><ele>256.5</ele></trkpt>
   <trkpt lat="49.679728" lon="17.048998"><ele>256.75</ele></trkpt>
   <trkpt lat="49.679496" lon="17.048725"><ele>257.75</ele></trkpt>
   <trkpt lat="49.679365" lon="17.048607"><ele>258</ele></trkpt>
   <trkpt lat="49.679253" lon="17.048524"><ele>258</ele></trkpt>
   <trkpt lat="49.679145" lon="17.048458"><ele>258</ele></trkpt>
   <trkpt lat="49.679001" lon="17.048384"><ele>258.25</ele></trkpt>
   <trkpt lat="49.678727" lon="17.048305"><ele>258.75</ele></trkpt>
   <trkpt lat="49.678571" lon="17.048295"><ele>259</ele></trkpt>
   <trkpt lat="49.677989" lon="17.048341"><ele>258.75</ele></trkpt>
   <trkpt lat="49.677832" lon="17.048366"><ele>258.75</ele></trkpt>
   <trkpt lat="49.677698" lon="17.048402"><ele>258.75</ele></trkpt>
   <trkpt lat="49.677538" lon="17.048466"><ele>258.5</ele></trkpt>
   <trkpt lat="49.677375" lon="17.048552"><ele>258.5</ele></trkpt>
   <trkpt lat="49.677145" lon="17.048695"><ele>259.5</ele></trkpt>
  </trkseg>
 </trk>
</gpx>