<?xml version="1.0" encoding="UTF-8"?>
<!-- track-length = 75 filtered ascend = 0 plain-ascend = 0 cost=75 energy=0.0kwh time=6s -->
<gpx 
 xmlns="http://www.topografix.com/GPX/1/1" 
 xmlns:xsi="http://www.w3.org/2001/XMLSchema-instance" 
 xsi:schemaLocation="http://www.topografix.com/GPX/1/1 http://www.topografix.com/GPX/1/1/gpx.xsd" 
 version="1.1" 
 creator="BRouter-Web 0.18.1">
 <trk>
  <name>76500 Litovel předměstí Weiche 1 - Litovel předměstí Weiche 2</name>
  <trkseg>
   <trkpt lat="49.691128" lon="17.069519"><ele>233.75</ele></trkpt>
   <trkpt lat="49.691337" lon="17.069669"><ele>233.75</ele></trkpt>
   <trkpt lat="49.691402" lon="17.069708"><ele>233.75</ele></trkpt>
   <trkpt lat="49.691468" lon="17.069745"><ele>233.5</ele></trkpt>
   <trkpt lat="49.691708" lon="17.069886"><ele>233.5</ele></trkpt>
   <trkpt lat="49.691745" lon="17.069906"><ele>233.25</ele></trkpt>
  </trkseg>
 </trk>
</gpx>