<?xml version="1.0" encoding="UTF-8"?>
<!-- track-length = 288 filtered ascend = 0 plain-ascend = -1 cost=576 energy=0.0kwh time=23s -->
<gpx 
 xmlns="http://www.topografix.com/GPX/1/1" 
 xmlns:xsi="http://www.w3.org/2001/XMLSchema-instance" 
 xsi:schemaLocation="http://www.topografix.com/GPX/1/1 http://www.topografix.com/GPX/1/1/gpx.xsd" 
 version="1.1" 
 creator="BRouter-Web 0.18.1">
 <trk>
  <name>Lautatarhankatu (Steig Nordwest-Nordost) - Vallilan kirjasto (Steig Nordost)</name>
  <trkseg>
   <trkpt lat="60.190052" lon="24.963547"><ele>19.5</ele></trkpt>
   <trkpt lat="60.190188" lon="24.963351"><ele>19.25</ele></trkpt>
   <trkpt lat="60.190795" lon="24.962544"><ele>16</ele></trkpt>
   <trkpt lat="60.190849" lon="24.962472"><ele>15.75</ele></trkpt>
   <trkpt lat="60.190896" lon="24.962407"><ele>15.5</ele></trkpt>
   <trkpt lat="60.190935" lon="24.962368"><ele>15.25</ele></trkpt>
   <trkpt lat="60.191045" lon="24.962236"><ele>15</ele></trkpt>
   <trkpt lat="60.191333" lon="24.961933"><ele>15.75</ele></trkpt>
   <trkpt lat="60.191848" lon="24.961455"><ele>17.5</ele></trkpt>
   <trkpt lat="60.191869" lon="24.961435"><ele>17.5</ele></trkpt>
   <trkpt lat="60.191961" lon="24.961351"><ele>18</ele></trkpt>
   <trkpt lat="60.192013" lon="24.961301"><ele>18</ele></trkpt>
   <trkpt lat="60.192036" lon="24.96128"><ele>18</ele></trkpt>
   <trkpt lat="60.192241" lon="24.961093"><ele>18</ele></trkpt>
   <trkpt lat="60.192311" lon="24.961028"><ele>18</ele></trkpt>
  </trkseg>
 </trk>
</gpx>