<?xml version="1.0" encoding="UTF-8"?>
<!-- track-length = 53 filtered ascend = 0 plain-ascend = 0 cost=106 energy=0.0kwh time=4s -->
<gpx 
 xmlns="http://www.topografix.com/GPX/1/1" 
 xmlns:xsi="http://www.w3.org/2001/XMLSchema-instance" 
 xsi:schemaLocation="http://www.topografix.com/GPX/1/1 http://www.topografix.com/GPX/1/1/gpx.xsd" 
 version="1.1" 
 creator="BRouter-Web 99.71.0">
 <trk>
  <name>Düsseldorf Hauptbahnhof (Steig 6) - Düsseldorf Abzweig Immermannstraße Weiche 469</name>
  <link href="https://brouter.damsy.net/latest/#map=19/51.22107/6.79346/standard&amp;lonlats=6.79262,51.220837;6.793071,51.221215&amp;profile=rail">
   <text>BRouter-Web</text>
  </link>
  <trkseg>
   <trkpt lat="51.220837" lon="6.792617"><ele>37</ele></trkpt>
   <trkpt lat="51.220839" lon="6.79262"><ele>37</ele></trkpt>
   <trkpt lat="51.221152" lon="6.79301"><ele>37</ele></trkpt>
   <trkpt lat="51.22121" lon="6.793079"><ele>37</ele></trkpt>
  </trkseg>
 </trk>
</gpx>
