<?xml version="1.0" encoding="UTF-8"?>
<!-- track-length = 88 filtered ascend = 2 plain-ascend = 2 cost=176 energy=0.0kwh time=7s -->
<gpx 
 xmlns="http://www.topografix.com/GPX/1/1" 
 xmlns:xsi="http://www.w3.org/2001/XMLSchema-instance" 
 xsi:schemaLocation="http://www.topografix.com/GPX/1/1 http://www.topografix.com/GPX/1/1/gpx.xsd" 
 version="1.1" 
 creator="BRouter-Web 99.71.0">
 <trk>
  <name>Abzweig Hütteldorfer Straße Weiche Nord-Ost - Hütteldorfer Straße (Steig Nord-Nordost)</name>
  <link href="https://brouter.damsy.net/latest/#map=19/48.19973/16.31240/standard&amp;lonlats=16.312529,48.199121;16.312026,48.199717">
   <text>BRouter-Web</text>
  </link>
  <trkseg>
   <trkpt lat="48.19912" lon="16.31253"><ele>229.75</ele></trkpt>
   <trkpt lat="48.199147" lon="16.312557"><ele>229.75</ele></trkpt>
   <trkpt lat="48.199191" lon="16.312594"><ele>230</ele></trkpt>
   <trkpt lat="48.199252" lon="16.312618"><ele>230</ele></trkpt>
   <trkpt lat="48.199257" lon="16.312619"><ele>230</ele></trkpt>
   <trkpt lat="48.199319" lon="16.312617"><ele>230</ele></trkpt>
   <trkpt lat="48.199386" lon="16.312572"><ele>230</ele></trkpt>
   <trkpt lat="48.199431" lon="16.312514"><ele>230</ele></trkpt>
   <trkpt lat="48.199634" lon="16.312169"><ele>231</ele></trkpt>
   <trkpt lat="48.199701" lon="16.312053"><ele>231</ele></trkpt>
   <trkpt lat="48.199716" lon="16.312025"><ele>232</ele></trkpt>
  </trkseg>
 </trk>
</gpx>