<?xml version="1.0" encoding="UTF-8"?>
<!-- track-length = 48 filtered ascend = 0 plain-ascend = 0 cost=96 energy=0.0kwh time=4s -->
<gpx 
 xmlns="http://www.topografix.com/GPX/1/1" 
 xmlns:xsi="http://www.w3.org/2001/XMLSchema-instance" 
 xsi:schemaLocation="http://www.topografix.com/GPX/1/1 http://www.topografix.com/GPX/1/1/gpx.xsd" 
 version="1.1" 
 creator="BRouter-Web 0.18.1">
 <trk>
  <name>Kreuz Ammerseestraße Weiche Nord-nach-West-Nord - Kreuz Ammerseestraße Weiche 176</name>
  <trkseg>
   <trkpt lat="48.126388" lon="11.502758"><ele>535</ele></trkpt>
   <trkpt lat="48.126387" lon="11.502759"><ele>535</ele></trkpt>
   <trkpt lat="48.126309" lon="11.502742"><ele>535.25</ele></trkpt>
   <trkpt lat="48.126255" lon="11.502706"><ele>535.25</ele></trkpt>
   <trkpt lat="48.126194" lon="11.502628"><ele>535.25</ele></trkpt>
   <trkpt lat="48.126156" lon="11.502527"><ele>535</ele></trkpt>
   <trkpt lat="48.126133" lon="11.502376"><ele>535</ele></trkpt>
   <trkpt lat="48.126132" lon="11.50237"><ele>535</ele></trkpt>
  </trkseg>
 </trk>
</gpx>