<?xml version="1.0" encoding="UTF-8"?>
<!-- track-length = 487 filtered ascend = 0 plain-ascend = -4 cost=974 energy=0.0kwh time=39s -->
<gpx 
 xmlns="http://www.topografix.com/GPX/1/1" 
 xmlns:xsi="http://www.w3.org/2001/XMLSchema-instance" 
 xsi:schemaLocation="http://www.topografix.com/GPX/1/1 http://www.topografix.com/GPX/1/1/gpx.xsd" 
 version="1.1" 
 creator="BRouter-Web 0.18.1">
 <trk>
  <name>Pražská (Steig Süd) - Šibeník (Steig Südwest)</name>
  <trkseg>
   <trkpt lat="49.596546" lon="17.23158"><ele>225</ele></trkpt>
   <trkpt lat="49.596547" lon="17.231582"><ele>225</ele></trkpt>
   <trkpt lat="49.596548" lon="17.231637"><ele>225</ele></trkpt>
   <trkpt lat="49.59655" lon="17.231841"><ele>225</ele></trkpt>
   <trkpt lat="49.596553" lon="17.232002"><ele>225</ele></trkpt>
   <trkpt lat="49.596557" lon="17.232142"><ele>225</ele></trkpt>
   <trkpt lat="49.596599" lon="17.234363"><ele>221.25</ele></trkpt>
   <trkpt lat="49.596613" lon="17.234808"><ele>221</ele></trkpt>
   <trkpt lat="49.596623" lon="17.234957"><ele>221</ele></trkpt>
   <trkpt lat="49.596776" lon="17.236515"><ele>221</ele></trkpt>
   <trkpt lat="49.59678" lon="17.23669"><ele>221</ele></trkpt>
   <trkpt lat="49.596768" lon="17.236815"><ele>221</ele></trkpt>
   <trkpt lat="49.596745" lon="17.236935"><ele>221</ele></trkpt>
   <trkpt lat="49.596709" lon="17.237069"><ele>221</ele></trkpt>
   <trkpt lat="49.596658" lon="17.23721"><ele>221</ele></trkpt>
   <trkpt lat="49.596286" lon="17.238061"><ele>220.5</ele></trkpt>
  </trkseg>
 </trk>
</gpx>