<?xml version="1.0" encoding="UTF-8"?>
<!-- track-length = 222 filtered ascend = 0 plain-ascend = -2 cost=444 energy=0.0kwh time=18s -->
<gpx 
 xmlns="http://www.topografix.com/GPX/1/1" 
 xmlns:xsi="http://www.w3.org/2001/XMLSchema-instance" 
 xsi:schemaLocation="http://www.topografix.com/GPX/1/1 http://www.topografix.com/GPX/1/1/gpx.xsd" 
 version="1.1" 
 creator="BRouter-Web 0.18.1">
 <trk>
  <name>U Kovárny (Steig Süd) - Pražská (Steig Süd)</name>
  <trkseg>
   <trkpt lat="49.596476" lon="17.228503"><ele>227.75</ele></trkpt>
   <trkpt lat="49.596507" lon="17.229821"><ele>227</ele></trkpt>
   <trkpt lat="49.596509" lon="17.229933"><ele>227</ele></trkpt>
   <trkpt lat="49.596546" lon="17.23158"><ele>225</ele></trkpt>
  </trkseg>
 </trk>
</gpx>