<?xml version="1.0" encoding="UTF-8"?>
<!-- track-length = 1250 filtered ascend = 4 plain-ascend = 5 cost=2500 energy=0.0kwh time=1m 39.84s -->
<gpx 
 xmlns="http://www.topografix.com/GPX/1/1" 
 xmlns:xsi="http://www.w3.org/2001/XMLSchema-instance" 
 xsi:schemaLocation="http://www.topografix.com/GPX/1/1 http://www.topografix.com/GPX/1/1/gpx.xsd" 
 version="1.1" 
 creator="BRouter-Web 99.71.0">
 <trk>
  <name>Herttoniemi (Steig Nordwest) - Üst Kulosaari Weiche C2</name>
  <link href="https://brouter.damsy.net/latest/#map=18/60.18933/25.01164/standard&amp;lonlats=25.030686,60.194874;25.029097,60.194114;25.028625,60.193924;25.011643,60.189211&amp;straight=0&amp;nogos=25.032623,60.19529,77&amp;profile=rail">
   <text>BRouter-Web</text>
  </link>
  <trkseg>
   <trkpt lat="60.194874" lon="25.030686"/>
   <trkpt lat="60.194116" lon="25.029091"><ele>7.25</ele></trkpt>
   <trkpt lat="60.193945" lon="25.028705"><ele>7.25</ele></trkpt>
   <trkpt lat="60.193917" lon="25.028633"><ele>7.75</ele></trkpt>
   <trkpt lat="60.193823" lon="25.028392"><ele>7.75</ele></trkpt>
   <trkpt lat="60.193699" lon="25.02801"><ele>7.25</ele></trkpt>
   <trkpt lat="60.193597" lon="25.027662"><ele>8</ele></trkpt>
   <trkpt lat="60.19352" lon="25.027358"><ele>8.5</ele></trkpt>
   <trkpt lat="60.193441" lon="25.027005"><ele>9.25</ele></trkpt>
   <trkpt lat="60.19336" lon="25.026569"><ele>9.75</ele></trkpt>
   <trkpt lat="60.193286" lon="25.026156"><ele>9.75</ele></trkpt>
   <trkpt lat="60.193036" lon="25.024657"><ele>11</ele></trkpt>
   <trkpt lat="60.192909" lon="25.02404"><ele>9.75</ele></trkpt>
   <trkpt lat="60.192806" lon="25.023594"><ele>10.25</ele></trkpt>
   <trkpt lat="60.192696" lon="25.023175"><ele>8</ele></trkpt>
   <trkpt lat="60.192577" lon="25.022747"><ele>8</ele></trkpt>
   <trkpt lat="60.192442" lon="25.022321"><ele>8.5</ele></trkpt>
   <trkpt lat="60.192323" lon="25.021956"><ele>9</ele></trkpt>
   <trkpt lat="60.192209" lon="25.021651"><ele>9.5</ele></trkpt>
   <trkpt lat="60.192084" lon="25.021347"><ele>10</ele></trkpt>
   <trkpt lat="60.191752" lon="25.020622"><ele>10</ele></trkpt>
   <trkpt lat="60.191409" lon="25.019909"><ele>9</ele></trkpt>
   <trkpt lat="60.191137" lon="25.019319"><ele>7.5</ele></trkpt>
   <trkpt lat="60.190785" lon="25.018495"><ele>6.5</ele></trkpt>
   <trkpt lat="60.190537" lon="25.017853"><ele>6</ele></trkpt>
   <trkpt lat="60.190192" lon="25.016834"><ele>5.25</ele></trkpt>
   <trkpt lat="60.189914" lon="25.015854"><ele>5.25</ele></trkpt>
   <trkpt lat="60.18976" lon="25.01522"><ele>6.5</ele></trkpt>
   <trkpt lat="60.189688" lon="25.014886"><ele>6.5</ele></trkpt>
   <trkpt lat="60.189552" lon="25.014151"><ele>5.75</ele></trkpt>
   <trkpt lat="60.189408" lon="25.013238"><ele>7.5</ele></trkpt>
   <trkpt lat="60.189343" lon="25.01281"><ele>7</ele></trkpt>
   <trkpt lat="60.189209" lon="25.011642"><ele>11.25</ele></trkpt>
  </trkseg>
 </trk>
</gpx>