<?xml version="1.0" encoding="UTF-8"?>
<!-- track-length = 127 filtered ascend = 1 plain-ascend = 1 cost=254 energy=0.0kwh time=10s -->
<gpx 
 xmlns="http://www.topografix.com/GPX/1/1" 
 xmlns:xsi="http://www.w3.org/2001/XMLSchema-instance" 
 xsi:schemaLocation="http://www.topografix.com/GPX/1/1 http://www.topografix.com/GPX/1/1/gpx.xsd" 
 version="1.1" 
 creator="BRouter-Web 99.71.0">
 <trk>
  <name>Siilitie (Steig Nordwest) - Üst Siilitie Weiche C4</name>
  <link href="https://brouter.damsy.net/latest/#map=18/60.20387/25.04394/standard&amp;lonlats=25.043648,60.205046;25.042469,60.204076&amp;profile=rail">
   <text>BRouter-Web</text>
  </link>
  <trkseg>
   <trkpt lat="60.205048" lon="25.043639"><ele>13</ele></trkpt>
   <trkpt lat="60.204532" lon="25.043009"><ele>14</ele></trkpt>
   <trkpt lat="60.204076" lon="25.04247"><ele>14.25</ele></trkpt>
   <trkpt lat="60.204075" lon="25.042468"><ele>13.75</ele></trkpt>
  </trkseg>
 </trk>
</gpx>