<?xml version="1.0" encoding="UTF-8"?>
<!-- track-length = 902 filtered ascend = 0 plain-ascend = 0 cost=1804 energy=0.0kwh time=1m 12s -->
<gpx 
 xmlns="http://www.topografix.com/GPX/1/1" 
 xmlns:xsi="http://www.w3.org/2001/XMLSchema-instance" 
 xsi:schemaLocation="http://www.topografix.com/GPX/1/1 http://www.topografix.com/GPX/1/1/gpx.xsd" 
 version="1.1" 
 creator="BRouter-Web 99.71.0">
 <trk>
  <name>Sörnäinen (Steig Nordwest) - Hakaniemi (Steig West)</name>
  <link href="https://brouter.damsy.net/latest/#map=19/60.18044/24.95029/standard&amp;lonlats=24.958558,60.186395;24.949989,60.18037&amp;profile=rail">
   <text>BRouter-Web</text>
  </link>
  <trkseg>
   <trkpt lat="60.186392" lon="24.958564"/>
   <trkpt lat="60.186164" lon="24.958297"/>
   <trkpt lat="60.18588" lon="24.957963"/>
   <trkpt lat="60.18532" lon="24.957048"/>
   <trkpt lat="60.184883" lon="24.955911"/>
   <trkpt lat="60.184522" lon="24.954468"/>
   <trkpt lat="60.184212" lon="24.952884"/>
   <trkpt lat="60.183892" lon="24.951861"/>
   <trkpt lat="60.183375" lon="24.951012"/>
   <trkpt lat="60.1828" lon="24.950314"/>
   <trkpt lat="60.182516" lon="24.950069"/>
   <trkpt lat="60.182145" lon="24.949892"/>
   <trkpt lat="60.181907" lon="24.949855"/>
   <trkpt lat="60.181549" lon="24.949856"/>
   <trkpt lat="60.180369" lon="24.949987"/>
  </trkseg>
 </trk>
</gpx>