<?xml version="1.0" encoding="UTF-8"?>
<!-- track-length = 1159 filtered ascend = 0 plain-ascend = -5 cost=2320 energy=0.0kwh time=1m 33s -->
<gpx 
 xmlns="http://www.topografix.com/GPX/1/1" 
 xmlns:xsi="http://www.w3.org/2001/XMLSchema-instance" 
 xsi:schemaLocation="http://www.topografix.com/GPX/1/1 http://www.topografix.com/GPX/1/1/gpx.xsd" 
 version="1.1" 
 creator="BRouter-Web 99.71.0">
 <trk>
  <name>Üst Siilitie Weiche C3 - Herttoniemi (Steig Nordwest)</name>
  <link href="https://brouter.damsy.net/latest/#map=19/60.19498/25.03118/standard&amp;lonlats=25.041888,60.203593;25.030686,60.194875&amp;profile=rail">
   <text>BRouter-Web</text>
  </link>
  <trkseg>
   <trkpt lat="60.203592" lon="25.041888"><ele>13.75</ele></trkpt>
   <trkpt lat="60.202436" lon="25.04049"><ele>14</ele></trkpt>
   <trkpt lat="60.201568" lon="25.039475"><ele>13</ele></trkpt>
   <trkpt lat="60.19651" lon="25.033609"><ele>8.25</ele></trkpt>
   <trkpt lat="60.196146" lon="25.03315"><ele>7.25</ele></trkpt>
   <trkpt lat="60.196036" lon="25.032998"><ele>7.5</ele></trkpt>
   <trkpt lat="60.195949" lon="25.032854"><ele>7.75</ele></trkpt>
   <trkpt lat="60.195739" lon="25.03249"/>
   <trkpt lat="60.194874" lon="25.030686"/>
  </trkseg>
 </trk>
</gpx>