<?xml version="1.0" encoding="UTF-8"?>
<!-- track-length = 93 filtered ascend = 0 plain-ascend = 0 cost=186 energy=0.0kwh time=7s -->
<gpx 
 xmlns="http://www.topografix.com/GPX/1/1" 
 xmlns:xsi="http://www.w3.org/2001/XMLSchema-instance" 
 xsi:schemaLocation="http://www.topografix.com/GPX/1/1 http://www.topografix.com/GPX/1/1/gpx.xsd" 
 version="1.1" 
 creator="BRouter-Web 99.71.0">
 <trk>
  <name>Üst Kalasatama Weiche A8 - Üst Kalasatama Weiche A7</name>
  <link href="https://brouter.damsy.net/latest/#map=19/60.18743/24.97956/standard&amp;lonlats=24.98027,60.187121;24.978672,60.187308&amp;profile=rail">
   <text>BRouter-Web</text>
  </link>
  <trkseg>
   <trkpt lat="60.187119" lon="24.980269"/>
   <trkpt lat="60.18712" lon="24.980268"/>
   <trkpt lat="60.187301" lon="24.978676"/>
   <trkpt lat="60.187301" lon="24.978669"/>
  </trkseg>
 </trk>
</gpx>