<?xml version="1.0" encoding="UTF-8"?>
<!-- track-length = 416 filtered ascend = 0 plain-ascend = 1 cost=832 energy=0.0kwh time=33s -->
<gpx 
 xmlns="http://www.topografix.com/GPX/1/1" 
 xmlns:xsi="http://www.w3.org/2001/XMLSchema-instance" 
 xsi:schemaLocation="http://www.topografix.com/GPX/1/1 http://www.topografix.com/GPX/1/1/gpx.xsd" 
 version="1.1" 
 creator="BRouter-Web 0.18.1">
 <trk>
  <name>Detvianska (Steig A) - Hybešova (Steig A)</name>
  <trkseg>
   <trkpt lat="48.211085" lon="17.154613"><ele>150.25</ele></trkpt>
   <trkpt lat="48.208242" lon="17.150987"><ele>151</ele></trkpt>
   <trkpt lat="48.208241" lon="17.150985"><ele>151</ele></trkpt>
  </trkseg>
 </trk>
</gpx>