<?xml version="1.0" encoding="UTF-8"?>
<!-- track-length = 428 filtered ascend = 0 plain-ascend = 0 cost=856 energy=0.0kwh time=34s -->
<gpx 
 xmlns="http://www.topografix.com/GPX/1/1" 
 xmlns:xsi="http://www.w3.org/2001/XMLSchema-instance" 
 xsi:schemaLocation="http://www.topografix.com/GPX/1/1 http://www.topografix.com/GPX/1/1/gpx.xsd" 
 version="1.1" 
 creator="BRouter-Web 0.18.1">
 <trk>
  <name>Malokrasňanská (Steig A) - Depo Krasňany (Steig A)</name>
  <trkseg>
   <trkpt lat="48.191355" lon="17.1391"><ele>139</ele></trkpt>
   <trkpt lat="48.191329" lon="17.13907"><ele>139</ele></trkpt>
   <trkpt lat="48.191234" lon="17.138964"><ele>139</ele></trkpt>
   <trkpt lat="48.191147" lon="17.138867"><ele>139</ele></trkpt>
   <trkpt lat="48.190071" lon="17.137659"><ele>138.5</ele></trkpt>
   <trkpt lat="48.190006" lon="17.137586"><ele>138.5</ele></trkpt>
   <trkpt lat="48.189945" lon="17.137517"><ele>138.75</ele></trkpt>
   <trkpt lat="48.189217" lon="17.136694"><ele>139</ele></trkpt>
   <trkpt lat="48.188601" lon="17.135845"><ele>139</ele></trkpt>
   <trkpt lat="48.188466" lon="17.135683"><ele>139.25</ele></trkpt>
   <trkpt lat="48.18835" lon="17.135564"><ele>139</ele></trkpt>
   <trkpt lat="48.188343" lon="17.135557"><ele>139</ele></trkpt>
  </trkseg>
 </trk>
</gpx>