<?xml version="1.0" encoding="UTF-8"?>
<!-- track-length = 447 filtered ascend = 0 plain-ascend = 0 cost=894 energy=0.0kwh time=36s -->
<gpx 
 xmlns="http://www.topografix.com/GPX/1/1" 
 xmlns:xsi="http://www.w3.org/2001/XMLSchema-instance" 
 xsi:schemaLocation="http://www.topografix.com/GPX/1/1 http://www.topografix.com/GPX/1/1/gpx.xsd" 
 version="1.1" 
 creator="BRouter-Web 0.18.1">
 <trk>
  <name>Anton-Saefkow-Platz (Steig Nordost) - Karl-Lade-Straße (Steig Nordost)</name>
  <trkseg>
   <trkpt lat="52.528183" lon="13.468851"><ele>52.75</ele></trkpt>
   <trkpt lat="52.528214" lon="13.468679"><ele>53</ele></trkpt>
   <trkpt lat="52.528233" lon="13.468574"><ele>53</ele></trkpt>
   <trkpt lat="52.528238" lon="13.46855"><ele>53</ele></trkpt>
   <trkpt lat="52.528366" lon="13.467791"><ele>53</ele></trkpt>
   <trkpt lat="52.528514" lon="13.466926"><ele>53</ele></trkpt>
   <trkpt lat="52.528686" lon="13.465861"><ele>53</ele></trkpt>
   <trkpt lat="52.529096" lon="13.46349"><ele>53</ele></trkpt>
   <trkpt lat="52.529128" lon="13.463304"><ele>53</ele></trkpt>
   <trkpt lat="52.529223" lon="13.462744"><ele>53</ele></trkpt>
   <trkpt lat="52.529236" lon="13.462668"><ele>53</ele></trkpt>
   <trkpt lat="52.529267" lon="13.462477"><ele>53</ele></trkpt>
  </trkseg>
 </trk>
</gpx>