<?xml version="1.0" encoding="UTF-8"?>
<!-- track-length = 68 filtered ascend = 0 plain-ascend = 0 cost=136 energy=0.0kwh time=5s -->
<gpx 
 xmlns="http://www.topografix.com/GPX/1/1" 
 xmlns:xsi="http://www.w3.org/2001/XMLSchema-instance" 
 xsi:schemaLocation="http://www.topografix.com/GPX/1/1 http://www.topografix.com/GPX/1/1/gpx.xsd" 
 version="1.1" 
 creator="BRouter-Web 0.18.1">
 <trk>
  <name>Karl-Lade-Straße (Steig Nordost) - Dreieck Karl-Lade-/Oderbruchstraße Weiche 202</name>
  <trkseg>
   <trkpt lat="52.529267" lon="13.462477"><ele>53</ele></trkpt>
   <trkpt lat="52.529326" lon="13.46213"><ele>53</ele></trkpt>
   <trkpt lat="52.529434" lon="13.461503"><ele>52</ele></trkpt>
  </trkseg>
 </trk>
</gpx>