<?xml version="1.0" encoding="UTF-8"?>
<!-- track-length = 64 filtered ascend = 0 plain-ascend = 0 cost=128 energy=0.0kwh time=5s -->
<gpx 
 xmlns="http://www.topografix.com/GPX/1/1" 
 xmlns:xsi="http://www.w3.org/2001/XMLSchema-instance" 
 xsi:schemaLocation="http://www.topografix.com/GPX/1/1 http://www.topografix.com/GPX/1/1/gpx.xsd" 
 version="1.1" 
 creator="BRouter-Web 0.18.1">
 <trk>
  <name>Kreuz Roederplatz Weiche 80 - Kreuz Roederplatz Weiche 701</name>
  <trkseg>
   <trkpt lat="52.526719" lon="13.480255"><ele>49</ele></trkpt>
   <trkpt lat="52.52672" lon="13.480257"><ele>49</ele></trkpt>
   <trkpt lat="52.52671" lon="13.480163"><ele>49</ele></trkpt>
   <trkpt lat="52.526696" lon="13.480039"><ele>49</ele></trkpt>
   <trkpt lat="52.526693" lon="13.480016"><ele>48.75</ele></trkpt>
   <trkpt lat="52.526683" lon="13.479937"><ele>49</ele></trkpt>
   <trkpt lat="52.526671" lon="13.479824"><ele>49</ele></trkpt>
   <trkpt lat="52.526668" lon="13.4798"><ele>49</ele></trkpt>
   <trkpt lat="52.526663" lon="13.479749"><ele>49</ele></trkpt>
   <trkpt lat="52.526646" lon="13.479576"><ele>49</ele></trkpt>
   <trkpt lat="52.526645" lon="13.479566"><ele>49</ele></trkpt>
   <trkpt lat="52.526634" lon="13.479381"><ele>49</ele></trkpt>
   <trkpt lat="52.526633" lon="13.479377"><ele>49</ele></trkpt>
  </trkseg>
 </trk>
</gpx>