<?xml version="1.0" encoding="UTF-8"?>
<!-- track-length = 47 filtered ascend = 0 plain-ascend = 0 cost=94 energy=0.0kwh time=4s -->
<gpx 
 xmlns="http://www.topografix.com/GPX/1/1" 
 xmlns:xsi="http://www.w3.org/2001/XMLSchema-instance" 
 xsi:schemaLocation="http://www.topografix.com/GPX/1/1 http://www.topografix.com/GPX/1/1/gpx.xsd" 
 version="1.1" 
 creator="BRouter-Web 0.18.1">
 <trk>
  <name>Kreuz Roederplatz Weiche 201 - Kreuz Roederplatz Weiche 701</name>
  <trkseg>
   <trkpt lat="52.526939" lon="13.479671"><ele>49</ele></trkpt>
   <trkpt lat="52.526938" lon="13.479672"><ele>49</ele></trkpt>
   <trkpt lat="52.52688" lon="13.479686"><ele>49</ele></trkpt>
   <trkpt lat="52.526814" lon="13.479686"><ele>49</ele></trkpt>
   <trkpt lat="52.526783" lon="13.479675"><ele>49</ele></trkpt>
   <trkpt lat="52.526731" lon="13.479637"><ele>49</ele></trkpt>
   <trkpt lat="52.526705" lon="13.479608"><ele>49</ele></trkpt>
   <trkpt lat="52.526683" lon="13.479568"><ele>49</ele></trkpt>
   <trkpt lat="52.526656" lon="13.479504"><ele>49</ele></trkpt>
   <trkpt lat="52.526634" lon="13.479381"><ele>49</ele></trkpt>
   <trkpt lat="52.526633" lon="13.479375"><ele>49</ele></trkpt>
  </trkseg>
 </trk>
</gpx>