<?xml version="1.0" encoding="UTF-8"?>
<!-- track-length = 472 filtered ascend = 2 plain-ascend = 2 cost=944 energy=0.0kwh time=38s -->
<gpx 
 xmlns="http://www.topografix.com/GPX/1/1" 
 xmlns:xsi="http://www.w3.org/2001/XMLSchema-instance" 
 xsi:schemaLocation="http://www.topografix.com/GPX/1/1 http://www.topografix.com/GPX/1/1/gpx.xsd" 
 version="1.1" 
 creator="BRouter-Web 0.18.1">
 <trk>
  <name>Dreieck Siglstraße Weiche 26 - Siglstraße (Steig Süd)</name>
  <trkseg>
   <trkpt lat="48.138776" lon="11.513741"><ele>527.25</ele></trkpt>
   <trkpt lat="48.137628" lon="11.513681"><ele>528</ele></trkpt>
   <trkpt lat="48.137489" lon="11.513675"><ele>528</ele></trkpt>
   <trkpt lat="48.135187" lon="11.513563"><ele>529.25</ele></trkpt>
   <trkpt lat="48.13511" lon="11.513563"><ele>529.5</ele></trkpt>
   <trkpt lat="48.135089" lon="11.513565"><ele>529.5</ele></trkpt>
   <trkpt lat="48.135058" lon="11.513583"><ele>529.5</ele></trkpt>
   <trkpt lat="48.135011" lon="11.513633"><ele>529.75</ele></trkpt>
   <trkpt lat="48.134963" lon="11.513709"><ele>530</ele></trkpt>
   <trkpt lat="48.134943" lon="11.513787"><ele>530</ele></trkpt>
   <trkpt lat="48.13493" lon="11.513894"><ele>530</ele></trkpt>
   <trkpt lat="48.134921" lon="11.514204"><ele>530</ele></trkpt>
   <trkpt lat="48.134917" lon="11.514301"><ele>529.25</ele></trkpt>
  </trkseg>
 </trk>
</gpx>