<?xml version="1.0" encoding="UTF-8"?>
<!-- track-length = 324 filtered ascend = 0 plain-ascend = 0 cost=648 energy=0.0kwh time=26s -->
<gpx 
 xmlns="http://www.topografix.com/GPX/1/1" 
 xmlns:xsi="http://www.w3.org/2001/XMLSchema-instance" 
 xsi:schemaLocation="http://www.topografix.com/GPX/1/1 http://www.topografix.com/GPX/1/1/gpx.xsd" 
 version="1.1" 
 creator="BRouter-Web 0.18.1">
 <trk>
  <name>Hans-Thonauer-Straße (Steig Süd) - Westendstraße (Steig Südwest)</name>
  <trkseg>
   <trkpt lat="48.134811" lon="11.517886"><ele>528.75</ele></trkpt>
   <trkpt lat="48.134719" lon="11.521184"><ele>528</ele></trkpt>
   <trkpt lat="48.134708" lon="11.521493"><ele>527.75</ele></trkpt>
   <trkpt lat="48.134699" lon="11.521601"><ele>527.75</ele></trkpt>
   <trkpt lat="48.134672" lon="11.521721"><ele>527.75</ele></trkpt>
   <trkpt lat="48.134629" lon="11.52183"><ele>527.75</ele></trkpt>
   <trkpt lat="48.134454" lon="11.522119"><ele>528</ele></trkpt>
  </trkseg>
 </trk>
</gpx>