<?xml version="1.0" encoding="UTF-8"?>
<!-- track-length = 56 filtered ascend = 1 plain-ascend = 1 cost=112 energy=0.0kwh time=4s -->
<gpx 
 xmlns="http://www.topografix.com/GPX/1/1" 
 xmlns:xsi="http://www.w3.org/2001/XMLSchema-instance" 
 xsi:schemaLocation="http://www.topografix.com/GPX/1/1 http://www.topografix.com/GPX/1/1/gpx.xsd" 
 version="1.1" 
 creator="BRouter-Web 0.18.1">
 <trk>
  <name>Westendstraße (Steig Südwest) - Abzweig Westendstraße Weiche 950</name>
  <trkseg>
   <trkpt lat="48.134454" lon="11.522119"><ele>527.75</ele></trkpt>
   <trkpt lat="48.134447" lon="11.522131"><ele>528</ele></trkpt>
   <trkpt lat="48.134372" lon="11.522242"><ele>528</ele></trkpt>
   <trkpt lat="48.134331" lon="11.522293"><ele>528.25</ele></trkpt>
   <trkpt lat="48.13432" lon="11.522301"><ele>528.25</ele></trkpt>
   <trkpt lat="48.134285" lon="11.522324"><ele>528.25</ele></trkpt>
   <trkpt lat="48.134249" lon="11.522337"><ele>528.25</ele></trkpt>
   <trkpt lat="48.134189" lon="11.522341"><ele>528.5</ele></trkpt>
   <trkpt lat="48.134116" lon="11.522313"><ele>528.5</ele></trkpt>
   <trkpt lat="48.134027" lon="11.522219"><ele>528.75</ele></trkpt>
   <trkpt lat="48.134025" lon="11.522217"><ele>529</ele></trkpt>
  </trkseg>
 </trk>
</gpx>