<?xml version="1.0" encoding="UTF-8"?>
<!-- track-length = 147 filtered ascend = 1 plain-ascend = 1 cost=147 energy=0.0kwh time=12s -->
<gpx 
 xmlns="http://www.topografix.com/GPX/1/1" 
 xmlns:xsi="http://www.w3.org/2001/XMLSchema-instance" 
 xsi:schemaLocation="http://www.topografix.com/GPX/1/1 http://www.topografix.com/GPX/1/1/gpx.xsd" 
 version="1.1" 
 creator="BRouter-Web 99.71.0">
 <trk>
  <name>1113 Lübeck-Kücknitz Weiche 42 - Lübeck-Kücknitz Weiche 41</name>
  <link href="https://brouter.damsy.net/latest/#map=18/53.91594/10.79727/standard&amp;lonlats=10.796494,53.916051;10.794308,53.915833&amp;profile=rail">
   <text>BRouter-Web</text>
  </link>
  <trkseg>
   <trkpt lat="53.916045" lon="10.796494"><ele>18.5</ele></trkpt>
   <trkpt lat="53.916045" lon="10.796493"><ele>18.75</ele></trkpt>
   <trkpt lat="53.915889" lon="10.794864"><ele>19</ele></trkpt>
   <trkpt lat="53.915831" lon="10.79431"><ele>19.5</ele></trkpt>
   <trkpt lat="53.91583" lon="10.794307"><ele>19.25</ele></trkpt>
  </trkseg>
 </trk>
</gpx>