<?xml version="1.0" encoding="UTF-8"?>
<!-- track-length = 3950 filtered ascend = 0 plain-ascend = -13 cost=3950 energy=0.0kwh time=5m 16s -->
<gpx 
 xmlns="http://www.topografix.com/GPX/1/1" 
 xmlns:xsi="http://www.w3.org/2001/XMLSchema-instance" 
 xsi:schemaLocation="http://www.topografix.com/GPX/1/1 http://www.topografix.com/GPX/1/1/gpx.xsd" 
 version="1.1" 
 creator="BRouter-Web 99.71.0">
 <trk>
  <name>1113 Lübeck-Kücknitz Weiche 41 - Lübeck-Dänischburg IKEA Weiche 5</name>
  <link href="https://brouter.damsy.net/latest/#map=20/53.91117/10.73589/standard&amp;lonlats=10.794308,53.915833;10.735414,53.911178&amp;profile=rail">
   <text>BRouter-Web</text>
  </link>
  <trkseg>
   <trkpt lat="53.91583" lon="10.794307"><ele>19.25</ele></trkpt>
   <trkpt lat="53.915823" lon="10.794252"><ele>19.25</ele></trkpt>
   <trkpt lat="53.915823" lon="10.794244"><ele>19.25</ele></trkpt>
   <trkpt lat="53.915809" lon="10.794136"><ele>19</ele></trkpt>
   <trkpt lat="53.915791" lon="10.793993"><ele>19</ele></trkpt>
   <trkpt lat="53.915772" lon="10.793835"><ele>19.25</ele></trkpt>
   <trkpt lat="53.915757" lon="10.793701"><ele>19.75</ele></trkpt>
   <trkpt lat="53.915727" lon="10.793434"><ele>20</ele></trkpt>
   <trkpt lat="53.915597" lon="10.792432"><ele>20</ele></trkpt>
   <trkpt lat="53.915495" lon="10.791806"><ele>18</ele></trkpt>
   <trkpt lat="53.915385" lon="10.791236"><ele>17.25</ele></trkpt>
   <trkpt lat="53.915321" lon="10.790945"><ele>17.75</ele></trkpt>
   <trkpt lat="53.915241" lon="10.790595"><ele>18.25</ele></trkpt>
   <trkpt lat="53.91511" lon="10.790085"><ele>17.25</ele></trkpt>
   <trkpt lat="53.914077" lon="10.786352"><ele>17.25</ele></trkpt>
   <trkpt lat="53.913999" lon="10.786077"><ele>18</ele></trkpt>
   <trkpt lat="53.913902" lon="10.785729"><ele>18.5</ele></trkpt>
   <trkpt lat="53.912989" lon="10.782412"><ele>10</ele></trkpt>
   <trkpt lat="53.912863" lon="10.781908"><ele>9</ele></trkpt>
   <trkpt lat="53.912743" lon="10.781356"><ele>9</ele></trkpt>
   <trkpt lat="53.91265" lon="10.780875"><ele>8.5</ele></trkpt>
   <trkpt lat="53.912567" lon="10.780355"><ele>8</ele></trkpt>
   <trkpt lat="53.912518" lon="10.779995"><ele>8</ele></trkpt>
   <trkpt lat="53.912478" lon="10.779635"><ele>8</ele></trkpt>
   <trkpt lat="53.912423" lon="10.779049"><ele>8</ele></trkpt>
   <trkpt lat="53.91239" lon="10.778449"><ele>8.25</ele></trkpt>
   <trkpt lat="53.91237" lon="10.77776"><ele>9.5</ele></trkpt>
   <trkpt lat="53.912331" lon="10.77485"><ele>10</ele></trkpt>
   <trkpt lat="53.912293" lon="10.771916"><ele>10.25</ele></trkpt>
   <trkpt lat="53.912289" lon="10.771594"><ele>10.5</ele></trkpt>
   <trkpt lat="53.912285" lon="10.7713"><ele>11</ele></trkpt>
   <trkpt lat="53.912263" lon="10.770021"><ele>11</ele></trkpt>
   <trkpt lat="53.912206" lon="10.767805"><ele>9.75</ele></trkpt>
   <trkpt lat="53.912123" lon="10.761476"><ele>7</ele></trkpt>
   <trkpt lat="53.912118" lon="10.761114"><ele>7</ele></trkpt>
   <trkpt lat="53.912091" lon="10.759057"><ele>7</ele></trkpt>
   <trkpt lat="53.912" lon="10.752177"><ele>10</ele></trkpt>
   <trkpt lat="53.911997" lon="10.752004"><ele>10</ele></trkpt>
   <trkpt lat="53.911994" lon="10.751736"><ele>10</ele></trkpt>
   <trkpt lat="53.911991" lon="10.75133"><ele>9.75</ele></trkpt>
   <trkpt lat="53.911945" lon="10.747809"><ele>5</ele></trkpt>
   <trkpt lat="53.911947" lon="10.745326"><ele>6</ele></trkpt>
   <trkpt lat="53.911931" lon="10.744472"><ele>5.75</ele></trkpt>
   <trkpt lat="53.911901" lon="10.743709"><ele>4.75</ele></trkpt>
   <trkpt lat="53.911856" lon="10.742944"><ele>4.75</ele></trkpt>
   <trkpt lat="53.911798" lon="10.742221"><ele>5</ele></trkpt>
   <trkpt lat="53.911375" lon="10.7376"><ele>5</ele></trkpt>
   <trkpt lat="53.911344" lon="10.737256"><ele>5</ele></trkpt>
   <trkpt lat="53.911311" lon="10.736896"><ele>5</ele></trkpt>
   <trkpt lat="53.911176" lon="10.735418"><ele>5</ele></trkpt>
   <trkpt lat="53.911175" lon="10.735413"><ele>5</ele></trkpt>
  </trkseg>
 </trk>
</gpx>
