<?xml version="1.0" encoding="UTF-8"?>
<!-- track-length = 575 filtered ascend = 25 plain-ascend = 26 cost=1152 energy=0.0kwh time=46s -->
<gpx 
 xmlns="http://www.topografix.com/GPX/1/1" 
 xmlns:xsi="http://www.w3.org/2001/XMLSchema-instance" 
 xsi:schemaLocation="http://www.topografix.com/GPX/1/1 http://www.topografix.com/GPX/1/1/gpx.xsd" 
 version="1.1" 
 creator="BRouter-Web 0.18.1">
 <trk>
  <name>Altnossener Straße (Steig 2) - Rudolf-Walther-Straße (Steig 2)</name>
  <trkseg>
   <trkpt lat="51.039984" lon="13.645247"><ele>252.75</ele></trkpt>
   <trkpt lat="51.039968" lon="13.645133"><ele>253.25</ele></trkpt>
   <trkpt lat="51.039933" lon="13.644878"><ele>253</ele></trkpt>
   <trkpt lat="51.039879" lon="13.64453"><ele>252.5</ele></trkpt>
   <trkpt lat="51.039507" lon="13.642084"><ele>263.25</ele></trkpt>
   <trkpt lat="51.039001" lon="13.63878"><ele>274</ele></trkpt>
   <trkpt lat="51.038898" lon="13.638093"><ele>276.75</ele></trkpt>
   <trkpt lat="51.038776" lon="13.637294"><ele>278.25</ele></trkpt>
   <trkpt lat="51.038772" lon="13.637273"><ele>278.5</ele></trkpt>
  </trkseg>
 </trk>
</gpx>