<?xml version="1.0" encoding="UTF-8"?>
<!-- track-length = 482 filtered ascend = 13 plain-ascend = 12 cost=964 energy=0.0kwh time=39s -->
<gpx 
 xmlns="http://www.topografix.com/GPX/1/1" 
 xmlns:xsi="http://www.w3.org/2001/XMLSchema-instance" 
 xsi:schemaLocation="http://www.topografix.com/GPX/1/1 http://www.topografix.com/GPX/1/1/gpx.xsd" 
 version="1.1" 
 creator="BRouter-Web 0.18.1">
 <trk>
  <name>Rudolf-Walther-Straße (Steig 2) - Gompitz Gompitzer Höhe (Steig 2)</name>
  <trkseg>
   <trkpt lat="51.038772" lon="13.637273"><ele>278.25</ele></trkpt>
   <trkpt lat="51.038759" lon="13.637185"><ele>278.5</ele></trkpt>
   <trkpt lat="51.0387" lon="13.636765"><ele>280.5</ele></trkpt>
   <trkpt lat="51.038666" lon="13.636516"><ele>281.5</ele></trkpt>
   <trkpt lat="51.038635" lon="13.636222"><ele>282.5</ele></trkpt>
   <trkpt lat="51.038617" lon="13.636001"><ele>283.25</ele></trkpt>
   <trkpt lat="51.038604" lon="13.635685"><ele>283.75</ele></trkpt>
   <trkpt lat="51.038601" lon="13.634664"><ele>286.75</ele></trkpt>
   <trkpt lat="51.038609" lon="13.634439"><ele>287</ele></trkpt>
   <trkpt lat="51.038635" lon="13.634188"><ele>287.75</ele></trkpt>
   <trkpt lat="51.038661" lon="13.63402"><ele>288.75</ele></trkpt>
   <trkpt lat="51.038709" lon="13.633815"><ele>290</ele></trkpt>
   <trkpt lat="51.038781" lon="13.6336"><ele>290.75</ele></trkpt>
   <trkpt lat="51.038874" lon="13.633401"><ele>290.75</ele></trkpt>
   <trkpt lat="51.038965" lon="13.633244"><ele>291.25</ele></trkpt>
   <trkpt lat="51.039068" lon="13.633095"><ele>291.5</ele></trkpt>
   <trkpt lat="51.039175" lon="13.632982"><ele>291</ele></trkpt>
   <trkpt lat="51.039288" lon="13.632884"><ele>290.75</ele></trkpt>
   <trkpt lat="51.039387" lon="13.632817"><ele>290.25</ele></trkpt>
   <trkpt lat="51.03947" lon="13.632774"><ele>290</ele></trkpt>
   <trkpt lat="51.039574" lon="13.632734"><ele>290</ele></trkpt>
   <trkpt lat="51.03962" lon="13.632716"><ele>290</ele></trkpt>
   <trkpt lat="51.039811" lon="13.632671"><ele>289.75</ele></trkpt>
   <trkpt lat="51.039864" lon="13.632659"><ele>289.5</ele></trkpt>
   <trkpt lat="51.040518" lon="13.632511"><ele>289.75</ele></trkpt>
   <trkpt lat="51.04055" lon="13.632497"><ele>290</ele></trkpt>
  </trkseg>
 </trk>
</gpx>