<?xml version="1.0" encoding="UTF-8"?>
<!-- track-length = 85 filtered ascend = 0 plain-ascend = -1 cost=170 energy=0.0kwh time=7s -->
<gpx 
 xmlns="http://www.topografix.com/GPX/1/1" 
 xmlns:xsi="http://www.w3.org/2001/XMLSchema-instance" 
 xsi:schemaLocation="http://www.topografix.com/GPX/1/1 http://www.topografix.com/GPX/1/1/gpx.xsd" 
 version="1.1" 
 creator="BRouter-Web 0.18.1">
 <trk>
  <name>Dreieck Chatam Sófer Weiche 023 - Dreieck Chatam Sófer Weiche Nordwest-Nord</name>
  <trkseg>
   <trkpt lat="48.141829" lon="17.092033"><ele>143.25</ele></trkpt>
   <trkpt lat="48.141826" lon="17.092029"><ele>143.5</ele></trkpt>
   <trkpt lat="48.141764" lon="17.091936"><ele>143</ele></trkpt>
   <trkpt lat="48.141726" lon="17.091856"><ele>142</ele></trkpt>
   <trkpt lat="48.141704" lon="17.091784"><ele>141.5</ele></trkpt>
   <trkpt lat="48.141691" lon="17.091709"><ele>141.25</ele></trkpt>
   <trkpt lat="48.141689" lon="17.091637"><ele>141</ele></trkpt>
   <trkpt lat="48.141701" lon="17.091424"><ele>140.25</ele></trkpt>
   <trkpt lat="48.141736" lon="17.09099"><ele>140</ele></trkpt>
   <trkpt lat="48.141736" lon="17.090988"><ele>141.25</ele></trkpt>
  </trkseg>
 </trk>
</gpx>