<?xml version="1.0" encoding="UTF-8"?>
<!-- track-length = 10 filtered ascend = 0 plain-ascend = 0 cost=20 energy=0.0kwh time=1s -->
<gpx 
 xmlns="http://www.topografix.com/GPX/1/1" 
 xmlns:xsi="http://www.w3.org/2001/XMLSchema-instance" 
 xsi:schemaLocation="http://www.topografix.com/GPX/1/1 http://www.topografix.com/GPX/1/1/gpx.xsd" 
 version="1.1" 
 creator="BRouter-Web 0.18.1">
 <trk>
  <name>Allee der Kosmonauten/Rhinstraße (Steig Ost-Nord) - Kreuz Allee der Kosmonauten/Rhinstraße Weiche 180</name>
  <trkseg>
   <trkpt lat="52.525911" lon="13.520355"><ele>51</ele></trkpt>
   <trkpt lat="52.525914" lon="13.52031"><ele>51</ele></trkpt>
   <trkpt lat="52.525921" lon="13.520215"><ele>51</ele></trkpt>
   <trkpt lat="52.525921" lon="13.520213"><ele>51</ele></trkpt>
  </trkseg>
 </trk>
</gpx>