<?xml version="1.0" encoding="UTF-8"?>
<!-- track-length = 72 filtered ascend = 0 plain-ascend = 0 cost=146 energy=0.0kwh time=6s -->
<gpx 
 xmlns="http://www.topografix.com/GPX/1/1" 
 xmlns:xsi="http://www.w3.org/2001/XMLSchema-instance" 
 xsi:schemaLocation="http://www.topografix.com/GPX/1/1 http://www.topografix.com/GPX/1/1/gpx.xsd" 
 version="1.1" 
 creator="BRouter-Web 0.18.1">
 <trk>
  <name>Otto-Probst-Platz Weiche 10-17b/14 - Otto-Probst-Platz (Innengleis)</name>
  <trkseg>
   <trkpt lat="48.15422" lon="16.349983"><ele>194</ele></trkpt>
   <trkpt lat="48.154112" lon="16.349911"><ele>194</ele></trkpt>
   <trkpt lat="48.154078" lon="16.349876"><ele>194</ele></trkpt>
   <trkpt lat="48.154031" lon="16.349816"><ele>194</ele></trkpt>
   <trkpt lat="48.154007" lon="16.349765"><ele>194</ele></trkpt>
   <trkpt lat="48.153982" lon="16.349703"><ele>194</ele></trkpt>
   <trkpt lat="48.153877" lon="16.349379"><ele>193.75</ele></trkpt>
   <trkpt lat="48.153838" lon="16.349253"><ele>193.75</ele></trkpt>
  </trkseg>
 </trk>
</gpx>