<?xml version="1.0" encoding="UTF-8"?>
<!-- track-length = 154 filtered ascend = 0 plain-ascend = -1 cost=308 energy=0.0kwh time=12s -->
<gpx 
 xmlns="http://www.topografix.com/GPX/1/1" 
 xmlns:xsi="http://www.w3.org/2001/XMLSchema-instance" 
 xsi:schemaLocation="http://www.topografix.com/GPX/1/1 http://www.topografix.com/GPX/1/1/gpx.xsd" 
 version="1.1" 
 creator="BRouter-Web 0.18.1">
 <trk>
  <name>Tesarekplatz (Steig Nordwest) - Otto-Probst-Platz Weiche 10-17b/14</name>
  <trkseg>
   <trkpt lat="48.155514" lon="16.350734"><ele>195.75</ele></trkpt>
   <trkpt lat="48.155415" lon="16.350732"><ele>195.75</ele></trkpt>
   <trkpt lat="48.155333" lon="16.350719"><ele>195.5</ele></trkpt>
   <trkpt lat="48.155227" lon="16.350665"><ele>195.25</ele></trkpt>
   <trkpt lat="48.154578" lon="16.350226"><ele>194</ele></trkpt>
   <trkpt lat="48.154353" lon="16.350074"><ele>194</ele></trkpt>
   <trkpt lat="48.15422" lon="16.349983"><ele>194</ele></trkpt>
  </trkseg>
 </trk>
</gpx>