<?xml version="1.0" encoding="UTF-8"?>
<!-- track-length = 272 filtered ascend = 0 plain-ascend = 0 cost=544 energy=0.0kwh time=22s -->
<gpx 
 xmlns="http://www.topografix.com/GPX/1/1" 
 xmlns:xsi="http://www.w3.org/2001/XMLSchema-instance" 
 xsi:schemaLocation="http://www.topografix.com/GPX/1/1 http://www.topografix.com/GPX/1/1/gpx.xsd" 
 version="1.1" 
 creator="BRouter-Web 0.18.1">
 <trk>
  <name>Abzweig Nordbahnhof Weiche 666 - Dreieck Naturkundemuseum Weiche 21</name>
  <trkseg>
   <trkpt lat="52.531534" lon="13.387307"><ele>35</ele></trkpt>
   <trkpt lat="52.53151" lon="13.387051"><ele>35</ele></trkpt>
   <trkpt lat="52.531486" lon="13.386816"><ele>35</ele></trkpt>
   <trkpt lat="52.531449" lon="13.386432"><ele>35</ele></trkpt>
   <trkpt lat="52.531442" lon="13.386376"><ele>35</ele></trkpt>
   <trkpt lat="52.53143" lon="13.386269"><ele>35</ele></trkpt>
   <trkpt lat="52.531399" lon="13.386127"><ele>35</ele></trkpt>
   <trkpt lat="52.531389" lon="13.386071"><ele>35</ele></trkpt>
   <trkpt lat="52.53137" lon="13.38597"><ele>35</ele></trkpt>
   <trkpt lat="52.531222" lon="13.385399"><ele>35</ele></trkpt>
   <trkpt lat="52.531191" lon="13.385303"><ele>35</ele></trkpt>
   <trkpt lat="52.530975" lon="13.384526"><ele>35</ele></trkpt>
   <trkpt lat="52.530707" lon="13.383542"><ele>35.25</ele></trkpt>
  </trkseg>
 </trk>
</gpx>