<?xml version="1.0" encoding="UTF-8"?>
<!-- track-length = 43 filtered ascend = 0 plain-ascend = 0 cost=86 energy=0.0kwh time=3s -->
<gpx 
 xmlns="http://www.topografix.com/GPX/1/1" 
 xmlns:xsi="http://www.w3.org/2001/XMLSchema-instance" 
 xsi:schemaLocation="http://www.topografix.com/GPX/1/1 http://www.topografix.com/GPX/1/1/gpx.xsd" 
 version="1.1" 
 creator="BRouter-Web 99.71.0">
 <trk>
  <name>Kreuz Otakarova Weiche Südwest-nach-Südost-Südwest - Kreuz Otakarova Weiche Nordwest-nach-Nordost-Nordost</name>
  <link href="https://brouter.damsy.net/latest/#map=19/50.06538/14.44136/standard&amp;lonlats=14.439503,50.065213;14.440002,50.065401&amp;profile=rail">
   <text>BRouter-Web</text>
  </link>
  <trkseg>
   <trkpt lat="50.06521" lon="14.439504"><ele>197</ele></trkpt>
   <trkpt lat="50.065238" lon="14.439579"><ele>197</ele></trkpt>
   <trkpt lat="50.065267" lon="14.439654"><ele>197</ele></trkpt>
   <trkpt lat="50.065299" lon="14.439738"><ele>197</ele></trkpt>
   <trkpt lat="50.065308" lon="14.439762"><ele>197</ele></trkpt>
   <trkpt lat="50.065315" lon="14.439781"><ele>197</ele></trkpt>
   <trkpt lat="50.065345" lon="14.43986"><ele>197</ele></trkpt>
   <trkpt lat="50.065399" lon="14.44"><ele>197</ele></trkpt>
   <trkpt lat="50.065399" lon="14.440001"><ele>197</ele></trkpt>
  </trkseg>
 </trk>
</gpx>