<?xml version="1.0" encoding="UTF-8"?>
<!-- track-length = 152 filtered ascend = 3 plain-ascend = 4 cost=304 energy=0.0kwh time=12s -->
<gpx 
 xmlns="http://www.topografix.com/GPX/1/1" 
 xmlns:xsi="http://www.w3.org/2001/XMLSchema-instance" 
 xsi:schemaLocation="http://www.topografix.com/GPX/1/1 http://www.topografix.com/GPX/1/1/gpx.xsd" 
 version="1.1" 
 creator="BRouter-Web 0.18.1">
 <trk>
  <name>Abzweig Töölöntulli Weiche Nordost - Töölöntulli (Steig West-Nord)</name>
  <trkseg>
   <trkpt lat="60.191009" lon="24.913481"><ele>14.75</ele></trkpt>
   <trkpt lat="60.19101" lon="24.913481"><ele>15</ele></trkpt>
   <trkpt lat="60.191092" lon="24.91326"><ele>15</ele></trkpt>
   <trkpt lat="60.191111" lon="24.913169"><ele>15</ele></trkpt>
   <trkpt lat="60.191122" lon="24.913111"><ele>15</ele></trkpt>
   <trkpt lat="60.191131" lon="24.912968"><ele>15</ele></trkpt>
   <trkpt lat="60.191135" lon="24.912832"><ele>15</ele></trkpt>
   <trkpt lat="60.191137" lon="24.91277"><ele>15</ele></trkpt>
   <trkpt lat="60.191141" lon="24.91263"><ele>15</ele></trkpt>
   <trkpt lat="60.191143" lon="24.91251"><ele>15</ele></trkpt>
   <trkpt lat="60.191154" lon="24.912008"><ele>16</ele></trkpt>
   <trkpt lat="60.191155" lon="24.91197"><ele>16</ele></trkpt>
   <trkpt lat="60.191158" lon="24.911796"><ele>16.25</ele></trkpt>
   <trkpt lat="60.191175" lon="24.910829"><ele>18.25</ele></trkpt>
  </trkseg>
 </trk>
</gpx>