<?xml version="1.0" encoding="UTF-8"?>
<!-- track-length = 145 filtered ascend = 1 plain-ascend = 1 cost=290 energy=0.0kwh time=12s -->
<gpx 
 xmlns="http://www.topografix.com/GPX/1/1" 
 xmlns:xsi="http://www.w3.org/2001/XMLSchema-instance" 
 xsi:schemaLocation="http://www.topografix.com/GPX/1/1 http://www.topografix.com/GPX/1/1/gpx.xsd" 
 version="1.1" 
 creator="BRouter-Web 0.18.1">
 <trk>
  <name>Abzweig Schüler-/Enzianstraße Weiche Nord - Abzweig Enzian-/Reichsstraße Weiche West</name>
  <trkseg>
   <trkpt lat="50.873822" lon="12.079683"><ele>192.75</ele></trkpt>
   <trkpt lat="50.87382" lon="12.079684"><ele>192.75</ele></trkpt>
   <trkpt lat="50.873761" lon="12.079712"><ele>192.75</ele></trkpt>
   <trkpt lat="50.873684" lon="12.079786"><ele>193</ele></trkpt>
   <trkpt lat="50.87362" lon="12.079903"><ele>193</ele></trkpt>
   <trkpt lat="50.873597" lon="12.079983"><ele>193</ele></trkpt>
   <trkpt lat="50.873584" lon="12.08007"><ele>192.75</ele></trkpt>
   <trkpt lat="50.873581" lon="12.080123"><ele>192.75</ele></trkpt>
   <trkpt lat="50.873587" lon="12.080208"><ele>192.75</ele></trkpt>
   <trkpt lat="50.873602" lon="12.080302"><ele>192.75</ele></trkpt>
   <trkpt lat="50.873839" lon="12.081475"><ele>194</ele></trkpt>
  </trkseg>
 </trk>
</gpx>