<?xml version="1.0" encoding="UTF-8"?>
<!-- track-length = 232 filtered ascend = 4 plain-ascend = 4 cost=464 energy=0.0kwh time=19s -->
<gpx 
 xmlns="http://www.topografix.com/GPX/1/1" 
 xmlns:xsi="http://www.w3.org/2001/XMLSchema-instance" 
 xsi:schemaLocation="http://www.topografix.com/GPX/1/1 http://www.topografix.com/GPX/1/1/gpx.xsd" 
 version="1.1" 
 creator="BRouter-Web 99.71.0">
 <trk>
  <name>Dreieck Zamek Weiche West-Nord - Rondo Kaponiera (Steig Ost-Nord)</name>
  <link href="https://brouter.damsy.net/latest/#map=20/52.40771/16.91334/standard&amp;lonlats=16.91674,52.407478;16.913337,52.407712">
   <text>BRouter-Web</text>
  </link>
  <trkseg>
   <trkpt lat="52.407476" lon="16.916739"><ele>77.75</ele></trkpt>
   <trkpt lat="52.407513" lon="16.91628"><ele>78.25</ele></trkpt>
   <trkpt lat="52.407581" lon="16.914648"><ele>81</ele></trkpt>
   <trkpt lat="52.407591" lon="16.914522"><ele>81</ele></trkpt>
   <trkpt lat="52.407603" lon="16.914403"><ele>81</ele></trkpt>
   <trkpt lat="52.407638" lon="16.914057"><ele>79.75</ele></trkpt>
   <trkpt lat="52.407691" lon="16.913528"><ele>82</ele></trkpt>
   <trkpt lat="52.40771" lon="16.913336"><ele>82</ele></trkpt>
  </trkseg>
 </trk>
</gpx>