<?xml version="1.0" encoding="UTF-8"?>
<!-- track-length = 273 filtered ascend = 0 plain-ascend = 1 cost=546 energy=0.0kwh time=22s -->
<gpx 
 xmlns="http://www.topografix.com/GPX/1/1" 
 xmlns:xsi="http://www.w3.org/2001/XMLSchema-instance" 
 xsi:schemaLocation="http://www.topografix.com/GPX/1/1 http://www.topografix.com/GPX/1/1/gpx.xsd" 
 version="1.1" 
 creator="BRouter-Web 0.18.1">
 <trk>
  <name>Dreieck 11. novembra krastmala/13. janvāra iela Weiche Nordwest-Nordost - Grēcinieku iela (Steig Nordost)</name>
  <trkseg>
   <trkpt lat="56.944424" lon="24.109118"><ele>4.5</ele></trkpt>
   <trkpt lat="56.944574" lon="24.108675"><ele>4.5</ele></trkpt>
   <trkpt lat="56.944991" lon="24.107434"><ele>4.5</ele></trkpt>
   <trkpt lat="56.945054" lon="24.107262"><ele>4.25</ele></trkpt>
   <trkpt lat="56.945128" lon="24.107085"><ele>4</ele></trkpt>
   <trkpt lat="56.945212" lon="24.106935"><ele>3.75</ele></trkpt>
   <trkpt lat="56.945308" lon="24.106774"><ele>4</ele></trkpt>
   <trkpt lat="56.945463" lon="24.106507"><ele>3.75</ele></trkpt>
   <trkpt lat="56.945896" lon="24.105773"><ele>4</ele></trkpt>
   <trkpt lat="56.945943" lon="24.105693"><ele>5</ele></trkpt>
  </trkseg>
 </trk>
</gpx>