<?xml version="1.0" encoding="UTF-8"?>
<!-- track-length = 101 filtered ascend = 0 plain-ascend = -3 cost=202 energy=0.0kwh time=8s -->
<gpx 
 xmlns="http://www.topografix.com/GPX/1/1" 
 xmlns:xsi="http://www.w3.org/2001/XMLSchema-instance" 
 xsi:schemaLocation="http://www.topografix.com/GPX/1/1 http://www.topografix.com/GPX/1/1/gpx.xsd" 
 version="1.1" 
 creator="BRouter-Web 99.71.0">
 <trk>
  <name>Dreieck Táborská Weiche Nordwest-Nordost - Dreieck Náměstí Bratří Synků Weiche Südost-Nordost</name>
  <link href="https://brouter.damsy.net/latest/#map=18/50.06387/14.44291/standard&amp;lonlats=14.442707,50.063459;14.441582,50.064003&amp;profile=rail">
   <text>BRouter-Web</text>
  </link>
  <trkseg>
   <trkpt lat="50.063459" lon="14.442707"><ele>204.75</ele></trkpt>
   <trkpt lat="50.063607" lon="14.4424"><ele>204</ele></trkpt>
   <trkpt lat="50.06394" lon="14.441706"><ele>201.75</ele></trkpt>
   <trkpt lat="50.064" lon="14.44158"><ele>201.5</ele></trkpt>
   <trkpt lat="50.064" lon="14.441578"><ele>201.25</ele></trkpt>
  </trkseg>
 </trk>
</gpx>