<?xml version="1.0" encoding="UTF-8"?>
<!-- track-length = 556 filtered ascend = 0 plain-ascend = 0 cost=1112 energy=0.0kwh time=44s -->
<gpx 
 xmlns="http://www.topografix.com/GPX/1/1" 
 xmlns:xsi="http://www.w3.org/2001/XMLSchema-instance" 
 xsi:schemaLocation="http://www.topografix.com/GPX/1/1 http://www.topografix.com/GPX/1/1/gpx.xsd" 
 version="1.1" 
 creator="BRouter-Web 0.18.1">
 <trk>
  <name>Eevanmäki (Steig Nordost) - Uutiskatu (Steig Nordost)</name>
  <trkseg>
   <trkpt lat="60.201877" lon="24.926371"><ele>31</ele></trkpt>
   <trkpt lat="60.201933" lon="24.926345"><ele>31</ele></trkpt>
   <trkpt lat="60.20264" lon="24.926011"><ele>30</ele></trkpt>
   <trkpt lat="60.202703" lon="24.925942"><ele>30</ele></trkpt>
   <trkpt lat="60.202736" lon="24.925876"><ele>30</ele></trkpt>
   <trkpt lat="60.202761" lon="24.925811"><ele>30</ele></trkpt>
   <trkpt lat="60.202771" lon="24.925771"><ele>30</ele></trkpt>
   <trkpt lat="60.20279" lon="24.92566"><ele>30</ele></trkpt>
   <trkpt lat="60.202793" lon="24.925588"><ele>29.75</ele></trkpt>
   <trkpt lat="60.202788" lon="24.925458"><ele>30</ele></trkpt>
   <trkpt lat="60.202655" lon="24.924338"><ele>30</ele></trkpt>
   <trkpt lat="60.202624" lon="24.924064"><ele>30</ele></trkpt>
   <trkpt lat="60.202605" lon="24.923906"><ele>30</ele></trkpt>
   <trkpt lat="60.202443" lon="24.922515"><ele>29</ele></trkpt>
   <trkpt lat="60.202428" lon="24.92238"><ele>29.25</ele></trkpt>
   <trkpt lat="60.202261" lon="24.920956"><ele>27.25</ele></trkpt>
   <trkpt lat="60.202258" lon="24.920819"><ele>27.25</ele></trkpt>
   <trkpt lat="60.202267" lon="24.92073"><ele>27.25</ele></trkpt>
   <trkpt lat="60.202272" lon="24.920702"><ele>27.25</ele></trkpt>
   <trkpt lat="60.202308" lon="24.920568"><ele>27.25</ele></trkpt>
   <trkpt lat="60.202342" lon="24.9205"><ele>27.25</ele></trkpt>
   <trkpt lat="60.202365" lon="24.920467"><ele>27.25</ele></trkpt>
   <trkpt lat="60.202886" lon="24.919806"><ele>28.5</ele></trkpt>
   <trkpt lat="60.202982" lon="24.919686"><ele>28.5</ele></trkpt>
   <trkpt lat="60.203054" lon="24.919598"><ele>28.75</ele></trkpt>
   <trkpt lat="60.203446" lon="24.919103"><ele>29.75</ele></trkpt>
  </trkseg>
 </trk>
</gpx>