<?xml version="1.0" encoding="UTF-8"?>
<!-- track-length = 121 filtered ascend = 0 plain-ascend = 0 cost=242 energy=0.0kwh time=10s -->
<gpx 
 xmlns="http://www.topografix.com/GPX/1/1" 
 xmlns:xsi="http://www.w3.org/2001/XMLSchema-instance" 
 xsi:schemaLocation="http://www.topografix.com/GPX/1/1 http://www.topografix.com/GPX/1/1/gpx.xsd" 
 version="1.1" 
 creator="BRouter-Web 0.18.1">
 <trk>
  <name>Kreuz Mollstraße/Otto-Braun-Straße Weiche Südost-Nordost - Mollstraße/Otto-Braun-Straße (Steig Südost-Nordost)</name>
  <trkseg>
   <trkpt lat="52.524424" lon="13.421964"><ele>37</ele></trkpt>
   <trkpt lat="52.524426" lon="13.421962"><ele>37</ele></trkpt>
   <trkpt lat="52.524536" lon="13.421672"><ele>37</ele></trkpt>
   <trkpt lat="52.524863" lon="13.420806"><ele>37</ele></trkpt>
   <trkpt lat="52.524992" lon="13.420466"><ele>37</ele></trkpt>
   <trkpt lat="52.524992" lon="13.420465"><ele>37</ele></trkpt>
  </trkseg>
 </trk>
</gpx>