<?xml version="1.0" encoding="UTF-8"?>
<!-- track-length = 21 filtered ascend = 0 plain-ascend = 0 cost=46 energy=0.0kwh time=2s -->
<gpx 
 xmlns="http://www.topografix.com/GPX/1/1" 
 xmlns:xsi="http://www.w3.org/2001/XMLSchema-instance" 
 xsi:schemaLocation="http://www.topografix.com/GPX/1/1 http://www.topografix.com/GPX/1/1/gpx.xsd" 
 version="1.1" 
 creator="BRouter-Web 0.18.1">
 <trk>
  <name>Abzweig Rautatientori Weiche West - Abzweig Kaivokatu/Mikonkatu Weiche Nord</name>
  <trkseg>
   <trkpt lat="60.170629" lon="24.944858"><ele>2</ele></trkpt>
   <trkpt lat="60.170618" lon="24.944822"><ele>2</ele></trkpt>
   <trkpt lat="60.170594" lon="24.944737"><ele>2</ele></trkpt>
   <trkpt lat="60.170542" lon="24.944507"><ele>2</ele></trkpt>
  </trkseg>
 </trk>
</gpx>