<?xml version="1.0" encoding="UTF-8"?>
<!-- track-length = 170 filtered ascend = 0 plain-ascend = 0 cost=340 energy=0.0kwh time=14s -->
<gpx 
 xmlns="http://www.topografix.com/GPX/1/1" 
 xmlns:xsi="http://www.w3.org/2001/XMLSchema-instance" 
 xsi:schemaLocation="http://www.topografix.com/GPX/1/1 http://www.topografix.com/GPX/1/1/gpx.xsd" 
 version="1.1" 
 creator="BRouter-Web 0.18.1">
 <trk>
  <name>Dreieck Karl-Lade-/Oderbruchstraße Weiche 56 - Dreieck Karl-Lade-/Oderbruchstraße Weiche 702</name>
  <trkseg>
   <trkpt lat="52.529191" lon="13.459046"><ele>51.75</ele></trkpt>
   <trkpt lat="52.529194" lon="13.459055"><ele>52</ele></trkpt>
   <trkpt lat="52.529299" lon="13.459696"><ele>52</ele></trkpt>
   <trkpt lat="52.529493" lon="13.460587"><ele>52</ele></trkpt>
   <trkpt lat="52.529506" lon="13.460694"><ele>52</ele></trkpt>
   <trkpt lat="52.529507" lon="13.46085"><ele>52</ele></trkpt>
   <trkpt lat="52.529486" lon="13.461027"><ele>52</ele></trkpt>
   <trkpt lat="52.529449" lon="13.461243"><ele>52</ele></trkpt>
   <trkpt lat="52.529436" lon="13.461322"><ele>52</ele></trkpt>
   <trkpt lat="52.529435" lon="13.461333"><ele>52</ele></trkpt>
   <trkpt lat="52.529417" lon="13.46143"><ele>52</ele></trkpt>
   <trkpt lat="52.529417" lon="13.461428"><ele>52</ele></trkpt>
  </trkseg>
 </trk>
</gpx>