<?xml version="1.0" encoding="UTF-8"?>
<!-- track-length = 449 filtered ascend = 0 plain-ascend = 0 cost=898 energy=0.0kwh time=36s -->
<gpx 
 xmlns="http://www.topografix.com/GPX/1/1" 
 xmlns:xsi="http://www.w3.org/2001/XMLSchema-instance" 
 xsi:schemaLocation="http://www.topografix.com/GPX/1/1 http://www.topografix.com/GPX/1/1/gpx.xsd" 
 version="1.1" 
 creator="BRouter-Web 0.18.1">
 <trk>
  <name>Karl-Lade-Straße (Steig Südwest) - Anton-Saefkow-Platz (Steig Südwest)</name>
  <trkseg>
   <trkpt lat="52.529131" lon="13.463055"><ele>53</ele></trkpt>
   <trkpt lat="52.529092" lon="13.463286"><ele>53.25</ele></trkpt>
   <trkpt lat="52.528995" lon="13.463853"><ele>53</ele></trkpt>
   <trkpt lat="52.52892" lon="13.464305"><ele>53</ele></trkpt>
   <trkpt lat="52.528701" lon="13.465586"><ele>53</ele></trkpt>
   <trkpt lat="52.528577" lon="13.466349"><ele>53</ele></trkpt>
   <trkpt lat="52.528482" lon="13.466921"><ele>53</ele></trkpt>
   <trkpt lat="52.528337" lon="13.467778"><ele>52.75</ele></trkpt>
   <trkpt lat="52.528192" lon="13.468629"><ele>53</ele></trkpt>
   <trkpt lat="52.528067" lon="13.469361"><ele>52</ele></trkpt>
   <trkpt lat="52.528057" lon="13.469433"><ele>52</ele></trkpt>
  </trkseg>
 </trk>
</gpx>