<?xml version="1.0" encoding="UTF-8"?>
<!-- track-length = 108 filtered ascend = 0 plain-ascend = -3 cost=216 energy=0.0kwh time=9s -->
<gpx 
 xmlns="http://www.topografix.com/GPX/1/1" 
 xmlns:xsi="http://www.w3.org/2001/XMLSchema-instance" 
 xsi:schemaLocation="http://www.topografix.com/GPX/1/1 http://www.topografix.com/GPX/1/1/gpx.xsd" 
 version="1.1" 
 creator="BRouter-Web 99.71.0">
 <trk>
  <name>Mellunmäki (Steig Nordwest) - Üst Mellunmäki Weiche F6</name>
  <link href="https://brouter.damsy.net/latest/#map=19/60.23890/25.11059/standard&amp;lonlats=25.111111,60.239235;25.10944,60.238734&amp;profile=rail">
   <text>BRouter-Web</text>
  </link>
  <trkseg>
   <trkpt lat="60.239237" lon="25.111106"><ele>20.25</ele></trkpt>
   <trkpt lat="60.238935" lon="25.110109"><ele>17.25</ele></trkpt>
   <trkpt lat="60.238835" lon="25.109785"><ele>16</ele></trkpt>
   <trkpt lat="60.238733" lon="25.109439"><ele>16</ele></trkpt>
  </trkseg>
 </trk>
</gpx>