<?xml version="1.0" encoding="UTF-8"?>
<!-- track-length = 120 filtered ascend = 0 plain-ascend = 0 cost=0 energy=0.0kwh time=9.6s -->
<gpx 
 xmlns="http://www.topografix.com/GPX/1/1" 
 xmlns:xsi="http://www.w3.org/2001/XMLSchema-instance" 
 xsi:schemaLocation="http://www.topografix.com/GPX/1/1 http://www.topografix.com/GPX/1/1/gpx.xsd" 
 version="1.1" 
 creator="BRouter-Web 99.71.0">
 <trk>
  <name>Üst Itäkeskus M2-Nord Nord Weiche F10 - Üst Itäkeskus M2-Nord Nord Weiche F9</name>
  <link href="https://brouter.damsy.net/latest/#map=18/60.21845/25.08349/standard&amp;lonlats=25.081932,60.219318;25.082599,60.218301&amp;straight=0&amp;profile=rail">
   <text>BRouter-Web</text>
  </link>
  <trkseg>
   <trkpt lat="60.21931797615563" lon="25.081932216980938"/>
   <trkpt lat="60.21830089383445" lon="25.082599282068266"/>
  </trkseg>
 </trk>
</gpx>