<?xml version="1.0" encoding="UTF-8"?>
<!-- track-length = 102 filtered ascend = 0 plain-ascend = 0 cost=204 energy=0.0kwh time=8s -->
<gpx 
 xmlns="http://www.topografix.com/GPX/1/1" 
 xmlns:xsi="http://www.w3.org/2001/XMLSchema-instance" 
 xsi:schemaLocation="http://www.topografix.com/GPX/1/1 http://www.topografix.com/GPX/1/1/gpx.xsd" 
 version="1.1" 
 creator="BRouter-Web 99.71.0">
 <trk>
  <name>Üst Kontula Nordost Weiche F7 - Kontula (Steig Nordwest)</name>
  <link href="https://brouter.damsy.net/latest/#map=18/60.23614/25.08564/standard&amp;lonlats=25.084827,60.236346;25.083233,60.235889&amp;profile=rail">
   <text>BRouter-Web</text>
  </link>
  <trkseg>
   <trkpt lat="60.236343" lon="25.084828"><ele>30</ele></trkpt>
   <trkpt lat="60.235893" lon="25.083226"><ele>30</ele></trkpt>
  </trkseg>
 </trk>
</gpx>