<?xml version="1.0" encoding="UTF-8"?>
<!-- track-length = 1312 filtered ascend = 13 plain-ascend = 13 cost=2624 energy=0.0kwh time=1m 45s -->
<gpx 
 xmlns="http://www.topografix.com/GPX/1/1" 
 xmlns:xsi="http://www.w3.org/2001/XMLSchema-instance" 
 xsi:schemaLocation="http://www.topografix.com/GPX/1/1 http://www.topografix.com/GPX/1/1/gpx.xsd" 
 version="1.1" 
 creator="BRouter-Web 99.71.0">
 <trk>
  <name>Üst Mellunmäki Weiche F5 - Üst Kontula Nordost Weiche F8</name>
  <link href="https://brouter.damsy.net/latest/#map=19/60.23642/25.08469/standard&amp;lonlats=25.108223,60.23836;25.085547,60.236524&amp;profile=rail">
   <text>BRouter-Web</text>
  </link>
  <trkseg>
   <trkpt lat="60.238359" lon="25.108222"><ele>21.75</ele></trkpt>
   <trkpt lat="60.238239" lon="25.107834"><ele>21.75</ele></trkpt>
   <trkpt lat="60.23806" lon="25.107179"><ele>21.75</ele></trkpt>
   <trkpt lat="60.237907" lon="25.106472"><ele>21.75</ele></trkpt>
   <trkpt lat="60.237837" lon="25.106088"><ele>21.75</ele></trkpt>
   <trkpt lat="60.237766" lon="25.105637"><ele>21.75</ele></trkpt>
   <trkpt lat="60.237698" lon="25.105065"><ele>19.5</ele></trkpt>
   <trkpt lat="60.237633" lon="25.104435"><ele>20</ele></trkpt>
   <trkpt lat="60.237463" lon="25.102572"><ele>23.5</ele></trkpt>
   <trkpt lat="60.237417" lon="25.101952"><ele>23.5</ele></trkpt>
   <trkpt lat="60.237389" lon="25.101395"><ele>25</ele></trkpt>
   <trkpt lat="60.237376" lon="25.100892"><ele>25.75</ele></trkpt>
   <trkpt lat="60.237374" lon="25.10045"><ele>26.75</ele></trkpt>
   <trkpt lat="60.237387" lon="25.099856"><ele>28.25</ele></trkpt>
   <trkpt lat="60.237439" lon="25.098862"><ele>27.75</ele></trkpt>
   <trkpt lat="60.237769" lon="25.094238"><ele>30</ele></trkpt>
   <trkpt lat="60.237806" lon="25.093559"><ele>30.5</ele></trkpt>
   <trkpt lat="60.237821" lon="25.092999"><ele>30.75</ele></trkpt>
   <trkpt lat="60.237817" lon="25.092442"><ele>30.5</ele></trkpt>
   <trkpt lat="60.237805" lon="25.091958"><ele>30.5</ele></trkpt>
   <trkpt lat="60.23775" lon="25.091098"><ele>31.5</ele></trkpt>
   <trkpt lat="60.237703" lon="25.090631"><ele>34.25</ele></trkpt>
   <trkpt lat="60.237652" lon="25.090214"><ele>34.75</ele></trkpt>
   <trkpt lat="60.237591" lon="25.089786"><ele>32.75</ele></trkpt>
   <trkpt lat="60.237516" lon="25.08935"><ele>31.25</ele></trkpt>
   <trkpt lat="60.237402" lon="25.088783"><ele>34</ele></trkpt>
   <trkpt lat="60.237233" lon="25.08807"><ele>31</ele></trkpt>
   <trkpt lat="60.237101" lon="25.08758"><ele>34</ele></trkpt>
   <trkpt lat="60.236522" lon="25.085548"><ele>34.75</ele></trkpt>
  </trkseg>
 </trk>
</gpx>