<?xml version="1.0" encoding="UTF-8"?>
<!-- track-length = 45 filtered ascend = 0 plain-ascend = -4 cost=92 energy=0.0kwh time=4s -->
<gpx 
 xmlns="http://www.topografix.com/GPX/1/1" 
 xmlns:xsi="http://www.w3.org/2001/XMLSchema-instance" 
 xsi:schemaLocation="http://www.topografix.com/GPX/1/1 http://www.topografix.com/GPX/1/1/gpx.xsd" 
 version="1.1" 
 creator="BRouter-Web 99.71.0">
 <trk>
  <name>Üst Kontula Nordost Weiche F8 - Üst Kontula Nordost Weiche F7</name>
  <link href="https://brouter.damsy.net/latest/#map=18/60.23614/25.08564/standard&amp;lonlats=25.085547,60.236524;25.084827,60.236346&amp;profile=rail">
   <text>BRouter-Web</text>
  </link>
  <trkseg>
   <trkpt lat="60.236522" lon="25.085548"><ele>34.5</ele></trkpt>
   <trkpt lat="60.236344" lon="25.08483"><ele>30</ele></trkpt>
   <trkpt lat="60.236343" lon="25.084828"><ele>30</ele></trkpt>
  </trkseg>
 </trk>
</gpx>