<?xml version="1.0" encoding="UTF-8"?>
<!-- track-length = 107 filtered ascend = 0 plain-ascend = 1 cost=214 energy=0.0kwh time=9s -->
<gpx 
 xmlns="http://www.topografix.com/GPX/1/1" 
 xmlns:xsi="http://www.w3.org/2001/XMLSchema-instance" 
 xsi:schemaLocation="http://www.topografix.com/GPX/1/1 http://www.topografix.com/GPX/1/1/gpx.xsd" 
 version="1.1" 
 creator="BRouter-Web 99.71.0">
 <trk>
  <name>Üst Kontula Südwest Weiche F2 - Üst Kontula Südwest Weiche F1</name>
  <link href="https://brouter.damsy.net/latest/#map=19/60.23279/25.07838/standard&amp;lonlats=25.078374,60.233354;25.077908,60.232866;25.077538,60.2325&amp;profile=rail">
   <text>BRouter-Web</text>
  </link>
  <trkseg>
   <trkpt lat="60.233353" lon="25.078377"><ele>30</ele></trkpt>
   <trkpt lat="60.233352" lon="25.078377"><ele>30</ele></trkpt>
   <trkpt lat="60.232867" lon="25.077902"><ele>30.75</ele></trkpt>
   <trkpt lat="60.2325" lon="25.077544"><ele>30.75</ele></trkpt>
   <trkpt lat="60.232497" lon="25.077542"><ele>30.25</ele></trkpt>
  </trkseg>
 </trk>
</gpx>