<?xml version="1.0" encoding="UTF-8"?>
<!-- track-length = 159 filtered ascend = 0 plain-ascend = 0 cost=318 energy=0.0kwh time=13s -->
<gpx 
 xmlns="http://www.topografix.com/GPX/1/1" 
 xmlns:xsi="http://www.w3.org/2001/XMLSchema-instance" 
 xsi:schemaLocation="http://www.topografix.com/GPX/1/1 http://www.topografix.com/GPX/1/1/gpx.xsd" 
 version="1.1" 
 creator="BRouter-Web 99.71.0">
 <trk>
  <name>Üst Itäkeskus M1/M2-Nordost Weiche Südwest-Nordwest - Itäkeskus (Gleis Nordwest)</name>
  <link href="https://brouter.damsy.net/latest/#map=18/60.21011/25.07751/standard&amp;lonlats=25.07957,60.210715;25.077048,60.210038&amp;profile=rail">
   <text>BRouter-Web</text>
  </link>
  <trkseg>
   <trkpt lat="60.210713" lon="25.07957"/>
   <trkpt lat="60.210443" lon="25.07857"/>
   <trkpt lat="60.210199" lon="25.077672"/>
   <trkpt lat="60.210032" lon="25.077053"/>
  </trkseg>
 </trk>
</gpx>