<?xml version="1.0" encoding="UTF-8"?>
<!-- track-length = 44 filtered ascend = 0 plain-ascend = 0 cost=88 energy=0.0kwh time=4s -->
<gpx 
 xmlns="http://www.topografix.com/GPX/1/1" 
 xmlns:xsi="http://www.w3.org/2001/XMLSchema-instance" 
 xsi:schemaLocation="http://www.topografix.com/GPX/1/1 http://www.topografix.com/GPX/1/1/gpx.xsd" 
 version="1.1" 
 creator="BRouter-Web 99.71.0">
 <trk>
  <name>Dreieck Berliner Platz Weiche 113 - Berliner Platz Süd/Bahnhof Ludwigshafen Mitte (Steig Nordwest)</name>
  <link href="https://brouter.damsy.net/latest/#map=20/49.47832/8.45113/standard&amp;lonlats=8.450992,49.478747;8.450987,49.478358&amp;profile=rail">
   <text>BRouter-Web</text>
  </link>
  <trkseg>
   <trkpt lat="49.478747" lon="8.450992"><ele>95</ele></trkpt>
   <trkpt lat="49.478711" lon="8.450992"><ele>95</ele></trkpt>
   <trkpt lat="49.478364" lon="8.450993"><ele>95</ele></trkpt>
   <trkpt lat="49.478356" lon="8.450992"><ele>95</ele></trkpt>
  </trkseg>
 </trk>
</gpx>