<?xml version="1.0" encoding="UTF-8"?>
<!-- track-length = 97 filtered ascend = 0 plain-ascend = 0 cost=196 energy=0.0kwh time=8s -->
<gpx 
 xmlns="http://www.topografix.com/GPX/1/1" 
 xmlns:xsi="http://www.w3.org/2001/XMLSchema-instance" 
 xsi:schemaLocation="http://www.topografix.com/GPX/1/1 http://www.topografix.com/GPX/1/1/gpx.xsd" 
 version="1.1" 
 creator="BRouter-Web 99.71.0">
 <trk>
  <name>Dreieck Berliner Platz Weiche 111 - Dreieck Berliner Platz Weiche 113</name>
  <link href="https://brouter.damsy.net/latest/#map=18/49.47896/8.45260/standard&amp;lonlats=8.451792,49.479368;8.450992,49.478747&amp;profile=rail">
   <text>BRouter-Web</text>
  </link>
  <trkseg>
   <trkpt lat="49.479368" lon="8.45179"><ele>95.75</ele></trkpt>
   <trkpt lat="49.479293" lon="8.451624"><ele>95.5</ele></trkpt>
   <trkpt lat="49.479095" lon="8.451226"><ele>95.25</ele></trkpt>
   <trkpt lat="49.479051" lon="8.451144"><ele>95</ele></trkpt>
   <trkpt lat="49.478997" lon="8.451065"><ele>95</ele></trkpt>
   <trkpt lat="49.478958" lon="8.451034"><ele>95</ele></trkpt>
   <trkpt lat="49.4789" lon="8.45101"><ele>95</ele></trkpt>
   <trkpt lat="49.478819" lon="8.450996"><ele>95</ele></trkpt>
   <trkpt lat="49.478748" lon="8.450992"><ele>95</ele></trkpt>
   <trkpt lat="49.478747" lon="8.450992"><ele>95</ele></trkpt>
  </trkseg>
 </trk>
</gpx>