<?xml version="1.0" encoding="UTF-8"?>
<!-- track-length = 440 filtered ascend = 2 plain-ascend = 2 cost=880 energy=0.0kwh time=35s -->
<gpx 
 xmlns="http://www.topografix.com/GPX/1/1" 
 xmlns:xsi="http://www.w3.org/2001/XMLSchema-instance" 
 xsi:schemaLocation="http://www.topografix.com/GPX/1/1 http://www.topografix.com/GPX/1/1/gpx.xsd" 
 version="1.1" 
 creator="BRouter-Web 0.18.1">
 <trk>
  <name>Eiranranta Weiche Ost - Munkkisaari (Steig Nordost)</name>
  <trkseg>
   <trkpt lat="60.154119" lon="24.931671"><ele>3</ele></trkpt>
   <trkpt lat="60.154245" lon="24.931589"><ele>3</ele></trkpt>
   <trkpt lat="60.154327" lon="24.931575"><ele>3</ele></trkpt>
   <trkpt lat="60.154376" lon="24.931597"><ele>3</ele></trkpt>
   <trkpt lat="60.154428" lon="24.931657"><ele>3</ele></trkpt>
   <trkpt lat="60.154434" lon="24.931668"><ele>3</ele></trkpt>
   <trkpt lat="60.154474" lon="24.931757"><ele>3</ele></trkpt>
   <trkpt lat="60.154502" lon="24.93188"><ele>3</ele></trkpt>
   <trkpt lat="60.154833" lon="24.933964"><ele>3.75</ele></trkpt>
   <trkpt lat="60.154945" lon="24.934674"><ele>2.5</ele></trkpt>
   <trkpt lat="60.154976" lon="24.934822"><ele>2.75</ele></trkpt>
   <trkpt lat="60.155002" lon="24.934894"><ele>3</ele></trkpt>
   <trkpt lat="60.155037" lon="24.934966"><ele>3</ele></trkpt>
   <trkpt lat="60.155098" lon="24.935046"><ele>3</ele></trkpt>
   <trkpt lat="60.15513" lon="24.935071"><ele>3</ele></trkpt>
   <trkpt lat="60.155205" lon="24.935097"><ele>3</ele></trkpt>
   <trkpt lat="60.155259" lon="24.935093"><ele>3</ele></trkpt>
   <trkpt lat="60.156369" lon="24.934386"><ele>3</ele></trkpt>
   <trkpt lat="60.156787" lon="24.934116"><ele>5</ele></trkpt>
  </trkseg>
 </trk>
</gpx>