<?xml version="1.0" encoding="UTF-8"?>
<!-- track-length = 334 filtered ascend = 0 plain-ascend = 0 cost=668 energy=0.0kwh time=27s -->
<gpx 
 xmlns="http://www.topografix.com/GPX/1/1" 
 xmlns:xsi="http://www.w3.org/2001/XMLSchema-instance" 
 xsi:schemaLocation="http://www.topografix.com/GPX/1/1 http://www.topografix.com/GPX/1/1/gpx.xsd" 
 version="1.1" 
 creator="BRouter-Web 0.18.1">
 <trk>
  <name>Munkkisaari (Steig Nordost) - Telakanpuistikko (Steig Nordost)</name>
  <trkseg>
   <trkpt lat="60.156787" lon="24.934116"><ele>4.75</ele></trkpt>
   <trkpt lat="60.156843" lon="24.93408"><ele>5</ele></trkpt>
   <trkpt lat="60.157591" lon="24.933598"><ele>3.5</ele></trkpt>
   <trkpt lat="60.157677" lon="24.933542"><ele>3.25</ele></trkpt>
   <trkpt lat="60.157775" lon="24.933489"><ele>3</ele></trkpt>
   <trkpt lat="60.157783" lon="24.933475"><ele>3</ele></trkpt>
   <trkpt lat="60.158155" lon="24.933232"><ele>3.25</ele></trkpt>
   <trkpt lat="60.158192" lon="24.933208"><ele>3.25</ele></trkpt>
   <trkpt lat="60.158257" lon="24.933167"><ele>3.25</ele></trkpt>
   <trkpt lat="60.158344" lon="24.933112"><ele>3.25</ele></trkpt>
   <trkpt lat="60.158965" lon="24.932711"><ele>4</ele></trkpt>
   <trkpt lat="60.159217" lon="24.932498"><ele>3</ele></trkpt>
   <trkpt lat="60.159618" lon="24.932181"><ele>3.5</ele></trkpt>
  </trkseg>
 </trk>
</gpx>