<?xml version="1.0" encoding="UTF-8"?>
<!-- track-length = 311 filtered ascend = 0 plain-ascend = 0 cost=622 energy=0.0kwh time=25s -->
<gpx 
 xmlns="http://www.topografix.com/GPX/1/1" 
 xmlns:xsi="http://www.w3.org/2001/XMLSchema-instance" 
 xsi:schemaLocation="http://www.topografix.com/GPX/1/1 http://www.topografix.com/GPX/1/1/gpx.xsd" 
 version="1.1" 
 creator="BRouter-Web 0.18.1">
 <trk>
  <name>Telakanpuistikko (Steig Nordost) - Abzweig Hietalahdenkatu Weiche Südost</name>
  <trkseg>
   <trkpt lat="60.159618" lon="24.932181"><ele>3.25</ele></trkpt>
   <trkpt lat="60.159673" lon="24.932138"><ele>3.5</ele></trkpt>
   <trkpt lat="60.159743" lon="24.932073"><ele>3.5</ele></trkpt>
   <trkpt lat="60.159778" lon="24.932025"><ele>3.25</ele></trkpt>
   <trkpt lat="60.15986" lon="24.931875"><ele>3.25</ele></trkpt>
   <trkpt lat="60.160281" lon="24.930836"><ele>2.75</ele></trkpt>
   <trkpt lat="60.160338" lon="24.930724"><ele>3</ele></trkpt>
   <trkpt lat="60.160411" lon="24.93059"><ele>3</ele></trkpt>
   <trkpt lat="60.160454" lon="24.930515"><ele>2.75</ele></trkpt>
   <trkpt lat="60.160529" lon="24.930381"><ele>2.75</ele></trkpt>
   <trkpt lat="60.16068" lon="24.930109"><ele>3</ele></trkpt>
   <trkpt lat="60.160961" lon="24.929711"><ele>2.75</ele></trkpt>
   <trkpt lat="60.161039" lon="24.929625"><ele>2.5</ele></trkpt>
   <trkpt lat="60.161123" lon="24.929588"><ele>2.25</ele></trkpt>
   <trkpt lat="60.161167" lon="24.92958"><ele>2.25</ele></trkpt>
   <trkpt lat="60.161216" lon="24.929588"><ele>2.25</ele></trkpt>
   <trkpt lat="60.161426" lon="24.929671"><ele>2</ele></trkpt>
   <trkpt lat="60.161665" lon="24.929741"><ele>2</ele></trkpt>
   <trkpt lat="60.161725" lon="24.929776"><ele>2</ele></trkpt>
   <trkpt lat="60.161773" lon="24.929829"><ele>2</ele></trkpt>
   <trkpt lat="60.161812" lon="24.929892"><ele>2</ele></trkpt>
   <trkpt lat="60.161846" lon="24.929967"><ele>2</ele></trkpt>
  </trkseg>
 </trk>
</gpx>