<?xml version="1.0" encoding="UTF-8"?>
<!-- track-length = 133 filtered ascend = 0 plain-ascend = 0 cost=266 energy=0.0kwh time=11s -->
<gpx 
 xmlns="http://www.topografix.com/GPX/1/1" 
 xmlns:xsi="http://www.w3.org/2001/XMLSchema-instance" 
 xsi:schemaLocation="http://www.topografix.com/GPX/1/1 http://www.topografix.com/GPX/1/1/gpx.xsd" 
 version="1.1" 
 creator="BRouter-Web 0.18.1">
 <trk>
  <name>Abzweig Wendedreieck Akazienstraße Weiche Nord - Abzweig Wendedreieck Akazienstraße Weiche Ost</name>
  <trkseg>
   <trkpt lat="49.513702" lon="8.472506"><ele>95</ele></trkpt>
   <trkpt lat="49.513699" lon="8.472503"><ele>95</ele></trkpt>
   <trkpt lat="49.513632" lon="8.472429"><ele>94.5</ele></trkpt>
   <trkpt lat="49.513583" lon="8.472387"><ele>94.25</ele></trkpt>
   <trkpt lat="49.513527" lon="8.472353"><ele>94</ele></trkpt>
   <trkpt lat="49.51347" lon="8.472345"><ele>93.75</ele></trkpt>
   <trkpt lat="49.513417" lon="8.472358"><ele>93.75</ele></trkpt>
   <trkpt lat="49.513375" lon="8.472371"><ele>93.5</ele></trkpt>
   <trkpt lat="49.513296" lon="8.472462"><ele>93.5</ele></trkpt>
   <trkpt lat="49.513256" lon="8.472578"><ele>93.5</ele></trkpt>
   <trkpt lat="49.513241" lon="8.472682"><ele>93.5</ele></trkpt>
   <trkpt lat="49.513245" lon="8.472758"><ele>93.5</ele></trkpt>
   <trkpt lat="49.513263" lon="8.472877"><ele>93.25</ele></trkpt>
   <trkpt lat="49.513273" lon="8.472912"><ele>93.25</ele></trkpt>
   <trkpt lat="49.51338" lon="8.473255"><ele>93.25</ele></trkpt>
   <trkpt lat="49.513468" lon="8.473452"><ele>93.25</ele></trkpt>
   <trkpt lat="49.51347" lon="8.473457"><ele>93.75</ele></trkpt>
  </trkseg>
 </trk>
</gpx>