<?xml version="1.0" encoding="UTF-8"?>
<!-- track-length = 162 filtered ascend = 0 plain-ascend = 0 cost=324 energy=0.0kwh time=13s -->
<gpx 
 xmlns="http://www.topografix.com/GPX/1/1" 
 xmlns:xsi="http://www.w3.org/2001/XMLSchema-instance" 
 xsi:schemaLocation="http://www.topografix.com/GPX/1/1 http://www.topografix.com/GPX/1/1/gpx.xsd" 
 version="1.1" 
 creator="BRouter-Web 0.18.1">
 <trk>
  <name>Abzweig Wendedreieck Akazienstraße Weiche Ost - Abzweig Wendedreieck Akazienstraße Weiche Süd</name>
  <trkseg>
   <trkpt lat="49.51347" lon="8.473457"><ele>93.25</ele></trkpt>
   <trkpt lat="49.513468" lon="8.473452"><ele>93.25</ele></trkpt>
   <trkpt lat="49.513239" lon="8.47303"><ele>93</ele></trkpt>
   <trkpt lat="49.513185" lon="8.47288"><ele>93.25</ele></trkpt>
   <trkpt lat="49.51317" lon="8.472801"><ele>93.25</ele></trkpt>
   <trkpt lat="49.513162" lon="8.472762"><ele>93.25</ele></trkpt>
   <trkpt lat="49.513151" lon="8.472704"><ele>93.25</ele></trkpt>
   <trkpt lat="49.513145" lon="8.472623"><ele>93.25</ele></trkpt>
   <trkpt lat="49.513141" lon="8.472444"><ele>93</ele></trkpt>
   <trkpt lat="49.513131" lon="8.472368"><ele>93</ele></trkpt>
   <trkpt lat="49.513112" lon="8.472273"><ele>93</ele></trkpt>
   <trkpt lat="49.513071" lon="8.472142"><ele>93</ele></trkpt>
   <trkpt lat="49.513046" lon="8.472099"><ele>93</ele></trkpt>
   <trkpt lat="49.513015" lon="8.472047"><ele>93</ele></trkpt>
   <trkpt lat="49.512945" lon="8.471956"><ele>93</ele></trkpt>
   <trkpt lat="49.512844" lon="8.471873"><ele>93</ele></trkpt>
   <trkpt lat="49.512771" lon="8.471829"><ele>93</ele></trkpt>
   <trkpt lat="49.512677" lon="8.471788"><ele>93</ele></trkpt>
   <trkpt lat="49.51267" lon="8.471786"><ele>93</ele></trkpt>
  </trkseg>
 </trk>
</gpx>