<?xml version="1.0" encoding="UTF-8"?>
<!-- track-length = 245 filtered ascend = 2 plain-ascend = 2 cost=490 energy=0.0kwh time=20s -->
<gpx 
 xmlns="http://www.topografix.com/GPX/1/1" 
 xmlns:xsi="http://www.w3.org/2001/XMLSchema-instance" 
 xsi:schemaLocation="http://www.topografix.com/GPX/1/1 http://www.topografix.com/GPX/1/1/gpx.xsd" 
 version="1.1" 
 creator="BRouter-Web 0.18.1">
 <trk>
  <name>Mazā Stērstu iela (Steig Südwest) - Üst Stērstu iela/CSDD Weiche Südost</name>
  <trkseg>
   <trkpt lat="56.913796" lon="24.116386"><ele>8</ele></trkpt>
   <trkpt lat="56.913914" lon="24.115946"><ele>8</ele></trkpt>
   <trkpt lat="56.914497" lon="24.113952"><ele>9.25</ele></trkpt>
   <trkpt lat="56.914712" lon="24.113215"><ele>10</ele></trkpt>
   <trkpt lat="56.914816" lon="24.112858"><ele>10</ele></trkpt>
   <trkpt lat="56.914816" lon="24.112856"><ele>10</ele></trkpt>
  </trkseg>
 </trk>
</gpx>
