<?xml version="1.0" encoding="UTF-8"?>
<!-- track-length = 25 filtered ascend = 0 plain-ascend = 0 cost=50 energy=0.0kwh time=2s -->
<gpx 
 xmlns="http://www.topografix.com/GPX/1/1" 
 xmlns:xsi="http://www.w3.org/2001/XMLSchema-instance" 
 xsi:schemaLocation="http://www.topografix.com/GPX/1/1 http://www.topografix.com/GPX/1/1/gpx.xsd" 
 version="1.1" 
 creator="BRouter-Web 0.18.1">
 <trk>
  <name>Skaistkalnes iela (Steig Nordost) - Üst Skaistkalnes iela Weiche Nordwest</name>
  <trkseg>
   <trkpt lat="56.917866" lon="24.103588"><ele>11</ele></trkpt>
   <trkpt lat="56.917882" lon="24.103541"><ele>11</ele></trkpt>
   <trkpt lat="56.917915" lon="24.103442"><ele>11</ele></trkpt>
   <trkpt lat="56.917966" lon="24.103225"><ele>11</ele></trkpt>
   <trkpt lat="56.917968" lon="24.103218"><ele>10.25</ele></trkpt>
  </trkseg>
 </trk>
</gpx>