<?xml version="1.0" encoding="UTF-8"?>
<!-- track-length = 35 filtered ascend = 0 plain-ascend = 0 cost=70 energy=0.0kwh time=3s -->
<gpx 
 xmlns="http://www.topografix.com/GPX/1/1" 
 xmlns:xsi="http://www.w3.org/2001/XMLSchema-instance" 
 xsi:schemaLocation="http://www.topografix.com/GPX/1/1 http://www.topografix.com/GPX/1/1/gpx.xsd" 
 version="1.1" 
 creator="BRouter-Web 0.18.1">
 <trk>
  <name>Stērstu iela/CSDD (Steig Südwest) - Üst Stērstu iela/CSDD Weiche Südost</name>
  <trkseg>
   <trkpt lat="56.914942" lon="24.11233"><ele>10</ele></trkpt>
   <trkpt lat="56.914918" lon="24.112408"><ele>10</ele></trkpt>
   <trkpt lat="56.914863" lon="24.112619"><ele>10</ele></trkpt>
   <trkpt lat="56.914816" lon="24.112858"><ele>10</ele></trkpt>
   <trkpt lat="56.914816" lon="24.112856"><ele>10</ele></trkpt>
  </trkseg>
 </trk>
</gpx>