<?xml version="1.0" encoding="UTF-8"?>
<!-- track-length = 33 filtered ascend = 1 plain-ascend = 1 cost=66 energy=0.0kwh time=3s -->
<gpx 
 xmlns="http://www.topografix.com/GPX/1/1" 
 xmlns:xsi="http://www.w3.org/2001/XMLSchema-instance" 
 xsi:schemaLocation="http://www.topografix.com/GPX/1/1 http://www.topografix.com/GPX/1/1/gpx.xsd" 
 version="1.1" 
 creator="BRouter-Web 0.18.1">
 <trk>
  <name>Üst Mazā Bauskas iela Weiche Südwest - Ziepniekkalna iela (Steig Nordwest)</name>
  <trkseg>
   <trkpt lat="56.915296" lon="24.123179"><ele>3</ele></trkpt>
   <trkpt lat="56.915293" lon="24.123176"><ele>3</ele></trkpt>
   <trkpt lat="56.915038" lon="24.122952"><ele>3.75</ele></trkpt>
   <trkpt lat="56.915034" lon="24.122948"><ele>4</ele></trkpt>
  </trkseg>
 </trk>
</gpx>
