<?xml version="1.0" encoding="UTF-8"?>
<!-- track-length = 50 filtered ascend = 0 plain-ascend = 0 cost=100 energy=0.0kwh time=4s -->
<gpx 
 xmlns="http://www.topografix.com/GPX/1/1" 
 xmlns:xsi="http://www.w3.org/2001/XMLSchema-instance" 
 xsi:schemaLocation="http://www.topografix.com/GPX/1/1 http://www.topografix.com/GPX/1/1/gpx.xsd" 
 version="1.1" 
 creator="BRouter-Web 0.18.1">
 <trk>
  <name>Üst Skaistkalnes iela Weiche Südost - Skaistkalnes iela (Steig Nordost)</name>
  <trkseg>
   <trkpt lat="56.917628" lon="24.104293"><ele>11</ele></trkpt>
   <trkpt lat="56.917739" lon="24.103969"><ele>11</ele></trkpt>
   <trkpt lat="56.917866" lon="24.103588"><ele>11</ele></trkpt>
  </trkseg>
 </trk>
</gpx>