<?xml version="1.0" encoding="UTF-8"?>
<!-- track-length = 70 filtered ascend = 0 plain-ascend = 0 cost=140 energy=0.0kwh time=6s -->
<gpx 
 xmlns="http://www.topografix.com/GPX/1/1" 
 xmlns:xsi="http://www.w3.org/2001/XMLSchema-instance" 
 xsi:schemaLocation="http://www.topografix.com/GPX/1/1 http://www.topografix.com/GPX/1/1/gpx.xsd" 
 version="1.1" 
 creator="BRouter-Web 0.18.1">
 <trk>
  <name>Üst Stērstu iela/CSDD Weiche Südost - Stērstu iela/CSDD (Steig Nordost)</name>
  <trkseg>
   <trkpt lat="56.914816" lon="24.112856"><ele>10</ele></trkpt>
   <trkpt lat="56.915109" lon="24.111885"><ele>10</ele></trkpt>
   <trkpt lat="56.915117" lon="24.11186"><ele>10</ele></trkpt>
  </trkseg>
 </trk>
</gpx>