<?xml version="1.0" encoding="UTF-8"?>
<!-- track-length = 56 filtered ascend = 0 plain-ascend = 0 cost=112 energy=0.0kwh time=4s -->
<gpx 
 xmlns="http://www.topografix.com/GPX/1/1" 
 xmlns:xsi="http://www.w3.org/2001/XMLSchema-instance" 
 xsi:schemaLocation="http://www.topografix.com/GPX/1/1 http://www.topografix.com/GPX/1/1/gpx.xsd" 
 version="1.1" 
 creator="BRouter-Web 0.18.1">
 <trk>
  <name>Dreieck Kosmonautů Weiche 67 - Dreieck Kosmonautů Weiche 65</name>
  <trkseg>
   <trkpt lat="49.592668" lon="17.276648"><ele>214</ele></trkpt>
   <trkpt lat="49.592671" lon="17.276649"><ele>214</ele></trkpt>
   <trkpt lat="49.592684" lon="17.276653"><ele>214</ele></trkpt>
   <trkpt lat="49.592731" lon="17.27667"><ele>214</ele></trkpt>
   <trkpt lat="49.592793" lon="17.27667"><ele>214</ele></trkpt>
   <trkpt lat="49.592833" lon="17.276657"><ele>214</ele></trkpt>
   <trkpt lat="49.592879" lon="17.276627"><ele>214</ele></trkpt>
   <trkpt lat="49.592902" lon="17.27661"><ele>214</ele></trkpt>
   <trkpt lat="49.592936" lon="17.276571"><ele>214</ele></trkpt>
   <trkpt lat="49.592964" lon="17.276525"><ele>214</ele></trkpt>
   <trkpt lat="49.592986" lon="17.276478"><ele>214</ele></trkpt>
   <trkpt lat="49.593012" lon="17.276392"><ele>214</ele></trkpt>
   <trkpt lat="49.593029" lon="17.276313"><ele>214</ele></trkpt>
   <trkpt lat="49.593029" lon="17.276311"><ele>213.75</ele></trkpt>
  </trkseg>
 </trk>
</gpx>