<?xml version="1.0" encoding="UTF-8"?>
<!-- track-length = 281 filtered ascend = 4 plain-ascend = 5 cost=562 energy=0.0kwh time=22s -->
<gpx 
 xmlns="http://www.topografix.com/GPX/1/1" 
 xmlns:xsi="http://www.w3.org/2001/XMLSchema-instance" 
 xsi:schemaLocation="http://www.topografix.com/GPX/1/1 http://www.topografix.com/GPX/1/1/gpx.xsd" 
 version="1.1" 
 creator="BRouter-Web 0.18.1">
 <trk>
  <name>U Dómu (Steig Nord) - Náměstí Republiky (Steig Nordwest)</name>
  <trkseg>
   <trkpt lat="49.596941" lon="17.26061"><ele>219.75</ele></trkpt>
   <trkpt lat="49.596941" lon="17.260604"><ele>220</ele></trkpt>
   <trkpt lat="49.596872" lon="17.260093"><ele>221</ele></trkpt>
   <trkpt lat="49.596794" lon="17.259687"><ele>221</ele></trkpt>
   <trkpt lat="49.596699" lon="17.259285"><ele>220.75</ele></trkpt>
   <trkpt lat="49.596397" lon="17.257989"><ele>222.5</ele></trkpt>
   <trkpt lat="49.596289" lon="17.257571"><ele>223</ele></trkpt>
   <trkpt lat="49.596263" lon="17.25746"><ele>223.5</ele></trkpt>
   <trkpt lat="49.596147" lon="17.256975"><ele>224</ele></trkpt>
   <trkpt lat="49.596145" lon="17.256969"><ele>224.5</ele></trkpt>
  </trkseg>
 </trk>
</gpx>