<?xml version="1.0" encoding="UTF-8"?>
<!-- track-length = 317 filtered ascend = 0 plain-ascend = -1 cost=634 energy=0.0kwh time=25s -->
<gpx 
 xmlns="http://www.topografix.com/GPX/1/1" 
 xmlns:xsi="http://www.w3.org/2001/XMLSchema-instance" 
 xsi:schemaLocation="http://www.topografix.com/GPX/1/1 http://www.topografix.com/GPX/1/1/gpx.xsd" 
 version="1.1" 
 creator="BRouter-Web 0.18.1">
 <trk>
  <name>U Sv. Mořice (Steig Nord) - Kreuz Náměstí Hrdinů Weiche 14</name>
  <trkseg>
   <trkpt lat="49.595555" lon="17.252124"><ele>217</ele></trkpt>
   <trkpt lat="49.595555" lon="17.252121"><ele>217</ele></trkpt>
   <trkpt lat="49.595547" lon="17.252033"><ele>217</ele></trkpt>
   <trkpt lat="49.595532" lon="17.251962"><ele>217</ele></trkpt>
   <trkpt lat="49.595494" lon="17.251867"><ele>217</ele></trkpt>
   <trkpt lat="49.595448" lon="17.25178"><ele>217</ele></trkpt>
   <trkpt lat="49.595421" lon="17.251709"><ele>217.25</ele></trkpt>
   <trkpt lat="49.595403" lon="17.251626"><ele>217.25</ele></trkpt>
   <trkpt lat="49.595396" lon="17.251529"><ele>217.25</ele></trkpt>
   <trkpt lat="49.595404" lon="17.251229"><ele>217</ele></trkpt>
   <trkpt lat="49.595397" lon="17.250047"><ele>215.5</ele></trkpt>
   <trkpt lat="49.595397" lon="17.249985"><ele>215.5</ele></trkpt>
   <trkpt lat="49.595397" lon="17.249704"><ele>215.5</ele></trkpt>
   <trkpt lat="49.595416" lon="17.24926"><ele>216</ele></trkpt>
   <trkpt lat="49.595449" lon="17.248934"><ele>216.25</ele></trkpt>
   <trkpt lat="49.59555" lon="17.248213"><ele>215.5</ele></trkpt>
   <trkpt lat="49.595603" lon="17.247831"><ele>215</ele></trkpt>
   <trkpt lat="49.595603" lon="17.247829"><ele>215</ele></trkpt>
  </trkseg>
 </trk>
</gpx>