<?xml version="1.0" encoding="UTF-8"?>
<!-- track-length = 334 filtered ascend = 7 plain-ascend = 7 cost=668 energy=0.0kwh time=27s -->
<gpx 
 xmlns="http://www.topografix.com/GPX/1/1" 
 xmlns:xsi="http://www.w3.org/2001/XMLSchema-instance" 
 xsi:schemaLocation="http://www.topografix.com/GPX/1/1 http://www.topografix.com/GPX/1/1/gpx.xsd" 
 version="1.1" 
 creator="BRouter-Web 0.18.1">
 <trk>
  <name>Žižkovo náměstí (Steig Nordost) - U Dómu (Steig Nord)</name>
  <trkseg>
   <trkpt lat="49.596139" lon="17.264978"><ele>213</ele></trkpt>
   <trkpt lat="49.596146" lon="17.264954"><ele>213.25</ele></trkpt>
   <trkpt lat="49.596351" lon="17.264213"><ele>214</ele></trkpt>
   <trkpt lat="49.596373" lon="17.264132"><ele>214</ele></trkpt>
   <trkpt lat="49.596481" lon="17.263739"><ele>214</ele></trkpt>
   <trkpt lat="49.596497" lon="17.263684"><ele>214.25</ele></trkpt>
   <trkpt lat="49.596738" lon="17.262813"><ele>216</ele></trkpt>
   <trkpt lat="49.59681" lon="17.262551"><ele>216.25</ele></trkpt>
   <trkpt lat="49.596891" lon="17.26225"><ele>216.75</ele></trkpt>
   <trkpt lat="49.596929" lon="17.262054"><ele>217.5</ele></trkpt>
   <trkpt lat="49.596954" lon="17.261847"><ele>218</ele></trkpt>
   <trkpt lat="49.596958" lon="17.261764"><ele>218</ele></trkpt>
   <trkpt lat="49.596974" lon="17.261049"><ele>219.25</ele></trkpt>
   <trkpt lat="49.596971" lon="17.260968"><ele>219.5</ele></trkpt>
   <trkpt lat="49.596941" lon="17.26061"><ele>220</ele></trkpt>
  </trkseg>
 </trk>
</gpx>