<?xml version="1.0" encoding="UTF-8"?>
<!-- track-length = 3832 filtered ascend = 21 plain-ascend = -28 cost=3832 energy=0.0kwh time=5m 7s -->
<gpx 
 xmlns="http://www.topografix.com/GPX/1/1" 
 xmlns:xsi="http://www.w3.org/2001/XMLSchema-instance" 
 xsi:schemaLocation="http://www.topografix.com/GPX/1/1 http://www.topografix.com/GPX/1/1/gpx.xsd" 
 version="1.1" 
 creator="BRouter-Web 99.71.0">
 <trk>
  <name>30400 Mníšek pod Brdy Weiche 1 - Nová Ves pod Pleší</name>
  <link href="https://brouter.damsy.net/latest/#map=19/49.85353/14.26963/standard&amp;lonlats=14.268652,49.853313;14.270033,49.827434&amp;profile=rail">
   <text>BRouter-Web</text>
  </link>
  <trkseg>
   <trkpt lat="49.853309" lon="14.268654"><ele>436</ele></trkpt>
   <trkpt lat="49.853275" lon="14.268569"><ele>436.25</ele></trkpt>
   <trkpt lat="49.853005" lon="14.267937"><ele>437.25</ele></trkpt>
   <trkpt lat="49.852689" lon="14.267275"><ele>438.25</ele></trkpt>
   <trkpt lat="49.852399" lon="14.266735"><ele>438.75</ele></trkpt>
   <trkpt lat="49.852102" lon="14.266239"><ele>440.25</ele></trkpt>
   <trkpt lat="49.850682" lon="14.263934"><ele>444.75</ele></trkpt>
   <trkpt lat="49.850398" lon="14.263411"><ele>445.25</ele></trkpt>
   <trkpt lat="49.850137" lon="14.262852"><ele>446.25</ele></trkpt>
   <trkpt lat="49.849908" lon="14.262283"><ele>446.75</ele></trkpt>
   <trkpt lat="49.849822" lon="14.262042"><ele>447.25</ele></trkpt>
   <trkpt lat="49.849667" lon="14.26157"><ele>448.75</ele></trkpt>
   <trkpt lat="49.849498" lon="14.260958"><ele>449.25</ele></trkpt>
   <trkpt lat="49.849041" lon="14.259163"><ele>450.75</ele></trkpt>
   <trkpt lat="49.848898" lon="14.258632"><ele>452.75</ele></trkpt>
   <trkpt lat="49.848843" lon="14.25848"><ele>452.75</ele></trkpt>
   <trkpt lat="49.84878" lon="14.258332"><ele>452.75</ele></trkpt>
   <trkpt lat="49.848703" lon="14.258187"><ele>453.25</ele></trkpt>
   <trkpt lat="49.848565" lon="14.257986"><ele>454.25</ele></trkpt>
   <trkpt lat="49.84844" lon="14.257838"><ele>454.5</ele></trkpt>
   <trkpt lat="49.848291" lon="14.257686"><ele>455.5</ele></trkpt>
   <trkpt lat="49.846843" lon="14.256299"><ele>457</ele></trkpt>
   <trkpt lat="49.845081" lon="14.254604"><ele>453.25</ele></trkpt>
   <trkpt lat="49.844911" lon="14.254451"><ele>452.5</ele></trkpt>
   <trkpt lat="49.844818" lon="14.25438"><ele>452.25</ele></trkpt>
   <trkpt lat="49.844735" lon="14.25433"><ele>452.25</ele></trkpt>
   <trkpt lat="49.844624" lon="14.254277"><ele>452</ele></trkpt>
   <trkpt lat="49.844531" lon="14.254242"><ele>452</ele></trkpt>
   <trkpt lat="49.844325" lon="14.254186"><ele>451.5</ele></trkpt>
   <trkpt lat="49.844231" lon="14.254175"><ele>451</ele></trkpt>
   <trkpt lat="49.844031" lon="14.254178"><ele>449.75</ele></trkpt>
   <trkpt lat="49.843936" lon="14.25419"><ele>449.25</ele></trkpt>
   <trkpt lat="49.843811" lon="14.254219"><ele>448.5</ele></trkpt>
   <trkpt lat="49.843628" lon="14.254294"><ele>448.25</ele></trkpt>
   <trkpt lat="49.843533" lon="14.254349"><ele>448</ele></trkpt>
   <trkpt lat="49.843429" lon="14.254416"><ele>447.5</ele></trkpt>
   <trkpt lat="49.843243" lon="14.25458"><ele>447</ele></trkpt>
   <trkpt lat="49.843162" lon="14.254667"><ele>447.25</ele></trkpt>
   <trkpt lat="49.843068" lon="14.254786"><ele>447.5</ele></trkpt>
   <trkpt lat="49.842985" lon="14.254909"><ele>448</ele></trkpt>
   <trkpt lat="49.842892" lon="14.255065"><ele>448.25</ele></trkpt>
   <trkpt lat="49.842826" lon="14.255195"><ele>448.5</ele></trkpt>
   <trkpt lat="49.842735" lon="14.255389"><ele>448</ele></trkpt>
   <trkpt lat="49.842337" lon="14.256302"><ele>446</ele></trkpt>
   <trkpt lat="49.842239" lon="14.256519"><ele>446.25</ele></trkpt>
   <trkpt lat="49.84213" lon="14.256739"><ele>444.25</ele></trkpt>
   <trkpt lat="49.842021" lon="14.256941"><ele>443.75</ele></trkpt>
   <trkpt lat="49.841891" lon="14.257154"><ele>444.75</ele></trkpt>
   <trkpt lat="49.841792" lon="14.257302"><ele>444.25</ele></trkpt>
   <trkpt lat="49.84167" lon="14.257467"><ele>444.25</ele></trkpt>
   <trkpt lat="49.841549" lon="14.257613"><ele>442.75</ele></trkpt>
   <trkpt lat="49.841295" lon="14.257885"><ele>442</ele></trkpt>
   <trkpt lat="49.839062" lon="14.260082"><ele>436.5</ele></trkpt>
   <trkpt lat="49.838347" lon="14.260785"><ele>434</ele></trkpt>
   <trkpt lat="49.838213" lon="14.26091"><ele>433.5</ele></trkpt>
   <trkpt lat="49.838024" lon="14.261069"><ele>433.75</ele></trkpt>
   <trkpt lat="49.837824" lon="14.261207"><ele>433</ele></trkpt>
   <trkpt lat="49.837707" lon="14.261271"><ele>432.5</ele></trkpt>
   <trkpt lat="49.837583" lon="14.261325"><ele>432.25</ele></trkpt>
   <trkpt lat="49.837461" lon="14.261366"><ele>431.75</ele></trkpt>
   <trkpt lat="49.837348" lon="14.261398"><ele>431.25</ele></trkpt>
   <trkpt lat="49.837223" lon="14.261419"><ele>430.75</ele></trkpt>
   <trkpt lat="49.837101" lon="14.26143"><ele>430.25</ele></trkpt>
   <trkpt lat="49.836846" lon="14.261418"><ele>430</ele></trkpt>
   <trkpt lat="49.836581" lon="14.261358"><ele>429.75</ele></trkpt>
   <trkpt lat="49.836345" lon="14.26127"><ele>429.25</ele></trkpt>
   <trkpt lat="49.835591" lon="14.260903"><ele>427.25</ele></trkpt>
   <trkpt lat="49.835435" lon="14.260841"><ele>427</ele></trkpt>
   <trkpt lat="49.835158" lon="14.260768"><ele>426.75</ele></trkpt>
   <trkpt lat="49.835012" lon="14.260741"><ele>426.5</ele></trkpt>
   <trkpt lat="49.834729" lon="14.260727"><ele>425.5</ele></trkpt>
   <trkpt lat="49.834468" lon="14.260748"><ele>425.5</ele></trkpt>
   <trkpt lat="49.834315" lon="14.260772"><ele>425.25</ele></trkpt>
   <trkpt lat="49.834044" lon="14.260851"><ele>424.5</ele></trkpt>
   <trkpt lat="49.833921" lon="14.2609"><ele>424</ele></trkpt>
   <trkpt lat="49.833637" lon="14.261043"><ele>423.5</ele></trkpt>
   <trkpt lat="49.8335" lon="14.261131"><ele>423</ele></trkpt>
   <trkpt lat="49.833328" lon="14.261256"><ele>421.75</ele></trkpt>
   <trkpt lat="49.833177" lon="14.261384"><ele>421.25</ele></trkpt>
   <trkpt lat="49.83306" lon="14.261497"><ele>421</ele></trkpt>
   <trkpt lat="49.832856" lon="14.261718"><ele>420.25</ele></trkpt>
   <trkpt lat="49.832661" lon="14.26197"><ele>420</ele></trkpt>
   <trkpt lat="49.832445" lon="14.2623"><ele>419.5</ele></trkpt>
   <trkpt lat="49.832342" lon="14.262484"><ele>419.25</ele></trkpt>
   <trkpt lat="49.832242" lon="14.262681"><ele>419.5</ele></trkpt>
   <trkpt lat="49.832014" lon="14.263178"><ele>418.5</ele></trkpt>
   <trkpt lat="49.830573" lon="14.266437"><ele>412</ele></trkpt>
   <trkpt lat="49.830456" lon="14.266691"><ele>411.5</ele></trkpt>
   <trkpt lat="49.830345" lon="14.266913"><ele>411</ele></trkpt>
   <trkpt lat="49.830233" lon="14.267115"><ele>410.75</ele></trkpt>
   <trkpt lat="49.830035" lon="14.267428"><ele>410</ele></trkpt>
   <trkpt lat="49.829936" lon="14.267567"><ele>409.75</ele></trkpt>
   <trkpt lat="49.829824" lon="14.267715"><ele>409.75</ele></trkpt>
   <trkpt lat="49.829609" lon="14.26796"><ele>409.5</ele></trkpt>
   <trkpt lat="49.829029" lon="14.268526"><ele>408.5</ele></trkpt>
   <trkpt lat="49.828273" lon="14.26924"><ele>408</ele></trkpt>
   <trkpt lat="49.827929" lon="14.269566"><ele>407.5</ele></trkpt>
   <trkpt lat="49.82746" lon="14.270009"><ele>406.5</ele></trkpt>
   <trkpt lat="49.827434" lon="14.270033"><ele>406.75</ele></trkpt>
  </trkseg>
 </trk>
</gpx>