<?xml version="1.0" encoding="UTF-8"?>
<!-- track-length = 63 filtered ascend = 0 plain-ascend = 0 cost=63 energy=0.0kwh time=5s -->
<gpx 
 xmlns="http://www.topografix.com/GPX/1/1" 
 xmlns:xsi="http://www.w3.org/2001/XMLSchema-instance" 
 xsi:schemaLocation="http://www.topografix.com/GPX/1/1 http://www.topografix.com/GPX/1/1/gpx.xsd" 
 version="1.1" 
 creator="BRouter-Web 99.71.0">
 <trk>
  <name>30400 Čisovice (Gleis 2) - Čisovice Weiche 2</name>
  <link href="https://brouter.damsy.net/latest/#map=19/49.85818/14.31945/standard&amp;lonlats=14.319515,49.858211;14.318662,49.858334&amp;profile=rail">
   <text>BRouter-Web</text>
  </link>
  <trkseg>
   <trkpt lat="49.858206" lon="14.319513"><ele>360</ele></trkpt>
   <trkpt lat="49.858213" lon="14.319466"><ele>360.25</ele></trkpt>
   <trkpt lat="49.858222" lon="14.3194"><ele>360.25</ele></trkpt>
   <trkpt lat="49.858295" lon="14.318867"><ele>360.25</ele></trkpt>
   <trkpt lat="49.858327" lon="14.318665"><ele>360</ele></trkpt>
   <trkpt lat="49.858327" lon="14.318659"><ele>359.5</ele></trkpt>
  </trkseg>
 </trk>
</gpx>