<?xml version="1.0" encoding="UTF-8"?>
<!-- track-length = 149 filtered ascend = 0 plain-ascend = 0 cost=149 energy=0.0kwh time=12s -->
<gpx 
 xmlns="http://www.topografix.com/GPX/1/1" 
 xmlns:xsi="http://www.w3.org/2001/XMLSchema-instance" 
 xsi:schemaLocation="http://www.topografix.com/GPX/1/1 http://www.topografix.com/GPX/1/1/gpx.xsd" 
 version="1.1" 
 creator="BRouter-Web 99.71.0">
 <trk>
  <name>30400 Mníšek pod Brdy (Gleis 3) - Mníšek pod Brdy Weiche 5</name>
  <link href="https://brouter.damsy.net/latest/#map=19/49.85469/14.27179/standard&amp;lonlats=14.270004,49.853853;14.27174,49.854558&amp;profile=rail">
   <text>BRouter-Web</text>
  </link>
  <trkseg>
   <trkpt lat="49.853854" lon="14.270001"><ele>436.5</ele></trkpt>
   <trkpt lat="49.854303" lon="14.271109"><ele>436.5</ele></trkpt>
   <trkpt lat="49.854558" lon="14.271741"><ele>436.25</ele></trkpt>
   <trkpt lat="49.854557" lon="14.271739"><ele>436</ele></trkpt>
  </trkseg>
 </trk>
</gpx>