<?xml version="1.0" encoding="UTF-8"?>
<!-- track-length = 115 filtered ascend = 0 plain-ascend = 0 cost=115 energy=0.0kwh time=9s -->
<gpx 
 xmlns="http://www.topografix.com/GPX/1/1" 
 xmlns:xsi="http://www.w3.org/2001/XMLSchema-instance" 
 xsi:schemaLocation="http://www.topografix.com/GPX/1/1 http://www.topografix.com/GPX/1/1/gpx.xsd" 
 version="1.1" 
 creator="BRouter-Web 99.71.0">
 <trk>
  <name>30400 Mníšek pod Brdy (Gleis 3) - Mníšek pod Brdy Weiche 1</name>
  <link href="https://brouter.damsy.net/latest/#map=19/49.85364/14.26926/standard&amp;lonlats=14.270004,49.853853;14.268652,49.853313&amp;profile=rail">
   <text>BRouter-Web</text>
  </link>
  <trkseg>
   <trkpt lat="49.853854" lon="14.270001"><ele>436.5</ele></trkpt>
   <trkpt lat="49.853769" lon="14.269792"><ele>436.5</ele></trkpt>
   <trkpt lat="49.853602" lon="14.26938"><ele>436</ele></trkpt>
   <trkpt lat="49.853311" lon="14.268657"><ele>436</ele></trkpt>
   <trkpt lat="49.853309" lon="14.268654"><ele>436.25</ele></trkpt>
  </trkseg>
 </trk>
</gpx>