<?xml version="1.0" encoding="UTF-8"?>
<!-- track-length = 33 filtered ascend = 0 plain-ascend = 1 cost=33 energy=0.0kwh time=3s -->
<gpx 
 xmlns="http://www.topografix.com/GPX/1/1" 
 xmlns:xsi="http://www.w3.org/2001/XMLSchema-instance" 
 xsi:schemaLocation="http://www.topografix.com/GPX/1/1 http://www.topografix.com/GPX/1/1/gpx.xsd" 
 version="1.1" 
 creator="BRouter-Web 99.71.0">
 <trk>
  <name>30400 Čisovice Weiche 1 - Čisovice Weiche 2</name>
  <link href="https://brouter.damsy.net/latest/#map=19/49.85810/14.31805/standard&amp;lonlats=14.318228,49.858389;14.318662,49.858334&amp;profile=rail">
   <text>BRouter-Web</text>
  </link>
  <trkseg>
   <trkpt lat="49.858389" lon="14.318228"><ele>359.5</ele></trkpt>
   <trkpt lat="49.858389" lon="14.31823"><ele>359.5</ele></trkpt>
   <trkpt lat="49.858327" lon="14.318659"><ele>360</ele></trkpt>
  </trkseg>
 </trk>
</gpx>