<?xml version="1.0" encoding="UTF-8"?>
<!-- track-length = 2706 filtered ascend = 16 plain-ascend = -44 cost=2707 energy=0.0kwh time=3m 36s -->
<gpx 
 xmlns="http://www.topografix.com/GPX/1/1" 
 xmlns:xsi="http://www.w3.org/2001/XMLSchema-instance" 
 xsi:schemaLocation="http://www.topografix.com/GPX/1/1 http://www.topografix.com/GPX/1/1/gpx.xsd" 
 version="1.1" 
 creator="BRouter-Web 99.71.0">
 <trk>
  <name>30400 Klinec - Měchenice Weiche 1</name>
  <link href="https://brouter.damsy.net/latest/#map=21/49.91058/14.38442/standard&amp;lonlats=14.359747,49.896859;14.384834,49.910518&amp;profile=rail">
   <text>BRouter-Web</text>
  </link>
  <trkseg>
   <trkpt lat="49.896859" lon="14.359747"><ele>250.75</ele></trkpt>
   <trkpt lat="49.896995" lon="14.359946"><ele>247</ele></trkpt>
   <trkpt lat="49.897056" lon="14.360049"><ele>245.5</ele></trkpt>
   <trkpt lat="49.89716" lon="14.360261"><ele>245</ele></trkpt>
   <trkpt lat="49.897193" lon="14.360337"><ele>245.25</ele></trkpt>
   <trkpt lat="49.897238" lon="14.360457"><ele>245.5</ele></trkpt>
   <trkpt lat="49.897314" lon="14.360696"><ele>245.25</ele></trkpt>
   <trkpt lat="49.897344" lon="14.360811"><ele>245.5</ele></trkpt>
   <trkpt lat="49.897392" lon="14.361052"><ele>246.25</ele></trkpt>
   <trkpt lat="49.897411" lon="14.361179"><ele>246.5</ele></trkpt>
   <trkpt lat="49.897438" lon="14.361441"><ele>246.75</ele></trkpt>
   <trkpt lat="49.89747" lon="14.361982"><ele>243.75</ele></trkpt>
   <trkpt lat="49.897496" lon="14.36228"><ele>242.25</ele></trkpt>
   <trkpt lat="49.897536" lon="14.362544"><ele>242.5</ele></trkpt>
   <trkpt lat="49.897596" lon="14.362811"><ele>242</ele></trkpt>
   <trkpt lat="49.897632" lon="14.362936"><ele>241.75</ele></trkpt>
   <trkpt lat="49.897711" lon="14.363163"><ele>241</ele></trkpt>
   <trkpt lat="49.897757" lon="14.363271"><ele>241</ele></trkpt>
   <trkpt lat="49.897803" lon="14.363374"><ele>241.25</ele></trkpt>
   <trkpt lat="49.897902" lon="14.363561"><ele>242.25</ele></trkpt>
   <trkpt lat="49.898079" lon="14.363834"><ele>242.75</ele></trkpt>
   <trkpt lat="49.898397" lon="14.364299"><ele>242.5</ele></trkpt>
   <trkpt lat="49.898518" lon="14.364528"><ele>242.5</ele></trkpt>
   <trkpt lat="49.898571" lon="14.364646"><ele>240.5</ele></trkpt>
   <trkpt lat="49.898659" lon="14.364886"><ele>239</ele></trkpt>
   <trkpt lat="49.898697" lon="14.365009"><ele>238.75</ele></trkpt>
   <trkpt lat="49.898761" lon="14.365268"><ele>237.25</ele></trkpt>
   <trkpt lat="49.898801" lon="14.365519"><ele>236.25</ele></trkpt>
   <trkpt lat="49.898826" lon="14.365792"><ele>235.25</ele></trkpt>
   <trkpt lat="49.898832" lon="14.365918"><ele>235</ele></trkpt>
   <trkpt lat="49.898828" lon="14.366168"><ele>235.25</ele></trkpt>
   <trkpt lat="49.898806" lon="14.366429"><ele>236</ele></trkpt>
   <trkpt lat="49.898774" lon="14.366706"><ele>236.5</ele></trkpt>
   <trkpt lat="49.898671" lon="14.367468"><ele>239.25</ele></trkpt>
   <trkpt lat="49.898641" lon="14.367742"><ele>237.5</ele></trkpt>
   <trkpt lat="49.898627" lon="14.367984"><ele>236</ele></trkpt>
   <trkpt lat="49.898626" lon="14.368114"><ele>235.5</ele></trkpt>
   <trkpt lat="49.898636" lon="14.368373"><ele>236</ele></trkpt>
   <trkpt lat="49.898649" lon="14.368508"><ele>236.75</ele></trkpt>
   <trkpt lat="49.898685" lon="14.368762"><ele>238.75</ele></trkpt>
   <trkpt lat="49.898708" lon="14.368882"><ele>239.5</ele></trkpt>
   <trkpt lat="49.898773" lon="14.369138"><ele>236</ele></trkpt>
   <trkpt lat="49.898887" lon="14.369463"><ele>232.5</ele></trkpt>
   <trkpt lat="49.898988" lon="14.369679"><ele>230.25</ele></trkpt>
   <trkpt lat="49.899087" lon="14.369847"><ele>229.75</ele></trkpt>
   <trkpt lat="49.899222" lon="14.370039"><ele>229.5</ele></trkpt>
   <trkpt lat="49.899363" lon="14.370199"><ele>229</ele></trkpt>
   <trkpt lat="49.899436" lon="14.370268"><ele>229.75</ele></trkpt>
   <trkpt lat="49.899598" lon="14.370398"><ele>228.5</ele></trkpt>
   <trkpt lat="49.900746" lon="14.371202"><ele>226.25</ele></trkpt>
   <trkpt lat="49.900893" lon="14.371327"><ele>225.75</ele></trkpt>
   <trkpt lat="49.901074" lon="14.371521"><ele>225.5</ele></trkpt>
   <trkpt lat="49.901217" lon="14.371726"><ele>225</ele></trkpt>
   <trkpt lat="49.901284" lon="14.37184"><ele>224.25</ele></trkpt>
   <trkpt lat="49.901348" lon="14.371955"><ele>223.75</ele></trkpt>
   <trkpt lat="49.901606" lon="14.372495"><ele>223</ele></trkpt>
   <trkpt lat="49.901704" lon="14.372685"><ele>222.25</ele></trkpt>
   <trkpt lat="49.901758" lon="14.372776"><ele>222</ele></trkpt>
   <trkpt lat="49.90187" lon="14.372941"><ele>222.25</ele></trkpt>
   <trkpt lat="49.902049" lon="14.373153"><ele>222.25</ele></trkpt>
   <trkpt lat="49.902172" lon="14.373264"><ele>222.5</ele></trkpt>
   <trkpt lat="49.902232" lon="14.373312"><ele>223.5</ele></trkpt>
   <trkpt lat="49.902404" lon="14.373423"><ele>232.25</ele></trkpt>
   <trkpt lat="49.902537" lon="14.373489"><ele>234.5</ele></trkpt>
   <trkpt lat="49.902772" lon="14.373587"><ele>225.25</ele></trkpt>
   <trkpt lat="49.903" lon="14.373708"><ele>220.75</ele></trkpt>
   <trkpt lat="49.903066" lon="14.373757"><ele>219.75</ele></trkpt>
   <trkpt lat="49.903224" lon="14.3739"><ele>218.75</ele></trkpt>
   <trkpt lat="49.90337" lon="14.374065"><ele>218</ele></trkpt>
   <trkpt lat="49.903515" lon="14.374279"><ele>217.5</ele></trkpt>
   <trkpt lat="49.903571" lon="14.374375"><ele>218.5</ele></trkpt>
   <trkpt lat="49.903668" lon="14.37457"><ele>223.5</ele></trkpt>
   <trkpt lat="49.903754" lon="14.374792"><ele>224.75</ele></trkpt>
   <trkpt lat="49.903793" lon="14.374912"><ele>223</ele></trkpt>
   <trkpt lat="49.903857" lon="14.37516"><ele>219.5</ele></trkpt>
   <trkpt lat="49.903904" lon="14.375424"><ele>216.75</ele></trkpt>
   <trkpt lat="49.903928" lon="14.375645"><ele>215</ele></trkpt>
   <trkpt lat="49.90394" lon="14.375891"><ele>213.5</ele></trkpt>
   <trkpt lat="49.903935" lon="14.376113"><ele>213.25</ele></trkpt>
   <trkpt lat="49.903898" lon="14.376933"><ele>215</ele></trkpt>
   <trkpt lat="49.903903" lon="14.377221"><ele>215</ele></trkpt>
   <trkpt lat="49.903924" lon="14.377468"><ele>213.75</ele></trkpt>
   <trkpt lat="49.903942" lon="14.377598"><ele>213.25</ele></trkpt>
   <trkpt lat="49.903991" lon="14.377862"><ele>212.5</ele></trkpt>
   <trkpt lat="49.904056" lon="14.378102"><ele>212</ele></trkpt>
   <trkpt lat="49.904136" lon="14.37833"><ele>212.5</ele></trkpt>
   <trkpt lat="49.904181" lon="14.378437"><ele>212.25</ele></trkpt>
   <trkpt lat="49.904286" lon="14.378649"><ele>213</ele></trkpt>
   <trkpt lat="49.904427" lon="14.378876"><ele>212.75</ele></trkpt>
   <trkpt lat="49.904669" lon="14.379218"><ele>213</ele></trkpt>
   <trkpt lat="49.905754" lon="14.380722"><ele>212</ele></trkpt>
   <trkpt lat="49.905852" lon="14.380867"><ele>210.25</ele></trkpt>
   <trkpt lat="49.906016" lon="14.381141"><ele>210.25</ele></trkpt>
   <trkpt lat="49.906197" lon="14.381528"><ele>211.75</ele></trkpt>
   <trkpt lat="49.907293" lon="14.384138"><ele>206.5</ele></trkpt>
   <trkpt lat="49.907464" lon="14.384491"><ele>205.75</ele></trkpt>
   <trkpt lat="49.907585" lon="14.384699"><ele>204.5</ele></trkpt>
   <trkpt lat="49.908014" lon="14.385332"><ele>203</ele></trkpt>
   <trkpt lat="49.90808" lon="14.38542"><ele>202.75</ele></trkpt>
   <trkpt lat="49.90821" lon="14.385576"><ele>202</ele></trkpt>
   <trkpt lat="49.908356" lon="14.38572"><ele>202.75</ele></trkpt>
   <trkpt lat="49.908443" lon="14.385791"><ele>203.75</ele></trkpt>
   <trkpt lat="49.908537" lon="14.385853"><ele>205</ele></trkpt>
   <trkpt lat="49.908615" lon="14.385901"><ele>205.25</ele></trkpt>
   <trkpt lat="49.908779" lon="14.385972"><ele>211.75</ele></trkpt>
   <trkpt lat="49.908964" lon="14.386018"><ele>213.5</ele></trkpt>
   <trkpt lat="49.909045" lon="14.386028"><ele>212.25</ele></trkpt>
   <trkpt lat="49.909196" lon="14.38603"><ele>210</ele></trkpt>
   <trkpt lat="49.909412" lon="14.385996"><ele>207.25</ele></trkpt>
   <trkpt lat="49.909488" lon="14.385972"><ele>206.5</ele></trkpt>
   <trkpt lat="49.90954" lon="14.385954"><ele>206.25</ele></trkpt>
   <trkpt lat="49.909687" lon="14.385886"><ele>205.75</ele></trkpt>
   <trkpt lat="49.909768" lon="14.385838"><ele>205.25</ele></trkpt>
   <trkpt lat="49.909917" lon="14.385725"><ele>204.75</ele></trkpt>
   <trkpt lat="49.909999" lon="14.385651"><ele>204.25</ele></trkpt>
   <trkpt lat="49.910187" lon="14.385434"><ele>204.75</ele></trkpt>
   <trkpt lat="49.910326" lon="14.385224"><ele>204.75</ele></trkpt>
   <trkpt lat="49.910465" lon="14.38495"><ele>206</ele></trkpt>
   <trkpt lat="49.910517" lon="14.384833"><ele>206</ele></trkpt>
  </trkseg>
 </trk>
</gpx>