<?xml version="1.0" encoding="UTF-8"?>
<!-- track-length = 2450 filtered ascend = 7 plain-ascend = -45 cost=2450 energy=0.0kwh time=3m 16s -->
<gpx 
 xmlns="http://www.topografix.com/GPX/1/1" 
 xmlns:xsi="http://www.w3.org/2001/XMLSchema-instance" 
 xsi:schemaLocation="http://www.topografix.com/GPX/1/1 http://www.topografix.com/GPX/1/1/gpx.xsd" 
 version="1.1" 
 creator="BRouter-Web 99.71.0">
 <trk>
  <name>30400 Bojov - Klinec</name>
  <link href="https://brouter.damsy.net/latest/#map=19/49.89690/14.35961/standard&amp;lonlats=14.348739,49.880366;14.359745,49.896863&amp;profile=rail">
   <text>BRouter-Web</text>
  </link>
  <trkseg>
   <trkpt lat="49.880365" lon="14.348738"><ele>296.5</ele></trkpt>
   <trkpt lat="49.880429" lon="14.348723"><ele>296.5</ele></trkpt>
   <trkpt lat="49.880522" lon="14.348689"><ele>296.25</ele></trkpt>
   <trkpt lat="49.880664" lon="14.348618"><ele>295.5</ele></trkpt>
   <trkpt lat="49.880812" lon="14.348516"><ele>295.25</ele></trkpt>
   <trkpt lat="49.88096" lon="14.348382"><ele>294.75</ele></trkpt>
   <trkpt lat="49.881109" lon="14.348216"><ele>292.75</ele></trkpt>
   <trkpt lat="49.881163" lon="14.348145"><ele>292.25</ele></trkpt>
   <trkpt lat="49.8813" lon="14.347927"><ele>293.25</ele></trkpt>
   <trkpt lat="49.881421" lon="14.347681"><ele>293.25</ele></trkpt>
   <trkpt lat="49.881521" lon="14.347436"><ele>292.75</ele></trkpt>
   <trkpt lat="49.881718" lon="14.346918"><ele>294</ele></trkpt>
   <trkpt lat="49.88185" lon="14.346615"><ele>294.5</ele></trkpt>
   <trkpt lat="49.881923" lon="14.346477"><ele>292.75</ele></trkpt>
   <trkpt lat="49.882009" lon="14.346336"><ele>292.75</ele></trkpt>
   <trkpt lat="49.882101" lon="14.34621"><ele>293.25</ele></trkpt>
   <trkpt lat="49.882191" lon="14.346102"><ele>291.5</ele></trkpt>
   <trkpt lat="49.882288" lon="14.345999"><ele>291.75</ele></trkpt>
   <trkpt lat="49.882393" lon="14.345908"><ele>291.5</ele></trkpt>
   <trkpt lat="49.882507" lon="14.345825"><ele>290.75</ele></trkpt>
   <trkpt lat="49.882766" lon="14.34569"><ele>290.25</ele></trkpt>
   <trkpt lat="49.882885" lon="14.345651"><ele>289.25</ele></trkpt>
   <trkpt lat="49.883008" lon="14.345624"><ele>288.25</ele></trkpt>
   <trkpt lat="49.883149" lon="14.345607"><ele>287.75</ele></trkpt>
   <trkpt lat="49.884506" lon="14.345628"><ele>287.25</ele></trkpt>
   <trkpt lat="49.884632" lon="14.345642"><ele>287</ele></trkpt>
   <trkpt lat="49.884739" lon="14.345667"><ele>287</ele></trkpt>
   <trkpt lat="49.884908" lon="14.345725"><ele>286.5</ele></trkpt>
   <trkpt lat="49.885003" lon="14.345771"><ele>286.5</ele></trkpt>
   <trkpt lat="49.885097" lon="14.345828"><ele>285.75</ele></trkpt>
   <trkpt lat="49.885269" lon="14.345966"><ele>286</ele></trkpt>
   <trkpt lat="49.885357" lon="14.346047"><ele>285.5</ele></trkpt>
   <trkpt lat="49.8855" lon="14.346208"><ele>283.5</ele></trkpt>
   <trkpt lat="49.885566" lon="14.346298"><ele>282.25</ele></trkpt>
   <trkpt lat="49.885687" lon="14.346491"><ele>281.75</ele></trkpt>
   <trkpt lat="49.885794" lon="14.346702"><ele>282</ele></trkpt>
   <trkpt lat="49.885885" lon="14.346931"><ele>281.5</ele></trkpt>
   <trkpt lat="49.885993" lon="14.347277"><ele>282.5</ele></trkpt>
   <trkpt lat="49.886342" lon="14.348591"><ele>280.75</ele></trkpt>
   <trkpt lat="49.886439" lon="14.348917"><ele>280.5</ele></trkpt>
   <trkpt lat="49.886545" lon="14.34921"><ele>281.75</ele></trkpt>
   <trkpt lat="49.8866" lon="14.349334"><ele>280.75</ele></trkpt>
   <trkpt lat="49.886718" lon="14.34957"><ele>280</ele></trkpt>
   <trkpt lat="49.886851" lon="14.349796"><ele>278.75</ele></trkpt>
   <trkpt lat="49.888539" lon="14.35227"><ele>272</ele></trkpt>
   <trkpt lat="49.888671" lon="14.352474"><ele>269</ele></trkpt>
   <trkpt lat="49.888728" lon="14.352574"><ele>268.25</ele></trkpt>
   <trkpt lat="49.88882" lon="14.352756"><ele>268.25</ele></trkpt>
   <trkpt lat="49.88892" lon="14.352999"><ele>267.5</ele></trkpt>
   <trkpt lat="49.888966" lon="14.353134"><ele>267</ele></trkpt>
   <trkpt lat="49.889044" lon="14.353413"><ele>266.75</ele></trkpt>
   <trkpt lat="49.88918" lon="14.353982"><ele>267.75</ele></trkpt>
   <trkpt lat="49.889249" lon="14.35422"><ele>269.75</ele></trkpt>
   <trkpt lat="49.889335" lon="14.354447"><ele>271</ele></trkpt>
   <trkpt lat="49.889385" lon="14.354559"><ele>270.75</ele></trkpt>
   <trkpt lat="49.889439" lon="14.354669"><ele>270</ele></trkpt>
   <trkpt lat="49.889499" lon="14.354772"><ele>270.25</ele></trkpt>
   <trkpt lat="49.889615" lon="14.354951"><ele>269.75</ele></trkpt>
   <trkpt lat="49.889678" lon="14.355032"><ele>268.75</ele></trkpt>
   <trkpt lat="49.889816" lon="14.355185"><ele>267</ele></trkpt>
   <trkpt lat="49.889894" lon="14.355258"><ele>266.75</ele></trkpt>
   <trkpt lat="49.889978" lon="14.355325"><ele>267</ele></trkpt>
   <trkpt lat="49.890143" lon="14.355434"><ele>266.25</ele></trkpt>
   <trkpt lat="49.890225" lon="14.355479"><ele>265.75</ele></trkpt>
   <trkpt lat="49.890721" lon="14.355702"><ele>264.75</ele></trkpt>
   <trkpt lat="49.890885" lon="14.355792"><ele>264.25</ele></trkpt>
   <trkpt lat="49.890974" lon="14.355851"><ele>263.5</ele></trkpt>
   <trkpt lat="49.891171" lon="14.356021"><ele>262.25</ele></trkpt>
   <trkpt lat="49.891248" lon="14.356105"><ele>261.5</ele></trkpt>
   <trkpt lat="49.891391" lon="14.356291"><ele>261.5</ele></trkpt>
   <trkpt lat="49.89152" lon="14.356501"><ele>263.25</ele></trkpt>
   <trkpt lat="49.891637" lon="14.356737"><ele>262.25</ele></trkpt>
   <trkpt lat="49.892469" lon="14.358832"><ele>257.75</ele></trkpt>
   <trkpt lat="49.892533" lon="14.358986"><ele>256.75</ele></trkpt>
   <trkpt lat="49.8926" lon="14.359126"><ele>255.5</ele></trkpt>
   <trkpt lat="49.892668" lon="14.359255"><ele>255.25</ele></trkpt>
   <trkpt lat="49.892742" lon="14.359373"><ele>255.75</ele></trkpt>
   <trkpt lat="49.892822" lon="14.35949"><ele>255.5</ele></trkpt>
   <trkpt lat="49.892899" lon="14.359587"><ele>254.5</ele></trkpt>
   <trkpt lat="49.893039" lon="14.359735"><ele>254.5</ele></trkpt>
   <trkpt lat="49.89319" lon="14.359863"><ele>256.25</ele></trkpt>
   <trkpt lat="49.893243" lon="14.359901"><ele>256.75</ele></trkpt>
   <trkpt lat="49.89342" lon="14.359999"><ele>260.25</ele></trkpt>
   <trkpt lat="49.89351" lon="14.360037"><ele>261.25</ele></trkpt>
   <trkpt lat="49.893649" lon="14.360081"><ele>263</ele></trkpt>
   <trkpt lat="49.89376" lon="14.360105"><ele>264.25</ele></trkpt>
   <trkpt lat="49.893882" lon="14.360109"><ele>265.75</ele></trkpt>
   <trkpt lat="49.894004" lon="14.360098"><ele>267.25</ele></trkpt>
   <trkpt lat="49.89409" lon="14.360087"><ele>267.25</ele></trkpt>
   <trkpt lat="49.894192" lon="14.360057"><ele>261</ele></trkpt>
   <trkpt lat="49.894395" lon="14.359976"><ele>255</ele></trkpt>
   <trkpt lat="49.894491" lon="14.359923"><ele>252.5</ele></trkpt>
   <trkpt lat="49.894686" lon="14.359782"><ele>250.25</ele></trkpt>
   <trkpt lat="49.895021" lon="14.359501"><ele>247.5</ele></trkpt>
   <trkpt lat="49.895153" lon="14.3594"><ele>249</ele></trkpt>
   <trkpt lat="49.89537" lon="14.359271"><ele>249</ele></trkpt>
   <trkpt lat="49.89549" lon="14.359225"><ele>248.25</ele></trkpt>
   <trkpt lat="49.895616" lon="14.35919"><ele>248.5</ele></trkpt>
   <trkpt lat="49.895822" lon="14.359169"><ele>249.75</ele></trkpt>
   <trkpt lat="49.896026" lon="14.359189"><ele>248.75</ele></trkpt>
   <trkpt lat="49.896184" lon="14.359232"><ele>248.5</ele></trkpt>
   <trkpt lat="49.896265" lon="14.359263"><ele>249</ele></trkpt>
   <trkpt lat="49.896357" lon="14.359308"><ele>249.25</ele></trkpt>
   <trkpt lat="49.896542" lon="14.359428"><ele>250.25</ele></trkpt>
   <trkpt lat="49.896702" lon="14.359567"><ele>250</ele></trkpt>
   <trkpt lat="49.896782" lon="14.359651"><ele>250.75</ele></trkpt>
   <trkpt lat="49.896859" lon="14.359747"><ele>250.75</ele></trkpt>
  </trkseg>
 </trk>
</gpx>