<?xml version="1.0" encoding="UTF-8"?>
<!-- track-length = 1102 filtered ascend = 1 plain-ascend = -1 cost=1102 energy=0.0kwh time=1m 28s -->
<gpx 
 xmlns="http://www.topografix.com/GPX/1/1" 
 xmlns:xsi="http://www.w3.org/2001/XMLSchema-instance" 
 xsi:schemaLocation="http://www.topografix.com/GPX/1/1 http://www.topografix.com/GPX/1/1/gpx.xsd" 
 version="1.1" 
 creator="BRouter-Web 99.71.0">
 <trk>
  <name>30400 Měchenice Weiche 3 - Skochovice odbočka Weiche 2</name>
  <link href="https://brouter.damsy.net/latest/#map=19/49.92111/14.37892/standard&amp;lonlats=14.381143,49.912137;14.377718,49.921014&amp;profile=rail">
   <text>BRouter-Web</text>
  </link>
  <trkseg>
   <trkpt lat="49.91213" lon="14.381136"><ele>208.5</ele></trkpt>
   <trkpt lat="49.912252" lon="14.380864"><ele>208.5</ele></trkpt>
   <trkpt lat="49.912386" lon="14.380601"><ele>209.75</ele></trkpt>
   <trkpt lat="49.912537" lon="14.380343"><ele>210</ele></trkpt>
   <trkpt lat="49.912734" lon="14.380055"><ele>209</ele></trkpt>
   <trkpt lat="49.912918" lon="14.379827"><ele>209.5</ele></trkpt>
   <trkpt lat="49.913021" lon="14.379715"><ele>207.75</ele></trkpt>
   <trkpt lat="49.913797" lon="14.378907"><ele>207.25</ele></trkpt>
   <trkpt lat="49.914375" lon="14.378304"><ele>206.5</ele></trkpt>
   <trkpt lat="49.914515" lon="14.378163"><ele>206.75</ele></trkpt>
   <trkpt lat="49.91481" lon="14.377899"><ele>205.25</ele></trkpt>
   <trkpt lat="49.915083" lon="14.3777"><ele>207.5</ele></trkpt>
   <trkpt lat="49.915796" lon="14.377217"><ele>209.25</ele></trkpt>
   <trkpt lat="49.915932" lon="14.37714"><ele>208.75</ele></trkpt>
   <trkpt lat="49.916164" lon="14.377038"><ele>207.5</ele></trkpt>
   <trkpt lat="49.916372" lon="14.376975"><ele>206.5</ele></trkpt>
   <trkpt lat="49.916471" lon="14.376956"><ele>206.25</ele></trkpt>
   <trkpt lat="49.916714" lon="14.376939"><ele>206</ele></trkpt>
   <trkpt lat="49.916912" lon="14.376948"><ele>206</ele></trkpt>
   <trkpt lat="49.917132" lon="14.376986"><ele>205.75</ele></trkpt>
   <trkpt lat="49.917354" lon="14.377058"><ele>205.5</ele></trkpt>
   <trkpt lat="49.917664" lon="14.377212"><ele>205.25</ele></trkpt>
   <trkpt lat="49.918458" lon="14.377674"><ele>204.75</ele></trkpt>
   <trkpt lat="49.918555" lon="14.377728"><ele>204.75</ele></trkpt>
   <trkpt lat="49.9189" lon="14.377931"><ele>203</ele></trkpt>
   <trkpt lat="49.919013" lon="14.377989"><ele>204.25</ele></trkpt>
   <trkpt lat="49.919105" lon="14.37803"><ele>205.25</ele></trkpt>
   <trkpt lat="49.919311" lon="14.378094"><ele>204.5</ele></trkpt>
   <trkpt lat="49.919541" lon="14.378125"><ele>203.75</ele></trkpt>
   <trkpt lat="49.919646" lon="14.378123"><ele>203.5</ele></trkpt>
   <trkpt lat="49.919758" lon="14.378114"><ele>203.75</ele></trkpt>
   <trkpt lat="49.919985" lon="14.378064"><ele>205.75</ele></trkpt>
   <trkpt lat="49.920232" lon="14.377993"><ele>205.75</ele></trkpt>
   <trkpt lat="49.920368" lon="14.377953"><ele>206</ele></trkpt>
   <trkpt lat="49.920754" lon="14.377831"><ele>206.5</ele></trkpt>
   <trkpt lat="49.921011" lon="14.377725"><ele>206.25</ele></trkpt>
   <trkpt lat="49.921015" lon="14.377723"><ele>206.5</ele></trkpt>
  </trkseg>
 </trk>
</gpx>