<?xml version="1.0" encoding="UTF-8"?>
<!-- track-length = 3489 filtered ascend = 7 plain-ascend = -17 cost=3489 energy=0.0kwh time=4m 39s -->
<gpx 
 xmlns="http://www.topografix.com/GPX/1/1" 
 xmlns:xsi="http://www.w3.org/2001/XMLSchema-instance" 
 xsi:schemaLocation="http://www.topografix.com/GPX/1/1 http://www.topografix.com/GPX/1/1/gpx.xsd" 
 version="1.1" 
 creator="BRouter-Web 99.71.0">
 <trk>
  <name>30400 Mokrovraty - Stará Huť</name>
  <link href="https://brouter.damsy.net/latest/#map=18/49.79646/14.23725/standard&amp;lonlats=14.236419,49.796474;14.199527,49.784992&amp;profile=rail">
   <text>BRouter-Web</text>
  </link>
  <trkseg>
   <trkpt lat="49.796465" lon="14.23644"><ele>372.75</ele></trkpt>
   <trkpt lat="49.796463" lon="14.236439"><ele>372.75</ele></trkpt>
   <trkpt lat="49.795609" lon="14.235699"><ele>372.25</ele></trkpt>
   <trkpt lat="49.794966" lon="14.235143"><ele>373.75</ele></trkpt>
   <trkpt lat="49.794847" lon="14.235029"><ele>373.75</ele></trkpt>
   <trkpt lat="49.794699" lon="14.234867"><ele>373.25</ele></trkpt>
   <trkpt lat="49.794616" lon="14.23476"><ele>373.25</ele></trkpt>
   <trkpt lat="49.794519" lon="14.234623"><ele>373.25</ele></trkpt>
   <trkpt lat="49.794328" lon="14.234299"><ele>372.5</ele></trkpt>
   <trkpt lat="49.793794" lon="14.23319"><ele>372.5</ele></trkpt>
   <trkpt lat="49.7926" lon="14.2307"><ele>373</ele></trkpt>
   <trkpt lat="49.791263" lon="14.227917"><ele>377.25</ele></trkpt>
   <trkpt lat="49.79109" lon="14.227614"><ele>377.75</ele></trkpt>
   <trkpt lat="49.790991" lon="14.227469"><ele>377.5</ele></trkpt>
   <trkpt lat="49.790792" lon="14.227223"><ele>377.75</ele></trkpt>
   <trkpt lat="49.790682" lon="14.227114"><ele>377.5</ele></trkpt>
   <trkpt lat="49.790549" lon="14.226999"><ele>377.75</ele></trkpt>
   <trkpt lat="49.787991" lon="14.224971"><ele>379.75</ele></trkpt>
   <trkpt lat="49.787864" lon="14.224854"><ele>379.25</ele></trkpt>
   <trkpt lat="49.787625" lon="14.224602"><ele>379.25</ele></trkpt>
   <trkpt lat="49.787432" lon="14.224361"><ele>379.75</ele></trkpt>
   <trkpt lat="49.787334" lon="14.224225"><ele>379.25</ele></trkpt>
   <trkpt lat="49.787206" lon="14.224028"><ele>378.75</ele></trkpt>
   <trkpt lat="49.787098" lon="14.223838"><ele>379</ele></trkpt>
   <trkpt lat="49.787005" lon="14.223659"><ele>379</ele></trkpt>
   <trkpt lat="49.786928" lon="14.223494"><ele>378.75</ele></trkpt>
   <trkpt lat="49.78686" lon="14.223335"><ele>378.75</ele></trkpt>
   <trkpt lat="49.786739" lon="14.223014"><ele>379.25</ele></trkpt>
   <trkpt lat="49.78664" lon="14.222694"><ele>379.25</ele></trkpt>
   <trkpt lat="49.786538" lon="14.222303"><ele>379.5</ele></trkpt>
   <trkpt lat="49.78633" lon="14.221389"><ele>378.75</ele></trkpt>
   <trkpt lat="49.786253" lon="14.221015"><ele>378.5</ele></trkpt>
   <trkpt lat="49.78622" lon="14.220821"><ele>378.25</ele></trkpt>
   <trkpt lat="49.786195" lon="14.220637"><ele>378.25</ele></trkpt>
   <trkpt lat="49.786165" lon="14.22029"><ele>378</ele></trkpt>
   <trkpt lat="49.786151" lon="14.219924"><ele>377</ele></trkpt>
   <trkpt lat="49.786148" lon="14.219574"><ele>376.5</ele></trkpt>
   <trkpt lat="49.786119" lon="14.217279"><ele>375</ele></trkpt>
   <trkpt lat="49.786117" lon="14.217109"><ele>374.5</ele></trkpt>
   <trkpt lat="49.786096" lon="14.215491"><ele>372.75</ele></trkpt>
   <trkpt lat="49.786078" lon="14.214336"><ele>372.75</ele></trkpt>
   <trkpt lat="49.786066" lon="14.214124"><ele>372.5</ele></trkpt>
   <trkpt lat="49.786041" lon="14.2139"><ele>371.75</ele></trkpt>
   <trkpt lat="49.786008" lon="14.213705"><ele>371.5</ele></trkpt>
   <trkpt lat="49.785923" lon="14.213341"><ele>371.75</ele></trkpt>
   <trkpt lat="49.785876" lon="14.213185"><ele>372</ele></trkpt>
   <trkpt lat="49.785797" lon="14.212978"><ele>372</ele></trkpt>
   <trkpt lat="49.78572" lon="14.212808"><ele>372</ele></trkpt>
   <trkpt lat="49.785621" lon="14.212622"><ele>371.25</ele></trkpt>
   <trkpt lat="49.785529" lon="14.212474"><ele>371</ele></trkpt>
   <trkpt lat="49.785416" lon="14.212321"><ele>371.25</ele></trkpt>
   <trkpt lat="49.785302" lon="14.21219"><ele>371</ele></trkpt>
   <trkpt lat="49.785149" lon="14.212035"><ele>370.75</ele></trkpt>
   <trkpt lat="49.783178" lon="14.210224"><ele>367.25</ele></trkpt>
   <trkpt lat="49.783046" lon="14.210082"><ele>366.75</ele></trkpt>
   <trkpt lat="49.782948" lon="14.209961"><ele>366.5</ele></trkpt>
   <trkpt lat="49.782837" lon="14.209802"><ele>366.75</ele></trkpt>
   <trkpt lat="49.782735" lon="14.20963"><ele>366.5</ele></trkpt>
   <trkpt lat="49.782646" lon="14.209452"><ele>366.5</ele></trkpt>
   <trkpt lat="49.782562" lon="14.209248"><ele>366</ele></trkpt>
   <trkpt lat="49.782481" lon="14.209007"><ele>365.75</ele></trkpt>
   <trkpt lat="49.782424" lon="14.208793"><ele>365.75</ele></trkpt>
   <trkpt lat="49.782377" lon="14.208563"><ele>366</ele></trkpt>
   <trkpt lat="49.782345" lon="14.208348"><ele>365.75</ele></trkpt>
   <trkpt lat="49.782325" lon="14.208096"><ele>365.75</ele></trkpt>
   <trkpt lat="49.782318" lon="14.207877"><ele>366</ele></trkpt>
   <trkpt lat="49.782322" lon="14.207646"><ele>365.5</ele></trkpt>
   <trkpt lat="49.782355" lon="14.207266"><ele>365</ele></trkpt>
   <trkpt lat="49.782585" lon="14.205078"><ele>361.25</ele></trkpt>
   <trkpt lat="49.782771" lon="14.203414"><ele>361.25</ele></trkpt>
   <trkpt lat="49.782849" lon="14.202994"><ele>360</ele></trkpt>
   <trkpt lat="49.782899" lon="14.202789"><ele>360.25</ele></trkpt>
   <trkpt lat="49.782969" lon="14.202561"><ele>360.25</ele></trkpt>
   <trkpt lat="49.783047" lon="14.202352"><ele>360.25</ele></trkpt>
   <trkpt lat="49.783139" lon="14.202135"><ele>360.25</ele></trkpt>
   <trkpt lat="49.78335" lon="14.20175"><ele>360.25</ele></trkpt>
   <trkpt lat="49.783494" lon="14.201534"><ele>359.75</ele></trkpt>
   <trkpt lat="49.784156" lon="14.200645"><ele>357.75</ele></trkpt>
   <trkpt lat="49.784605" lon="14.200041"><ele>356</ele></trkpt>
   <trkpt lat="49.78499" lon="14.199524"><ele>355</ele></trkpt>
  </trkseg>
 </trk>
</gpx>