<?xml version="1.0" encoding="UTF-8"?>
<!-- track-length = 59 filtered ascend = 0 plain-ascend = 0 cost=118 energy=0.0kwh time=5s -->
<gpx 
 xmlns="http://www.topografix.com/GPX/1/1" 
 xmlns:xsi="http://www.w3.org/2001/XMLSchema-instance" 
 xsi:schemaLocation="http://www.topografix.com/GPX/1/1 http://www.topografix.com/GPX/1/1/gpx.xsd" 
 version="1.1" 
 creator="BRouter-Web 0.18.1">
 <trk>
  <name>Abzweig Freiberger Straße Weiche 5 - Abzweig Freiberger Straße Weiche West-Nord</name>
  <trkseg>
   <trkpt lat="51.048953" lon="13.72033"><ele>114</ele></trkpt>
   <trkpt lat="51.048954" lon="13.72033"><ele>114</ele></trkpt>
   <trkpt lat="51.049086" lon="13.720207"><ele>114</ele></trkpt>
   <trkpt lat="51.049151" lon="13.720075"><ele>114</ele></trkpt>
   <trkpt lat="51.049177" lon="13.719994"><ele>114</ele></trkpt>
   <trkpt lat="51.049203" lon="13.719838"><ele>114.25</ele></trkpt>
   <trkpt lat="51.049202" lon="13.719775"><ele>114.5</ele></trkpt>
   <trkpt lat="51.0492" lon="13.719682"><ele>114.25</ele></trkpt>
   <trkpt lat="51.049199" lon="13.719676"><ele>114.25</ele></trkpt>
  </trkseg>
 </trk>
</gpx>