<?xml version="1.0" encoding="UTF-8"?>
<!-- track-length = 684 filtered ascend = 2 plain-ascend = 3 cost=1368 energy=0.0kwh time=55s -->
<gpx 
 xmlns="http://www.topografix.com/GPX/1/1" 
 xmlns:xsi="http://www.w3.org/2001/XMLSchema-instance" 
 xsi:schemaLocation="http://www.topografix.com/GPX/1/1 http://www.topografix.com/GPX/1/1/gpx.xsd" 
 version="1.1" 
 creator="BRouter-Web 0.18.1">
 <trk>
  <name>Florastraße (Steig 2) - Oederaner Straße (Steig 2)</name>
  <trkseg>
   <trkpt lat="51.048444" lon="13.716706"><ele>116</ele></trkpt>
   <trkpt lat="51.048429" lon="13.716655"><ele>116</ele></trkpt>
   <trkpt lat="51.048343" lon="13.71638"><ele>116</ele></trkpt>
   <trkpt lat="51.0481" lon="13.715642"><ele>116</ele></trkpt>
   <trkpt lat="51.048033" lon="13.715438"><ele>116.25</ele></trkpt>
   <trkpt lat="51.047989" lon="13.715325"><ele>116.75</ele></trkpt>
   <trkpt lat="51.047941" lon="13.715225"><ele>117</ele></trkpt>
   <trkpt lat="51.047825" lon="13.715019"><ele>117</ele></trkpt>
   <trkpt lat="51.046793" lon="13.713447"><ele>117</ele></trkpt>
   <trkpt lat="51.046529" lon="13.713049"><ele>117</ele></trkpt>
   <trkpt lat="51.046171" lon="13.712474"><ele>116.25</ele></trkpt>
   <trkpt lat="51.045442" lon="13.711276"><ele>116.75</ele></trkpt>
   <trkpt lat="51.045284" lon="13.710999"><ele>116.75</ele></trkpt>
   <trkpt lat="51.04521" lon="13.710843"><ele>117</ele></trkpt>
   <trkpt lat="51.045151" lon="13.710694"><ele>117.25</ele></trkpt>
   <trkpt lat="51.045097" lon="13.710507"><ele>117.5</ele></trkpt>
   <trkpt lat="51.045049" lon="13.710313"><ele>117.75</ele></trkpt>
   <trkpt lat="51.044756" lon="13.709104"><ele>118</ele></trkpt>
   <trkpt lat="51.044753" lon="13.709095"><ele>118.75</ele></trkpt>
  </trkseg>
 </trk>
</gpx>