<?xml version="1.0" encoding="UTF-8"?>
<!-- track-length = 31 filtered ascend = 0 plain-ascend = 0 cost=62 energy=0.0kwh time=2s -->
<gpx 
 xmlns="http://www.topografix.com/GPX/1/1" 
 xmlns:xsi="http://www.w3.org/2001/XMLSchema-instance" 
 xsi:schemaLocation="http://www.topografix.com/GPX/1/1 http://www.topografix.com/GPX/1/1/gpx.xsd" 
 version="1.1" 
 creator="BRouter-Web 0.18.1">
 <trk>
  <name>Horner Mühle (Steig Schleife Nord) - Wendeschleife Horner Mühle Weiche 763</name>
  <trkseg>
   <trkpt lat="53.101371" lon="8.880525"><ele>3</ele></trkpt>
   <trkpt lat="53.101364" lon="8.880682"><ele>3</ele></trkpt>
   <trkpt lat="53.101362" lon="8.880752"><ele>3</ele></trkpt>
   <trkpt lat="53.101366" lon="8.880826"><ele>3</ele></trkpt>
   <trkpt lat="53.101383" lon="8.880901"><ele>3</ele></trkpt>
   <trkpt lat="53.101404" lon="8.880966"><ele>2.75</ele></trkpt>
  </trkseg>
 </trk>
</gpx>