<?xml version="1.0" encoding="UTF-8"?>
<!-- track-length = 89 filtered ascend = 0 plain-ascend = 0 cost=178 energy=0.0kwh time=7s -->
<gpx 
 xmlns="http://www.topografix.com/GPX/1/1" 
 xmlns:xsi="http://www.w3.org/2001/XMLSchema-instance" 
 xsi:schemaLocation="http://www.topografix.com/GPX/1/1 http://www.topografix.com/GPX/1/1/gpx.xsd" 
 version="1.1" 
 creator="BRouter-Web 0.18.1">
 <trk>
  <name>Wendeschleife Horner Mühle Weiche 763 - Abzweig Wendeschleife Horner Mühle Weiche 764</name>
  <trkseg>
   <trkpt lat="53.101404" lon="8.880966"><ele>2.75</ele></trkpt>
   <trkpt lat="53.101405" lon="8.880969"><ele>2.75</ele></trkpt>
   <trkpt lat="53.101453" lon="8.88107"><ele>3</ele></trkpt>
   <trkpt lat="53.101498" lon="8.881125"><ele>3</ele></trkpt>
   <trkpt lat="53.101561" lon="8.88116"><ele>3</ele></trkpt>
   <trkpt lat="53.101602" lon="8.881164"><ele>3</ele></trkpt>
   <trkpt lat="53.101647" lon="8.881151"><ele>3</ele></trkpt>
   <trkpt lat="53.101684" lon="8.881131"><ele>3</ele></trkpt>
   <trkpt lat="53.101726" lon="8.881085"><ele>3</ele></trkpt>
   <trkpt lat="53.101759" lon="8.881033"><ele>3</ele></trkpt>
   <trkpt lat="53.101795" lon="8.880936"><ele>3</ele></trkpt>
   <trkpt lat="53.101806" lon="8.880883"><ele>3</ele></trkpt>
   <trkpt lat="53.10181" lon="8.880742"><ele>3</ele></trkpt>
   <trkpt lat="53.101793" lon="8.880632"><ele>3</ele></trkpt>
   <trkpt lat="53.101764" lon="8.880526"><ele>3</ele></trkpt>
   <trkpt lat="53.101754" lon="8.880491"><ele>3</ele></trkpt>
   <trkpt lat="53.101752" lon="8.880485"><ele>3</ele></trkpt>
  </trkseg>
 </trk>
</gpx>