<?xml version="1.0" encoding="UTF-8"?>
<!-- track-length = 447 filtered ascend = 0 plain-ascend = 0 cost=894 energy=0.0kwh time=36s -->
<gpx 
 xmlns="http://www.topografix.com/GPX/1/1" 
 xmlns:xsi="http://www.w3.org/2001/XMLSchema-instance" 
 xsi:schemaLocation="http://www.topografix.com/GPX/1/1 http://www.topografix.com/GPX/1/1/gpx.xsd" 
 version="1.1" 
 creator="BRouter-Web 0.18.1">
 <trk>
  <name>Balti jaam (Steig Süd) - Põhja puiestee (Steig Südost)</name>
  <trkseg>
   <trkpt lat="59.441068" lon="24.738451"><ele>15</ele></trkpt>
   <trkpt lat="59.441073" lon="24.738569"><ele>15</ele></trkpt>
   <trkpt lat="59.441093" lon="24.738837"><ele>15</ele></trkpt>
   <trkpt lat="59.441108" lon="24.73893"><ele>15</ele></trkpt>
   <trkpt lat="59.441143" lon="24.739074"><ele>15</ele></trkpt>
   <trkpt lat="59.44146" lon="24.740183"><ele>15</ele></trkpt>
   <trkpt lat="59.441676" lon="24.740919"><ele>14</ele></trkpt>
   <trkpt lat="59.441718" lon="24.741054"><ele>14</ele></trkpt>
   <trkpt lat="59.441859" lon="24.741439"><ele>14.25</ele></trkpt>
   <trkpt lat="59.442005" lon="24.74177"><ele>14</ele></trkpt>
   <trkpt lat="59.442216" lon="24.742183"><ele>14</ele></trkpt>
   <trkpt lat="59.44251" lon="24.742714"><ele>14</ele></trkpt>
   <trkpt lat="59.442557" lon="24.742789"><ele>14</ele></trkpt>
   <trkpt lat="59.442579" lon="24.742818"><ele>14</ele></trkpt>
   <trkpt lat="59.442793" lon="24.743128"><ele>14</ele></trkpt>
   <trkpt lat="59.443079" lon="24.743446"><ele>14.75</ele></trkpt>
   <trkpt lat="59.443403" lon="24.743754"><ele>14</ele></trkpt>
   <trkpt lat="59.443584" lon="24.743925"><ele>14</ele></trkpt>
   <trkpt lat="59.443691" lon="24.744026"><ele>14</ele></trkpt>
  </trkseg>
 </trk>
</gpx>