<?xml version="1.0" encoding="UTF-8"?>
<!-- track-length = 272 filtered ascend = 0 plain-ascend = 0 cost=544 energy=0.0kwh time=22s -->
<gpx 
 xmlns="http://www.topografix.com/GPX/1/1" 
 xmlns:xsi="http://www.w3.org/2001/XMLSchema-instance" 
 xsi:schemaLocation="http://www.topografix.com/GPX/1/1 http://www.topografix.com/GPX/1/1/gpx.xsd" 
 version="1.1" 
 creator="BRouter-Web 0.18.1">
 <trk>
  <name>Abzweig Piazza Lega Lombarda Weiche West - Arena (Steig West)</name>
  <trkseg>
   <trkpt lat="45.477674" lon="9.180718"><ele>122.25</ele></trkpt>
   <trkpt lat="45.477626" lon="9.180774"><ele>122.25</ele></trkpt>
   <trkpt lat="45.477533" lon="9.180884"><ele>122</ele></trkpt>
   <trkpt lat="45.477511" lon="9.18091"><ele>122</ele></trkpt>
   <trkpt lat="45.477494" lon="9.180929"><ele>121.75</ele></trkpt>
   <trkpt lat="45.477485" lon="9.180939"><ele>122</ele></trkpt>
   <trkpt lat="45.477423" lon="9.181003"><ele>122</ele></trkpt>
   <trkpt lat="45.477324" lon="9.181074"><ele>122</ele></trkpt>
   <trkpt lat="45.477172" lon="9.181126"><ele>122</ele></trkpt>
   <trkpt lat="45.47667" lon="9.181211"><ele>122</ele></trkpt>
   <trkpt lat="45.476425" lon="9.181295"><ele>122</ele></trkpt>
   <trkpt lat="45.475425" lon="9.181466"><ele>122</ele></trkpt>
   <trkpt lat="45.475318" lon="9.181485"><ele>122</ele></trkpt>
  </trkseg>
 </trk>
</gpx>