<?xml version="1.0" encoding="UTF-8"?>
<!-- track-length = 54 filtered ascend = 0 plain-ascend = 0 cost=108 energy=0.0kwh time=4s -->
<gpx 
 xmlns="http://www.topografix.com/GPX/1/1" 
 xmlns:xsi="http://www.w3.org/2001/XMLSchema-instance" 
 xsi:schemaLocation="http://www.topografix.com/GPX/1/1 http://www.topografix.com/GPX/1/1/gpx.xsd" 
 version="1.1" 
 creator="BRouter-Web 0.18.1">
 <trk>
  <name>Dreieck Viale Tunisia Weiche Nordost-Nordwest - Dreieck Viale Tunisia Weiche Südwest-Nordwest</name>
  <trkseg>
   <trkpt lat="45.478764" lon="9.202913"><ele>120</ele></trkpt>
   <trkpt lat="45.478567" lon="9.202729"><ele>120</ele></trkpt>
   <trkpt lat="45.47847" lon="9.202638"><ele>120</ele></trkpt>
   <trkpt lat="45.478356" lon="9.202533"><ele>120</ele></trkpt>
  </trkseg>
 </trk>
</gpx>