<?xml version="1.0" encoding="UTF-8"?>
<!-- track-length = 572 filtered ascend = 0 plain-ascend = 0 cost=1144 energy=0.0kwh time=46s -->
<gpx 
 xmlns="http://www.topografix.com/GPX/1/1" 
 xmlns:xsi="http://www.w3.org/2001/XMLSchema-instance" 
 xsi:schemaLocation="http://www.topografix.com/GPX/1/1 http://www.topografix.com/GPX/1/1/gpx.xsd" 
 version="1.1" 
 creator="BRouter-Web 0.18.1">
 <trk>
  <name>Duisburg Mannesheim Tor 1 (Steig 2) - Duisburg Tiger &amp; Turtle (Steig 2)</name>
  <trkseg>
   <trkpt lat="51.373159" lon="6.732959"><ele>33</ele></trkpt>
   <trkpt lat="51.37324" lon="6.732975"><ele>33</ele></trkpt>
   <trkpt lat="51.373554" lon="6.733015"><ele>33</ele></trkpt>
   <trkpt lat="51.374081" lon="6.733112"><ele>33</ele></trkpt>
   <trkpt lat="51.374427" lon="6.733198"><ele>29</ele></trkpt>
   <trkpt lat="51.374603" lon="6.733267"><ele>30.5</ele></trkpt>
   <trkpt lat="51.374856" lon="6.733396"><ele>32.5</ele></trkpt>
   <trkpt lat="51.375061" lon="6.733538"><ele>32</ele></trkpt>
   <trkpt lat="51.375305" lon="6.733748"><ele>32.25</ele></trkpt>
   <trkpt lat="51.375486" lon="6.733941"><ele>32</ele></trkpt>
   <trkpt lat="51.375847" lon="6.734366"><ele>32</ele></trkpt>
   <trkpt lat="51.376102" lon="6.734642"><ele>31.75</ele></trkpt>
   <trkpt lat="51.376291" lon="6.734817"><ele>31.5</ele></trkpt>
   <trkpt lat="51.376561" lon="6.73503"><ele>31.5</ele></trkpt>
   <trkpt lat="51.37726" lon="6.735456"><ele>31.25</ele></trkpt>
   <trkpt lat="51.377421" lon="6.735547"><ele>31.5</ele></trkpt>
   <trkpt lat="51.377564" lon="6.735623"><ele>32</ele></trkpt>
   <trkpt lat="51.37784" lon="6.735787"><ele>31.75</ele></trkpt>
   <trkpt lat="51.377887" lon="6.735814"><ele>32</ele></trkpt>
  </trkseg>
 </trk>
</gpx>