<?xml version="1.0" encoding="UTF-8"?>
<!-- track-length = 103 filtered ascend = 0 plain-ascend = 1 cost=206 energy=0.0kwh time=8s -->
<gpx 
 xmlns="http://www.topografix.com/GPX/1/1" 
 xmlns:xsi="http://www.w3.org/2001/XMLSchema-instance" 
 xsi:schemaLocation="http://www.topografix.com/GPX/1/1 http://www.topografix.com/GPX/1/1/gpx.xsd" 
 version="1.1" 
 creator="BRouter-Web 0.18.1">
 <trk>
  <name>Duisburg Hüttenheim Mannesmann Tor 2 Weiche 418 - (Innengleis) - Duisburg Hüttenheim Mannesmann Tor 2 Weiche 417</name>
  <trkseg>
   <trkpt lat="51.367875" lon="6.729783"><ele>34</ele></trkpt>
   <trkpt lat="51.367876" lon="6.729793"><ele>34</ele></trkpt>
   <trkpt lat="51.367904" lon="6.729926"><ele>34</ele></trkpt>
   <trkpt lat="51.367935" lon="6.730007"><ele>34</ele></trkpt>
   <trkpt lat="51.367963" lon="6.730066"><ele>34</ele></trkpt>
   <trkpt lat="51.368034" lon="6.730173"><ele>34.5</ele></trkpt>
   <trkpt lat="51.368102" lon="6.730223"><ele>34.75</ele></trkpt>
   <trkpt lat="51.368144" lon="6.730236"><ele>34.75</ele></trkpt>
   <trkpt lat="51.368194" lon="6.730236"><ele>34.75</ele></trkpt>
   <trkpt lat="51.36825" lon="6.73021"><ele>34.75</ele></trkpt>
   <trkpt lat="51.368275" lon="6.730188"><ele>34.5</ele></trkpt>
   <trkpt lat="51.368277" lon="6.730187"><ele>34.5</ele></trkpt>
   <trkpt lat="51.368331" lon="6.730104"><ele>34.25</ele></trkpt>
   <trkpt lat="51.368375" lon="6.730005"><ele>34</ele></trkpt>
   <trkpt lat="51.368399" lon="6.729905"><ele>34</ele></trkpt>
   <trkpt lat="51.368408" lon="6.72985"><ele>34.25</ele></trkpt>
   <trkpt lat="51.36841" lon="6.729679"><ele>34.25</ele></trkpt>
   <trkpt lat="51.368409" lon="6.729676"><ele>34</ele></trkpt>
  </trkseg>
 </trk>
</gpx>