<?xml version="1.0" encoding="UTF-8"?>
<!-- track-length = 192 filtered ascend = 0 plain-ascend = -1 cost=384 energy=0.0kwh time=15s -->
<gpx 
 xmlns="http://www.topografix.com/GPX/1/1" 
 xmlns:xsi="http://www.w3.org/2001/XMLSchema-instance" 
 xsi:schemaLocation="http://www.topografix.com/GPX/1/1 http://www.topografix.com/GPX/1/1/gpx.xsd" 
 version="1.1" 
 creator="BRouter-Web 0.18.1">
 <trk>
  <name>Abzweig Erottaja Weiche Nordost - Ylioppilastalo (Steig Südost-Nordost)</name>
  <trkseg>
   <trkpt lat="60.166799" lon="24.943225"><ele>9.25</ele></trkpt>
   <trkpt lat="60.166991" lon="24.942931"><ele>8.75</ele></trkpt>
   <trkpt lat="60.16711" lon="24.9427"><ele>8.25</ele></trkpt>
   <trkpt lat="60.167148" lon="24.942628"><ele>8.25</ele></trkpt>
   <trkpt lat="60.167403" lon="24.942254"><ele>8.25</ele></trkpt>
   <trkpt lat="60.167447" lon="24.94219"><ele>8</ele></trkpt>
   <trkpt lat="60.167548" lon="24.942036"><ele>7.75</ele></trkpt>
   <trkpt lat="60.167628" lon="24.941916"><ele>7.5</ele></trkpt>
   <trkpt lat="60.167679" lon="24.94184"><ele>7.5</ele></trkpt>
   <trkpt lat="60.168166" lon="24.941101"><ele>7.25</ele></trkpt>
  </trkseg>
 </trk>
</gpx>