<?xml version="1.0" encoding="UTF-8"?>
<!-- track-length = 194 filtered ascend = 0 plain-ascend = 0 cost=388 energy=0.0kwh time=16s -->
<gpx 
 xmlns="http://www.topografix.com/GPX/1/1" 
 xmlns:xsi="http://www.w3.org/2001/XMLSchema-instance" 
 xsi:schemaLocation="http://www.topografix.com/GPX/1/1 http://www.topografix.com/GPX/1/1/gpx.xsd" 
 version="1.1" 
 creator="BRouter-Web 99.71.0">
 <trk>
  <name>Abzweig Wendeschleife Dvorce Weiche Nord-Ost -  Dvorce (Steig A)</name>
  <link href="https://brouter.damsy.net/latest/#map=17/50.04712/14.41533/standard&amp;lonlats=14.413428,50.046061;14.414338,50.0477&amp;profile=rail">
   <text>BRouter-Web</text>
  </link>
  <trkseg>
   <trkpt lat="50.04606" lon="14.41343"><ele>193</ele></trkpt>
   <trkpt lat="50.046853" lon="14.413868"><ele>193</ele></trkpt>
   <trkpt lat="50.04693" lon="14.41391"><ele>193</ele></trkpt>
   <trkpt lat="50.047117" lon="14.414014"><ele>193</ele></trkpt>
   <trkpt lat="50.047699" lon="14.414337"><ele>193</ele></trkpt>
  </trkseg>
 </trk>
</gpx>