<?xml version="1.0" encoding="UTF-8"?>
<!-- track-length = 337 filtered ascend = 1 plain-ascend = 0 cost=674 energy=0.0kwh time=27s -->
<gpx 
 xmlns="http://www.topografix.com/GPX/1/1" 
 xmlns:xsi="http://www.w3.org/2001/XMLSchema-instance" 
 xsi:schemaLocation="http://www.topografix.com/GPX/1/1 http://www.topografix.com/GPX/1/1/gpx.xsd" 
 version="1.1" 
 creator="BRouter-Web 99.71.0">
 <trk>
  <name>Abzweig Wendeschleife Nádraží Braník Weiche Ost - Pobřežní cesta (Steig BA)</name>
  <link href="https://brouter.damsy.net/latest/#map=18/50.03394/14.40906/standard&amp;lonlats=14.407917,50.031441;14.407469,50.034131&amp;profile=rail">
   <text>BRouter-Web</text>
  </link>
  <trkseg>
   <trkpt lat="50.03144" lon="14.407916"><ele>195</ele></trkpt>
   <trkpt lat="50.031444" lon="14.407922"><ele>195</ele></trkpt>
   <trkpt lat="50.031526" lon="14.408025"><ele>195</ele></trkpt>
   <trkpt lat="50.031749" lon="14.408293"><ele>194.5</ele></trkpt>
   <trkpt lat="50.031865" lon="14.4084"><ele>194.5</ele></trkpt>
   <trkpt lat="50.031974" lon="14.408481"><ele>195</ele></trkpt>
   <trkpt lat="50.032074" lon="14.408538"><ele>195.25</ele></trkpt>
   <trkpt lat="50.032168" lon="14.408586"><ele>195.5</ele></trkpt>
   <trkpt lat="50.032366" lon="14.40864"><ele>196</ele></trkpt>
   <trkpt lat="50.032486" lon="14.408652"><ele>196</ele></trkpt>
   <trkpt lat="50.03268" lon="14.408643"><ele>196</ele></trkpt>
   <trkpt lat="50.032891" lon="14.408587"><ele>195.75</ele></trkpt>
   <trkpt lat="50.032982" lon="14.408554"><ele>195.5</ele></trkpt>
   <trkpt lat="50.033182" lon="14.408442"><ele>195.25</ele></trkpt>
   <trkpt lat="50.033338" lon="14.40833"><ele>195.75</ele></trkpt>
   <trkpt lat="50.033412" lon="14.408265"><ele>195.25</ele></trkpt>
   <trkpt lat="50.03357" lon="14.408101"><ele>195.5</ele></trkpt>
   <trkpt lat="50.034134" lon="14.407481"><ele>195.5</ele></trkpt>
   <trkpt lat="50.034135" lon="14.407479"><ele>195.25</ele></trkpt>
  </trkseg>
 </trk>
</gpx>