<?xml version="1.0" encoding="UTF-8"?>
<!-- track-length = 262 filtered ascend = 0 plain-ascend = 0 cost=524 energy=0.0kwh time=21s -->
<gpx 
 xmlns="http://www.topografix.com/GPX/1/1" 
 xmlns:xsi="http://www.w3.org/2001/XMLSchema-instance" 
 xsi:schemaLocation="http://www.topografix.com/GPX/1/1 http://www.topografix.com/GPX/1/1/gpx.xsd" 
 version="1.1" 
 creator="BRouter-Web 0.18.1">
 <trk>
  <name>Dvorce (Steig A) - Dreieck Dvorce Weiche Südwest-Ost</name>
  <trkseg>
   <trkpt lat="50.0477" lon="14.414338"><ele>193</ele></trkpt>
   <trkpt lat="50.047706" lon="14.414341"><ele>193</ele></trkpt>
   <trkpt lat="50.047762" lon="14.414372"><ele>193</ele></trkpt>
   <trkpt lat="50.047811" lon="14.414399"><ele>193</ele></trkpt>
   <trkpt lat="50.049913" lon="14.415559"><ele>193</ele></trkpt>
  </trkseg>
 </trk>
</gpx>