<?xml version="1.0" encoding="UTF-8"?>
<!-- track-length = 56 filtered ascend = 1 plain-ascend = 1 cost=112 energy=0.0kwh time=4s -->
<gpx 
 xmlns="http://www.topografix.com/GPX/1/1" 
 xmlns:xsi="http://www.w3.org/2001/XMLSchema-instance" 
 xsi:schemaLocation="http://www.topografix.com/GPX/1/1 http://www.topografix.com/GPX/1/1/gpx.xsd" 
 version="1.1" 
 creator="BRouter-Web 0.18.1">
 <trk>
  <name>Dreieck Antonplatz Weiche 221 - Dreieck Antonplatz Weiche 528</name>
  <trkseg>
   <trkpt lat="52.548519" lon="13.450652"><ele>46</ele></trkpt>
   <trkpt lat="52.54852" lon="13.450652"><ele>46</ele></trkpt>
   <trkpt lat="52.548496" lon="13.450692"><ele>46</ele></trkpt>
   <trkpt lat="52.548441" lon="13.450791"><ele>46.5</ele></trkpt>
   <trkpt lat="52.548425" lon="13.450822"><ele>46.5</ele></trkpt>
   <trkpt lat="52.548386" lon="13.450898"><ele>46.75</ele></trkpt>
   <trkpt lat="52.548357" lon="13.451006"><ele>46.75</ele></trkpt>
   <trkpt lat="52.548346" lon="13.451127"><ele>47</ele></trkpt>
   <trkpt lat="52.548346" lon="13.451221"><ele>47</ele></trkpt>
   <trkpt lat="52.548352" lon="13.451266"><ele>47</ele></trkpt>
   <trkpt lat="52.548368" lon="13.451365"><ele>47</ele></trkpt>
  </trkseg>
 </trk>
</gpx>