<?xml version="1.0" encoding="UTF-8"?>
<!-- track-length = 47 filtered ascend = 0 plain-ascend = -2 cost=94 energy=0.0kwh time=4s -->
<gpx 
 xmlns="http://www.topografix.com/GPX/1/1" 
 xmlns:xsi="http://www.w3.org/2001/XMLSchema-instance" 
 xsi:schemaLocation="http://www.topografix.com/GPX/1/1 http://www.topografix.com/GPX/1/1/gpx.xsd" 
 version="1.1" 
 creator="BRouter-Web 0.18.1">
 <trk>
  <name>Gorbitz Betriebshof (Steig 1) - Üst Gorbitz Betriebshof Südwest Weiche Südwest</name>
  <trkseg>
   <trkpt lat="51.04707" lon="13.653367"><ele>208.5</ele></trkpt>
   <trkpt lat="51.047087" lon="13.653393"><ele>208.5</ele></trkpt>
   <trkpt lat="51.047124" lon="13.653451"><ele>208.25</ele></trkpt>
   <trkpt lat="51.047279" lon="13.653711"><ele>207</ele></trkpt>
   <trkpt lat="51.047356" lon="13.653841"><ele>206</ele></trkpt>
  </trkseg>
 </trk>
</gpx>