<?xml version="1.0" encoding="UTF-8"?>
<!-- track-length = 561 filtered ascend = 0 plain-ascend = -19 cost=1122 energy=0.0kwh time=45s -->
<gpx 
 xmlns="http://www.topografix.com/GPX/1/1" 
 xmlns:xsi="http://www.w3.org/2001/XMLSchema-instance" 
 xsi:schemaLocation="http://www.topografix.com/GPX/1/1 http://www.topografix.com/GPX/1/1/gpx.xsd" 
 version="1.1" 
 creator="BRouter-Web 0.18.1">
 <trk>
  <name>Kirschenstraße (Steig 1) - Merianplatz (Steig 1)</name>
  <trkseg>
   <trkpt lat="51.045716" lon="13.66372"><ele>185</ele></trkpt>
   <trkpt lat="51.045652" lon="13.663745"><ele>185.25</ele></trkpt>
   <trkpt lat="51.045446" lon="13.663836"><ele>185.5</ele></trkpt>
   <trkpt lat="51.045372" lon="13.663877"><ele>185.5</ele></trkpt>
   <trkpt lat="51.045253" lon="13.663956"><ele>185.75</ele></trkpt>
   <trkpt lat="51.04516" lon="13.66403"><ele>185.5</ele></trkpt>
   <trkpt lat="51.044985" lon="13.664195"><ele>185</ele></trkpt>
   <trkpt lat="51.044796" lon="13.664433"><ele>185</ele></trkpt>
   <trkpt lat="51.044704" lon="13.664574"><ele>184.5</ele></trkpt>
   <trkpt lat="51.044617" lon="13.664729"><ele>185</ele></trkpt>
   <trkpt lat="51.04448" lon="13.665025"><ele>182.25</ele></trkpt>
   <trkpt lat="51.044365" lon="13.665361"><ele>182.75</ele></trkpt>
   <trkpt lat="51.044318" lon="13.66553"><ele>183.75</ele></trkpt>
   <trkpt lat="51.044276" lon="13.665731"><ele>183.25</ele></trkpt>
   <trkpt lat="51.044243" lon="13.66591"><ele>181.75</ele></trkpt>
   <trkpt lat="51.044218" lon="13.666104"><ele>179.75</ele></trkpt>
   <trkpt lat="51.044204" lon="13.666274"><ele>179</ele></trkpt>
   <trkpt lat="51.044195" lon="13.666481"><ele>178</ele></trkpt>
   <trkpt lat="51.044202" lon="13.666846"><ele>177</ele></trkpt>
   <trkpt lat="51.044329" lon="13.668186"><ele>175</ele></trkpt>
   <trkpt lat="51.044472" lon="13.669583"><ele>167</ele></trkpt>
   <trkpt lat="51.044538" lon="13.670247"><ele>166</ele></trkpt>
   <trkpt lat="51.044556" lon="13.670439"><ele>164.75</ele></trkpt>
  </trkseg>
 </trk>
</gpx>