<?xml version="1.0" encoding="UTF-8"?>
<!-- track-length = 71 filtered ascend = 0 plain-ascend = -4 cost=142 energy=0.0kwh time=6s -->
<gpx 
 xmlns="http://www.topografix.com/GPX/1/1" 
 xmlns:xsi="http://www.w3.org/2001/XMLSchema-instance" 
 xsi:schemaLocation="http://www.topografix.com/GPX/1/1 http://www.topografix.com/GPX/1/1/gpx.xsd" 
 version="1.1" 
 creator="BRouter-Web 0.18.1">
 <trk>
  <name>Üst Amalie-Dietrich-Platz West Weiche Südwest - Üst Amalie-Dietrich-Platz Ost Weiche Südost</name>
  <trkseg>
   <trkpt lat="51.045128" lon="13.676249"><ele>146.5</ele></trkpt>
   <trkpt lat="51.045129" lon="13.676253"><ele>146.5</ele></trkpt>
   <trkpt lat="51.045183" lon="13.676784"><ele>141.5</ele></trkpt>
   <trkpt lat="51.045227" lon="13.677218"><ele>141.5</ele></trkpt>
   <trkpt lat="51.045227" lon="13.677216"><ele>143.5</ele></trkpt>
  </trkseg>
 </trk>
</gpx>