<?xml version="1.0" encoding="UTF-8"?>
<!-- track-length = 74 filtered ascend = 0 plain-ascend = 0 cost=148 energy=0.0kwh time=6s -->
<gpx 
 xmlns="http://www.topografix.com/GPX/1/1" 
 xmlns:xsi="http://www.w3.org/2001/XMLSchema-instance" 
 xsi:schemaLocation="http://www.topografix.com/GPX/1/1 http://www.topografix.com/GPX/1/1/gpx.xsd" 
 version="1.1" 
 creator="BRouter-Web 0.18.1">
 <trk>
  <name>Üst Amalie-Dietrich-Platz Ost Weiche Südost - Amalie-Dietrich-Platz (Steig 1)</name>
  <trkseg>
   <trkpt lat="51.045227" lon="13.677216"><ele>141.5</ele></trkpt>
   <trkpt lat="51.045227" lon="13.677218"><ele>141.5</ele></trkpt>
   <trkpt lat="51.045254" lon="13.677459"><ele>141.25</ele></trkpt>
   <trkpt lat="51.045264" lon="13.677551"><ele>141</ele></trkpt>
   <trkpt lat="51.045331" lon="13.678239"><ele>141</ele></trkpt>
  </trkseg>
 </trk>
</gpx>