<?xml version="1.0" encoding="UTF-8"?>
<!-- track-length = 333 filtered ascend = 0 plain-ascend = -12 cost=666 energy=0.0kwh time=27s -->
<gpx 
 xmlns="http://www.topografix.com/GPX/1/1" 
 xmlns:xsi="http://www.w3.org/2001/XMLSchema-instance" 
 xsi:schemaLocation="http://www.topografix.com/GPX/1/1 http://www.topografix.com/GPX/1/1/gpx.xsd" 
 version="1.1" 
 creator="BRouter-Web 0.18.1">
 <trk>
  <name>Üst Gorbitz Betriebshof Nordost Weiche Nordost - Schlehenstraße (Steig 1)</name>
  <trkseg>
   <trkpt lat="51.047856" lon="13.654915"><ele>202</ele></trkpt>
   <trkpt lat="51.047916" lon="13.655093"><ele>201.5</ele></trkpt>
   <trkpt lat="51.048046" lon="13.655485"><ele>200.25</ele></trkpt>
   <trkpt lat="51.048363" lon="13.656493"><ele>195.25</ele></trkpt>
   <trkpt lat="51.048428" lon="13.656724"><ele>194.5</ele></trkpt>
   <trkpt lat="51.048576" lon="13.657348"><ele>193.5</ele></trkpt>
   <trkpt lat="51.048622" lon="13.657575"><ele>192.5</ele></trkpt>
   <trkpt lat="51.048758" lon="13.658357"><ele>190.25</ele></trkpt>
   <trkpt lat="51.048923" lon="13.659307"><ele>189</ele></trkpt>
   <trkpt lat="51.048925" lon="13.659322"><ele>189</ele></trkpt>
  </trkseg>
 </trk>
</gpx>