<?xml version="1.0" encoding="UTF-8"?>
<!-- track-length = 81 filtered ascend = 0 plain-ascend = 1 cost=162 energy=0.0kwh time=6s -->
<gpx 
 xmlns="http://www.topografix.com/GPX/1/1" 
 xmlns:xsi="http://www.w3.org/2001/XMLSchema-instance" 
 xsi:schemaLocation="http://www.topografix.com/GPX/1/1 http://www.topografix.com/GPX/1/1/gpx.xsd" 
 version="1.1" 
 creator="BRouter-Web 0.18.1">
 <trk>
  <name>Üst Kirschenstraße Süd Weiche Südwest - Kirschenstraße (Steig 1)</name>
  <trkseg>
   <trkpt lat="51.046425" lon="13.663466"><ele>184.75</ele></trkpt>
   <trkpt lat="51.046322" lon="13.663503"><ele>185</ele></trkpt>
   <trkpt lat="51.046298" lon="13.663512"><ele>185</ele></trkpt>
   <trkpt lat="51.045744" lon="13.66371"><ele>185</ele></trkpt>
   <trkpt lat="51.045716" lon="13.66372"><ele>185.25</ele></trkpt>
  </trkseg>
 </trk>
</gpx>