<?xml version="1.0" encoding="UTF-8"?>
<!-- track-length = 266 filtered ascend = 0 plain-ascend = -2 cost=532 energy=0.0kwh time=21s -->
<gpx 
 xmlns="http://www.topografix.com/GPX/1/1" 
 xmlns:xsi="http://www.w3.org/2001/XMLSchema-instance" 
 xsi:schemaLocation="http://www.topografix.com/GPX/1/1 http://www.topografix.com/GPX/1/1/gpx.xsd" 
 version="1.1" 
 creator="BRouter-Web 0.18.1">
 <trk>
  <name>Abzweig Mannerheimintie/Reijolankatu Weiche Südwest - Abzweig Mannerheimintie/Nordenskiöldinkatu Weiche West</name>
  <trkseg>
   <trkpt lat="60.189904" lon="24.915964"><ele>12</ele></trkpt>
   <trkpt lat="60.189903" lon="24.915968"><ele>12</ele></trkpt>
   <trkpt lat="60.189764" lon="24.916249"><ele>12</ele></trkpt>
   <trkpt lat="60.189685" lon="24.916382"><ele>12</ele></trkpt>
   <trkpt lat="60.18965" lon="24.916443"><ele>12</ele></trkpt>
   <trkpt lat="60.189573" lon="24.916571"><ele>12</ele></trkpt>
   <trkpt lat="60.189535" lon="24.916631"><ele>12</ele></trkpt>
   <trkpt lat="60.189523" lon="24.916649"><ele>12</ele></trkpt>
   <trkpt lat="60.18908" lon="24.917347"><ele>12.5</ele></trkpt>
   <trkpt lat="60.188973" lon="24.917489"><ele>12</ele></trkpt>
   <trkpt lat="60.18884" lon="24.917643"><ele>12</ele></trkpt>
   <trkpt lat="60.188222" lon="24.918319"><ele>10.5</ele></trkpt>
   <trkpt lat="60.18818" lon="24.918368"><ele>10.25</ele></trkpt>
   <trkpt lat="60.188106" lon="24.918451"><ele>9.75</ele></trkpt>
   <trkpt lat="60.187988" lon="24.918575"><ele>9</ele></trkpt>
   <trkpt lat="60.187935" lon="24.918629"><ele>9</ele></trkpt>
   <trkpt lat="60.187933" lon="24.91863"><ele>9</ele></trkpt>
  </trkseg>
 </trk>
</gpx>