<?xml version="1.0" encoding="UTF-8"?>
<!-- track-length = 61 filtered ascend = 0 plain-ascend = 1 cost=122 energy=0.0kwh time=5s -->
<gpx 
 xmlns="http://www.topografix.com/GPX/1/1" 
 xmlns:xsi="http://www.w3.org/2001/XMLSchema-instance" 
 xsi:schemaLocation="http://www.topografix.com/GPX/1/1 http://www.topografix.com/GPX/1/1/gpx.xsd" 
 version="1.1" 
 creator="BRouter-Web 0.18.1">
 <trk>
  <name>Abzweig Velodromi Weiche Südost-Ost - Abzweig Velodromi Weiche Südwest-Nordwest</name>
  <trkseg>
   <trkpt lat="60.20037" lon="24.944998"><ele>12</ele></trkpt>
   <trkpt lat="60.200371" lon="24.944998"><ele>12</ele></trkpt>
   <trkpt lat="60.200448" lon="24.944944"><ele>12</ele></trkpt>
   <trkpt lat="60.200494" lon="24.944909"><ele>12</ele></trkpt>
   <trkpt lat="60.200533" lon="24.944876"><ele>12</ele></trkpt>
   <trkpt lat="60.200581" lon="24.944823"><ele>11.75</ele></trkpt>
   <trkpt lat="60.20062" lon="24.944751"><ele>11.75</ele></trkpt>
   <trkpt lat="60.20065" lon="24.944673"><ele>11.5</ele></trkpt>
   <trkpt lat="60.200669" lon="24.944597"><ele>11.75</ele></trkpt>
   <trkpt lat="60.20068" lon="24.944516"><ele>11.75</ele></trkpt>
   <trkpt lat="60.200687" lon="24.944372"><ele>12</ele></trkpt>
   <trkpt lat="60.200681" lon="24.944286"><ele>12.25</ele></trkpt>
   <trkpt lat="60.20068" lon="24.944282"><ele>12.75</ele></trkpt>
  </trkseg>
 </trk>
</gpx>