<?xml version="1.0" encoding="UTF-8"?>
<!-- track-length = 179 filtered ascend = 5 plain-ascend = 6 cost=358 energy=0.0kwh time=14s -->
<gpx 
 xmlns="http://www.topografix.com/GPX/1/1" 
 xmlns:xsi="http://www.w3.org/2001/XMLSchema-instance" 
 xsi:schemaLocation="http://www.topografix.com/GPX/1/1 http://www.topografix.com/GPX/1/1/gpx.xsd" 
 version="1.1" 
 creator="BRouter-Web 0.18.1">
 <trk>
  <name>Velodromi (Steig Südwest-Nordwest) - Abzweig Ratamestarinkatu Weiche Nordost</name>
  <trkseg>
   <trkpt lat="60.200555" lon="24.943223"><ele>14</ele></trkpt>
   <trkpt lat="60.200516" lon="24.942893"><ele>14.75</ele></trkpt>
   <trkpt lat="60.20049" lon="24.942667"><ele>15.5</ele></trkpt>
   <trkpt lat="60.200286" lon="24.940944"><ele>17.5</ele></trkpt>
   <trkpt lat="60.200224" lon="24.9404"><ele>19.25</ele></trkpt>
   <trkpt lat="60.200188" lon="24.940083"><ele>19.5</ele></trkpt>
  </trkseg>
 </trk>
</gpx>