<?xml version="1.0" encoding="UTF-8"?>
<!-- track-length = 50 filtered ascend = 0 plain-ascend = -1 cost=100 energy=0.0kwh time=4s -->
<gpx 
 xmlns="http://www.topografix.com/GPX/1/1" 
 xmlns:xsi="http://www.w3.org/2001/XMLSchema-instance" 
 xsi:schemaLocation="http://www.topografix.com/GPX/1/1 http://www.topografix.com/GPX/1/1/gpx.xsd" 
 version="1.1" 
 creator="BRouter-Web 0.18.1">
 <trk>
  <name>Kreuz Oopera Weiche Südost-nach-Nordost-Südost - Kreuz Oopera Weiche Südost-nach-Nordost-Nordost</name>
  <trkseg>
   <trkpt lat="60.181574" lon="24.92752"><ele>7</ele></trkpt>
   <trkpt lat="60.181576" lon="24.927519"><ele>7</ele></trkpt>
   <trkpt lat="60.181613" lon="24.927508"><ele>7</ele></trkpt>
   <trkpt lat="60.181646" lon="24.927496"><ele>7</ele></trkpt>
   <trkpt lat="60.181665" lon="24.927489"><ele>7</ele></trkpt>
   <trkpt lat="60.181734" lon="24.927495"><ele>7</ele></trkpt>
   <trkpt lat="60.181765" lon="24.927516"><ele>7</ele></trkpt>
   <trkpt lat="60.181819" lon="24.927583"><ele>7</ele></trkpt>
   <trkpt lat="60.181844" lon="24.92763"><ele>7</ele></trkpt>
   <trkpt lat="60.18189" lon="24.927737"><ele>7</ele></trkpt>
   <trkpt lat="60.181929" lon="24.927838"><ele>7</ele></trkpt>
   <trkpt lat="60.181929" lon="24.92784"><ele>5</ele></trkpt>
  </trkseg>
 </trk>
</gpx>