<?xml version="1.0" encoding="UTF-8"?>
<!-- track-length = 96 filtered ascend = 0 plain-ascend = -1 cost=192 energy=0.0kwh time=8s -->
<gpx 
 xmlns="http://www.topografix.com/GPX/1/1" 
 xmlns:xsi="http://www.w3.org/2001/XMLSchema-instance" 
 xsi:schemaLocation="http://www.topografix.com/GPX/1/1 http://www.topografix.com/GPX/1/1/gpx.xsd" 
 version="1.1" 
 creator="BRouter-Web 0.18.1">
 <trk>
  <name>Kreuz Oopera Weiche Südost-nach-Nordost-Nordost - Oopera (Steig Nordost-Südost)</name>
  <trkseg>
   <trkpt lat="60.181929" lon="24.92784"><ele>6.75</ele></trkpt>
   <trkpt lat="60.182397" lon="24.929299"><ele>5</ele></trkpt>
  </trkseg>
 </trk>
</gpx>