<?xml version="1.0" encoding="UTF-8"?>
<!-- track-length = 290 filtered ascend = 0 plain-ascend = -1 cost=580 energy=0.0kwh time=23s -->
<gpx 
 xmlns="http://www.topografix.com/GPX/1/1" 
 xmlns:xsi="http://www.w3.org/2001/XMLSchema-instance" 
 xsi:schemaLocation="http://www.topografix.com/GPX/1/1 http://www.topografix.com/GPX/1/1/gpx.xsd" 
 version="1.1" 
 creator="BRouter-Web 0.18.1">
 <trk>
  <name>Oopera (Steig Nordost-Südost) - Kaupunginpuutarha (Steig Südost)</name>
  <trkseg>
   <trkpt lat="60.182397" lon="24.929299"><ele>5</ele></trkpt>
   <trkpt lat="60.182434" lon="24.929414"><ele>5</ele></trkpt>
   <trkpt lat="60.182451" lon="24.929468"><ele>4.75</ele></trkpt>
   <trkpt lat="60.182465" lon="24.929512"><ele>4.75</ele></trkpt>
   <trkpt lat="60.182517" lon="24.929675"><ele>5</ele></trkpt>
   <trkpt lat="60.182525" lon="24.929701"><ele>5</ele></trkpt>
   <trkpt lat="60.182924" lon="24.930937"><ele>5</ele></trkpt>
   <trkpt lat="60.182974" lon="24.931056"><ele>5</ele></trkpt>
   <trkpt lat="60.183029" lon="24.931161"><ele>4.75</ele></trkpt>
   <trkpt lat="60.183091" lon="24.931252"><ele>4.75</ele></trkpt>
   <trkpt lat="60.183173" lon="24.931351"><ele>4.5</ele></trkpt>
   <trkpt lat="60.183246" lon="24.931415"><ele>4.25</ele></trkpt>
   <trkpt lat="60.183319" lon="24.93146"><ele>4</ele></trkpt>
   <trkpt lat="60.183819" lon="24.931701"><ele>2.75</ele></trkpt>
   <trkpt lat="60.183937" lon="24.931757"><ele>3</ele></trkpt>
   <trkpt lat="60.183966" lon="24.931771"><ele>3</ele></trkpt>
   <trkpt lat="60.184039" lon="24.931806"><ele>3</ele></trkpt>
   <trkpt lat="60.184102" lon="24.931836"><ele>3</ele></trkpt>
   <trkpt lat="60.184123" lon="24.931844"><ele>3</ele></trkpt>
   <trkpt lat="60.184385" lon="24.931973"><ele>2.75</ele></trkpt>
   <trkpt lat="60.184417" lon="24.931989"><ele>2.75</ele></trkpt>
  </trkseg>
 </trk>
</gpx>