<?xml version="1.0" encoding="UTF-8"?>
<!-- track-length = 48 filtered ascend = 0 plain-ascend = 0 cost=96 energy=0.0kwh time=4s -->
<gpx 
 xmlns="http://www.topografix.com/GPX/1/1" 
 xmlns:xsi="http://www.w3.org/2001/XMLSchema-instance" 
 xsi:schemaLocation="http://www.topografix.com/GPX/1/1 http://www.topografix.com/GPX/1/1/gpx.xsd" 
 version="1.1" 
 creator="BRouter-Web 0.18.1">
 <trk>
  <name>Dreieck Naturkundemuseum Weiche 750 - U Naturkundemuseum (Steig 2)</name>
  <trkseg>
   <trkpt lat="52.530481" lon="13.382721"><ele>35</ele></trkpt>
   <trkpt lat="52.530299" lon="13.382091"><ele>35</ele></trkpt>
   <trkpt lat="52.530298" lon="13.382088"><ele>35</ele></trkpt>
  </trkseg>
 </trk>
</gpx>