<?xml version="1.0" encoding="UTF-8"?>
<!-- track-length = 62 filtered ascend = 0 plain-ascend = 0 cost=124 energy=0.0kwh time=5s -->
<gpx 
 xmlns="http://www.topografix.com/GPX/1/1" 
 xmlns:xsi="http://www.w3.org/2001/XMLSchema-instance" 
 xsi:schemaLocation="http://www.topografix.com/GPX/1/1 http://www.topografix.com/GPX/1/1/gpx.xsd" 
 version="1.1" 
 creator="BRouter-Web 0.18.1">
 <trk>
  <name>Dreieck Naturkundemuseum Weiche 21 - Dreieck Naturkundemuseum Weiche 750</name>
  <trkseg>
   <trkpt lat="52.530707" lon="13.383542"><ele>35</ele></trkpt>
   <trkpt lat="52.530706" lon="13.383538"><ele>35.25</ele></trkpt>
   <trkpt lat="52.530615" lon="13.383215"><ele>35</ele></trkpt>
   <trkpt lat="52.530576" lon="13.383063"><ele>35</ele></trkpt>
   <trkpt lat="52.53057" lon="13.383042"><ele>35</ele></trkpt>
   <trkpt lat="52.530513" lon="13.382838"><ele>35</ele></trkpt>
   <trkpt lat="52.530483" lon="13.382727"><ele>35</ele></trkpt>
   <trkpt lat="52.530481" lon="13.382721"><ele>35</ele></trkpt>
  </trkseg>
 </trk>
</gpx>