<?xml version="1.0" encoding="UTF-8"?>
<!-- track-length = 46 filtered ascend = 0 plain-ascend = 0 cost=92 energy=0.0kwh time=4s -->
<gpx 
 xmlns="http://www.topografix.com/GPX/1/1" 
 xmlns:xsi="http://www.w3.org/2001/XMLSchema-instance" 
 xsi:schemaLocation="http://www.topografix.com/GPX/1/1 http://www.topografix.com/GPX/1/1/gpx.xsd" 
 version="1.1" 
 creator="BRouter-Web 0.18.1">
 <trk>
  <name>Dreieck Uzvaras parks Weiche Nordwest-Nordost - Uzvaras parks (Steig Nordwest-Nordost)</name>
  <trkseg>
   <trkpt lat="56.939947" lon="24.091007"><ele>3</ele></trkpt>
   <trkpt lat="56.940113" lon="24.09032"><ele>3</ele></trkpt>
  </trkseg>
 </trk>
</gpx>