<?xml version="1.0" encoding="UTF-8"?>
<!-- track-length = 45 filtered ascend = 0 plain-ascend = 0 cost=90 energy=0.0kwh time=4s -->
<gpx 
 xmlns="http://www.topografix.com/GPX/1/1" 
 xmlns:xsi="http://www.w3.org/2001/XMLSchema-instance" 
 xsi:schemaLocation="http://www.topografix.com/GPX/1/1 http://www.topografix.com/GPX/1/1/gpx.xsd" 
 version="1.1" 
 creator="BRouter-Web 0.18.1">
 <trk>
  <name>Dreieck Runeberginkatu/Ruusulankatu Weiche Südwest-Südost - Dreieck Runeberginkatu/Ruusulankatu Weiche Nordost-Südost</name>
  <trkseg>
   <trkpt lat="60.180992" lon="24.92553"><ele>9.25</ele></trkpt>
   <trkpt lat="60.180995" lon="24.925537"><ele>9.25</ele></trkpt>
   <trkpt lat="60.181035" lon="24.925635"><ele>9.25</ele></trkpt>
   <trkpt lat="60.18105" lon="24.925673"><ele>9</ele></trkpt>
   <trkpt lat="60.181093" lon="24.925781"><ele>8.75</ele></trkpt>
   <trkpt lat="60.181116" lon="24.925836"><ele>8.75</ele></trkpt>
   <trkpt lat="60.181234" lon="24.926128"><ele>8.5</ele></trkpt>
   <trkpt lat="60.181233" lon="24.926125"><ele>8.5</ele></trkpt>
  </trkseg>
 </trk>
</gpx>
