<?xml version="1.0" encoding="UTF-8"?>
<!-- track-length = 39 filtered ascend = 0 plain-ascend = 0 cost=78 energy=0.0kwh time=3.4s -->
<gpx 
 xmlns="http://www.topografix.com/GPX/1/1" 
 xmlns:xsi="http://www.w3.org/2001/XMLSchema-instance" 
 xsi:schemaLocation="http://www.topografix.com/GPX/1/1 http://www.topografix.com/GPX/1/1/gpx.xsd" 
 version="1.1" 
 creator="BRouter-Web 0.18.1">
 <trk>
  <name>Dreieck Runeberginkatu/Ruusulankatu Weiche Nordwest-Südwest - Dreieck Runeberginkatu/Ruusulankatu Weiche Nordost-Südost</name>
  <trkseg>
   <trkpt lat="60.181291" lon="24.925532"><ele>9</ele></trkpt>
   <trkpt lat="60.181288" lon="24.925537"><ele>9</ele></trkpt>
   <trkpt lat="60.181226" lon="24.925645"><ele>9</ele></trkpt>
   <trkpt lat="60.181203" lon="24.925706"><ele>9</ele></trkpt>
   <trkpt lat="60.181187" lon="24.925791"><ele>9</ele></trkpt>
   <trkpt lat="60.181187" lon="24.92592"><ele>8.75</ele></trkpt>
   <trkpt lat="60.181207" lon="24.926041"><ele>8.5</ele></trkpt>
   <trkpt lat="60.181232" lon="24.926124"><ele>8.5</ele></trkpt>
  </trkseg>
 </trk>
</gpx>