<?xml version="1.0" encoding="UTF-8"?>
<!-- track-length = 986 filtered ascend = 1 plain-ascend = 0 cost=1974 energy=0.0kwh time=1m 19s -->
<gpx 
 xmlns="http://www.topografix.com/GPX/1/1" 
 xmlns:xsi="http://www.w3.org/2001/XMLSchema-instance" 
 xsi:schemaLocation="http://www.topografix.com/GPX/1/1 http://www.topografix.com/GPX/1/1/gpx.xsd" 
 version="1.1" 
 creator="BRouter-Web 0.18.1">
 <trk>
  <name>Abzweig Capelsebrug Weiche Nord - Kralingse Zoom Weiche 1231</name>
  <trkseg>
   <trkpt lat="51.919885" lon="4.552415"><ele>-0.25</ele></trkpt>
   <trkpt lat="51.919737" lon="4.551705"><ele>-0.25</ele></trkpt>
   <trkpt lat="51.91965" lon="4.551186"><ele>-0.25</ele></trkpt>
   <trkpt lat="51.919615" lon="4.550924"><ele>-0.25</ele></trkpt>
   <trkpt lat="51.919585" lon="4.550636"><ele>-0.25</ele></trkpt>
   <trkpt lat="51.919563" lon="4.550331"><ele>-0.25</ele></trkpt>
   <trkpt lat="51.919548" lon="4.550007"><ele>-0.25</ele></trkpt>
   <trkpt lat="51.919537" lon="4.549402"><ele>-0.25</ele></trkpt>
   <trkpt lat="51.919507" lon="4.545043"><ele>-0.25</ele></trkpt>
   <trkpt lat="51.919517" lon="4.544291"><ele>-0.25</ele></trkpt>
   <trkpt lat="51.919545" lon="4.54367"><ele>-0.25</ele></trkpt>
   <trkpt lat="51.919593" lon="4.542984"><ele>-0.25</ele></trkpt>
   <trkpt lat="51.919715" lon="4.541662"><ele>0.75</ele></trkpt>
   <trkpt lat="51.919809" lon="4.540853"><ele>0.5</ele></trkpt>
   <trkpt lat="51.919881" lon="4.540385"><ele>0.25</ele></trkpt>
   <trkpt lat="51.919994" lon="4.539808"><ele>0</ele></trkpt>
   <trkpt lat="51.920112" lon="4.539285"><ele>0</ele></trkpt>
   <trkpt lat="51.920344" lon="4.538349"><ele>0</ele></trkpt>
   <trkpt lat="51.920344" lon="4.538348"><ele>-0.25</ele></trkpt>
  </trkseg>
 </trk>
</gpx>