<?xml version="1.0" encoding="UTF-8"?>
<!-- track-length = 24 filtered ascend = 0 plain-ascend = 0 cost=48 energy=0.0kwh time=2s -->
<gpx 
 xmlns="http://www.topografix.com/GPX/1/1" 
 xmlns:xsi="http://www.w3.org/2001/XMLSchema-instance" 
 xsi:schemaLocation="http://www.topografix.com/GPX/1/1 http://www.topografix.com/GPX/1/1/gpx.xsd" 
 version="1.1" 
 creator="BRouter-Web 0.18.1">
 <trk>
  <name>Blaak 2 Weiche 1211 - Blaak 2 Weiche 1209</name>
  <trkseg>
   <trkpt lat="51.920892" lon="4.49164"/>
   <trkpt lat="51.920899" lon="4.491654"/>
   <trkpt lat="51.921004" lon="4.491939"/>
  </trkseg>
 </trk>
</gpx>