<?xml version="1.0" encoding="UTF-8"?>
<!-- track-length = 51 filtered ascend = 0 plain-ascend = 0 cost=102 energy=0.0kwh time=4s -->
<gpx 
 xmlns="http://www.topografix.com/GPX/1/1" 
 xmlns:xsi="http://www.w3.org/2001/XMLSchema-instance" 
 xsi:schemaLocation="http://www.topografix.com/GPX/1/1 http://www.topografix.com/GPX/1/1/gpx.xsd" 
 version="1.1" 
 creator="BRouter-Web 0.18.1">
 <trk>
  <name>Blaak 1 Weiche 1205 - Blaak 1 Weiche 1203</name>
  <trkseg>
   <trkpt lat="51.919095" lon="4.486607"/>
   <trkpt lat="51.919015" lon="4.486198"/>
   <trkpt lat="51.918965" lon="4.485902"/>
   <trkpt lat="51.918963" lon="4.485892"/>
  </trkseg>
 </trk>
</gpx>