<?xml version="1.0" encoding="UTF-8"?>
<!-- track-length = 128 filtered ascend = 0 plain-ascend = 0 cost=256 energy=0.0kwh time=10s -->
<gpx 
 xmlns="http://www.topografix.com/GPX/1/1" 
 xmlns:xsi="http://www.w3.org/2001/XMLSchema-instance" 
 xsi:schemaLocation="http://www.topografix.com/GPX/1/1 http://www.topografix.com/GPX/1/1/gpx.xsd" 
 version="1.1" 
 creator="BRouter-Web 0.18.1">
 <trk>
  <name>Kralingse Zoom (Gleis 1) - Kralingse Zoom Weiche 1219</name>
  <trkseg>
   <trkpt lat="51.921635" lon="4.533399"/>
   <trkpt lat="51.921641" lon="4.533379"/>
   <trkpt lat="51.921686" lon="4.533188"/>
   <trkpt lat="51.921762" lon="4.532851"/>
   <trkpt lat="51.921921" lon="4.532014"/>
   <trkpt lat="51.921999" lon="4.531663"/>
   <trkpt lat="51.921999" lon="4.531661"/>
  </trkseg>
 </trk>
</gpx>