<?xml version="1.0" encoding="UTF-8"?>
<!-- track-length = 342 filtered ascend = 0 plain-ascend = 0 cost=688 energy=0.0kwh time=27s -->
<gpx 
 xmlns="http://www.topografix.com/GPX/1/1" 
 xmlns:xsi="http://www.w3.org/2001/XMLSchema-instance" 
 xsi:schemaLocation="http://www.topografix.com/GPX/1/1 http://www.topografix.com/GPX/1/1/gpx.xsd" 
 version="1.1" 
 creator="BRouter-Web 0.18.1">
 <trk>
  <name>Voorschoterlaan (Gleis 1) - Üst Voorschoterlaan Weiche 1217</name>
  <trkseg>
   <trkpt lat="51.925035" lon="4.512954"/>
   <trkpt lat="51.925156" lon="4.512323"/>
   <trkpt lat="51.925265" lon="4.511691"/>
   <trkpt lat="51.925375" lon="4.510985"/>
   <trkpt lat="51.925529" lon="4.509803"/>
   <trkpt lat="51.925606" lon="4.509086"/>
   <trkpt lat="51.9257" lon="4.508114"/>
   <trkpt lat="51.9257" lon="4.508112"/>
  </trkseg>
 </trk>
</gpx>