<?xml version="1.0" encoding="UTF-8"?>
<!-- track-length = 23 filtered ascend = 0 plain-ascend = 0 cost=46 energy=0.0kwh time=2s -->
<gpx 
 xmlns="http://www.topografix.com/GPX/1/1" 
 xmlns:xsi="http://www.w3.org/2001/XMLSchema-instance" 
 xsi:schemaLocation="http://www.topografix.com/GPX/1/1 http://www.topografix.com/GPX/1/1/gpx.xsd" 
 version="1.1" 
 creator="BRouter-Web 0.18.1">
 <trk>
  <name>Üst Voorschoterlaan Weiche 1217 - Üst Voorschoterlaan Weiche 1215</name>
  <trkseg>
   <trkpt lat="51.9257" lon="4.508112"/>
   <trkpt lat="51.925732" lon="4.507789"/>
   <trkpt lat="51.925732" lon="4.507788"/>
  </trkseg>
 </trk>
</gpx>