<?xml version="1.0" encoding="UTF-8"?>
<!-- track-length = 42 filtered ascend = 0 plain-ascend = 1 cost=84 energy=0.0kwh time=3s -->
<gpx 
 xmlns="http://www.topografix.com/GPX/1/1" 
 xmlns:xsi="http://www.w3.org/2001/XMLSchema-instance" 
 xsi:schemaLocation="http://www.topografix.com/GPX/1/1 http://www.topografix.com/GPX/1/1/gpx.xsd" 
 version="1.1" 
 creator="BRouter-Web 99.71.0">
 <trk>
  <name>Abzweig Bischofsweg Weiche 44 - Abzweig Bischofsweg Weiche 423</name>
  <link href="https://brouter.damsy.net/latest/#map=19/51.07106/13.75124/standard&amp;lonlats=13.750328,51.07144;13.75086,51.071532&amp;profile=rail">
   <text>BRouter-Web</text>
  </link>
  <trkseg>
   <trkpt lat="51.07144" lon="13.750328"><ele>113.25</ele></trkpt>
   <trkpt lat="51.07144" lon="13.750333"><ele>113.25</ele></trkpt>
   <trkpt lat="51.071426" lon="13.750519"><ele>113.75</ele></trkpt>
   <trkpt lat="51.07143" lon="13.750562"><ele>114</ele></trkpt>
   <trkpt lat="51.071437" lon="13.750657"><ele>114</ele></trkpt>
   <trkpt lat="51.071465" lon="13.750751"><ele>114</ele></trkpt>
   <trkpt lat="51.071485" lon="13.750793"><ele>114</ele></trkpt>
   <trkpt lat="51.071531" lon="13.750859"><ele>114</ele></trkpt>
  </trkseg>
 </trk>
</gpx>