<?xml version="1.0" encoding="UTF-8"?>
<!-- track-length = 447 filtered ascend = 0 plain-ascend = -2 cost=896 energy=0.0kwh time=36s -->
<gpx 
 xmlns="http://www.topografix.com/GPX/1/1" 
 xmlns:xsi="http://www.w3.org/2001/XMLSchema-instance" 
 xsi:schemaLocation="http://www.topografix.com/GPX/1/1 http://www.topografix.com/GPX/1/1/gpx.xsd" 
 version="1.1" 
 creator="BRouter-Web 0.18.1">
 <trk>
  <name>Siglstraße (Steig Nord) - Dreieck Siglstraße Weiche 21</name>
  <trkseg>
   <trkpt lat="48.134959" lon="11.514005"><ele>530</ele></trkpt>
   <trkpt lat="48.134963" lon="11.513896"><ele>530</ele></trkpt>
   <trkpt lat="48.134971" lon="11.513804"><ele>530</ele></trkpt>
   <trkpt lat="48.134988" lon="11.51374"><ele>530</ele></trkpt>
   <trkpt lat="48.135011" lon="11.51369"><ele>529.75</ele></trkpt>
   <trkpt lat="48.135053" lon="11.513645"><ele>529.75</ele></trkpt>
   <trkpt lat="48.135108" lon="11.513607"><ele>529.5</ele></trkpt>
   <trkpt lat="48.135187" lon="11.513602"><ele>529.25</ele></trkpt>
   <trkpt lat="48.135922" lon="11.513629"><ele>529</ele></trkpt>
   <trkpt lat="48.137488" lon="11.51371"><ele>528</ele></trkpt>
   <trkpt lat="48.137627" lon="11.51372"><ele>528</ele></trkpt>
   <trkpt lat="48.138782" lon="11.513784"><ele>527.25</ele></trkpt>
  </trkseg>
 </trk>
</gpx>