<?xml version="1.0" encoding="UTF-8"?>
<!-- track-length = 410 filtered ascend = 2 plain-ascend = 2 cost=820 energy=0.0kwh time=33s -->
<gpx 
 xmlns="http://www.topografix.com/GPX/1/1" 
 xmlns:xsi="http://www.w3.org/2001/XMLSchema-instance" 
 xsi:schemaLocation="http://www.topografix.com/GPX/1/1 http://www.topografix.com/GPX/1/1/gpx.xsd" 
 version="1.1" 
 creator="BRouter-Web 0.18.1">
 <trk>
  <name>Westendstraße (Steig Nordost) - Hans-Thonauer-Straße (Steig Nord)</name>
  <trkseg>
   <trkpt lat="48.134577" lon="11.521987"><ele>527.75</ele></trkpt>
   <trkpt lat="48.134645" lon="11.521872"><ele>527.75</ele></trkpt>
   <trkpt lat="48.134698" lon="11.521744"><ele>527.75</ele></trkpt>
   <trkpt lat="48.134725" lon="11.521626"><ele>528</ele></trkpt>
   <trkpt lat="48.134738" lon="11.521489"><ele>528</ele></trkpt>
   <trkpt lat="48.134815" lon="11.51875"><ele>529</ele></trkpt>
   <trkpt lat="48.134837" lon="11.517756"><ele>529</ele></trkpt>
   <trkpt lat="48.134839" lon="11.51738"><ele>529</ele></trkpt>
   <trkpt lat="48.134845" lon="11.517215"><ele>529</ele></trkpt>
   <trkpt lat="48.134852" lon="11.517065"><ele>529</ele></trkpt>
   <trkpt lat="48.134861" lon="11.516697"><ele>529.25</ele></trkpt>
   <trkpt lat="48.134867" lon="11.516524"><ele>530</ele></trkpt>
  </trkseg>
 </trk>
</gpx>