<?xml version="1.0" encoding="UTF-8"?>
<!-- track-length = 135 filtered ascend = 0 plain-ascend = 0 cost=270 energy=0.0kwh time=11s -->
<gpx 
 xmlns="http://www.topografix.com/GPX/1/1" 
 xmlns:xsi="http://www.w3.org/2001/XMLSchema-instance" 
 xsi:schemaLocation="http://www.topografix.com/GPX/1/1 http://www.topografix.com/GPX/1/1/gpx.xsd" 
 version="1.1" 
 creator="BRouter-Web 0.18.1">
 <trk>
  <name>Abzweig Wendeschleife Meilahden sairaala Weiche West - Meilahden sairaala (Steig Nord)</name>
  <trkseg>
   <trkpt lat="60.191234" lon="24.907513"><ele>20.75</ele></trkpt>
   <trkpt lat="60.191238" lon="24.907256"><ele>21</ele></trkpt>
   <trkpt lat="60.191243" lon="24.90699"><ele>21</ele></trkpt>
   <trkpt lat="60.19125" lon="24.906759"><ele>21</ele></trkpt>
   <trkpt lat="60.191274" lon="24.905933"><ele>21</ele></trkpt>
   <trkpt lat="60.191279" lon="24.90573"><ele>21</ele></trkpt>
   <trkpt lat="60.19129" lon="24.905089"><ele>20.25</ele></trkpt>
  </trkseg>
 </trk>
</gpx>