<?xml version="1.0" encoding="UTF-8"?>
<!-- track-length = 663 filtered ascend = 1 plain-ascend = -17 cost=1326 energy=0.0kwh time=53s -->
<gpx 
 xmlns="http://www.topografix.com/GPX/1/1" 
 xmlns:xsi="http://www.w3.org/2001/XMLSchema-instance" 
 xsi:schemaLocation="http://www.topografix.com/GPX/1/1 http://www.topografix.com/GPX/1/1/gpx.xsd" 
 version="1.1" 
 creator="BRouter-Web 0.18.1">
 <trk>
  <name>Meilahden sairaala (Steig Nord) - Meilahdentie (Steig Nordost)</name>
  <trkseg>
   <trkpt lat="60.19129" lon="24.905089"><ele>20.25</ele></trkpt>
   <trkpt lat="60.191292" lon="24.905029"><ele>20.25</ele></trkpt>
   <trkpt lat="60.191298" lon="24.904739"><ele>20.5</ele></trkpt>
   <trkpt lat="60.1913" lon="24.904648"><ele>20.75</ele></trkpt>
   <trkpt lat="60.191332" lon="24.90307"><ele>21.75</ele></trkpt>
   <trkpt lat="60.191349" lon="24.902217"><ele>22</ele></trkpt>
   <trkpt lat="60.191368" lon="24.901252"><ele>21</ele></trkpt>
   <trkpt lat="60.19137" lon="24.901122"><ele>21</ele></trkpt>
   <trkpt lat="60.191373" lon="24.900969"><ele>20.5</ele></trkpt>
   <trkpt lat="60.191383" lon="24.900438"><ele>19</ele></trkpt>
   <trkpt lat="60.191398" lon="24.900225"><ele>19</ele></trkpt>
   <trkpt lat="60.191425" lon="24.899982"><ele>18.75</ele></trkpt>
   <trkpt lat="60.191472" lon="24.899748"><ele>18</ele></trkpt>
   <trkpt lat="60.191523" lon="24.899551"><ele>17.5</ele></trkpt>
   <trkpt lat="60.191566" lon="24.899419"><ele>17.25</ele></trkpt>
   <trkpt lat="60.192535" lon="24.896718"><ele>9.25</ele></trkpt>
   <trkpt lat="60.192735" lon="24.896089"><ele>7</ele></trkpt>
   <trkpt lat="60.193079" lon="24.895204"><ele>3.75</ele></trkpt>
   <trkpt lat="60.193114" lon="24.895116"><ele>3.75</ele></trkpt>
   <trkpt lat="60.193139" lon="24.895053"><ele>3.75</ele></trkpt>
   <trkpt lat="60.193158" lon="24.895004"><ele>3.5</ele></trkpt>
   <trkpt lat="60.193171" lon="24.894971"><ele>3.5</ele></trkpt>
   <trkpt lat="60.193199" lon="24.894897"><ele>3.25</ele></trkpt>
   <trkpt lat="60.19339" lon="24.894396"><ele>2.75</ele></trkpt>
  </trkseg>
 </trk>
</gpx>