<?xml version="1.0" encoding="UTF-8"?>
<!-- track-length = 371 filtered ascend = 0 plain-ascend = -3 cost=742 energy=0.0kwh time=30s -->
<gpx 
 xmlns="http://www.topografix.com/GPX/1/1" 
 xmlns:xsi="http://www.w3.org/2001/XMLSchema-instance" 
 xsi:schemaLocation="http://www.topografix.com/GPX/1/1 http://www.topografix.com/GPX/1/1/gpx.xsd" 
 version="1.1" 
 creator="BRouter-Web 0.18.1">
 <trk>
  <name>Dreieck Suur Rannavärav Weiche Nordost-Südost - Linnahall (Steig Süd)</name>
  <trkseg>
   <trkpt lat="59.443161" lon="24.751544"><ele>6.75</ele></trkpt>
   <trkpt lat="59.443162" lon="24.751547"><ele>6.75</ele></trkpt>
   <trkpt lat="59.44318" lon="24.75157"><ele>6.5</ele></trkpt>
   <trkpt lat="59.443251" lon="24.751659"><ele>6.25</ele></trkpt>
   <trkpt lat="59.443378" lon="24.751812"><ele>6</ele></trkpt>
   <trkpt lat="59.443456" lon="24.751884"><ele>6</ele></trkpt>
   <trkpt lat="59.443521" lon="24.751919"><ele>6</ele></trkpt>
   <trkpt lat="59.443711" lon="24.751964"><ele>5.5</ele></trkpt>
   <trkpt lat="59.443815" lon="24.75199"><ele>5</ele></trkpt>
   <trkpt lat="59.443841" lon="24.751995"><ele>5</ele></trkpt>
   <trkpt lat="59.443992" lon="24.751998"><ele>4.5</ele></trkpt>
   <trkpt lat="59.444315" lon="24.751941"><ele>4</ele></trkpt>
   <trkpt lat="59.444464" lon="24.751936"><ele>3.75</ele></trkpt>
   <trkpt lat="59.444499" lon="24.75194"><ele>3.75</ele></trkpt>
   <trkpt lat="59.444548" lon="24.751965"><ele>3.5</ele></trkpt>
   <trkpt lat="59.444622" lon="24.75203"><ele>3.25</ele></trkpt>
   <trkpt lat="59.444697" lon="24.752128"><ele>3</ele></trkpt>
   <trkpt lat="59.44477" lon="24.752277"><ele>3</ele></trkpt>
   <trkpt lat="59.444819" lon="24.752481"><ele>3</ele></trkpt>
   <trkpt lat="59.444838" lon="24.75261"><ele>3</ele></trkpt>
   <trkpt lat="59.444854" lon="24.752796"><ele>3</ele></trkpt>
   <trkpt lat="59.444867" lon="24.753104"><ele>3</ele></trkpt>
   <trkpt lat="59.444874" lon="24.753264"><ele>3.25</ele></trkpt>
   <trkpt lat="59.444909" lon="24.754248"><ele>3</ele></trkpt>
   <trkpt lat="59.444919" lon="24.754473"><ele>3</ele></trkpt>
   <trkpt lat="59.444921" lon="24.754569"><ele>3</ele></trkpt>
   <trkpt lat="59.444949" lon="24.75534"><ele>2.75</ele></trkpt>
  </trkseg>
 </trk>
</gpx>