<?xml version="1.0" encoding="UTF-8"?>
<!-- track-length = 342 filtered ascend = 0 plain-ascend = 0 cost=684 energy=0.0kwh time=27s -->
<gpx 
 xmlns="http://www.topografix.com/GPX/1/1" 
 xmlns:xsi="http://www.w3.org/2001/XMLSchema-instance" 
 xsi:schemaLocation="http://www.topografix.com/GPX/1/1 http://www.topografix.com/GPX/1/1/gpx.xsd" 
 version="1.1" 
 creator="BRouter-Web 0.18.1">
 <trk>
  <name>Linnahall (Steig Süd) - Vanasadam (Steig Nordwest)</name>
  <trkseg>
   <trkpt lat="59.444949" lon="24.75534"><ele>2.75</ele></trkpt>
   <trkpt lat="59.444951" lon="24.755389"><ele>2.75</ele></trkpt>
   <trkpt lat="59.444954" lon="24.755472"><ele>2.75</ele></trkpt>
   <trkpt lat="59.444971" lon="24.757979"><ele>2</ele></trkpt>
   <trkpt lat="59.444971" lon="24.758035"><ele>2</ele></trkpt>
   <trkpt lat="59.44497" lon="24.758121"><ele>2</ele></trkpt>
   <trkpt lat="59.444974" lon="24.758385"><ele>2</ele></trkpt>
   <trkpt lat="59.444974" lon="24.758496"><ele>2</ele></trkpt>
   <trkpt lat="59.444973" lon="24.759063"><ele>2</ele></trkpt>
   <trkpt lat="59.444968" lon="24.759169"><ele>2</ele></trkpt>
   <trkpt lat="59.444953" lon="24.759306"><ele>2</ele></trkpt>
   <trkpt lat="59.44493" lon="24.759405"><ele>2</ele></trkpt>
   <trkpt lat="59.444908" lon="24.759468"><ele>2</ele></trkpt>
   <trkpt lat="59.444879" lon="24.759537"><ele>2</ele></trkpt>
   <trkpt lat="59.44484" lon="24.75959"><ele>2</ele></trkpt>
   <trkpt lat="59.444767" lon="24.759644"><ele>2</ele></trkpt>
   <trkpt lat="59.444663" lon="24.759653"><ele>2</ele></trkpt>
   <trkpt lat="59.444567" lon="24.759613"><ele>2</ele></trkpt>
   <trkpt lat="59.444491" lon="24.759571"><ele>2</ele></trkpt>
   <trkpt lat="59.444016" lon="24.759283"><ele>2</ele></trkpt>
   <trkpt lat="59.444014" lon="24.759282"><ele>2</ele></trkpt>
  </trkseg>
 </trk>
</gpx>