<?xml version="1.0" encoding="UTF-8"?>
<!-- track-length = 23 filtered ascend = 0 plain-ascend = 1 cost=46 energy=0.0kwh time=2s -->
<gpx 
 xmlns="http://www.topografix.com/GPX/1/1" 
 xmlns:xsi="http://www.w3.org/2001/XMLSchema-instance" 
 xsi:schemaLocation="http://www.topografix.com/GPX/1/1 http://www.topografix.com/GPX/1/1/gpx.xsd" 
 version="1.1" 
 creator="BRouter-Web 0.18.1">
 <trk>
  <name>Dreieck Eiran sairaala Weiche Ost-Süd - Eiran sairaala (Steig Ost)</name>
  <trkseg>
   <trkpt lat="60.158043" lon="24.941482"><ele>9.25</ele></trkpt>
   <trkpt lat="60.158061" lon="24.941893"><ele>10</ele></trkpt>
  </trkseg>
 </trk>
</gpx>