<?xml version="1.0" encoding="UTF-8"?>
<!-- track-length = 265 filtered ascend = 0 plain-ascend = 0 cost=532 energy=0.0kwh time=21s -->
<gpx 
 xmlns="http://www.topografix.com/GPX/1/1" 
 xmlns:xsi="http://www.w3.org/2001/XMLSchema-instance" 
 xsi:schemaLocation="http://www.topografix.com/GPX/1/1 http://www.topografix.com/GPX/1/1/gpx.xsd" 
 version="1.1" 
 creator="BRouter-Web 0.18.1">
 <trk>
  <name>Eteläranta (Steig Ost) - Abzweig Kauppatori Weiche West-Außengleis-nach-Nordost-Nordost</name>
  <trkseg>
   <trkpt lat="60.165241" lon="24.952621"><ele>2</ele></trkpt>
   <trkpt lat="60.165293" lon="24.952615"><ele>2</ele></trkpt>
   <trkpt lat="60.165315" lon="24.952612"><ele>2</ele></trkpt>
   <trkpt lat="60.165334" lon="24.952608"><ele>2</ele></trkpt>
   <trkpt lat="60.165652" lon="24.952512"><ele>2</ele></trkpt>
   <trkpt lat="60.165674" lon="24.952505"><ele>2</ele></trkpt>
   <trkpt lat="60.165726" lon="24.952494"><ele>2</ele></trkpt>
   <trkpt lat="60.165806" lon="24.95248"><ele>2</ele></trkpt>
   <trkpt lat="60.166162" lon="24.952441"><ele>2</ele></trkpt>
   <trkpt lat="60.166199" lon="24.952437"><ele>2</ele></trkpt>
   <trkpt lat="60.166241" lon="24.952433"><ele>2</ele></trkpt>
   <trkpt lat="60.166534" lon="24.952401"><ele>2.25</ele></trkpt>
   <trkpt lat="60.16655" lon="24.952399"><ele>2.25</ele></trkpt>
   <trkpt lat="60.166551" lon="24.952399"><ele>2.25</ele></trkpt>
   <trkpt lat="60.166565" lon="24.952398"><ele>2.25</ele></trkpt>
   <trkpt lat="60.167005" lon="24.95235"><ele>2.25</ele></trkpt>
   <trkpt lat="60.167226" lon="24.952327"><ele>1.75</ele></trkpt>
   <trkpt lat="60.167247" lon="24.952324"><ele>2</ele></trkpt>
   <trkpt lat="60.167323" lon="24.952312"><ele>2</ele></trkpt>
   <trkpt lat="60.167392" lon="24.952284"><ele>2</ele></trkpt>
   <trkpt lat="60.167434" lon="24.952263"><ele>2</ele></trkpt>
   <trkpt lat="60.167459" lon="24.952251"><ele>2</ele></trkpt>
   <trkpt lat="60.167595" lon="24.952225"><ele>2.25</ele></trkpt>
  </trkseg>
 </trk>
</gpx>