<?xml version="1.0" encoding="UTF-8"?>
<!-- track-length = 250 filtered ascend = 0 plain-ascend = -2 cost=500 energy=0.0kwh time=20s -->
<gpx 
 xmlns="http://www.topografix.com/GPX/1/1" 
 xmlns:xsi="http://www.w3.org/2001/XMLSchema-instance" 
 xsi:schemaLocation="http://www.topografix.com/GPX/1/1 http://www.topografix.com/GPX/1/1/gpx.xsd" 
 version="1.1" 
 creator="BRouter-Web 0.18.1">
 <trk>
  <name>Kaivopuisto (Steig Südost) - Olympiaterminaali (Steig Ost)</name>
  <trkseg>
   <trkpt lat="60.159561" lon="24.954987"><ele>10.25</ele></trkpt>
   <trkpt lat="60.159577" lon="24.95506"><ele>10.25</ele></trkpt>
   <trkpt lat="60.15959" lon="24.955115"><ele>10.25</ele></trkpt>
   <trkpt lat="60.15961" lon="24.955187"><ele>10</ele></trkpt>
   <trkpt lat="60.159651" lon="24.955282"><ele>9.5</ele></trkpt>
   <trkpt lat="60.159663" lon="24.955299"><ele>9.25</ele></trkpt>
   <trkpt lat="60.159719" lon="24.955358"><ele>9</ele></trkpt>
   <trkpt lat="60.160082" lon="24.955572"><ele>8</ele></trkpt>
   <trkpt lat="60.160097" lon="24.955581"><ele>8</ele></trkpt>
   <trkpt lat="60.160112" lon="24.95559"><ele>8</ele></trkpt>
   <trkpt lat="60.16073" lon="24.955959"><ele>7.5</ele></trkpt>
   <trkpt lat="60.160745" lon="24.955968"><ele>7.5</ele></trkpt>
   <trkpt lat="60.160819" lon="24.956025"><ele>7.75</ele></trkpt>
   <trkpt lat="60.160834" lon="24.95604"><ele>8</ele></trkpt>
   <trkpt lat="60.160933" lon="24.956159"><ele>7.5</ele></trkpt>
   <trkpt lat="60.161053" lon="24.956277"><ele>7.75</ele></trkpt>
   <trkpt lat="60.161076" lon="24.956296"><ele>8</ele></trkpt>
   <trkpt lat="60.161121" lon="24.95633"><ele>8.75</ele></trkpt>
   <trkpt lat="60.161191" lon="24.956373"><ele>8.5</ele></trkpt>
   <trkpt lat="60.16128" lon="24.956406"><ele>8.25</ele></trkpt>
   <trkpt lat="60.161318" lon="24.956416"><ele>8.25</ele></trkpt>
   <trkpt lat="60.161396" lon="24.956426"><ele>7.75</ele></trkpt>
   <trkpt lat="60.161421" lon="24.956427"><ele>7.75</ele></trkpt>
   <trkpt lat="60.161535" lon="24.956421"><ele>7.5</ele></trkpt>
   <trkpt lat="60.161608" lon="24.956407"><ele>7.5</ele></trkpt>
  </trkseg>
 </trk>
</gpx>