<?xml version="1.0" encoding="UTF-8"?>
<!-- track-length = 86 filtered ascend = 0 plain-ascend = 0 cost=172 energy=0.0kwh time=7s -->
<gpx 
 xmlns="http://www.topografix.com/GPX/1/1" 
 xmlns:xsi="http://www.w3.org/2001/XMLSchema-instance" 
 xsi:schemaLocation="http://www.topografix.com/GPX/1/1 http://www.topografix.com/GPX/1/1/gpx.xsd" 
 version="1.1" 
 creator="BRouter-Web 0.18.1">
 <trk>
  <name>Abzweig Wendeschleife John Colletts plass Weiche Ost - John Colletts plass (Steig Nordost)</name>
  <trkseg>
   <trkpt lat="59.939856" lon="10.729887"><ele>92</ele></trkpt>
   <trkpt lat="59.939856" lon="10.729888"><ele>92.25</ele></trkpt>
   <trkpt lat="59.939925" lon="10.729859"><ele>92</ele></trkpt>
   <trkpt lat="59.940012" lon="10.729792"><ele>92</ele></trkpt>
   <trkpt lat="59.940036" lon="10.729767"><ele>92</ele></trkpt>
   <trkpt lat="59.940106" lon="10.72967"><ele>91.75</ele></trkpt>
   <trkpt lat="59.940172" lon="10.729527"><ele>91.5</ele></trkpt>
   <trkpt lat="59.940215" lon="10.729403"><ele>91.75</ele></trkpt>
   <trkpt lat="59.940328" lon="10.729076"><ele>92</ele></trkpt>
   <trkpt lat="59.940398" lon="10.728867"><ele>91.25</ele></trkpt>
  </trkseg>
 </trk>
</gpx>