<?xml version="1.0" encoding="UTF-8"?>
<!-- track-length = 424 filtered ascend = 0 plain-ascend = 0 cost=848 energy=0.0kwh time=34s -->
<gpx 
 xmlns="http://www.topografix.com/GPX/1/1" 
 xmlns:xsi="http://www.w3.org/2001/XMLSchema-instance" 
 xsi:schemaLocation="http://www.topografix.com/GPX/1/1 http://www.topografix.com/GPX/1/1/gpx.xsd" 
 version="1.1" 
 creator="BRouter-Web 0.18.1">
 <trk>
  <name>Antwerp Expo (Steig Südost) - de Singel (Steig Südost)</name>
  <trkseg>
   <trkpt lat="51.192091" lon="4.399519"><ele>9.75</ele></trkpt>
   <trkpt lat="51.192124" lon="4.399566"><ele>10</ele></trkpt>
   <trkpt lat="51.192232" lon="4.399714"><ele>10</ele></trkpt>
   <trkpt lat="51.192471" lon="4.399952"><ele>10</ele></trkpt>
   <trkpt lat="51.192563" lon="4.400068"><ele>8.5</ele></trkpt>
   <trkpt lat="51.19325" lon="4.401023"><ele>7.75</ele></trkpt>
   <trkpt lat="51.193731" lon="4.401698"><ele>10</ele></trkpt>
   <trkpt lat="51.194195" lon="4.402317"><ele>9.75</ele></trkpt>
   <trkpt lat="51.194212" lon="4.402339"><ele>9.75</ele></trkpt>
   <trkpt lat="51.194291" lon="4.402444"><ele>9.75</ele></trkpt>
   <trkpt lat="51.194405" lon="4.40262"><ele>9.5</ele></trkpt>
   <trkpt lat="51.194486" lon="4.402759"><ele>9</ele></trkpt>
   <trkpt lat="51.194516" lon="4.402805"><ele>9</ele></trkpt>
   <trkpt lat="51.194727" lon="4.403117"><ele>9</ele></trkpt>
   <trkpt lat="51.194991" lon="4.403471"><ele>9</ele></trkpt>
  </trkseg>
 </trk>
</gpx>