<?xml version="1.0" encoding="UTF-8"?>
<!-- track-length = 54 filtered ascend = 0 plain-ascend = 0 cost=108 energy=0.0kwh time=4s -->
<gpx 
 xmlns="http://www.topografix.com/GPX/1/1" 
 xmlns:xsi="http://www.w3.org/2001/XMLSchema-instance" 
 xsi:schemaLocation="http://www.topografix.com/GPX/1/1 http://www.topografix.com/GPX/1/1/gpx.xsd" 
 version="1.1" 
 creator="BRouter-Web 0.18.1">
 <trk>
  <name>Dreieck P+R Olympiade Weiche Südost-Nord - Dreieck P+R Olympiade Weiche Nordost-Süd</name>
  <trkseg>
   <trkpt lat="51.184284" lon="4.390924"><ele>11</ele></trkpt>
   <trkpt lat="51.184285" lon="4.390923"><ele>11</ele></trkpt>
   <trkpt lat="51.184323" lon="4.390841"><ele>11</ele></trkpt>
   <trkpt lat="51.184366" lon="4.390789"><ele>11</ele></trkpt>
   <trkpt lat="51.184431" lon="4.390743"><ele>11</ele></trkpt>
   <trkpt lat="51.184476" lon="4.390736"><ele>11</ele></trkpt>
   <trkpt lat="51.184522" lon="4.390742"><ele>11</ele></trkpt>
   <trkpt lat="51.184596" lon="4.39079"><ele>11</ele></trkpt>
   <trkpt lat="51.184642" lon="4.390847"><ele>11</ele></trkpt>
   <trkpt lat="51.184675" lon="4.390907"><ele>11</ele></trkpt>
   <trkpt lat="51.184675" lon="4.390908"><ele>11</ele></trkpt>
  </trkseg>
 </trk>
</gpx>