<?xml version="1.0" encoding="UTF-8"?>
<!-- track-length = 222 filtered ascend = 0 plain-ascend = 0 cost=444 energy=0.0kwh time=18s -->
<gpx 
 xmlns="http://www.topografix.com/GPX/1/1" 
 xmlns:xsi="http://www.w3.org/2001/XMLSchema-instance" 
 xsi:schemaLocation="http://www.topografix.com/GPX/1/1 http://www.topografix.com/GPX/1/1/gpx.xsd" 
 version="1.1" 
 creator="BRouter-Web 0.18.1">
 <trk>
  <name>Olympiade (Steig Südost) - Volhardingstraat (Steig Südost)</name>
  <trkseg>
   <trkpt lat="51.185505" lon="4.391981"><ele>11.75</ele></trkpt>
   <trkpt lat="51.185566" lon="4.392022"><ele>12</ele></trkpt>
   <trkpt lat="51.185643" lon="4.392076"><ele>12</ele></trkpt>
   <trkpt lat="51.186148" lon="4.392456"><ele>12</ele></trkpt>
   <trkpt lat="51.186537" lon="4.392766"><ele>12</ele></trkpt>
   <trkpt lat="51.186726" lon="4.392927"><ele>12</ele></trkpt>
   <trkpt lat="51.186753" lon="4.39295"><ele>12</ele></trkpt>
   <trkpt lat="51.186871" lon="4.393052"><ele>12</ele></trkpt>
   <trkpt lat="51.186965" lon="4.393133"><ele>12</ele></trkpt>
   <trkpt lat="51.186991" lon="4.393156"><ele>12</ele></trkpt>
   <trkpt lat="51.187293" lon="4.393429"><ele>12</ele></trkpt>
  </trkseg>
 </trk>
</gpx>