<?xml version="1.0" encoding="UTF-8"?>
<!-- track-length = 236 filtered ascend = 0 plain-ascend = 0 cost=472 energy=0.0kwh time=19s -->
<gpx 
 xmlns="http://www.topografix.com/GPX/1/1" 
 xmlns:xsi="http://www.w3.org/2001/XMLSchema-instance" 
 xsi:schemaLocation="http://www.topografix.com/GPX/1/1 http://www.topografix.com/GPX/1/1/gpx.xsd" 
 version="1.1" 
 creator="BRouter-Web 0.18.1">
 <trk>
  <name>Provinciehuis (Steig Südost) - Dreieck Harmonie Weiche Südwest-Süd</name>
  <trkseg>
   <trkpt lat="51.198955" lon="4.411479"><ele>10</ele></trkpt>
   <trkpt lat="51.199009" lon="4.411505"><ele>10.25</ele></trkpt>
   <trkpt lat="51.19915" lon="4.411566"><ele>10.25</ele></trkpt>
   <trkpt lat="51.199473" lon="4.411705"><ele>10</ele></trkpt>
   <trkpt lat="51.199805" lon="4.41181"><ele>10</ele></trkpt>
   <trkpt lat="51.199951" lon="4.41185"><ele>10</ele></trkpt>
   <trkpt lat="51.200091" lon="4.411923"><ele>10</ele></trkpt>
   <trkpt lat="51.200219" lon="4.412002"><ele>10</ele></trkpt>
   <trkpt lat="51.20032" lon="4.412087"><ele>9.75</ele></trkpt>
   <trkpt lat="51.200476" lon="4.412269"><ele>10</ele></trkpt>
   <trkpt lat="51.200536" lon="4.412354"><ele>10</ele></trkpt>
   <trkpt lat="51.200606" lon="4.412473"><ele>10</ele></trkpt>
   <trkpt lat="51.200736" lon="4.412747"><ele>9.5</ele></trkpt>
   <trkpt lat="51.200801" lon="4.41291"><ele>9.75</ele></trkpt>
  </trkseg>
 </trk>
</gpx>