<?xml version="1.0" encoding="UTF-8"?>
<!-- track-length = 49 filtered ascend = 0 plain-ascend = 0 cost=98 energy=0.0kwh time=4s -->
<gpx 
 xmlns="http://www.topografix.com/GPX/1/1" 
 xmlns:xsi="http://www.w3.org/2001/XMLSchema-instance" 
 xsi:schemaLocation="http://www.topografix.com/GPX/1/1 http://www.topografix.com/GPX/1/1/gpx.xsd" 
 version="1.1" 
 creator="BRouter-Web 0.18.1">
 <trk>
  <name>Dreieck Eiran sairaala Weiche Ost-Nord - Dreieck Eiran sairaala Weiche Nordost-Ost</name>
  <trkseg>
   <trkpt lat="60.158071" lon="24.941532"><ele>9.5</ele></trkpt>
   <trkpt lat="60.158071" lon="24.941528"><ele>9.5</ele></trkpt>
   <trkpt lat="60.158071" lon="24.941366"><ele>9</ele></trkpt>
   <trkpt lat="60.1581" lon="24.941209"><ele>9</ele></trkpt>
   <trkpt lat="60.158132" lon="24.941142"><ele>9</ele></trkpt>
   <trkpt lat="60.158174" lon="24.941095"><ele>8.75</ele></trkpt>
   <trkpt lat="60.158218" lon="24.941074"><ele>8.75</ele></trkpt>
   <trkpt lat="60.158278" lon="24.941086"><ele>8.75</ele></trkpt>
   <trkpt lat="60.158335" lon="24.941131"><ele>9</ele></trkpt>
   <trkpt lat="60.158333" lon="24.941128"><ele>8.75</ele></trkpt>
  </trkseg>
 </trk>
</gpx>