<?xml version="1.0" encoding="UTF-8"?>
<!-- track-length = 219 filtered ascend = 1 plain-ascend = 1 cost=438 energy=0.0kwh time=18s -->
<gpx 
 xmlns="http://www.topografix.com/GPX/1/1" 
 xmlns:xsi="http://www.w3.org/2001/XMLSchema-instance" 
 xsi:schemaLocation="http://www.topografix.com/GPX/1/1 http://www.topografix.com/GPX/1/1/gpx.xsd" 
 version="1.1" 
 creator="BRouter-Web 0.18.1">
 <trk>
  <name>Iso Roobertinkatu (Steig Nordost) - Abzweig Fredrikinkatu Weiche Südost</name>
  <trkseg>
   <trkpt lat="60.162768" lon="24.939196"><ele>9.75</ele></trkpt>
   <trkpt lat="60.162829" lon="24.939112"><ele>9.75</ele></trkpt>
   <trkpt lat="60.162964" lon="24.938925"><ele>9.25</ele></trkpt>
   <trkpt lat="60.163469" lon="24.938227"><ele>10</ele></trkpt>
   <trkpt lat="60.163483" lon="24.938207"><ele>10</ele></trkpt>
   <trkpt lat="60.163541" lon="24.938122"><ele>10</ele></trkpt>
   <trkpt lat="60.1636" lon="24.938035"><ele>10</ele></trkpt>
   <trkpt lat="60.163617" lon="24.938011"><ele>10</ele></trkpt>
   <trkpt lat="60.163874" lon="24.937655"><ele>10.25</ele></trkpt>
   <trkpt lat="60.164148" lon="24.937277"><ele>10.75</ele></trkpt>
   <trkpt lat="60.164205" lon="24.937219"><ele>11</ele></trkpt>
   <trkpt lat="60.164248" lon="24.937191"><ele>11</ele></trkpt>
   <trkpt lat="60.164291" lon="24.937187"><ele>11</ele></trkpt>
   <trkpt lat="60.164356" lon="24.937226"><ele>11</ele></trkpt>
   <trkpt lat="60.164411" lon="24.937323"><ele>11</ele></trkpt>
  </trkseg>
 </trk>
</gpx>