<?xml version="1.0" encoding="UTF-8"?>
<!-- track-length = 63 filtered ascend = 0 plain-ascend = 0 cost=126 energy=0.0kwh time=5s -->
<gpx 
 xmlns="http://www.topografix.com/GPX/1/1" 
 xmlns:xsi="http://www.w3.org/2001/XMLSchema-instance" 
 xsi:schemaLocation="http://www.topografix.com/GPX/1/1 http://www.topografix.com/GPX/1/1/gpx.xsd" 
 version="1.1" 
 creator="BRouter-Web 0.18.1">
 <trk>
  <name>Nationale Bank (Steig Südost-Südost) - Abzweig Nationale Bank/Bourlastraat Weiche 112M207</name>
  <trkseg>
   <trkpt lat="51.21172" lon="4.408763"><ele>7</ele></trkpt>
   <trkpt lat="51.211782" lon="4.408854"><ele>7</ele></trkpt>
   <trkpt lat="51.211849" lon="4.408922"><ele>7</ele></trkpt>
   <trkpt lat="51.211923" lon="4.408952"><ele>7</ele></trkpt>
   <trkpt lat="51.211999" lon="4.408939"><ele>7</ele></trkpt>
   <trkpt lat="51.212016" lon="4.408931"><ele>7</ele></trkpt>
   <trkpt lat="51.212034" lon="4.40892"><ele>7</ele></trkpt>
   <trkpt lat="51.21208" lon="4.408874"><ele>7</ele></trkpt>
   <trkpt lat="51.212098" lon="4.408851"><ele>7</ele></trkpt>
   <trkpt lat="51.212123" lon="4.408805"><ele>7</ele></trkpt>
   <trkpt lat="51.212165" lon="4.40868"><ele>7</ele></trkpt>
   <trkpt lat="51.212165" lon="4.408676"><ele>7</ele></trkpt>
  </trkseg>
 </trk>
</gpx>