<?xml version="1.0" encoding="UTF-8"?>
<!-- track-length = 406 filtered ascend = 1 plain-ascend = 1 cost=812 energy=0.0kwh time=32s -->
<gpx 
 xmlns="http://www.topografix.com/GPX/1/1" 
 xmlns:xsi="http://www.w3.org/2001/XMLSchema-instance" 
 xsi:schemaLocation="http://www.topografix.com/GPX/1/1 http://www.topografix.com/GPX/1/1/gpx.xsd" 
 version="1.1" 
 creator="BRouter-Web 0.18.1">
 <trk>
  <name>Kaapelitehdas (Steig Ost) - Ruoholahti (Steig Süd)</name>
  <trkseg>
   <trkpt lat="60.162868" lon="24.907876"><ele>3</ele></trkpt>
   <trkpt lat="60.162898" lon="24.907868"><ele>3</ele></trkpt>
   <trkpt lat="60.162962" lon="24.907873"><ele>3</ele></trkpt>
   <trkpt lat="60.163011" lon="24.907908"><ele>3</ele></trkpt>
   <trkpt lat="60.16303" lon="24.907929"><ele>3</ele></trkpt>
   <trkpt lat="60.163062" lon="24.907982"><ele>3</ele></trkpt>
   <trkpt lat="60.163102" lon="24.908073"><ele>3</ele></trkpt>
   <trkpt lat="60.163119" lon="24.908136"><ele>3</ele></trkpt>
   <trkpt lat="60.163129" lon="24.908223"><ele>3</ele></trkpt>
   <trkpt lat="60.163135" lon="24.908284"><ele>3</ele></trkpt>
   <trkpt lat="60.163173" lon="24.909452"><ele>3</ele></trkpt>
   <trkpt lat="60.163175" lon="24.909525"><ele>3</ele></trkpt>
   <trkpt lat="60.163178" lon="24.909629"><ele>3</ele></trkpt>
   <trkpt lat="60.16318" lon="24.909687"><ele>3</ele></trkpt>
   <trkpt lat="60.163225" lon="24.910928"><ele>3</ele></trkpt>
   <trkpt lat="60.163227" lon="24.911005"><ele>3</ele></trkpt>
   <trkpt lat="60.163231" lon="24.911143"><ele>3</ele></trkpt>
   <trkpt lat="60.163233" lon="24.911203"><ele>3</ele></trkpt>
   <trkpt lat="60.163267" lon="24.912195"><ele>3</ele></trkpt>
   <trkpt lat="60.163269" lon="24.912251"><ele>3</ele></trkpt>
   <trkpt lat="60.163276" lon="24.91244"><ele>3</ele></trkpt>
   <trkpt lat="60.163284" lon="24.912696"><ele>3</ele></trkpt>
   <trkpt lat="60.163286" lon="24.912763"><ele>3</ele></trkpt>
   <trkpt lat="60.163291" lon="24.912922"><ele>3</ele></trkpt>
   <trkpt lat="60.163331" lon="24.913922"><ele>4</ele></trkpt>
   <trkpt lat="60.163332" lon="24.914013"><ele>4</ele></trkpt>
   <trkpt lat="60.16336" lon="24.914825"><ele>4</ele></trkpt>
  </trkseg>
 </trk>
</gpx>