<?xml version="1.0" encoding="UTF-8"?>
<!-- track-length = 442 filtered ascend = 0 plain-ascend = -2 cost=884 energy=0.0kwh time=35s -->
<gpx 
 xmlns="http://www.topografix.com/GPX/1/1" 
 xmlns:xsi="http://www.w3.org/2001/XMLSchema-instance" 
 xsi:schemaLocation="http://www.topografix.com/GPX/1/1 http://www.topografix.com/GPX/1/1/gpx.xsd" 
 version="1.1" 
 creator="BRouter-Web 99.71.0">
 <trk>
  <name>Most Świętego Rocha (Steig Nordost) - Plac Bernardyński (Steig Nord)</name>
  <link href="https://brouter.damsy.net/latest/#map=20/52.40434/16.93708/standard&amp;lonlats=16.942183,52.402746;16.936691,52.404401">
   <text>BRouter-Web</text>
  </link>
  <trkseg>
   <trkpt lat="52.402746" lon="16.942183"><ele>59.75</ele></trkpt>
   <trkpt lat="52.402763" lon="16.942055"><ele>59.75</ele></trkpt>
   <trkpt lat="52.402825" lon="16.941567"><ele>58.75</ele></trkpt>
   <trkpt lat="52.402855" lon="16.941404"><ele>58.5</ele></trkpt>
   <trkpt lat="52.402895" lon="16.941247"><ele>58.5</ele></trkpt>
   <trkpt lat="52.402948" lon="16.941097"><ele>58.25</ele></trkpt>
   <trkpt lat="52.403034" lon="16.94092"><ele>58</ele></trkpt>
   <trkpt lat="52.403114" lon="16.940793"><ele>57.75</ele></trkpt>
   <trkpt lat="52.403492" lon="16.940364"><ele>57</ele></trkpt>
   <trkpt lat="52.403635" lon="16.940206"><ele>57</ele></trkpt>
   <trkpt lat="52.403725" lon="16.940101"><ele>57</ele></trkpt>
   <trkpt lat="52.403837" lon="16.939946"><ele>57</ele></trkpt>
   <trkpt lat="52.40396" lon="16.939732"><ele>57</ele></trkpt>
   <trkpt lat="52.404053" lon="16.939538"><ele>57</ele></trkpt>
   <trkpt lat="52.404157" lon="16.939265"><ele>57</ele></trkpt>
   <trkpt lat="52.404213" lon="16.939078"><ele>56.75</ele></trkpt>
   <trkpt lat="52.404267" lon="16.938848"><ele>56.5</ele></trkpt>
   <trkpt lat="52.404297" lon="16.938683"><ele>56.5</ele></trkpt>
   <trkpt lat="52.404334" lon="16.938389"><ele>56.25</ele></trkpt>
   <trkpt lat="52.404348" lon="16.93817"><ele>56.25</ele></trkpt>
   <trkpt lat="52.404364" lon="16.937751"><ele>56.75</ele></trkpt>
   <trkpt lat="52.404373" lon="16.937509"><ele>57</ele></trkpt>
   <trkpt lat="52.40438" lon="16.93731"><ele>57</ele></trkpt>
   <trkpt lat="52.404385" lon="16.937186"><ele>57</ele></trkpt>
   <trkpt lat="52.404402" lon="16.936695"><ele>56.75</ele></trkpt>
   <trkpt lat="52.404402" lon="16.936691"><ele>57</ele></trkpt>
  </trkseg>
 </trk>
</gpx>