<?xml version="1.0" encoding="UTF-8"?>
<!-- track-length = 497 filtered ascend = 0 plain-ascend = -3 cost=994 energy=0.0kwh time=40s -->
<gpx 
 xmlns="http://www.topografix.com/GPX/1/1" 
 xmlns:xsi="http://www.w3.org/2001/XMLSchema-instance" 
 xsi:schemaLocation="http://www.topografix.com/GPX/1/1 http://www.topografix.com/GPX/1/1/gpx.xsd" 
 version="1.1" 
 creator="BRouter-Web 99.71.0">
 <trk>
  <name>Politechnika (Steig Nordost) - Most Świętego Rocha (Steig Nordost)</name>
  <link href="https://brouter.damsy.net/latest/#map=19/52.40251/16.94263/standard&amp;lonlats=16.948618,52.400709;16.942183,52.402746">
   <text>BRouter-Web</text>
  </link>
  <trkseg>
   <trkpt lat="52.400714" lon="16.948622"><ele>63.25</ele></trkpt>
   <trkpt lat="52.400715" lon="16.94862"><ele>63.25</ele></trkpt>
   <trkpt lat="52.400772" lon="16.948458"><ele>63</ele></trkpt>
   <trkpt lat="52.400787" lon="16.948416"><ele>63</ele></trkpt>
   <trkpt lat="52.400848" lon="16.948248"><ele>63</ele></trkpt>
   <trkpt lat="52.401398" lon="16.946703"><ele>61</ele></trkpt>
   <trkpt lat="52.401579" lon="16.946161"><ele>56.5</ele></trkpt>
   <trkpt lat="52.402501" lon="16.943458"><ele>56.75</ele></trkpt>
   <trkpt lat="52.402574" lon="16.943228"><ele>60</ele></trkpt>
   <trkpt lat="52.402635" lon="16.942993"><ele>60.75</ele></trkpt>
   <trkpt lat="52.402677" lon="16.942728"><ele>60.25</ele></trkpt>
   <trkpt lat="52.402684" lon="16.942676"><ele>60.25</ele></trkpt>
   <trkpt lat="52.402694" lon="16.942597"><ele>60.5</ele></trkpt>
   <trkpt lat="52.402729" lon="16.942329"><ele>60.25</ele></trkpt>
   <trkpt lat="52.402746" lon="16.94219"><ele>59.75</ele></trkpt>
   <trkpt lat="52.402746" lon="16.942183"><ele>59.75</ele></trkpt>
  </trkseg>
 </trk>
</gpx>