<?xml version="1.0" encoding="UTF-8"?>
<!-- track-length = 66 filtered ascend = 2 plain-ascend = 2 cost=132 energy=0.0kwh time=5s -->
<gpx 
 xmlns="http://www.topografix.com/GPX/1/1" 
 xmlns:xsi="http://www.w3.org/2001/XMLSchema-instance" 
 xsi:schemaLocation="http://www.topografix.com/GPX/1/1 http://www.topografix.com/GPX/1/1/gpx.xsd" 
 version="1.1" 
 creator="BRouter-Web 99.71.0">
 <trk>
  <name>Wrocławska (Steig Nordost) - Abzweig Wrocławska Weiche Nordost</name>
  <link href="https://brouter.damsy.net/latest/#map=19/52.40574/16.93126/standard&amp;lonlats=16.932049,52.405642;16.931167,52.405859">
   <text>BRouter-Web</text>
  </link>
  <trkseg>
   <trkpt lat="52.405639" lon="16.932047"><ele>59.75</ele></trkpt>
   <trkpt lat="52.405697" lon="16.93175"><ele>60</ele></trkpt>
   <trkpt lat="52.405723" lon="16.931617"><ele>60.5</ele></trkpt>
   <trkpt lat="52.405756" lon="16.931467"><ele>60.75</ele></trkpt>
   <trkpt lat="52.405805" lon="16.9313"><ele>61.25</ele></trkpt>
   <trkpt lat="52.405826" lon="16.931248"><ele>61.25</ele></trkpt>
   <trkpt lat="52.405858" lon="16.931168"><ele>61.75</ele></trkpt>
   <trkpt lat="52.405858" lon="16.931166"><ele>61.75</ele></trkpt>
  </trkseg>
 </trk>
</gpx>