<?xml version="1.0" encoding="UTF-8"?>
<!-- track-length = 242 filtered ascend = 0 plain-ascend = 1 cost=484 energy=0.0kwh time=19s -->
<gpx 
 xmlns="http://www.topografix.com/GPX/1/1" 
 xmlns:xsi="http://www.w3.org/2001/XMLSchema-instance" 
 xsi:schemaLocation="http://www.topografix.com/GPX/1/1 http://www.topografix.com/GPX/1/1/gpx.xsd" 
 version="1.1" 
 creator="BRouter-Web 0.18.1">
 <trk>
  <name>13. janvāra iela (Steig Nordwest) - Dreieck 11. novembra krastmala/13. janvāra iela Weiche Nordost-Nordwest</name>
  <trkseg>
   <trkpt lat="56.945767" lon="24.11321"><ele>3.5</ele></trkpt>
   <trkpt lat="56.945764" lon="24.113202"><ele>3.5</ele></trkpt>
   <trkpt lat="56.945508" lon="24.112586"><ele>3.5</ele></trkpt>
   <trkpt lat="56.945305" lon="24.112102"><ele>4</ele></trkpt>
   <trkpt lat="56.945164" lon="24.111751"><ele>4</ele></trkpt>
   <trkpt lat="56.944891" lon="24.11107"><ele>3.75</ele></trkpt>
   <trkpt lat="56.944585" lon="24.110272"><ele>3.75</ele></trkpt>
   <trkpt lat="56.944493" lon="24.110008"><ele>3.75</ele></trkpt>
   <trkpt lat="56.944492" lon="24.110006"><ele>4</ele></trkpt>
  </trkseg>
 </trk>
</gpx>