<?xml version="1.0" encoding="UTF-8"?>
<!-- track-length = 48 filtered ascend = 0 plain-ascend = 0 cost=96 energy=0.0kwh time=4s -->
<gpx 
 xmlns="http://www.topografix.com/GPX/1/1" 
 xmlns:xsi="http://www.w3.org/2001/XMLSchema-instance" 
 xsi:schemaLocation="http://www.topografix.com/GPX/1/1 http://www.topografix.com/GPX/1/1/gpx.xsd" 
 version="1.1" 
 creator="BRouter-Web 0.18.1">
 <trk>
  <name>Dreieck 13. janvāra iela/Prāgas iela Weiche Nordost-Nordwest - Dreieck 13. janvāra iela/Prāgas iela Weiche Südwest-Nordwest</name>
  <trkseg>
   <trkpt lat="56.946451" lon="24.114668"><ele>4</ele></trkpt>
   <trkpt lat="56.946449" lon="24.114665"><ele>4</ele></trkpt>
   <trkpt lat="56.946163" lon="24.114093"><ele>4</ele></trkpt>
  </trkseg>
 </trk>
</gpx>