<?xml version="1.0" encoding="UTF-8"?>
<!-- track-length = 62 filtered ascend = 1 plain-ascend = 1 cost=124 energy=0.0kwh time=5s -->
<gpx 
 xmlns="http://www.topografix.com/GPX/1/1" 
 xmlns:xsi="http://www.w3.org/2001/XMLSchema-instance" 
 xsi:schemaLocation="http://www.topografix.com/GPX/1/1 http://www.topografix.com/GPX/1/1/gpx.xsd" 
 version="1.1" 
 creator="BRouter-Web 99.71.0">
 <trk>
  <name>Üst Nove sady Weiche Nordost-Südost - Dreieck Nádražní/Masarykova Weiche 129</name>
  <link href="https://brouter.damsy.net/latest/#map=20/49.19093/16.61133/standard&amp;lonlats=16.610409,49.190568;16.611148,49.190836&amp;profile=rail">
   <text>BRouter-Web</text>
  </link>
  <trkseg>
   <trkpt lat="49.190568" lon="16.610409"><ele>207</ele></trkpt>
   <trkpt lat="49.190594" lon="16.610479"><ele>207.5</ele></trkpt>
   <trkpt lat="49.190833" lon="16.611148"><ele>208</ele></trkpt>
  </trkseg>
 </trk>
</gpx>