<?xml version="1.0" encoding="UTF-8"?>
<!-- track-length = 55 filtered ascend = 0 plain-ascend = 1 cost=112 energy=0.0kwh time=5s -->
<gpx 
 xmlns="http://www.topografix.com/GPX/1/1" 
 xmlns:xsi="http://www.w3.org/2001/XMLSchema-instance" 
 xsi:schemaLocation="http://www.topografix.com/GPX/1/1 http://www.topografix.com/GPX/1/1/gpx.xsd" 
 version="1.1" 
 creator="BRouter-Web 99.71.0">
 <trk>
  <name>Üst Nove sady Weiche 705 - Üst Nove sady Weiche 708</name>
  <link href="https://brouter.damsy.net/latest/#map=18/49.19053/16.60999/standard&amp;lonlats=16.609743,49.190331;16.610006,49.190424;16.610411,49.190568&amp;profile=rail">
   <text>BRouter-Web</text>
  </link>
  <trkseg>
   <trkpt lat="49.190329" lon="16.609743"><ele>206.5</ele></trkpt>
   <trkpt lat="49.190331" lon="16.609746"><ele>206.75</ele></trkpt>
   <trkpt lat="49.190424" lon="16.610004"><ele>207.25</ele></trkpt>
   <trkpt lat="49.190464" lon="16.610115"><ele>207.25</ele></trkpt>
   <trkpt lat="49.190568" lon="16.610409"><ele>207</ele></trkpt>
  </trkseg>
 </trk>
</gpx>
