<?xml version="1.0" encoding="UTF-8"?>
<!-- track-length = 4104 filtered ascend = 4 plain-ascend = -2 cost=4105 energy=0.0kwh time=5m 28s -->
<gpx 
 xmlns="http://www.topografix.com/GPX/1/1" 
 xmlns:xsi="http://www.w3.org/2001/XMLSchema-instance" 
 xsi:schemaLocation="http://www.topografix.com/GPX/1/1 http://www.topografix.com/GPX/1/1/gpx.xsd" 
 version="1.1" 
 creator="BRouter-Web 99.71.0">
 <trk>
  <name>1100 Lübeck Hbf Weiche 2 - Schwartau Waldhalle Weiche 1</name>
  <link href="https://brouter.damsy.net/latest/#map=17/53.90671/10.69412/standard&amp;lonlats=10.675659,53.871632;10.692534,53.906416&amp;profile=rail">
   <text>BRouter-Web</text>
  </link>
  <trkseg>
   <trkpt lat="53.871631" lon="10.675659"><ele>6</ele></trkpt>
   <trkpt lat="53.872215" lon="10.676256"><ele>5.25</ele></trkpt>
   <trkpt lat="53.872381" lon="10.676425"><ele>4.75</ele></trkpt>
   <trkpt lat="53.872544" lon="10.676593"><ele>4.75</ele></trkpt>
   <trkpt lat="53.873403" lon="10.677463"><ele>5.75</ele></trkpt>
   <trkpt lat="53.874479" lon="10.678561"><ele>7.25</ele></trkpt>
   <trkpt lat="53.874577" lon="10.678664"><ele>7.25</ele></trkpt>
   <trkpt lat="53.874643" lon="10.678728"><ele>7.25</ele></trkpt>
   <trkpt lat="53.875343" lon="10.679448"><ele>7</ele></trkpt>
   <trkpt lat="53.87568" lon="10.679785"><ele>7.25</ele></trkpt>
   <trkpt lat="53.875826" lon="10.679926"><ele>7.25</ele></trkpt>
   <trkpt lat="53.875877" lon="10.679975"><ele>7</ele></trkpt>
   <trkpt lat="53.876327" lon="10.680379"><ele>7.25</ele></trkpt>
   <trkpt lat="53.876735" lon="10.680706"><ele>7.25</ele></trkpt>
   <trkpt lat="53.879217" lon="10.682603"><ele>7</ele></trkpt>
   <trkpt lat="53.879468" lon="10.682781"><ele>6.75</ele></trkpt>
   <trkpt lat="53.879615" lon="10.682892"><ele>7</ele></trkpt>
   <trkpt lat="53.880062" lon="10.683192"><ele>7</ele></trkpt>
   <trkpt lat="53.881185" lon="10.683915"><ele>7</ele></trkpt>
   <trkpt lat="53.882912" lon="10.685021"><ele>10.75</ele></trkpt>
   <trkpt lat="53.883698" lon="10.685525"><ele>10</ele></trkpt>
   <trkpt lat="53.88456" lon="10.686077"><ele>9.5</ele></trkpt>
   <trkpt lat="53.88458" lon="10.686089"><ele>9.5</ele></trkpt>
   <trkpt lat="53.88643" lon="10.687276"><ele>9.75</ele></trkpt>
   <trkpt lat="53.886811" lon="10.687522"><ele>9.25</ele></trkpt>
   <trkpt lat="53.887195" lon="10.687767"><ele>9</ele></trkpt>
   <trkpt lat="53.88747" lon="10.687927"><ele>9.25</ele></trkpt>
   <trkpt lat="53.887949" lon="10.688177"><ele>9.5</ele></trkpt>
   <trkpt lat="53.888271" lon="10.688324"><ele>9.75</ele></trkpt>
   <trkpt lat="53.889694" lon="10.688932"><ele>9.75</ele></trkpt>
   <trkpt lat="53.891446" lon="10.689682"><ele>10</ele></trkpt>
   <trkpt lat="53.893181" lon="10.69042"><ele>8.5</ele></trkpt>
   <trkpt lat="53.893251" lon="10.690451"><ele>8.75</ele></trkpt>
   <trkpt lat="53.89463" lon="10.691041"><ele>8</ele></trkpt>
   <trkpt lat="53.8954" lon="10.691397"><ele>7</ele></trkpt>
   <trkpt lat="53.895921" lon="10.691671"><ele>6.5</ele></trkpt>
   <trkpt lat="53.896333" lon="10.691903"><ele>5.25</ele></trkpt>
   <trkpt lat="53.896502" lon="10.692"><ele>4.75</ele></trkpt>
   <trkpt lat="53.896861" lon="10.692206"><ele>4</ele></trkpt>
   <trkpt lat="53.897486" lon="10.692527"><ele>3.75</ele></trkpt>
   <trkpt lat="53.897704" lon="10.692622"><ele>3</ele></trkpt>
   <trkpt lat="53.897925" lon="10.692704"><ele>3</ele></trkpt>
   <trkpt lat="53.898128" lon="10.692772"><ele>3</ele></trkpt>
   <trkpt lat="53.898426" lon="10.692856"><ele>3</ele></trkpt>
   <trkpt lat="53.898687" lon="10.692909"><ele>3</ele></trkpt>
   <trkpt lat="53.898919" lon="10.692947"><ele>2.75</ele></trkpt>
   <trkpt lat="53.899354" lon="10.692979"><ele>2</ele></trkpt>
   <trkpt lat="53.899602" lon="10.692985"><ele>2</ele></trkpt>
   <trkpt lat="53.899849" lon="10.692975"><ele>2</ele></trkpt>
   <trkpt lat="53.900142" lon="10.692943"><ele>2</ele></trkpt>
   <trkpt lat="53.900179" lon="10.692938"><ele>2</ele></trkpt>
   <trkpt lat="53.900613" lon="10.69286"><ele>1.75</ele></trkpt>
   <trkpt lat="53.900881" lon="10.692796"><ele>1.75</ele></trkpt>
   <trkpt lat="53.90196" lon="10.692512"><ele>1.75</ele></trkpt>
   <trkpt lat="53.902942" lon="10.692252"><ele>1.75</ele></trkpt>
   <trkpt lat="53.903204" lon="10.69219"><ele>1.5</ele></trkpt>
   <trkpt lat="53.903637" lon="10.692114"><ele>1.25</ele></trkpt>
   <trkpt lat="53.904104" lon="10.692075"><ele>2.25</ele></trkpt>
   <trkpt lat="53.904558" lon="10.692073"><ele>2.5</ele></trkpt>
   <trkpt lat="53.904787" lon="10.69209"><ele>2.25</ele></trkpt>
   <trkpt lat="53.905244" lon="10.692153"><ele>3</ele></trkpt>
   <trkpt lat="53.905696" lon="10.692268"><ele>3.25</ele></trkpt>
   <trkpt lat="53.906048" lon="10.692385"><ele>3.25</ele></trkpt>
   <trkpt lat="53.906332" lon="10.692499"><ele>3.75</ele></trkpt>
   <trkpt lat="53.906414" lon="10.692536"><ele>3.5</ele></trkpt>
  </trkseg>
 </trk>
</gpx>