<?xml version="1.0" encoding="UTF-8"?>
<!-- track-length = 15 filtered ascend = 0 plain-ascend = 0 cost=15 energy=0.0kwh time=1s -->
<gpx 
 xmlns="http://www.topografix.com/GPX/1/1" 
 xmlns:xsi="http://www.w3.org/2001/XMLSchema-instance" 
 xsi:schemaLocation="http://www.topografix.com/GPX/1/1 http://www.topografix.com/GPX/1/1/gpx.xsd" 
 version="1.1" 
 creator="BRouter-Web 0.18.1">
 <trk>
  <name>76700 Chudobín - Chudobín Weiche 1</name>
  <trkseg>
   <trkpt lat="49.694584" lon="17.03898"><ele>244.5</ele></trkpt>
   <trkpt lat="49.694582" lon="17.038986"><ele>244.5</ele></trkpt>
   <trkpt lat="49.694503" lon="17.03914"><ele>244.5</ele></trkpt>
  </trkseg>
 </trk>
</gpx>