<?xml version="1.0" encoding="UTF-8"?>
<!-- track-length = 89 filtered ascend = 1 plain-ascend = 1 cost=90 energy=0.0kwh time=7s -->
<gpx 
 xmlns="http://www.topografix.com/GPX/1/1" 
 xmlns:xsi="http://www.w3.org/2001/XMLSchema-instance" 
 xsi:schemaLocation="http://www.topografix.com/GPX/1/1 http://www.topografix.com/GPX/1/1/gpx.xsd" 
 version="1.1" 
 creator="BRouter-Web 0.18.1">
 <trk>
  <name>76700 Mladeč - Mladeč Weiche 3</name>
  <trkseg>
   <trkpt lat="49.704138" lon="17.003404"><ele>274.5</ele></trkpt>
   <trkpt lat="49.704214" lon="17.003572"><ele>274.5</ele></trkpt>
   <trkpt lat="49.704593" lon="17.004422"><ele>275.75</ele></trkpt>
  </trkseg>
 </trk>
</gpx>