<?xml version="1.0" encoding="UTF-8"?>
<!-- track-length = 275 filtered ascend = 0 plain-ascend = 0 cost=550 energy=0.0kwh time=22s -->
<gpx 
 xmlns="http://www.topografix.com/GPX/1/1" 
 xmlns:xsi="http://www.w3.org/2001/XMLSchema-instance" 
 xsi:schemaLocation="http://www.topografix.com/GPX/1/1 http://www.topografix.com/GPX/1/1/gpx.xsd" 
 version="1.1" 
 creator="BRouter-Web 0.18.1">
 <trk>
  <name>Abzweig Brunnen-/Invalidstraße Weiche 522 - Pappelplatz (Steig Nordwest)</name>
  <trkseg>
   <trkpt lat="52.532575" lon="13.398555"><ele>36.25</ele></trkpt>
   <trkpt lat="52.532548" lon="13.398291"><ele>36.25</ele></trkpt>
   <trkpt lat="52.532515" lon="13.397774"><ele>36</ele></trkpt>
   <trkpt lat="52.532486" lon="13.397068"><ele>36</ele></trkpt>
   <trkpt lat="52.532447" lon="13.396162"><ele>36</ele></trkpt>
   <trkpt lat="52.532428" lon="13.395955"><ele>36</ele></trkpt>
   <trkpt lat="52.532272" lon="13.394533"><ele>35</ele></trkpt>
  </trkseg>
 </trk>
</gpx>