<?xml version="1.0" encoding="UTF-8"?>
<!-- track-length = 401 filtered ascend = 0 plain-ascend = 0 cost=802 energy=0.0kwh time=32s -->
<gpx 
 xmlns="http://www.topografix.com/GPX/1/1" 
 xmlns:xsi="http://www.w3.org/2001/XMLSchema-instance" 
 xsi:schemaLocation="http://www.topografix.com/GPX/1/1 http://www.topografix.com/GPX/1/1/gpx.xsd" 
 version="1.1" 
 creator="BRouter-Web 0.18.1">
 <trk>
  <name>Pappelplatz (Steig Nordwest) - S Nordbahnhof (Steig 5)</name>
  <trkseg>
   <trkpt lat="52.532272" lon="13.394533"><ele>35</ele></trkpt>
   <trkpt lat="52.53227" lon="13.394508"><ele>35</ele></trkpt>
   <trkpt lat="52.532227" lon="13.394183"><ele>35</ele></trkpt>
   <trkpt lat="52.532221" lon="13.394136"><ele>35</ele></trkpt>
   <trkpt lat="52.532169" lon="13.393661"><ele>35</ele></trkpt>
   <trkpt lat="52.532148" lon="13.393466"><ele>35</ele></trkpt>
   <trkpt lat="52.531888" lon="13.390959"><ele>35</ele></trkpt>
   <trkpt lat="52.531777" lon="13.389906"><ele>35</ele></trkpt>
   <trkpt lat="52.531755" lon="13.389712"><ele>35</ele></trkpt>
   <trkpt lat="52.531728" lon="13.389461"><ele>35</ele></trkpt>
   <trkpt lat="52.531663" lon="13.38871"><ele>35</ele></trkpt>
   <trkpt lat="52.531662" lon="13.388699"><ele>35</ele></trkpt>
  </trkseg>
 </trk>
</gpx>