<?xml version="1.0" encoding="UTF-8"?>
<!-- track-length = 96 filtered ascend = 0 plain-ascend = 0 cost=192 energy=0.0kwh time=8s -->
<gpx 
 xmlns="http://www.topografix.com/GPX/1/1" 
 xmlns:xsi="http://www.w3.org/2001/XMLSchema-instance" 
 xsi:schemaLocation="http://www.topografix.com/GPX/1/1 http://www.topografix.com/GPX/1/1/gpx.xsd" 
 version="1.1" 
 creator="BRouter-Web 0.18.1">
 <trk>
  <name>S Nordbahnhof (Steig 5) - Abzweig Nordbahnhof Weiche 666</name>
  <trkseg>
   <trkpt lat="52.531662" lon="13.388699"><ele>35</ele></trkpt>
   <trkpt lat="52.531606" lon="13.388064"><ele>35</ele></trkpt>
   <trkpt lat="52.531585" lon="13.387862"><ele>35</ele></trkpt>
   <trkpt lat="52.531567" lon="13.387667"><ele>35</ele></trkpt>
   <trkpt lat="52.531535" lon="13.387314"><ele>35</ele></trkpt>
   <trkpt lat="52.531534" lon="13.387309"><ele>35</ele></trkpt>
  </trkseg>
 </trk>
</gpx>