<?xml version="1.0" encoding="UTF-8"?>
<!-- track-length = 471 filtered ascend = 0 plain-ascend = 1 cost=942 energy=0.0kwh time=38s -->
<gpx 
 xmlns="http://www.topografix.com/GPX/1/1" 
 xmlns:xsi="http://www.w3.org/2001/XMLSchema-instance" 
 xsi:schemaLocation="http://www.topografix.com/GPX/1/1 http://www.topografix.com/GPX/1/1/gpx.xsd" 
 version="1.1" 
 creator="BRouter-Web 0.18.1">
 <trk>
  <name>Dreieck Dvorce Weiche Nordost-Ost - Kublov (Steig A)</name>
  <trkseg>
   <trkpt lat="50.050448" lon="14.415855"><ele>193</ele></trkpt>
   <trkpt lat="50.050483" lon="14.415873"><ele>193</ele></trkpt>
   <trkpt lat="50.051432" lon="14.4164"><ele>193</ele></trkpt>
   <trkpt lat="50.051662" lon="14.416528"><ele>193</ele></trkpt>
   <trkpt lat="50.054434" lon="14.418105"><ele>193.75</ele></trkpt>
  </trkseg>
 </trk>
</gpx>