<?xml version="1.0" encoding="UTF-8"?>
<!-- track-length = 224 filtered ascend = 0 plain-ascend = 0 cost=225 energy=0.0kwh time=18s -->
<gpx 
 xmlns="http://www.topografix.com/GPX/1/1" 
 xmlns:xsi="http://www.w3.org/2001/XMLSchema-instance" 
 xsi:schemaLocation="http://www.topografix.com/GPX/1/1 http://www.topografix.com/GPX/1/1/gpx.xsd" 
 version="1.1" 
 creator="BRouter-Web 0.18.1">
 <trk>
  <name>Üst Sorin aukio Nord Weiche Nordwest - Dreieck Hämeenkatu Weiche Südost-Ost</name>
  <trkseg>
   <trkpt lat="61.49609" lon="23.768229"><ele>88</ele></trkpt>
   <trkpt lat="61.496256" lon="23.76799"><ele>88</ele></trkpt>
   <trkpt lat="61.496747" lon="23.767262"><ele>87.5</ele></trkpt>
   <trkpt lat="61.496955" lon="23.766932"><ele>87</ele></trkpt>
   <trkpt lat="61.496988" lon="23.766874"><ele>87</ele></trkpt>
   <trkpt lat="61.49704" lon="23.766784"><ele>87</ele></trkpt>
   <trkpt lat="61.497139" lon="23.766611"><ele>87</ele></trkpt>
   <trkpt lat="61.49742" lon="23.766088"><ele>88</ele></trkpt>
   <trkpt lat="61.497663" lon="23.765612"><ele>88</ele></trkpt>
  </trkseg>
 </trk>
</gpx>