<?xml version="1.0" encoding="UTF-8"?>
<!-- track-length = 71 filtered ascend = 0 plain-ascend = -1 cost=72 energy=0.0kwh time=6s -->
<gpx 
 xmlns="http://www.topografix.com/GPX/1/1" 
 xmlns:xsi="http://www.w3.org/2001/XMLSchema-instance" 
 xsi:schemaLocation="http://www.topografix.com/GPX/1/1 http://www.topografix.com/GPX/1/1/gpx.xsd" 
 version="1.1" 
 creator="BRouter-Web 0.18.1">
 <trk>
  <name>Üst Sorin aukio Süd Weiche Südost - Üst Sorin aukio Nord Weiche Nordwest</name>
  <trkseg>
   <trkpt lat="61.495584" lon="23.768996"><ele>89.5</ele></trkpt>
   <trkpt lat="61.495583" lon="23.768999"><ele>89.75</ele></trkpt>
   <trkpt lat="61.495953" lon="23.768436"><ele>88</ele></trkpt>
   <trkpt lat="61.49609" lon="23.768229"><ele>88</ele></trkpt>
  </trkseg>
 </trk>
</gpx>