<?xml version="1.0" encoding="UTF-8"?>
<!-- track-length = 207 filtered ascend = 0 plain-ascend = -4 cost=414 energy=0.0kwh time=17s -->
<gpx 
 xmlns="http://www.topografix.com/GPX/1/1" 
 xmlns:xsi="http://www.w3.org/2001/XMLSchema-instance" 
 xsi:schemaLocation="http://www.topografix.com/GPX/1/1 http://www.topografix.com/GPX/1/1/gpx.xsd" 
 version="1.1" 
 creator="BRouter-Web 0.18.1">
 <trk>
  <name>Bogstadveien (Steig Südwest) - Abzweig Holtegata Weiche Südwest</name>
  <trkseg>
   <trkpt lat="59.926132" lon="10.721633"><ele>53</ele></trkpt>
   <trkpt lat="59.925927" lon="10.721959"><ele>53</ele></trkpt>
   <trkpt lat="59.925738" lon="10.722255"><ele>53</ele></trkpt>
   <trkpt lat="59.92521" lon="10.723098"><ele>50.75</ele></trkpt>
   <trkpt lat="59.925075" lon="10.723337"><ele>50.25</ele></trkpt>
   <trkpt lat="59.924953" lon="10.723579"><ele>49.75</ele></trkpt>
   <trkpt lat="59.924881" lon="10.723728"><ele>49.25</ele></trkpt>
   <trkpt lat="59.924728" lon="10.724043"><ele>48</ele></trkpt>
  </trkseg>
 </trk>
</gpx>