<?xml version="1.0" encoding="UTF-8"?>
<!-- track-length = 95 filtered ascend = 0 plain-ascend = 0 cost=192 energy=0.0kwh time=8s -->
<gpx 
 xmlns="http://www.topografix.com/GPX/1/1" 
 xmlns:xsi="http://www.w3.org/2001/XMLSchema-instance" 
 xsi:schemaLocation="http://www.topografix.com/GPX/1/1 http://www.topografix.com/GPX/1/1/gpx.xsd" 
 version="1.1" 
 creator="BRouter-Web 0.18.1">
 <trk>
  <name>Dreieck Hauptbahnhof/Wintergartenstraße Weiche 106 - Hauptbahnhof/Wintergartenstraße (Steig G)</name>
  <trkseg>
   <trkpt lat="51.343547" lon="12.385161"><ele>110</ele></trkpt>
   <trkpt lat="51.343529" lon="12.384972"><ele>110</ele></trkpt>
   <trkpt lat="51.343452" lon="12.384555"><ele>110</ele></trkpt>
   <trkpt lat="51.343385" lon="12.383923"><ele>110</ele></trkpt>
   <trkpt lat="51.343374" lon="12.383826"><ele>110</ele></trkpt>
  </trkseg>
 </trk>
</gpx>