<?xml version="1.0" encoding="UTF-8"?>
<!-- track-length = 90 filtered ascend = 0 plain-ascend = 1 cost=180 energy=0.0kwh time=7s -->
<gpx 
 xmlns="http://www.topografix.com/GPX/1/1" 
 xmlns:xsi="http://www.w3.org/2001/XMLSchema-instance" 
 xsi:schemaLocation="http://www.topografix.com/GPX/1/1 http://www.topografix.com/GPX/1/1/gpx.xsd" 
 version="1.1" 
 creator="BRouter-Web 0.18.1">
 <trk>
  <name>Hauptbahnhof/Wintergartenstraße (Steig G) - Dreieck Hauptbahnhof/Wintergartenstraße Weiche 111</name>
  <trkseg>
   <trkpt lat="51.343374" lon="12.383826"><ele>110</ele></trkpt>
   <trkpt lat="51.343358" lon="12.383671"><ele>110</ele></trkpt>
   <trkpt lat="51.343337" lon="12.383489"><ele>110</ele></trkpt>
   <trkpt lat="51.343305" lon="12.383364"><ele>110</ele></trkpt>
   <trkpt lat="51.343302" lon="12.383357"><ele>110</ele></trkpt>
   <trkpt lat="51.343269" lon="12.383282"><ele>109.75</ele></trkpt>
   <trkpt lat="51.343207" lon="12.3832"><ele>109.5</ele></trkpt>
   <trkpt lat="51.343153" lon="12.383162"><ele>109.75</ele></trkpt>
   <trkpt lat="51.343052" lon="12.383112"><ele>109.75</ele></trkpt>
   <trkpt lat="51.343036" lon="12.383103"><ele>110</ele></trkpt>
   <trkpt lat="51.342951" lon="12.383057"><ele>110</ele></trkpt>
   <trkpt lat="51.342875" lon="12.383019"><ele>110</ele></trkpt>
   <trkpt lat="51.342869" lon="12.383016"><ele>110.75</ele></trkpt>
  </trkseg>
 </trk>
</gpx>