<?xml version="1.0" encoding="UTF-8"?>
<!-- track-length = 118 filtered ascend = 0 plain-ascend = 0 cost=236 energy=0.0kwh time=9s -->
<gpx 
 xmlns="http://www.topografix.com/GPX/1/1" 
 xmlns:xsi="http://www.w3.org/2001/XMLSchema-instance" 
 xsi:schemaLocation="http://www.topografix.com/GPX/1/1 http://www.topografix.com/GPX/1/1/gpx.xsd" 
 version="1.1" 
 creator="BRouter-Web 0.18.1">
 <trk>
  <name>Abzweig Velodromi Weiche Südost-Ost - Velodromi (Steig Nord-Ost)</name>
  <trkseg>
   <trkpt lat="60.20037" lon="24.944998"><ele>12</ele></trkpt>
   <trkpt lat="60.200371" lon="24.944998"><ele>12</ele></trkpt>
   <trkpt lat="60.20045" lon="24.944962"><ele>12</ele></trkpt>
   <trkpt lat="60.200498" lon="24.944946"><ele>12</ele></trkpt>
   <trkpt lat="60.200689" lon="24.944907"><ele>11.75</ele></trkpt>
   <trkpt lat="60.200725" lon="24.944899"><ele>11.75</ele></trkpt>
   <trkpt lat="60.200753" lon="24.944894"><ele>11.5</ele></trkpt>
   <trkpt lat="60.200828" lon="24.944892"><ele>11.5</ele></trkpt>
   <trkpt lat="60.200863" lon="24.944894"><ele>11.5</ele></trkpt>
   <trkpt lat="60.201032" lon="24.944926"><ele>11</ele></trkpt>
   <trkpt lat="60.201415" lon="24.945029"><ele>11</ele></trkpt>
   <trkpt lat="60.201427" lon="24.945032"><ele>11</ele></trkpt>
  </trkseg>
 </trk>
</gpx>