<?xml version="1.0" encoding="UTF-8"?>
<!-- track-length = 407 filtered ascend = 0 plain-ascend = -4 cost=814 energy=0.0kwh time=33s -->
<gpx 
 xmlns="http://www.topografix.com/GPX/1/1" 
 xmlns:xsi="http://www.w3.org/2001/XMLSchema-instance" 
 xsi:schemaLocation="http://www.topografix.com/GPX/1/1 http://www.topografix.com/GPX/1/1/gpx.xsd" 
 version="1.1" 
 creator="BRouter-Web 0.18.1">
 <trk>
  <name>Käpylänaukio (Steig Ost) - Metsolantie (Steig Südost)</name>
  <trkseg>
   <trkpt lat="60.21306" lon="24.94344"><ele>28.25</ele></trkpt>
   <trkpt lat="60.213063" lon="24.943439"><ele>28.5</ele></trkpt>
   <trkpt lat="60.213131" lon="24.943409"><ele>28.5</ele></trkpt>
   <trkpt lat="60.213167" lon="24.943394"><ele>28.75</ele></trkpt>
   <trkpt lat="60.213231" lon="24.943379"><ele>28.75</ele></trkpt>
   <trkpt lat="60.213298" lon="24.943391"><ele>28.75</ele></trkpt>
   <trkpt lat="60.213331" lon="24.943403"><ele>28.5</ele></trkpt>
   <trkpt lat="60.213416" lon="24.943475"><ele>28.25</ele></trkpt>
   <trkpt lat="60.213429" lon="24.943489"><ele>28.25</ele></trkpt>
   <trkpt lat="60.213487" lon="24.943576"><ele>28</ele></trkpt>
   <trkpt lat="60.213531" lon="24.943672"><ele>28</ele></trkpt>
   <trkpt lat="60.213544" lon="24.943706"><ele>28</ele></trkpt>
   <trkpt lat="60.213613" lon="24.943917"><ele>28</ele></trkpt>
   <trkpt lat="60.213755" lon="24.94435"><ele>27.25</ele></trkpt>
   <trkpt lat="60.213788" lon="24.944456"><ele>27</ele></trkpt>
   <trkpt lat="60.213833" lon="24.944603"><ele>27</ele></trkpt>
   <trkpt lat="60.214046" lon="24.945285"><ele>25.25</ele></trkpt>
   <trkpt lat="60.214065" lon="24.945347"><ele>25.25</ele></trkpt>
   <trkpt lat="60.214207" lon="24.945804"><ele>24.75</ele></trkpt>
   <trkpt lat="60.214314" lon="24.946146"><ele>24</ele></trkpt>
   <trkpt lat="60.214448" lon="24.946577"><ele>23.25</ele></trkpt>
   <trkpt lat="60.214601" lon="24.94707"><ele>23</ele></trkpt>
   <trkpt lat="60.214618" lon="24.94712"><ele>23</ele></trkpt>
   <trkpt lat="60.214804" lon="24.947713"><ele>23</ele></trkpt>
   <trkpt lat="60.21494" lon="24.948146"><ele>23</ele></trkpt>
   <trkpt lat="60.215209" lon="24.949008"><ele>23</ele></trkpt>
  </trkseg>
 </trk>
</gpx>