<?xml version="1.0" encoding="UTF-8"?>
<!-- track-length = 300 filtered ascend = 0 plain-ascend = 0 cost=600 energy=0.0kwh time=24s -->
<gpx 
 xmlns="http://www.topografix.com/GPX/1/1" 
 xmlns:xsi="http://www.w3.org/2001/XMLSchema-instance" 
 xsi:schemaLocation="http://www.topografix.com/GPX/1/1 http://www.topografix.com/GPX/1/1/gpx.xsd" 
 version="1.1" 
 creator="BRouter-Web 0.18.1">
 <trk>
  <name>Metsolantie (Steig Südost) - Pohjolanaukio Weiche West</name>
  <trkseg>
   <trkpt lat="60.215209" lon="24.949006"><ele>23</ele></trkpt>
   <trkpt lat="60.215272" lon="24.949206"><ele>23</ele></trkpt>
   <trkpt lat="60.215288" lon="24.949256"><ele>23</ele></trkpt>
   <trkpt lat="60.215939" lon="24.951339"><ele>22</ele></trkpt>
   <trkpt lat="60.215966" lon="24.951425"><ele>22</ele></trkpt>
   <trkpt lat="60.216443" lon="24.952949"><ele>22</ele></trkpt>
   <trkpt lat="60.216473" lon="24.953043"><ele>22</ele></trkpt>
   <trkpt lat="60.216646" lon="24.953599"><ele>22</ele></trkpt>
  </trkseg>
 </trk>
</gpx>