<?xml version="1.0" encoding="UTF-8"?>
<!-- track-length = 65 filtered ascend = 0 plain-ascend = 0 cost=130 energy=0.0kwh time=5s -->
<gpx 
 xmlns="http://www.topografix.com/GPX/1/1" 
 xmlns:xsi="http://www.w3.org/2001/XMLSchema-instance" 
 xsi:schemaLocation="http://www.topografix.com/GPX/1/1 http://www.topografix.com/GPX/1/1/gpx.xsd" 
 version="1.1" 
 creator="BRouter-Web 0.18.1">
 <trk>
  <name>Dreieck Lihovar Weiche Ost-Süd - Lihovar (Steig Ost-Süd)</name>
  <trkseg>
   <trkpt lat="50.050237" lon="14.409964"><ele>195.25</ele></trkpt>
   <trkpt lat="50.050231" lon="14.409988"><ele>195</ele></trkpt>
   <trkpt lat="50.050233" lon="14.410863"><ele>195</ele></trkpt>
  </trkseg>
 </trk>
</gpx>