<?xml version="1.0" encoding="UTF-8"?>
<!-- track-length = 156 filtered ascend = 0 plain-ascend = 0 cost=312 energy=0.0kwh time=12s -->
<gpx 
 xmlns="http://www.topografix.com/GPX/1/1" 
 xmlns:xsi="http://www.w3.org/2001/XMLSchema-instance" 
 xsi:schemaLocation="http://www.topografix.com/GPX/1/1 http://www.topografix.com/GPX/1/1/gpx.xsd" 
 version="1.1" 
 creator="BRouter-Web 0.18.1">
 <trk>
  <name>Alt-Hohenschönhausen (Steig Nord) - Abzweig Haupt-/Konrad-Wolf_Straße Weiche 92</name>
  <trkseg>
   <trkpt lat="52.548873" lon="13.504551"><ele>58.75</ele></trkpt>
   <trkpt lat="52.548874" lon="13.504551"><ele>59</ele></trkpt>
   <trkpt lat="52.548886" lon="13.504367"><ele>59</ele></trkpt>
   <trkpt lat="52.54891" lon="13.504023"><ele>58.75</ele></trkpt>
   <trkpt lat="52.548914" lon="13.503747"><ele>58.75</ele></trkpt>
   <trkpt lat="52.548913" lon="13.503433"><ele>59</ele></trkpt>
   <trkpt lat="52.548947" lon="13.502283"><ele>59</ele></trkpt>
   <trkpt lat="52.548947" lon="13.502281"><ele>59</ele></trkpt>
  </trkseg>
 </trk>
</gpx>