<?xml version="1.0" encoding="UTF-8"?>
<!-- track-length = 511 filtered ascend = 0 plain-ascend = 0 cost=994 energy=0.0kwh time=41s -->
<gpx 
 xmlns="http://www.topografix.com/GPX/1/1" 
 xmlns:xsi="http://www.w3.org/2001/XMLSchema-instance" 
 xsi:schemaLocation="http://www.topografix.com/GPX/1/1 http://www.topografix.com/GPX/1/1/gpx.xsd" 
 version="1.1" 
 creator="BRouter-Web 99.71.0">
 <trk>
  <name>Abzweig Zülpicher Platz Weiche Nordost-Nordwest - Dasselstraße/Bahnhof Süd (Steig Nordwest)</name>
  <link href="https://brouter.damsy.net/latest/#map=18/50.92793/6.93608/standard&amp;lonlats=6.940923,50.931279;6.935548,50.928162&amp;nogos=6.781752,51.218852,6&amp;profile=rail">
   <text>BRouter-Web</text>
  </link>
  <trkseg>
   <trkpt lat="50.931276" lon="6.940925"><ele>51</ele></trkpt>
   <trkpt lat="50.93122" lon="6.940828"><ele>51</ele></trkpt>
   <trkpt lat="50.931164" lon="6.94073"><ele>51</ele></trkpt>
   <trkpt lat="50.931144" lon="6.940693"><ele>51</ele></trkpt>
   <trkpt lat="50.931095" lon="6.940607"><ele>51</ele></trkpt>
   <trkpt lat="50.931059" lon="6.940544"><ele>51</ele></trkpt>
   <trkpt lat="50.930322" lon="6.939265"><ele>50</ele></trkpt>
   <trkpt lat="50.930273" lon="6.939178"><ele>50</ele></trkpt>
   <trkpt lat="50.930162" lon="6.939002"><ele>49.75</ele></trkpt>
   <trkpt lat="50.929764" lon="6.938302"><ele>49</ele></trkpt>
   <trkpt lat="50.929194" lon="6.937328"><ele>49</ele></trkpt>
   <trkpt lat="50.928947" lon="6.936907"><ele>49</ele></trkpt>
   <trkpt lat="50.9286" lon="6.936287"><ele>49</ele></trkpt>
   <trkpt lat="50.928433" lon="6.93601"><ele>51.5</ele></trkpt>
   <trkpt lat="50.928233" lon="6.935667"><ele>51.75</ele></trkpt>
   <trkpt lat="50.928162" lon="6.935546"><ele>50</ele></trkpt>
  </trkseg>
 </trk>
</gpx>
