<?xml version="1.0" encoding="UTF-8"?>
<!-- track-length = 66 filtered ascend = 0 plain-ascend = 0 cost=132 energy=0.0kwh time=5s -->
<gpx 
 xmlns="http://www.topografix.com/GPX/1/1" 
 xmlns:xsi="http://www.w3.org/2001/XMLSchema-instance" 
 xsi:schemaLocation="http://www.topografix.com/GPX/1/1 http://www.topografix.com/GPX/1/1/gpx.xsd" 
 version="1.1" 
 creator="BRouter-Web 0.18.1">
 <trk>
  <name>Dreieck Kruisplein Weiche 482 - Dreieck Kruisplein Weiche West-Nord</name>
  <trkseg>
   <trkpt lat="51.920772" lon="4.471892"><ele>-1</ele></trkpt>
   <trkpt lat="51.920881" lon="4.471854"><ele>-1</ele></trkpt>
   <trkpt lat="51.920944" lon="4.471799"><ele>-1</ele></trkpt>
   <trkpt lat="51.920979" lon="4.471746"><ele>-1</ele></trkpt>
   <trkpt lat="51.921003" lon="4.47169"><ele>-1</ele></trkpt>
   <trkpt lat="51.921022" lon="4.471621"><ele>-1</ele></trkpt>
   <trkpt lat="51.921031" lon="4.471555"><ele>-1</ele></trkpt>
   <trkpt lat="51.921033" lon="4.471483"><ele>-1</ele></trkpt>
   <trkpt lat="51.921029" lon="4.471433"><ele>-1</ele></trkpt>
   <trkpt lat="51.920995" lon="4.47127"><ele>-1</ele></trkpt>
   <trkpt lat="51.920976" lon="4.471203"><ele>-1</ele></trkpt>
   <trkpt lat="51.920974" lon="4.471197"><ele>-1</ele></trkpt>
  </trkseg>
 </trk>
</gpx>