<?xml version="1.0" encoding="UTF-8"?>
<!-- track-length = 27 filtered ascend = 0 plain-ascend = 0 cost=54 energy=0.0kwh time=2s -->
<gpx 
 xmlns="http://www.topografix.com/GPX/1/1" 
 xmlns:xsi="http://www.w3.org/2001/XMLSchema-instance" 
 xsi:schemaLocation="http://www.topografix.com/GPX/1/1 http://www.topografix.com/GPX/1/1/gpx.xsd" 
 version="1.1" 
 creator="BRouter-Web 99.71.0">
 <trk>
  <name>Albertov (Steig West) - Dreieck Albertov Weiche West-Ost</name>
  <link href="https://brouter.damsy.net/latest/#map=19/50.06785/14.42119/standard&amp;lonlats=14.420332,50.067836;14.420692,50.067787&amp;profile=rail">
   <text>BRouter-Web</text>
  </link>
  <trkseg>
   <trkpt lat="50.067836" lon="14.420332"><ele>194</ele></trkpt>
   <trkpt lat="50.067836" lon="14.420335"><ele>194</ele></trkpt>
   <trkpt lat="50.067802" lon="14.420455"><ele>194</ele></trkpt>
   <trkpt lat="50.067792" lon="14.420514"><ele>194</ele></trkpt>
   <trkpt lat="50.067783" lon="14.42061"><ele>193.75</ele></trkpt>
   <trkpt lat="50.067785" lon="14.420691"><ele>194</ele></trkpt>
  </trkseg>
 </trk>
</gpx>