<?xml version="1.0" encoding="UTF-8"?>
<!-- track-length = 107 filtered ascend = 0 plain-ascend = -3 cost=214 energy=0.0kwh time=9s -->
<gpx 
 xmlns="http://www.topografix.com/GPX/1/1" 
 xmlns:xsi="http://www.w3.org/2001/XMLSchema-instance" 
 xsi:schemaLocation="http://www.topografix.com/GPX/1/1 http://www.topografix.com/GPX/1/1/gpx.xsd" 
 version="1.1" 
 creator="BRouter-Web 0.18.1">
 <trk>
  <name>Dreieck Palkkatilanportti Weiche Nordwest-Nordost - Esterinportti (Steig Nordost)</name>
  <trkseg>
   <trkpt lat="60.197665" lon="24.928363"><ele>24.75</ele></trkpt>
   <trkpt lat="60.197865" lon="24.928265"><ele>24.25</ele></trkpt>
   <trkpt lat="60.19815" lon="24.928131"><ele>22.5</ele></trkpt>
   <trkpt lat="60.198599" lon="24.927919"><ele>20.75</ele></trkpt>
  </trkseg>
 </trk>
</gpx>