<?xml version="1.0" encoding="UTF-8"?>
<!-- track-length = 106 filtered ascend = 0 plain-ascend = 0 cost=212 energy=0.0kwh time=8s -->
<gpx 
 xmlns="http://www.topografix.com/GPX/1/1" 
 xmlns:xsi="http://www.w3.org/2001/XMLSchema-instance" 
 xsi:schemaLocation="http://www.topografix.com/GPX/1/1 http://www.topografix.com/GPX/1/1/gpx.xsd" 
 version="1.1" 
 creator="BRouter-Web 0.18.1">
 <trk>
  <name>Abzweig Kaivokatu/Mikonkatu Weiche Süd - Mikonkatu (Steig West)</name>
  <trkseg>
   <trkpt lat="60.170507" lon="24.944463"><ele>2</ele></trkpt>
   <trkpt lat="60.170508" lon="24.944468"><ele>2</ele></trkpt>
   <trkpt lat="60.170544" lon="24.9448"><ele>2</ele></trkpt>
   <trkpt lat="60.170545" lon="24.944917"><ele>2</ele></trkpt>
   <trkpt lat="60.170534" lon="24.945016"><ele>2</ele></trkpt>
   <trkpt lat="60.170516" lon="24.945087"><ele>2</ele></trkpt>
   <trkpt lat="60.170496" lon="24.945144"><ele>2</ele></trkpt>
   <trkpt lat="60.170451" lon="24.945224"><ele>2</ele></trkpt>
   <trkpt lat="60.170425" lon="24.945253"><ele>2</ele></trkpt>
   <trkpt lat="60.170368" lon="24.945288"><ele>2</ele></trkpt>
   <trkpt lat="60.169934" lon="24.945347"><ele>2</ele></trkpt>
  </trkseg>
 </trk>
</gpx>