<?xml version="1.0" encoding="UTF-8"?>
<!-- track-length = 136 filtered ascend = 0 plain-ascend = 0 cost=272 energy=0.0kwh time=11s -->
<gpx 
 xmlns="http://www.topografix.com/GPX/1/1" 
 xmlns:xsi="http://www.w3.org/2001/XMLSchema-instance" 
 xsi:schemaLocation="http://www.topografix.com/GPX/1/1 http://www.topografix.com/GPX/1/1/gpx.xsd" 
 version="1.1" 
 creator="BRouter-Web 0.18.1">
 <trk>
  <name>Mikonkatu (Steig West) - Abzweig Aleksanterinkatu/Mikonkatu Weiche Süd</name>
  <trkseg>
   <trkpt lat="60.169934" lon="24.945347"><ele>2</ele></trkpt>
   <trkpt lat="60.169883" lon="24.945354"><ele>2</ele></trkpt>
   <trkpt lat="60.169852" lon="24.945361"><ele>2</ele></trkpt>
   <trkpt lat="60.169798" lon="24.945374"><ele>1.75</ele></trkpt>
   <trkpt lat="60.16978" lon="24.94538"><ele>2</ele></trkpt>
   <trkpt lat="60.169771" lon="24.945383"><ele>2</ele></trkpt>
   <trkpt lat="60.169582" lon="24.945436"><ele>2</ele></trkpt>
   <trkpt lat="60.169078" lon="24.945497"><ele>2</ele></trkpt>
   <trkpt lat="60.16902" lon="24.945516"><ele>2</ele></trkpt>
   <trkpt lat="60.168989" lon="24.945538"><ele>2</ele></trkpt>
   <trkpt lat="60.168977" lon="24.945552"><ele>2</ele></trkpt>
   <trkpt lat="60.168928" lon="24.945643"><ele>2</ele></trkpt>
   <trkpt lat="60.168913" lon="24.945695"><ele>2</ele></trkpt>
   <trkpt lat="60.168901" lon="24.945772"><ele>2</ele></trkpt>
   <trkpt lat="60.168895" lon="24.945997"><ele>2</ele></trkpt>
   <trkpt lat="60.168894" lon="24.945993"><ele>2</ele></trkpt>
  </trkseg>
 </trk>
</gpx>