<?xml version="1.0" encoding="UTF-8"?>
<!-- track-length = 364 filtered ascend = 3 plain-ascend = 0 cost=364 energy=0.0kwh time=29s -->
<gpx 
 xmlns="http://www.topografix.com/GPX/1/1" 
 xmlns:xsi="http://www.w3.org/2001/XMLSchema-instance" 
 xsi:schemaLocation="http://www.topografix.com/GPX/1/1 http://www.topografix.com/GPX/1/1/gpx.xsd" 
 version="1.1" 
 creator="BRouter-Web 99.71.0">
 <trk>
  <name>Abzweig Deutzer Brücke Weiche Süd - Deutzer Freiheit (Steig 1)</name>
  <link href="https://brouter.damsy.net/latest/#map=17/50.93726/6.97463/standard&amp;lonlats=6.967959,50.936521;6.971409,50.938155&amp;nogos=6.781752,51.218852,6&amp;profile=rail">
   <text>BRouter-Web</text>
  </link>
  <trkseg>
   <trkpt lat="50.936514" lon="6.967958"><ele>46</ele></trkpt>
   <trkpt lat="50.936515" lon="6.967962"><ele>46</ele></trkpt>
   <trkpt lat="50.936577" lon="6.968996"><ele>46</ele></trkpt>
   <trkpt lat="50.936611" lon="6.969611"><ele>49.25</ele></trkpt>
   <trkpt lat="50.936637" lon="6.969986"><ele>49.5</ele></trkpt>
   <trkpt lat="50.936663" lon="6.970221"><ele>49</ele></trkpt>
   <trkpt lat="50.936716" lon="6.970488"><ele>48.75</ele></trkpt>
   <trkpt lat="50.936804" lon="6.970741"><ele>48</ele></trkpt>
   <trkpt lat="50.93686" lon="6.97085"><ele>47.75</ele></trkpt>
   <trkpt lat="50.936925" lon="6.970956"><ele>47.5</ele></trkpt>
   <trkpt lat="50.937005" lon="6.971055"><ele>46.75</ele></trkpt>
   <trkpt lat="50.937093" lon="6.971143"><ele>46.25</ele></trkpt>
   <trkpt lat="50.937177" lon="6.97121"><ele>46</ele></trkpt>
   <trkpt lat="50.937271" lon="6.971264"><ele>46</ele></trkpt>
   <trkpt lat="50.937357" lon="6.971295"><ele>46</ele></trkpt>
   <trkpt lat="50.937446" lon="6.971321"><ele>46</ele></trkpt>
   <trkpt lat="50.937543" lon="6.971337"><ele>46</ele></trkpt>
   <trkpt lat="50.938091" lon="6.971407"><ele>45.75</ele></trkpt>
   <trkpt lat="50.938153" lon="6.971415"><ele>45</ele></trkpt>
  </trkseg>
 </trk>
</gpx>