<?xml version="1.0" encoding="UTF-8"?>
<!-- track-length = 598 filtered ascend = 0 plain-ascend = 0 cost=598 energy=0.0kwh time=48s -->
<gpx 
 xmlns="http://www.topografix.com/GPX/1/1" 
 xmlns:xsi="http://www.w3.org/2001/XMLSchema-instance" 
 xsi:schemaLocation="http://www.topografix.com/GPX/1/1 http://www.topografix.com/GPX/1/1/gpx.xsd" 
 version="1.1" 
 creator="BRouter-Web 99.71.0">
 <trk>
  <name>Deutzer Freiheit (Steig 1) - Bahnhof Deutz/Messe/Arena (Steig 2)</name>
  <link href="https://brouter.damsy.net/latest/#map=19/50.93962/6.97774/standard&amp;lonlats=6.971409,50.938155;6.978176,50.939685&amp;nogos=6.781752,51.218852,6&amp;profile=rail">
   <text>BRouter-Web</text>
  </link>
  <trkseg>
   <trkpt lat="50.938153" lon="6.971415"><ele>45.5</ele></trkpt>
   <trkpt lat="50.938395" lon="6.971448"><ele>45</ele></trkpt>
   <trkpt lat="50.93855" lon="6.97148"><ele>45</ele></trkpt>
   <trkpt lat="50.938787" lon="6.971561"><ele>44.75</ele></trkpt>
   <trkpt lat="50.93895" lon="6.971645"><ele>44.25</ele></trkpt>
   <trkpt lat="50.939096" lon="6.971749"><ele>44.75</ele></trkpt>
   <trkpt lat="50.939232" lon="6.971876"><ele>45</ele></trkpt>
   <trkpt lat="50.939394" lon="6.972064"><ele>44.5</ele></trkpt>
   <trkpt lat="50.939497" lon="6.97222"><ele>44.25</ele></trkpt>
   <trkpt lat="50.93965" lon="6.972508"/>
   <trkpt lat="50.939783" lon="6.972845"/>
   <trkpt lat="50.939864" lon="6.973152"/>
   <trkpt lat="50.939931" lon="6.9735"/>
   <trkpt lat="50.939975" lon="6.973965"/>
   <trkpt lat="50.940002" lon="6.97458"/>
   <trkpt lat="50.94" lon="6.975353"/>
   <trkpt lat="50.939974" lon="6.975967"/>
   <trkpt lat="50.939896" lon="6.976856"/>
   <trkpt lat="50.939829" lon="6.977449"/>
   <trkpt lat="50.939731" lon="6.977987"/>
   <trkpt lat="50.939685" lon="6.978176"/>
  </trkseg>
 </trk>
</gpx>