<?xml version="1.0" encoding="UTF-8"?>
<!-- track-length = 81791 filtered ascend = 0 plain-ascend = 0 cost=398023 energy=6.4kwh time=8h 7m 14s -->
<gpx 
 xmlns="http://www.topografix.com/GPX/1/1" 
 xmlns:xsi="http://www.w3.org/2001/XMLSchema-instance" 
 xsi:schemaLocation="http://www.topografix.com/GPX/1/1 http://www.topografix.com/GPX/1/1/gpx.xsd" 
 version="1.1" 
 creator="BRouter-Web 0.18.1">
 <trk>
  <name>Tallinn - Helsinki (Tallink)</name>
  <trkseg>
   <trkpt lat="59.443951" lon="24.770043"><ele>2.75</ele></trkpt>
   <trkpt lat="59.443806" lon="24.769903"><ele>2.5</ele></trkpt>
   <trkpt lat="59.443764" lon="24.769896"><ele>2.5</ele></trkpt>
   <trkpt lat="59.443564" lon="24.769914"><ele>2</ele></trkpt>
   <trkpt lat="59.443516" lon="24.769907"><ele>2</ele></trkpt>
   <trkpt lat="59.443453" lon="24.769915"><ele>2</ele></trkpt>
   <trkpt lat="59.443181" lon="24.76996"><ele>2</ele></trkpt>
   <trkpt lat="59.443134" lon="24.769968"><ele>2</ele></trkpt>
   <trkpt lat="59.442985" lon="24.769992"><ele>2</ele></trkpt>
   <trkpt lat="59.442933" lon="24.770015"><ele>2</ele></trkpt>
   <trkpt lat="59.44288" lon="24.770057"><ele>2</ele></trkpt>
   <trkpt lat="59.442848" lon="24.76991"><ele>2</ele></trkpt>
   <trkpt lat="59.442868" lon="24.769867"><ele>2</ele></trkpt>
   <trkpt lat="59.442895" lon="24.769837"><ele>2</ele></trkpt>
   <trkpt lat="59.44296" lon="24.769822"><ele>2</ele></trkpt>
   <trkpt lat="59.443131" lon="24.769789"><ele>2.25</ele></trkpt>
   <trkpt lat="59.443177" lon="24.769779"><ele>2.25</ele></trkpt>
   <trkpt lat="59.44344" lon="24.769727"><ele>2.5</ele></trkpt>
   <trkpt lat="59.443483" lon="24.769729"><ele>2.5</ele></trkpt>
   <trkpt lat="59.443682" lon="24.769796"><ele>2.75</ele></trkpt>
   <trkpt lat="59.443807" lon="24.769905"><ele>2.75</ele></trkpt>
   <trkpt lat="59.443955" lon="24.770046"><ele>3</ele></trkpt>
   <trkpt lat="59.449281" lon="24.777316"/>
   <trkpt lat="59.450207" lon="24.776466"/>
   <trkpt lat="59.47073" lon="24.764098"/>
   <trkpt lat="59.606238" lon="24.684576"/>
   <trkpt lat="60.034305" lon="24.908766"/>
   <trkpt lat="60.052284" lon="24.896707"/>
   <trkpt lat="60.065629" lon="24.89572"/>
   <trkpt lat="60.074707" lon="24.895462"/>
   <trkpt lat="60.083869" lon="24.895119"/>
   <trkpt lat="60.086759" lon="24.894947"/>
   <trkpt lat="60.089262" lon="24.895462"/>
   <trkpt lat="60.094056" lon="24.897179"/>
   <trkpt lat="60.099961" lon="24.899582"/>
   <trkpt lat="60.104581" lon="24.901642"/>
   <trkpt lat="60.113029" lon="24.905747"/>
   <trkpt lat="60.113368" lon="24.905885"/>
   <trkpt lat="60.118975" lon="24.905629"/>
   <trkpt lat="60.129268" lon="24.905937"/>
   <trkpt lat="60.139753" lon="24.905751"/>
   <trkpt lat="60.141116" lon="24.905437"/>
   <trkpt lat="60.14211" lon="24.905585"/>
   <trkpt lat="60.143722" lon="24.907398"/>
   <trkpt lat="60.145372" lon="24.9116"/>
   <trkpt lat="60.147875" lon="24.915804"/>
   <trkpt lat="60.149444" lon="24.916493"/>
  </trkseg>
 </trk>
</gpx>