<?xml version="1.0" encoding="UTF-8"?>
<!-- track-length = 101 filtered ascend = 0 plain-ascend = 0 cost=202 energy=0.0kwh time=8s -->
<gpx 
 xmlns="http://www.topografix.com/GPX/1/1" 
 xmlns:xsi="http://www.w3.org/2001/XMLSchema-instance" 
 xsi:schemaLocation="http://www.topografix.com/GPX/1/1 http://www.topografix.com/GPX/1/1/gpx.xsd" 
 version="1.1" 
 creator="BRouter-Web 0.18.1">
 <trk>
  <name>Abzweig Kalevankatu Weiche Südost - Hiethalahti</name>
  <trkseg>
   <trkpt lat="60.162131" lon="24.923881"><ele>3.25</ele></trkpt>
   <trkpt lat="60.161779" lon="24.924366"><ele>3.5</ele></trkpt>
   <trkpt lat="60.161714" lon="24.924458"><ele>3.25</ele></trkpt>
   <trkpt lat="60.16166" lon="24.924532"><ele>3</ele></trkpt>
   <trkpt lat="60.161641" lon="24.924558"><ele>3</ele></trkpt>
   <trkpt lat="60.161421" lon="24.924866"><ele>3.25</ele></trkpt>
   <trkpt lat="60.161393" lon="24.924903"><ele>2.75</ele></trkpt>
  </trkseg>
 </trk>
</gpx>