<?xml version="1.0" encoding="UTF-8"?>
<!-- track-length = 57 filtered ascend = 0 plain-ascend = -2 cost=114 energy=0.0kwh time=5s -->
<gpx 
 xmlns="http://www.topografix.com/GPX/1/1" 
 xmlns:xsi="http://www.w3.org/2001/XMLSchema-instance" 
 xsi:schemaLocation="http://www.topografix.com/GPX/1/1 http://www.topografix.com/GPX/1/1/gpx.xsd" 
 version="1.1" 
 creator="BRouter-Web 0.18.1">
 <trk>
  <name>Dreieck Dvorce Weiche Südwest-Ost - Dreieck Dvorce Weiche West-Nord</name>
  <trkseg>
   <trkpt lat="50.049913" lon="14.415559"><ele>193</ele></trkpt>
   <trkpt lat="50.049918" lon="14.415562"><ele>193</ele></trkpt>
   <trkpt lat="50.050033" lon="14.415601"><ele>193</ele></trkpt>
   <trkpt lat="50.050095" lon="14.415597"><ele>193</ele></trkpt>
   <trkpt lat="50.050153" lon="14.415565"><ele>193</ele></trkpt>
   <trkpt lat="50.050213" lon="14.415498"><ele>193</ele></trkpt>
   <trkpt lat="50.050255" lon="14.415409"><ele>193.25</ele></trkpt>
   <trkpt lat="50.050265" lon="14.415382"><ele>193.5</ele></trkpt>
   <trkpt lat="50.05028" lon="14.415314"><ele>193.75</ele></trkpt>
   <trkpt lat="50.050287" lon="14.415244"><ele>193.5</ele></trkpt>
   <trkpt lat="50.050286" lon="14.415237"><ele>190</ele></trkpt>
  </trkseg>
 </trk>
</gpx>