<?xml version="1.0" encoding="UTF-8"?>
<!-- track-length = 9 filtered ascend = 1 plain-ascend = 1 cost=18 energy=0.0kwh time=1s -->
<gpx 
 xmlns="http://www.topografix.com/GPX/1/1" 
 xmlns:xsi="http://www.w3.org/2001/XMLSchema-instance" 
 xsi:schemaLocation="http://www.topografix.com/GPX/1/1 http://www.topografix.com/GPX/1/1/gpx.xsd" 
 version="1.1" 
 creator="BRouter-Web 0.18.1">
 <trk>
  <name>Lihovar (Steig Ost-Nord) - Dreieck Lihovar Weiche Ost-Nord</name>
  <trkseg>
   <trkpt lat="50.05027" lon="14.410083"><ele>194.75</ele></trkpt>
   <trkpt lat="50.05027" lon="14.410008"><ele>194.75</ele></trkpt>
   <trkpt lat="50.050269" lon="14.409957"><ele>195.75</ele></trkpt>
  </trkseg>
 </trk>
</gpx>