<?xml version="1.0" encoding="UTF-8"?>
<!-- track-length = 344 filtered ascend = 0 plain-ascend = 0 cost=344 energy=0.0kwh time=28s -->
<gpx 
 xmlns="http://www.topografix.com/GPX/1/1" 
 xmlns:xsi="http://www.w3.org/2001/XMLSchema-instance" 
 xsi:schemaLocation="http://www.topografix.com/GPX/1/1 http://www.topografix.com/GPX/1/1/gpx.xsd" 
 version="1.1" 
 creator="BRouter-Web 99.71.0">
 <trk>
  <name>Braunsfeld Clarenbachstift (Steig Nord) - Braunsfeld Eupener Straße (Steig Nord)</name>
  <link href="https://brouter.damsy.net/latest/#map=19/50.93709/6.88929/standard&amp;lonlats=6.893886,50.937342;6.888996,50.937494&amp;nogos=6.781752,51.218852,6&amp;profile=rail">
   <text>BRouter-Web</text>
  </link>
  <trkseg>
   <trkpt lat="50.937338" lon="6.893885"><ele>50</ele></trkpt>
   <trkpt lat="50.937343" lon="6.893743"><ele>50</ele></trkpt>
   <trkpt lat="50.937349" lon="6.893449"><ele>50</ele></trkpt>
   <trkpt lat="50.937388" lon="6.892146"><ele>50</ele></trkpt>
   <trkpt lat="50.937449" lon="6.890453"><ele>50</ele></trkpt>
   <trkpt lat="50.937455" lon="6.89028"><ele>50</ele></trkpt>
   <trkpt lat="50.93746" lon="6.890063"><ele>50</ele></trkpt>
   <trkpt lat="50.937472" lon="6.889553"><ele>50</ele></trkpt>
   <trkpt lat="50.937489" lon="6.888995"><ele>50</ele></trkpt>
  </trkseg>
 </trk>
</gpx>