<?xml version="1.0" encoding="UTF-8"?>
<!-- track-length = 126 filtered ascend = 3 plain-ascend = 3 cost=126 energy=0.0kwh time=10s -->
<gpx 
 xmlns="http://www.topografix.com/GPX/1/1" 
 xmlns:xsi="http://www.w3.org/2001/XMLSchema-instance" 
 xsi:schemaLocation="http://www.topografix.com/GPX/1/1 http://www.topografix.com/GPX/1/1/gpx.xsd" 
 version="1.1" 
 creator="BRouter-Web 99.71.0">
 <trk>
  <name>Müngersdorf Üst Alter Militärring Weiche West - Müngersdorf Alter Militärring (Steig Nord)</name>
  <link href="https://brouter.damsy.net/latest/#map=18/50.93756/6.88065/standard&amp;lonlats=6.882713,50.937692;6.880904,50.937746&amp;nogos=6.781752,51.218852,6&amp;profile=rail">
   <text>BRouter-Web</text>
  </link>
  <trkseg>
   <trkpt lat="50.937688" lon="6.882712"><ele>53</ele></trkpt>
   <trkpt lat="50.937698" lon="6.882407"><ele>53.25</ele></trkpt>
   <trkpt lat="50.937707" lon="6.882199"><ele>54</ele></trkpt>
   <trkpt lat="50.937715" lon="6.881995"><ele>54</ele></trkpt>
   <trkpt lat="50.937732" lon="6.881478"><ele>54.5</ele></trkpt>
   <trkpt lat="50.937742" lon="6.880903"><ele>56</ele></trkpt>
  </trkseg>
 </trk>
</gpx>