<?xml version="1.0" encoding="UTF-8"?>
<!-- track-length = 45 filtered ascend = 0 plain-ascend = 0 cost=90 energy=0.0kwh time=4s -->
<gpx 
 xmlns="http://www.topografix.com/GPX/1/1" 
 xmlns:xsi="http://www.w3.org/2001/XMLSchema-instance" 
 xsi:schemaLocation="http://www.topografix.com/GPX/1/1 http://www.topografix.com/GPX/1/1/gpx.xsd" 
 version="1.1" 
 creator="BRouter-Web 99.71.0">
 <trk>
  <name>Düsseldorf Abzweig Immermannstraße Weiche 469 - Düsseldorf Hauptbahnhof Weiche 472</name>
  <link href="https://brouter.damsy.net/latest/#map=19/51.22145/6.79440/standard&amp;lonlats=6.793071,51.221215;6.793591,51.22143&amp;profile=rail">
   <text>BRouter-Web</text>
  </link>
  <trkseg>
   <trkpt lat="51.22121" lon="6.793079"><ele>37</ele></trkpt>
   <trkpt lat="51.221214" lon="6.793084"><ele>37</ele></trkpt>
   <trkpt lat="51.221286" lon="6.793194"><ele>37</ele></trkpt>
   <trkpt lat="51.221319" lon="6.793265"><ele>37</ele></trkpt>
   <trkpt lat="51.221388" lon="6.793488"><ele>37</ele></trkpt>
   <trkpt lat="51.221433" lon="6.793592"><ele>37</ele></trkpt>
   <trkpt lat="51.221431" lon="6.793588"><ele>37</ele></trkpt>
  </trkseg>
 </trk>
</gpx>