<?xml version="1.0" encoding="UTF-8"?>
<!-- track-length = 330 filtered ascend = 0 plain-ascend = 0 cost=660 energy=0.0kwh time=26s -->
<gpx 
 xmlns="http://www.topografix.com/GPX/1/1" 
 xmlns:xsi="http://www.w3.org/2001/XMLSchema-instance" 
 xsi:schemaLocation="http://www.topografix.com/GPX/1/1 http://www.topografix.com/GPX/1/1/gpx.xsd" 
 version="1.1" 
 creator="BRouter-Web 0.18.1">
 <trk>
  <name>Kreuz Via Vitruvio Weiche Nordwest-nach-Südwest-Nordwest - Piazza Cincinnato (Steig Nordwest)</name>
  <trkseg>
   <trkpt lat="45.482258" lon="9.206483"><ele>121.25</ele></trkpt>
   <trkpt lat="45.481984" lon="9.206195"><ele>121</ele></trkpt>
   <trkpt lat="45.481147" lon="9.2053"><ele>121</ele></trkpt>
   <trkpt lat="45.480087" lon="9.2042"><ele>121</ele></trkpt>
   <trkpt lat="45.479913" lon="9.204019"><ele>120.75</ele></trkpt>
   <trkpt lat="45.479868" lon="9.203973"><ele>120.5</ele></trkpt>
  </trkseg>
 </trk>
</gpx>