<?xml version="1.0" encoding="UTF-8"?>
<!-- track-length = 304 filtered ascend = 1 plain-ascend = 0 cost=608 energy=0.0kwh time=24s -->
<gpx 
 xmlns="http://www.topografix.com/GPX/1/1" 
 xmlns:xsi="http://www.w3.org/2001/XMLSchema-instance" 
 xsi:schemaLocation="http://www.topografix.com/GPX/1/1 http://www.topografix.com/GPX/1/1/gpx.xsd" 
 version="1.1" 
 creator="BRouter-Web 0.18.1">
 <trk>
  <name>Üst Goethestraße Weiche 1-43 - Schlossblick IHK (Steig B)</name>
  <trkseg>
   <trkpt lat="53.627586" lon="11.410664"><ele>45.5</ele></trkpt>
   <trkpt lat="53.627535" lon="11.410635"><ele>45.5</ele></trkpt>
   <trkpt lat="53.627401" lon="11.410547"><ele>45.5</ele></trkpt>
   <trkpt lat="53.627125" lon="11.410362"><ele>46</ele></trkpt>
   <trkpt lat="53.626474" lon="11.409951"><ele>46.5</ele></trkpt>
   <trkpt lat="53.626205" lon="11.409805"><ele>46</ele></trkpt>
   <trkpt lat="53.625669" lon="11.409544"><ele>46</ele></trkpt>
   <trkpt lat="53.625217" lon="11.409395"><ele>45.75</ele></trkpt>
   <trkpt lat="53.624981" lon="11.409318"><ele>45.75</ele></trkpt>
   <trkpt lat="53.624978" lon="11.409317"><ele>45.75</ele></trkpt>
  </trkseg>
 </trk>
</gpx>