<?xml version="1.0" encoding="UTF-8"?>
<!-- track-length = 48 filtered ascend = 0 plain-ascend = 0 cost=96 energy=0.0kwh time=4s -->
<gpx 
 xmlns="http://www.topografix.com/GPX/1/1" 
 xmlns:xsi="http://www.w3.org/2001/XMLSchema-instance" 
 xsi:schemaLocation="http://www.topografix.com/GPX/1/1 http://www.topografix.com/GPX/1/1/gpx.xsd" 
 version="1.1" 
 creator="BRouter-Web 0.18.1">
 <trk>
  <name>Dreieck Solli plass Weiche Nordost-Nord - Dreieck Solli plass Weiche Nordwest-Ost</name>
  <trkseg>
   <trkpt lat="59.914735" lon="10.718312"><ele>24</ele></trkpt>
   <trkpt lat="59.914736" lon="10.718317"><ele>24</ele></trkpt>
   <trkpt lat="59.914733" lon="10.7183"><ele>24</ele></trkpt>
   <trkpt lat="59.914717" lon="10.718187"><ele>23.75</ele></trkpt>
   <trkpt lat="59.914715" lon="10.718134"><ele>23.75</ele></trkpt>
   <trkpt lat="59.914726" lon="10.717999"><ele>23.75</ele></trkpt>
   <trkpt lat="59.91476" lon="10.717886"><ele>23.25</ele></trkpt>
   <trkpt lat="59.914818" lon="10.717794"><ele>23.25</ele></trkpt>
   <trkpt lat="59.91491" lon="10.717688"><ele>23.25</ele></trkpt>
   <trkpt lat="59.914912" lon="10.717685"><ele>23.25</ele></trkpt>
  </trkseg>
 </trk>
</gpx>