<?xml version="1.0" encoding="UTF-8"?>
<!-- track-length = 58 filtered ascend = 0 plain-ascend = -2 cost=116 energy=0.0kwh time=5s -->
<gpx 
 xmlns="http://www.topografix.com/GPX/1/1" 
 xmlns:xsi="http://www.w3.org/2001/XMLSchema-instance" 
 xsi:schemaLocation="http://www.topografix.com/GPX/1/1 http://www.topografix.com/GPX/1/1/gpx.xsd" 
 version="1.1" 
 creator="BRouter-Web 0.18.1">
 <trk>
  <name>Dreieck Liisankatu Weiche Ost-Nord - Dreieck Liisankatu Weiche Nordost-Ost</name>
  <trkseg>
   <trkpt lat="60.174043" lon="24.950853"><ele>8.5</ele></trkpt>
   <trkpt lat="60.174044" lon="24.950855"><ele>8.75</ele></trkpt>
   <trkpt lat="60.174046" lon="24.950681"><ele>7.5</ele></trkpt>
   <trkpt lat="60.174054" lon="24.950569"><ele>6.75</ele></trkpt>
   <trkpt lat="60.174072" lon="24.950471"><ele>6.5</ele></trkpt>
   <trkpt lat="60.174096" lon="24.950407"><ele>6.25</ele></trkpt>
   <trkpt lat="60.174146" lon="24.950327"><ele>6</ele></trkpt>
   <trkpt lat="60.1742" lon="24.95029"><ele>5.75</ele></trkpt>
   <trkpt lat="60.174259" lon="24.950284"><ele>5.5</ele></trkpt>
   <trkpt lat="60.174321" lon="24.950307"><ele>5.25</ele></trkpt>
   <trkpt lat="60.174351" lon="24.950322"><ele>5.25</ele></trkpt>
   <trkpt lat="60.174347" lon="24.950319"><ele>5.25</ele></trkpt>
  </trkseg>
 </trk>
</gpx>