<?xml version="1.0" encoding="UTF-8"?>
<!-- track-length = 157 filtered ascend = 1 plain-ascend = 1 cost=157 energy=0.0kwh time=13s -->
<gpx 
 xmlns="http://www.topografix.com/GPX/1/1" 
 xmlns:xsi="http://www.w3.org/2001/XMLSchema-instance" 
 xsi:schemaLocation="http://www.topografix.com/GPX/1/1 http://www.topografix.com/GPX/1/1/gpx.xsd" 
 version="1.1" 
 creator="BRouter-Web 99.71.0">
 <trk>
  <name>Mauritiuskirche (Steig Ost) - Abzweig Mauritiussteinweg Weiche Süd</name>
  <link href="https://brouter.damsy.net/latest/#map=20/50.93581/6.94550/standard&amp;lonlats=6.945049,50.934675;6.945492,50.935863&amp;nogos=6.781752,51.218852,6&amp;profile=rail">
   <text>BRouter-Web</text>
  </link>
  <trkseg>
   <trkpt lat="50.934675" lon="6.945051"><ele>51</ele></trkpt>
   <trkpt lat="50.934746" lon="6.945045"><ele>51</ele></trkpt>
   <trkpt lat="50.935224" lon="6.945004"><ele>51</ele></trkpt>
   <trkpt lat="50.935504" lon="6.944979"><ele>51</ele></trkpt>
   <trkpt lat="50.935597" lon="6.944981"><ele>51</ele></trkpt>
   <trkpt lat="50.93568" lon="6.944995"><ele>51.25</ele></trkpt>
   <trkpt lat="50.935722" lon="6.945012"><ele>51.5</ele></trkpt>
   <trkpt lat="50.935768" lon="6.945052"><ele>51.75</ele></trkpt>
   <trkpt lat="50.935822" lon="6.945159"><ele>51.75</ele></trkpt>
   <trkpt lat="50.935846" lon="6.945246"><ele>52</ele></trkpt>
   <trkpt lat="50.935855" lon="6.945306"><ele>52</ele></trkpt>
   <trkpt lat="50.935861" lon="6.945376"><ele>52</ele></trkpt>
   <trkpt lat="50.935861" lon="6.945491"><ele>51.75</ele></trkpt>
   <trkpt lat="50.93586" lon="6.945491"><ele>51.75</ele></trkpt>
  </trkseg>
 </trk>
</gpx>