<?xml version="1.0" encoding="UTF-8"?>
<!-- track-length = 60 filtered ascend = 0 plain-ascend = 0 cost=87 energy=0.0kwh time=5s -->
<gpx 
 xmlns="http://www.topografix.com/GPX/1/1" 
 xmlns:xsi="http://www.w3.org/2001/XMLSchema-instance" 
 xsi:schemaLocation="http://www.topografix.com/GPX/1/1 http://www.topografix.com/GPX/1/1/gpx.xsd" 
 version="1.1" 
 creator="BRouter-Web 99.71.0">
 <trk>
  <name>Zülpicher Platz (Steig 4) - Abzweig Zülpicher Platz Weiche Nordost-Südost</name>
  <link href="https://brouter.damsy.net/latest/#map=20/50.93129/6.94101/standard&amp;lonlats=6.940358,50.93091;6.940983,50.931272&amp;nogos=6.781752,51.218852,6&amp;profile=rail">
   <text>BRouter-Web</text>
  </link>
  <trkseg>
   <trkpt lat="50.930908" lon="6.940358"><ele>51</ele></trkpt>
   <trkpt lat="50.931029" lon="6.940567"><ele>51</ele></trkpt>
   <trkpt lat="50.931062" lon="6.940627"><ele>51</ele></trkpt>
   <trkpt lat="50.931111" lon="6.94071"><ele>51</ele></trkpt>
   <trkpt lat="50.931131" lon="6.940746"><ele>51</ele></trkpt>
   <trkpt lat="50.931144" lon="6.940768"><ele>51</ele></trkpt>
   <trkpt lat="50.931186" lon="6.940841"><ele>51</ele></trkpt>
   <trkpt lat="50.931269" lon="6.940984"><ele>51</ele></trkpt>
  </trkseg>
 </trk>
</gpx>