<?xml version="1.0" encoding="UTF-8"?>
<!-- track-length = 525 filtered ascend = 2 plain-ascend = 2 cost=1050 energy=0.0kwh time=42s -->
<gpx 
 xmlns="http://www.topografix.com/GPX/1/1" 
 xmlns:xsi="http://www.w3.org/2001/XMLSchema-instance" 
 xsi:schemaLocation="http://www.topografix.com/GPX/1/1 http://www.topografix.com/GPX/1/1/gpx.xsd" 
 version="1.1" 
 creator="BRouter-Web 0.18.1">
 <trk>
  <name>Abzweig Belgiëlei Weiche West - Lange Leemstraat (Steig Nordwest)</name>
  <trkseg>
   <trkpt lat="51.209496" lon="4.422721"><ele>5</ele></trkpt>
   <trkpt lat="51.209495" lon="4.422722"><ele>5</ele></trkpt>
   <trkpt lat="51.209234" lon="4.422749"><ele>5</ele></trkpt>
   <trkpt lat="51.209073" lon="4.422688"><ele>5</ele></trkpt>
   <trkpt lat="51.209" lon="4.422621"><ele>5</ele></trkpt>
   <trkpt lat="51.208923" lon="4.422534"><ele>5</ele></trkpt>
   <trkpt lat="51.208192" lon="4.421445"><ele>5</ele></trkpt>
   <trkpt lat="51.207273" lon="4.420135"><ele>6</ele></trkpt>
   <trkpt lat="51.207256" lon="4.42011"><ele>6</ele></trkpt>
   <trkpt lat="51.207195" lon="4.420024"><ele>6</ele></trkpt>
   <trkpt lat="51.206407" lon="4.418904"><ele>7</ele></trkpt>
   <trkpt lat="51.205871" lon="4.418146"><ele>6.75</ele></trkpt>
  </trkseg>
 </trk>
</gpx>