<?xml version="1.0" encoding="UTF-8"?>
<!-- track-length = 39 filtered ascend = 0 plain-ascend = 0 cost=78 energy=0.0kwh time=3s -->
<gpx 
 xmlns="http://www.topografix.com/GPX/1/1" 
 xmlns:xsi="http://www.w3.org/2001/XMLSchema-instance" 
 xsi:schemaLocation="http://www.topografix.com/GPX/1/1 http://www.topografix.com/GPX/1/1/gpx.xsd" 
 version="1.1" 
 creator="BRouter-Web 99.71.0">
 <trk>
  <name>Dreieck Piazza Cordusio Weiche Ost-Nord - Dreieck Piazza Cordusio Weiche Nord-Ost</name>
  <link href="https://brouter.damsy.net/latest/#map=19/45.46581/9.18692/standard&amp;lonlats=9.186803,45.465635;9.186415,45.465796&amp;profile=rail">
   <text>BRouter-Web</text>
  </link>
  <trkseg>
   <trkpt lat="45.465634" lon="9.186802"><ele>121</ele></trkpt>
   <trkpt lat="45.465635" lon="9.186802"><ele>121</ele></trkpt>
   <trkpt lat="45.465642" lon="9.186684"><ele>120.75</ele></trkpt>
   <trkpt lat="45.465656" lon="9.186608"><ele>121</ele></trkpt>
   <trkpt lat="45.465684" lon="9.186532"><ele>121</ele></trkpt>
   <trkpt lat="45.465731" lon="9.186465"><ele>121</ele></trkpt>
   <trkpt lat="45.465795" lon="9.186416"><ele>121</ele></trkpt>
   <trkpt lat="45.465796" lon="9.186415"><ele>120.75</ele></trkpt>
  </trkseg>
 </trk>
</gpx>