<?xml version="1.0" encoding="UTF-8"?>
<!-- track-length = 67 filtered ascend = 0 plain-ascend = 0 cost=67 energy=0.0kwh time=5s -->
<gpx 
 xmlns="http://www.topografix.com/GPX/1/1" 
 xmlns:xsi="http://www.w3.org/2001/XMLSchema-instance" 
 xsi:schemaLocation="http://www.topografix.com/GPX/1/1 http://www.topografix.com/GPX/1/1/gpx.xsd" 
 version="1.1" 
 creator="BRouter-Web 0.18.1">
 <trk>
  <name>84200 Malá Morávka (Gleis 1) - Malá Morávka Weiche 1</name>
  <trkseg>
   <trkpt lat="50.01005" lon="17.317284"><ele>641</ele></trkpt>
   <trkpt lat="50.010645" lon="17.317306"><ele>641.25</ele></trkpt>
   <trkpt lat="50.010646" lon="17.317306"><ele>640.75</ele></trkpt>
  </trkseg>
 </trk>
</gpx>