<?xml version="1.0" encoding="UTF-8"?>
<!-- track-length = 176 filtered ascend = 0 plain-ascend = 0 cost=176 energy=0.0kwh time=14s -->
<gpx 
 xmlns="http://www.topografix.com/GPX/1/1" 
 xmlns:xsi="http://www.w3.org/2001/XMLSchema-instance" 
 xsi:schemaLocation="http://www.topografix.com/GPX/1/1 http://www.topografix.com/GPX/1/1/gpx.xsd" 
 version="1.1" 
 creator="BRouter-Web 0.18.1">
 <trk>
  <name>84200 Světlá Hora (Gleis 1) - Světlá Hora Weiche 2</name>
  <trkseg>
   <trkpt lat="50.043068" lon="17.394411"><ele>605.5</ele></trkpt>
   <trkpt lat="50.043035" lon="17.394255"><ele>605.75</ele></trkpt>
   <trkpt lat="50.042962" lon="17.393758"><ele>605.5</ele></trkpt>
   <trkpt lat="50.042754" lon="17.392032"><ele>605.75</ele></trkpt>
   <trkpt lat="50.042753" lon="17.39203"><ele>605.25</ele></trkpt>
  </trkseg>
 </trk>
</gpx>