<?xml version="1.0" encoding="UTF-8"?>
<!-- track-length = 106 filtered ascend = 0 plain-ascend = 0 cost=106 energy=0.0kwh time=8s -->
<gpx 
 xmlns="http://www.topografix.com/GPX/1/1" 
 xmlns:xsi="http://www.w3.org/2001/XMLSchema-instance" 
 xsi:schemaLocation="http://www.topografix.com/GPX/1/1 http://www.topografix.com/GPX/1/1/gpx.xsd" 
 version="1.1" 
 creator="BRouter-Web 0.18.1">
 <trk>
  <name>84200 Světlá Hora (Gleis 1) - Světlá Hora Weiche 1</name>
  <trkseg>
   <trkpt lat="50.043068" lon="17.394411"><ele>605.5</ele></trkpt>
   <trkpt lat="50.043124" lon="17.394671"><ele>605.25</ele></trkpt>
   <trkpt lat="50.043401" lon="17.395782"><ele>604.25</ele></trkpt>
   <trkpt lat="50.043398" lon="17.395769"><ele>605.25</ele></trkpt>
  </trkseg>
 </trk>
</gpx>