<?xml version="1.0" encoding="UTF-8"?>
<!-- track-length = 2365 filtered ascend = 92 plain-ascend = 93 cost=2365 energy=0.0kwh time=3m 9s -->
<gpx 
 xmlns="http://www.topografix.com/GPX/1/1" 
 xmlns:xsi="http://www.w3.org/2001/XMLSchema-instance" 
 xsi:schemaLocation="http://www.topografix.com/GPX/1/1 http://www.topografix.com/GPX/1/1/gpx.xsd" 
 version="1.1" 
 creator="BRouter-Web 0.18.1">
 <trk>
  <name>84200 Malá Morávka Weiche 1 - Rudná pod Pradědem zastávka</name>
  <trkseg>
   <trkpt lat="50.010646" lon="17.317306"><ele>641</ele></trkpt>
   <trkpt lat="50.011316" lon="17.317318"><ele>640.75</ele></trkpt>
   <trkpt lat="50.011816" lon="17.317338"><ele>642.75</ele></trkpt>
   <trkpt lat="50.011984" lon="17.317366"><ele>643.5</ele></trkpt>
   <trkpt lat="50.012114" lon="17.317399"><ele>644.75</ele></trkpt>
   <trkpt lat="50.012256" lon="17.317462"><ele>646</ele></trkpt>
   <trkpt lat="50.01239" lon="17.31754"><ele>647</ele></trkpt>
   <trkpt lat="50.012467" lon="17.317597"><ele>647.75</ele></trkpt>
   <trkpt lat="50.012593" lon="17.317701"><ele>648.5</ele></trkpt>
   <trkpt lat="50.0127" lon="17.317821"><ele>649.25</ele></trkpt>
   <trkpt lat="50.0128" lon="17.317948"><ele>649.5</ele></trkpt>
   <trkpt lat="50.012919" lon="17.318121"><ele>650</ele></trkpt>
   <trkpt lat="50.014439" lon="17.320871"><ele>660.5</ele></trkpt>
   <trkpt lat="50.01458" lon="17.321101"><ele>661.75</ele></trkpt>
   <trkpt lat="50.01475" lon="17.321336"><ele>662.5</ele></trkpt>
   <trkpt lat="50.014877" lon="17.321492"><ele>662.5</ele></trkpt>
   <trkpt lat="50.015014" lon="17.321645"><ele>664</ele></trkpt>
   <trkpt lat="50.015304" lon="17.32191"><ele>665</ele></trkpt>
   <trkpt lat="50.015442" lon="17.322016"><ele>665.75</ele></trkpt>
   <trkpt lat="50.015645" lon="17.322147"><ele>666.5</ele></trkpt>
   <trkpt lat="50.01608" lon="17.32238"><ele>668.75</ele></trkpt>
   <trkpt lat="50.016261" lon="17.322489"><ele>669.5</ele></trkpt>
   <trkpt lat="50.01641" lon="17.322608"><ele>670.25</ele></trkpt>
   <trkpt lat="50.016585" lon="17.322777"><ele>671.5</ele></trkpt>
   <trkpt lat="50.017001" lon="17.323253"><ele>673.75</ele></trkpt>
   <trkpt lat="50.017236" lon="17.323553"><ele>675.25</ele></trkpt>
   <trkpt lat="50.018038" lon="17.324684"><ele>679.5</ele></trkpt>
   <trkpt lat="50.018199" lon="17.3249"><ele>680.25</ele></trkpt>
   <trkpt lat="50.018397" lon="17.325115"><ele>681.5</ele></trkpt>
   <trkpt lat="50.018956" lon="17.325618"><ele>684.5</ele></trkpt>
   <trkpt lat="50.019119" lon="17.32579"><ele>684.75</ele></trkpt>
   <trkpt lat="50.019278" lon="17.326028"><ele>685.5</ele></trkpt>
   <trkpt lat="50.019409" lon="17.326292"><ele>686.75</ele></trkpt>
   <trkpt lat="50.019528" lon="17.326582"><ele>687.25</ele></trkpt>
   <trkpt lat="50.020029" lon="17.327899"><ele>691.5</ele></trkpt>
   <trkpt lat="50.020132" lon="17.328186"><ele>691.25</ele></trkpt>
   <trkpt lat="50.020214" lon="17.328457"><ele>693.25</ele></trkpt>
   <trkpt lat="50.020286" lon="17.328748"><ele>694.25</ele></trkpt>
   <trkpt lat="50.020323" lon="17.328895"><ele>693.5</ele></trkpt>
   <trkpt lat="50.020578" lon="17.329924"><ele>700.5</ele></trkpt>
   <trkpt lat="50.020626" lon="17.33015"><ele>701.75</ele></trkpt>
   <trkpt lat="50.020662" lon="17.330367"><ele>702.5</ele></trkpt>
   <trkpt lat="50.020688" lon="17.330613"><ele>703</ele></trkpt>
   <trkpt lat="50.0207" lon="17.330814"><ele>702.75</ele></trkpt>
   <trkpt lat="50.020698" lon="17.331097"><ele>703.25</ele></trkpt>
   <trkpt lat="50.02068" lon="17.331336"><ele>704.5</ele></trkpt>
   <trkpt lat="50.020643" lon="17.331595"><ele>705</ele></trkpt>
   <trkpt lat="50.020602" lon="17.331798"><ele>705</ele></trkpt>
   <trkpt lat="50.020555" lon="17.331957"><ele>705</ele></trkpt>
   <trkpt lat="50.020474" lon="17.332183"><ele>706</ele></trkpt>
   <trkpt lat="50.020385" lon="17.332405"><ele>706</ele></trkpt>
   <trkpt lat="50.020198" lon="17.332826"><ele>708.25</ele></trkpt>
   <trkpt lat="50.020082" lon="17.33313"><ele>708</ele></trkpt>
   <trkpt lat="50.02001" lon="17.333353"><ele>708.75</ele></trkpt>
   <trkpt lat="50.01996" lon="17.333563"><ele>710</ele></trkpt>
   <trkpt lat="50.019935" lon="17.33371"><ele>710.25</ele></trkpt>
   <trkpt lat="50.019902" lon="17.333939"><ele>710.5</ele></trkpt>
   <trkpt lat="50.019888" lon="17.334211"><ele>711.25</ele></trkpt>
   <trkpt lat="50.019895" lon="17.334458"><ele>712</ele></trkpt>
   <trkpt lat="50.019916" lon="17.334717"><ele>713.25</ele></trkpt>
   <trkpt lat="50.019951" lon="17.334957"><ele>714</ele></trkpt>
   <trkpt lat="50.019996" lon="17.335166"><ele>715</ele></trkpt>
   <trkpt lat="50.020057" lon="17.335375"><ele>716</ele></trkpt>
   <trkpt lat="50.020146" lon="17.335613"><ele>717.25</ele></trkpt>
   <trkpt lat="50.02023" lon="17.335797"><ele>718</ele></trkpt>
   <trkpt lat="50.020331" lon="17.335977"><ele>719.25</ele></trkpt>
   <trkpt lat="50.020444" lon="17.336145"><ele>719.75</ele></trkpt>
   <trkpt lat="50.020542" lon="17.336267"><ele>720</ele></trkpt>
   <trkpt lat="50.020688" lon="17.336415"><ele>720.5</ele></trkpt>
   <trkpt lat="50.020839" lon="17.336535"><ele>721</ele></trkpt>
   <trkpt lat="50.020988" lon="17.336623"><ele>721.5</ele></trkpt>
   <trkpt lat="50.021151" lon="17.33669"><ele>721.75</ele></trkpt>
   <trkpt lat="50.021672" lon="17.336818"><ele>721.5</ele></trkpt>
   <trkpt lat="50.02182" lon="17.336873"><ele>722.5</ele></trkpt>
   <trkpt lat="50.021961" lon="17.336941"><ele>723.75</ele></trkpt>
   <trkpt lat="50.022114" lon="17.33704"><ele>724</ele></trkpt>
   <trkpt lat="50.022266" lon="17.337178"><ele>725.25</ele></trkpt>
   <trkpt lat="50.022398" lon="17.337333"><ele>726</ele></trkpt>
   <trkpt lat="50.022505" lon="17.337485"><ele>727.75</ele></trkpt>
   <trkpt lat="50.022615" lon="17.337679"><ele>728</ele></trkpt>
   <trkpt lat="50.022673" lon="17.337797"><ele>728.5</ele></trkpt>
   <trkpt lat="50.022863" lon="17.338307"><ele>731</ele></trkpt>
   <trkpt lat="50.02301" lon="17.338721"><ele>732.25</ele></trkpt>
   <trkpt lat="50.023068" lon="17.338889"><ele>733.5</ele></trkpt>
  </trkseg>
 </trk>
</gpx>