<?xml version="1.0" encoding="UTF-8"?>
<!-- track-length = 1120 filtered ascend = 12 plain-ascend = 13 cost=1120 energy=0.0kwh time=1m 30s -->
<gpx 
 xmlns="http://www.topografix.com/GPX/1/1" 
 xmlns:xsi="http://www.w3.org/2001/XMLSchema-instance" 
 xsi:schemaLocation="http://www.topografix.com/GPX/1/1 http://www.topografix.com/GPX/1/1/gpx.xsd" 
 version="1.1" 
 creator="BRouter-Web 0.18.1">
 <trk>
  <name>84200 Rudná pod Pradědem - Světlá Hora Weiche 1</name>
  <trkseg>
   <trkpt lat="50.036071" lon="17.401199"><ele>592.5</ele></trkpt>
   <trkpt lat="50.036089" lon="17.401199"><ele>592.5</ele></trkpt>
   <trkpt lat="50.036235" lon="17.401197"><ele>592</ele></trkpt>
   <trkpt lat="50.036311" lon="17.401195"><ele>591.5</ele></trkpt>
   <trkpt lat="50.036364" lon="17.401195"><ele>591.25</ele></trkpt>
   <trkpt lat="50.036597" lon="17.401193"><ele>591.25</ele></trkpt>
   <trkpt lat="50.036773" lon="17.401171"><ele>591.5</ele></trkpt>
   <trkpt lat="50.036896" lon="17.401144"><ele>591.75</ele></trkpt>
   <trkpt lat="50.037033" lon="17.401096"><ele>592</ele></trkpt>
   <trkpt lat="50.037176" lon="17.401021"><ele>592</ele></trkpt>
   <trkpt lat="50.037367" lon="17.400897"><ele>591.75</ele></trkpt>
   <trkpt lat="50.037475" lon="17.400805"><ele>591.75</ele></trkpt>
   <trkpt lat="50.038" lon="17.400313"><ele>591</ele></trkpt>
   <trkpt lat="50.038164" lon="17.400178"><ele>591.25</ele></trkpt>
   <trkpt lat="50.038308" lon="17.400074"><ele>591.75</ele></trkpt>
   <trkpt lat="50.03844" lon="17.399992"><ele>591.75</ele></trkpt>
   <trkpt lat="50.038638" lon="17.399888"><ele>592</ele></trkpt>
   <trkpt lat="50.038816" lon="17.399827"><ele>592.25</ele></trkpt>
   <trkpt lat="50.038998" lon="17.399775"><ele>592.5</ele></trkpt>
   <trkpt lat="50.039187" lon="17.399746"><ele>593</ele></trkpt>
   <trkpt lat="50.039366" lon="17.399736"><ele>593.5</ele></trkpt>
   <trkpt lat="50.039541" lon="17.399745"><ele>594</ele></trkpt>
   <trkpt lat="50.039728" lon="17.399771"><ele>594</ele></trkpt>
   <trkpt lat="50.041432" lon="17.400238"><ele>597.5</ele></trkpt>
   <trkpt lat="50.04171" lon="17.400304"><ele>598</ele></trkpt>
   <trkpt lat="50.041877" lon="17.400319"><ele>598.25</ele></trkpt>
   <trkpt lat="50.042034" lon="17.400315"><ele>598.5</ele></trkpt>
   <trkpt lat="50.042207" lon="17.40028"><ele>598.75</ele></trkpt>
   <trkpt lat="50.042394" lon="17.400215"><ele>599.25</ele></trkpt>
   <trkpt lat="50.042513" lon="17.400161"><ele>599.5</ele></trkpt>
   <trkpt lat="50.04272" lon="17.400021"><ele>599.75</ele></trkpt>
   <trkpt lat="50.042853" lon="17.399906"><ele>599.75</ele></trkpt>
   <trkpt lat="50.042969" lon="17.39978"><ele>599.75</ele></trkpt>
   <trkpt lat="50.043092" lon="17.39963"><ele>599.75</ele></trkpt>
   <trkpt lat="50.043211" lon="17.399454"><ele>600</ele></trkpt>
   <trkpt lat="50.043313" lon="17.399278"><ele>600.25</ele></trkpt>
   <trkpt lat="50.043404" lon="17.399078"><ele>600</ele></trkpt>
   <trkpt lat="50.043494" lon="17.398839"><ele>600.25</ele></trkpt>
   <trkpt lat="50.043568" lon="17.3986"><ele>601.5</ele></trkpt>
   <trkpt lat="50.043623" lon="17.398364"><ele>602.75</ele></trkpt>
   <trkpt lat="50.043666" lon="17.398113"><ele>603</ele></trkpt>
   <trkpt lat="50.043691" lon="17.397876"><ele>603.25</ele></trkpt>
   <trkpt lat="50.043704" lon="17.397617"><ele>603.5</ele></trkpt>
   <trkpt lat="50.0437" lon="17.397317"><ele>603.5</ele></trkpt>
   <trkpt lat="50.043676" lon="17.397052"><ele>603.75</ele></trkpt>
   <trkpt lat="50.043644" lon="17.396824"><ele>604.5</ele></trkpt>
   <trkpt lat="50.043591" lon="17.39655"><ele>604.75</ele></trkpt>
   <trkpt lat="50.043479" lon="17.396103"><ele>604</ele></trkpt>
   <trkpt lat="50.043432" lon="17.395908"><ele>604</ele></trkpt>
   <trkpt lat="50.043401" lon="17.395782"><ele>604.25</ele></trkpt>
   <trkpt lat="50.043398" lon="17.395769"><ele>605.25</ele></trkpt>
  </trkseg>
 </trk>
</gpx>