<?xml version="1.0" encoding="UTF-8"?>
<!-- track-length = 147 filtered ascend = 0 plain-ascend = 0 cost=294 energy=0.0kwh time=12s -->
<gpx 
 xmlns="http://www.topografix.com/GPX/1/1" 
 xmlns:xsi="http://www.w3.org/2001/XMLSchema-instance" 
 xsi:schemaLocation="http://www.topografix.com/GPX/1/1 http://www.topografix.com/GPX/1/1/gpx.xsd" 
 version="1.1" 
 creator="BRouter-Web 0.18.1">
 <trk>
  <name>Telakanpuistikko (Steig Südwest) - Abzweig Pursimiehenkatu Weiche West</name>
  <trkseg>
   <trkpt lat="60.15925" lon="24.932416"><ele>3.25</ele></trkpt>
   <trkpt lat="60.15921" lon="24.932448"><ele>3.25</ele></trkpt>
   <trkpt lat="60.158952" lon="24.932663"><ele>4</ele></trkpt>
   <trkpt lat="60.158336" lon="24.933058"><ele>3</ele></trkpt>
   <trkpt lat="60.158251" lon="24.933113"><ele>3.25</ele></trkpt>
   <trkpt lat="60.158184" lon="24.933157"><ele>3.5</ele></trkpt>
   <trkpt lat="60.158012" lon="24.933268"><ele>3</ele></trkpt>
   <trkpt lat="60.158011" lon="24.933268"><ele>3</ele></trkpt>
  </trkseg>
 </trk>
</gpx>