<?xml version="1.0" encoding="UTF-8"?>
<!-- track-length = 422 filtered ascend = 1 plain-ascend = 2 cost=844 energy=0.0kwh time=34s -->
<gpx 
 xmlns="http://www.topografix.com/GPX/1/1" 
 xmlns:xsi="http://www.w3.org/2001/XMLSchema-instance" 
 xsi:schemaLocation="http://www.topografix.com/GPX/1/1 http://www.topografix.com/GPX/1/1/gpx.xsd" 
 version="1.1" 
 creator="BRouter-Web 0.18.1">
 <trk>
  <name>Abzweig Belgiëlei Weiche West - Zurenborg (Steig Nordost)</name>
  <trkseg>
   <trkpt lat="51.209496" lon="4.422721"><ele>5</ele></trkpt>
   <trkpt lat="51.209495" lon="4.422722"><ele>5</ele></trkpt>
   <trkpt lat="51.20928" lon="4.422902"><ele>5</ele></trkpt>
   <trkpt lat="51.209076" lon="4.423082"><ele>5.25</ele></trkpt>
   <trkpt lat="51.207989" lon="4.4241"><ele>5.75</ele></trkpt>
   <trkpt lat="51.207732" lon="4.424348"><ele>6</ele></trkpt>
   <trkpt lat="51.20674" lon="4.425256"><ele>6</ele></trkpt>
   <trkpt lat="51.206207" lon="4.425733"><ele>6.5</ele></trkpt>
  </trkseg>
 </trk>
</gpx>