<?xml version="1.0" encoding="UTF-8"?>
<!-- track-length = 73 filtered ascend = 0 plain-ascend = 0 cost=146 energy=0.0kwh time=6s -->
<gpx 
 xmlns="http://www.topografix.com/GPX/1/1" 
 xmlns:xsi="http://www.w3.org/2001/XMLSchema-instance" 
 xsi:schemaLocation="http://www.topografix.com/GPX/1/1 http://www.topografix.com/GPX/1/1/gpx.xsd" 
 version="1.1" 
 creator="BRouter-Web 0.18.1">
 <trk>
  <name>Cuperus (Steig Nord-Südwest) - Abzweig Cuperus Weiche Südwest</name>
  <trkseg>
   <trkpt lat="51.203469" lon="4.428195"><ele>8.25</ele></trkpt>
   <trkpt lat="51.203467" lon="4.428198"><ele>8.5</ele></trkpt>
   <trkpt lat="51.203441" lon="4.428216"><ele>8.5</ele></trkpt>
   <trkpt lat="51.20334" lon="4.428278"><ele>8</ele></trkpt>
   <trkpt lat="51.203109" lon="4.428371"><ele>8</ele></trkpt>
   <trkpt lat="51.203078" lon="4.428388"><ele>8</ele></trkpt>
   <trkpt lat="51.202998" lon="4.428446"><ele>8</ele></trkpt>
   <trkpt lat="51.202991" lon="4.428452"><ele>8</ele></trkpt>
   <trkpt lat="51.202876" lon="4.428549"><ele>8</ele></trkpt>
   <trkpt lat="51.202875" lon="4.428549"><ele>8.5</ele></trkpt>
  </trkseg>
 </trk>
</gpx>