<?xml version="1.0" encoding="UTF-8"?>
<!-- track-length = 351 filtered ascend = 2 plain-ascend = 2 cost=702 energy=0.0kwh time=28s -->
<gpx 
 xmlns="http://www.topografix.com/GPX/1/1" 
 xmlns:xsi="http://www.w3.org/2001/XMLSchema-instance" 
 xsi:schemaLocation="http://www.topografix.com/GPX/1/1 http://www.topografix.com/GPX/1/1/gpx.xsd" 
 version="1.1" 
 creator="BRouter-Web 0.18.1">
 <trk>
  <name>Zurenborg (Steig Nordost) - Cuperus (Steig Nord-Südwest)</name>
  <trkseg>
   <trkpt lat="51.206207" lon="4.425733"><ele>6.25</ele></trkpt>
   <trkpt lat="51.206181" lon="4.425757"><ele>6.5</ele></trkpt>
   <trkpt lat="51.206121" lon="4.425804"><ele>6.75</ele></trkpt>
   <trkpt lat="51.206032" lon="4.425851"><ele>7</ele></trkpt>
   <trkpt lat="51.205917" lon="4.425893"><ele>7.25</ele></trkpt>
   <trkpt lat="51.205892" lon="4.425904"><ele>7.5</ele></trkpt>
   <trkpt lat="51.205849" lon="4.425921"><ele>7.5</ele></trkpt>
   <trkpt lat="51.205796" lon="4.425962"><ele>7.75</ele></trkpt>
   <trkpt lat="51.205707" lon="4.426064"><ele>7.75</ele></trkpt>
   <trkpt lat="51.205561" lon="4.426248"><ele>7</ele></trkpt>
   <trkpt lat="51.205431" lon="4.426376"><ele>7</ele></trkpt>
   <trkpt lat="51.203469" lon="4.428195"><ele>8.5</ele></trkpt>
  </trkseg>
 </trk>
</gpx>