<?xml version="1.0" encoding="UTF-8"?>
<!-- track-length = 19 filtered ascend = 0 plain-ascend = 1 cost=19 energy=0.0kwh time=2s -->
<gpx 
 xmlns="http://www.topografix.com/GPX/1/1" 
 xmlns:xsi="http://www.w3.org/2001/XMLSchema-instance" 
 xsi:schemaLocation="http://www.topografix.com/GPX/1/1 http://www.topografix.com/GPX/1/1/gpx.xsd" 
 version="1.1" 
 creator="BRouter-Web 0.18.1">
 <trk>
  <name>Üst Sorin aukio Süd Weiche Nordwest - Üst Sorin aukio Süd Weiche Südost</name>
  <trkseg>
   <trkpt lat="61.495698" lon="23.768752"><ele>89</ele></trkpt>
   <trkpt lat="61.495696" lon="23.768756"><ele>89.25</ele></trkpt>
   <trkpt lat="61.495584" lon="23.768996"><ele>89.75</ele></trkpt>
  </trkseg>
 </trk>
</gpx>