<?xml version="1.0" encoding="UTF-8"?>
<!-- track-length = 110 filtered ascend = 6 plain-ascend = 6 cost=220 energy=0.0kwh time=9s -->
<gpx 
 xmlns="http://www.topografix.com/GPX/1/1" 
 xmlns:xsi="http://www.w3.org/2001/XMLSchema-instance" 
 xsi:schemaLocation="http://www.topografix.com/GPX/1/1 http://www.topografix.com/GPX/1/1/gpx.xsd" 
 version="1.1" 
 creator="BRouter-Web 0.18.1">
 <trk>
  <name>Dreieck Lihovar Weiche Ost-Nord - Dreieck Lihovar Weiche Südwest-Nordwest</name>
  <trkseg>
   <trkpt lat="50.050269" lon="14.409957"><ele>195.75</ele></trkpt>
   <trkpt lat="50.050267" lon="14.409892"><ele>196.75</ele></trkpt>
   <trkpt lat="50.050254" lon="14.409781"><ele>198.75</ele></trkpt>
   <trkpt lat="50.050243" lon="14.409733"><ele>199.5</ele></trkpt>
   <trkpt lat="50.050228" lon="14.409681"><ele>200</ele></trkpt>
   <trkpt lat="50.050206" lon="14.409621"><ele>200.25</ele></trkpt>
   <trkpt lat="50.050148" lon="14.409518"><ele>201.25</ele></trkpt>
   <trkpt lat="50.050107" lon="14.409473"><ele>201.75</ele></trkpt>
   <trkpt lat="50.050039" lon="14.409417"><ele>201.75</ele></trkpt>
   <trkpt lat="50.050034" lon="14.409414"><ele>201.75</ele></trkpt>
   <trkpt lat="50.049947" lon="14.409342"><ele>199.75</ele></trkpt>
   <trkpt lat="50.049636" lon="14.408922"><ele>199.25</ele></trkpt>
   <trkpt lat="50.049631" lon="14.408917"><ele>201.5</ele></trkpt>
  </trkseg>
 </trk>
</gpx>