<?xml version="1.0" encoding="UTF-8"?>
<!-- track-length = 36 filtered ascend = 0 plain-ascend = 0 cost=72 energy=0.0kwh time=3s -->
<gpx 
 xmlns="http://www.topografix.com/GPX/1/1" 
 xmlns:xsi="http://www.w3.org/2001/XMLSchema-instance" 
 xsi:schemaLocation="http://www.topografix.com/GPX/1/1 http://www.topografix.com/GPX/1/1/gpx.xsd" 
 version="1.1" 
 creator="BRouter-Web 0.18.1">
 <trk>
  <name>Kreuz Schweiggerstraße Weiche 485 - Kreuz Schweiggerstraße Weiche 482</name>
  <trkseg>
   <trkpt lat="49.441637" lon="11.089826"><ele>310</ele></trkpt>
   <trkpt lat="49.441592" lon="11.089889"><ele>310</ele></trkpt>
   <trkpt lat="49.441566" lon="11.089942"><ele>310</ele></trkpt>
   <trkpt lat="49.441551" lon="11.089999"><ele>310</ele></trkpt>
   <trkpt lat="49.441543" lon="11.090034"><ele>310</ele></trkpt>
   <trkpt lat="49.441541" lon="11.090046"><ele>310</ele></trkpt>
   <trkpt lat="49.441539" lon="11.090062"><ele>310</ele></trkpt>
   <trkpt lat="49.441538" lon="11.090123"><ele>310</ele></trkpt>
   <trkpt lat="49.441554" lon="11.090271"><ele>310</ele></trkpt>
  </trkseg>
 </trk>
</gpx>