<?xml version="1.0" encoding="UTF-8"?>
<!-- track-length = 98 filtered ascend = 2 plain-ascend = 2 cost=198 energy=0.0kwh time=8s -->
<gpx 
 xmlns="http://www.topografix.com/GPX/1/1" 
 xmlns:xsi="http://www.w3.org/2001/XMLSchema-instance" 
 xsi:schemaLocation="http://www.topografix.com/GPX/1/1 http://www.topografix.com/GPX/1/1/gpx.xsd" 
 version="1.1" 
 creator="BRouter-Web 0.18.1">
 <trk>
  <name>Abzweig Schleife Kolmikulma Weiche West - Kolmikulma Weiche West</name>
  <trkseg>
   <trkpt lat="60.16605" lon="24.941918"><ele>11</ele></trkpt>
   <trkpt lat="60.166001" lon="24.941818"><ele>11</ele></trkpt>
   <trkpt lat="60.165994" lon="24.94181"><ele>11</ele></trkpt>
   <trkpt lat="60.165972" lon="24.941792"><ele>11</ele></trkpt>
   <trkpt lat="60.165898" lon="24.941779"><ele>11.25</ele></trkpt>
   <trkpt lat="60.16586" lon="24.9418"><ele>11.25</ele></trkpt>
   <trkpt lat="60.165828" lon="24.941832"><ele>11.5</ele></trkpt>
   <trkpt lat="60.165748" lon="24.941943"><ele>11.75</ele></trkpt>
   <trkpt lat="60.165684" lon="24.942033"><ele>12</ele></trkpt>
   <trkpt lat="60.165507" lon="24.94228"><ele>13</ele></trkpt>
   <trkpt lat="60.165426" lon="24.942393"><ele>13</ele></trkpt>
   <trkpt lat="60.165313" lon="24.942551"><ele>13</ele></trkpt>
  </trkseg>
 </trk>
</gpx>