<?xml version="1.0" encoding="UTF-8"?>
<!-- track-length = 33 filtered ascend = 1 plain-ascend = 1 cost=66 energy=0.0kwh time=3s -->
<gpx 
 xmlns="http://www.topografix.com/GPX/1/1" 
 xmlns:xsi="http://www.w3.org/2001/XMLSchema-instance" 
 xsi:schemaLocation="http://www.topografix.com/GPX/1/1 http://www.topografix.com/GPX/1/1/gpx.xsd" 
 version="1.1" 
 creator="BRouter-Web 0.18.1">
 <trk>
  <name>Kolmikulma (Steig Äußeres Gleis) - Abzweig Schleife Kolmikulma Weiche Ost-Süd</name>
  <trkseg>
   <trkpt lat="60.165358" lon="24.943603"><ele>14.75</ele></trkpt>
   <trkpt lat="60.165383" lon="24.943673"><ele>15</ele></trkpt>
   <trkpt lat="60.165427" lon="24.943762"><ele>15.5</ele></trkpt>
   <trkpt lat="60.165472" lon="24.943817"><ele>15.5</ele></trkpt>
   <trkpt lat="60.165538" lon="24.943844"><ele>15.75</ele></trkpt>
   <trkpt lat="60.165589" lon="24.943849"><ele>15.5</ele></trkpt>
   <trkpt lat="60.16559" lon="24.943848"><ele>15.5</ele></trkpt>
  </trkseg>
 </trk>
</gpx>