<?xml version="1.0" encoding="UTF-8"?>
<!-- track-length = 182 filtered ascend = 2 plain-ascend = 2 cost=364 energy=0.0kwh time=15s -->
<gpx 
 xmlns="http://www.topografix.com/GPX/1/1" 
 xmlns:xsi="http://www.w3.org/2001/XMLSchema-instance" 
 xsi:schemaLocation="http://www.topografix.com/GPX/1/1 http://www.topografix.com/GPX/1/1/gpx.xsd" 
 version="1.1" 
 creator="BRouter-Web 0.18.1">
 <trk>
  <name>Abzweig Wendeschleife Emma-Herwegh-Straße Weiche 276 - Lüneburger Straße (Ausstieg)</name>
  <trkseg>
   <trkpt lat="52.523881" lon="13.360972"><ele>35</ele></trkpt>
   <trkpt lat="52.523879" lon="13.360965"><ele>35</ele></trkpt>
   <trkpt lat="52.523796" lon="13.360751"><ele>35</ele></trkpt>
   <trkpt lat="52.523745" lon="13.360656"><ele>35</ele></trkpt>
   <trkpt lat="52.523695" lon="13.360593"><ele>35</ele></trkpt>
   <trkpt lat="52.523615" lon="13.360532"><ele>35</ele></trkpt>
   <trkpt lat="52.523522" lon="13.360514"><ele>35</ele></trkpt>
   <trkpt lat="52.523459" lon="13.360527"><ele>35</ele></trkpt>
   <trkpt lat="52.523405" lon="13.360555"><ele>35</ele></trkpt>
   <trkpt lat="52.52336" lon="13.360593"><ele>35</ele></trkpt>
   <trkpt lat="52.523297" lon="13.360678"><ele>35</ele></trkpt>
   <trkpt lat="52.523255" lon="13.360773"><ele>35</ele></trkpt>
   <trkpt lat="52.523228" lon="13.360871"><ele>35</ele></trkpt>
   <trkpt lat="52.523219" lon="13.360927"><ele>35</ele></trkpt>
   <trkpt lat="52.523108" lon="13.361762"><ele>35.75</ele></trkpt>
   <trkpt lat="52.523065" lon="13.362101"><ele>37</ele></trkpt>
  </trkseg>
 </trk>
</gpx>