<?xml version="1.0" encoding="UTF-8"?>
<!-- track-length = 415 filtered ascend = 2 plain-ascend = 2 cost=830 energy=0.0kwh time=33s -->
<gpx 
 xmlns="http://www.topografix.com/GPX/1/1" 
 xmlns:xsi="http://www.w3.org/2001/XMLSchema-instance" 
 xsi:schemaLocation="http://www.topografix.com/GPX/1/1 http://www.topografix.com/GPX/1/1/gpx.xsd" 
 version="1.1" 
 creator="BRouter-Web 0.18.1">
 <trk>
  <name>Gounod (Steig Südwest) - Dreieck Harmonie Weiche Mechelsesteenweg Nordwest</name>
  <trkseg>
   <trkpt lat="51.20547" lon="4.410173"><ele>8</ele></trkpt>
   <trkpt lat="51.205444" lon="4.41019"><ele>8</ele></trkpt>
   <trkpt lat="51.204347" lon="4.410896"><ele>8.75</ele></trkpt>
   <trkpt lat="51.202491" lon="4.412101"><ele>10</ele></trkpt>
   <trkpt lat="51.202136" lon="4.412324"><ele>10</ele></trkpt>
   <trkpt lat="51.202063" lon="4.412372"><ele>10</ele></trkpt>
   <trkpt lat="51.202036" lon="4.412389"><ele>10</ele></trkpt>
   <trkpt lat="51.202011" lon="4.412403"><ele>10</ele></trkpt>
  </trkseg>
 </trk>
</gpx>