<?xml version="1.0" encoding="UTF-8"?>
<!-- track-length = 427 filtered ascend = 1 plain-ascend = 1 cost=854 energy=0.0kwh time=34s -->
<gpx 
 xmlns="http://www.topografix.com/GPX/1/1" 
 xmlns:xsi="http://www.w3.org/2001/XMLSchema-instance" 
 xsi:schemaLocation="http://www.topografix.com/GPX/1/1 http://www.topografix.com/GPX/1/1/gpx.xsd" 
 version="1.1" 
 creator="BRouter-Web 0.18.1">
 <trk>
  <name>Van Bree (Steig Südwest) - Gounod (Steig Südwest)</name>
  <trkseg>
   <trkpt lat="51.209095" lon="4.408283"><ele>7</ele></trkpt>
   <trkpt lat="51.209057" lon="4.408306"><ele>7</ele></trkpt>
   <trkpt lat="51.208889" lon="4.40841"><ele>6.75</ele></trkpt>
   <trkpt lat="51.208667" lon="4.408618"><ele>7</ele></trkpt>
   <trkpt lat="51.208527" lon="4.408748"><ele>7.25</ele></trkpt>
   <trkpt lat="51.208307" lon="4.408886"><ele>7</ele></trkpt>
   <trkpt lat="51.207037" lon="4.409646"><ele>7.25</ele></trkpt>
   <trkpt lat="51.206968" lon="4.409694"><ele>7</ele></trkpt>
   <trkpt lat="51.206925" lon="4.409718"><ele>7</ele></trkpt>
   <trkpt lat="51.206828" lon="4.409772"><ele>7</ele></trkpt>
   <trkpt lat="51.206458" lon="4.409937"><ele>7.5</ele></trkpt>
   <trkpt lat="51.205919" lon="4.410013"><ele>7.75</ele></trkpt>
   <trkpt lat="51.205796" lon="4.410035"><ele>8</ele></trkpt>
   <trkpt lat="51.205778" lon="4.410038"><ele>8</ele></trkpt>
   <trkpt lat="51.205707" lon="4.410052"><ele>8</ele></trkpt>
   <trkpt lat="51.205615" lon="4.410084"><ele>8</ele></trkpt>
   <trkpt lat="51.20547" lon="4.410173"><ele>8</ele></trkpt>
  </trkseg>
 </trk>
</gpx>