<?xml version="1.0" encoding="UTF-8"?>
<!-- track-length = 45 filtered ascend = 1 plain-ascend = 0 cost=90 energy=0.0kwh time=4s -->
<gpx 
 xmlns="http://www.topografix.com/GPX/1/1" 
 xmlns:xsi="http://www.w3.org/2001/XMLSchema-instance" 
 xsi:schemaLocation="http://www.topografix.com/GPX/1/1 http://www.topografix.com/GPX/1/1/gpx.xsd" 
 version="1.1" 
 creator="BRouter-Web 0.18.1">
 <trk>
  <name>Abzweig Ratapihantie Weiche Nord - Abzweig Ratapihantie Weiche West</name>
  <trkseg>
   <trkpt lat="60.198399" lon="24.934694"><ele>28.75</ele></trkpt>
   <trkpt lat="60.198398" lon="24.934695"><ele>29</ele></trkpt>
   <trkpt lat="60.198321" lon="24.934712"><ele>29.75</ele></trkpt>
   <trkpt lat="60.198257" lon="24.934703"><ele>29.5</ele></trkpt>
   <trkpt lat="60.198206" lon="24.934663"><ele>28.75</ele></trkpt>
   <trkpt lat="60.198181" lon="24.93463"/>
   <trkpt lat="60.198147" lon="24.93455"/>
   <trkpt lat="60.198131" lon="24.934489"/>
   <trkpt lat="60.198104" lon="24.934356"/>
   <trkpt lat="60.198103" lon="24.934349"/>
  </trkseg>
 </trk>
</gpx>