<?xml version="1.0" encoding="UTF-8"?>
<!-- track-length = 211 filtered ascend = 0 plain-ascend = 0 cost=422 energy=0.0kwh time=17s -->
<gpx 
 xmlns="http://www.topografix.com/GPX/1/1" 
 xmlns:xsi="http://www.w3.org/2001/XMLSchema-instance" 
 xsi:schemaLocation="http://www.topografix.com/GPX/1/1 http://www.topografix.com/GPX/1/1/gpx.xsd" 
 version="1.1" 
 creator="BRouter-Web 0.18.1">
 <trk>
  <name>Abzweig Piazza Lega Lombarda Weiche Ost - Piazza Lega Lombarda (Steig Nordost-Ost)</name>
  <trkseg>
   <trkpt lat="45.476464" lon="9.181327"><ele>122</ele></trkpt>
   <trkpt lat="45.476466" lon="9.181327"><ele>122</ele></trkpt>
   <trkpt lat="45.477218" lon="9.181197"><ele>122</ele></trkpt>
   <trkpt lat="45.477305" lon="9.181168"><ele>121.75</ele></trkpt>
   <trkpt lat="45.477372" lon="9.181133"><ele>122</ele></trkpt>
   <trkpt lat="45.477453" lon="9.181071"><ele>122</ele></trkpt>
   <trkpt lat="45.477507" lon="9.181017"><ele>122</ele></trkpt>
   <trkpt lat="45.477557" lon="9.180957"><ele>122</ele></trkpt>
   <trkpt lat="45.477639" lon="9.180859"><ele>122.25</ele></trkpt>
   <trkpt lat="45.477765" lon="9.180723"><ele>122.5</ele></trkpt>
   <trkpt lat="45.477814" lon="9.180695"><ele>122.5</ele></trkpt>
   <trkpt lat="45.477886" lon="9.180685"><ele>122.25</ele></trkpt>
   <trkpt lat="45.477927" lon="9.180691"><ele>122.25</ele></trkpt>
   <trkpt lat="45.478092" lon="9.180724"><ele>122.5</ele></trkpt>
   <trkpt lat="45.478171" lon="9.18074"><ele>122.5</ele></trkpt>
   <trkpt lat="45.478234" lon="9.180751"><ele>122</ele></trkpt>
  </trkseg>
 </trk>
</gpx>
