<?xml version="1.0" encoding="UTF-8"?>
<!-- track-length = 39 filtered ascend = 0 plain-ascend = 0 cost=78 energy=0.0kwh time=3s -->
<gpx 
 xmlns="http://www.topografix.com/GPX/1/1" 
 xmlns:xsi="http://www.w3.org/2001/XMLSchema-instance" 
 xsi:schemaLocation="http://www.topografix.com/GPX/1/1 http://www.topografix.com/GPX/1/1/gpx.xsd" 
 version="1.1" 
 creator="BRouter-Web 0.18.1">
 <trk>
  <name>Piazzale Baiamonti (Steig Ost) - Dreieck Piazzale Antonio Baiamonti Weiche Süd-Ost</name>
  <trkseg>
   <trkpt lat="45.481716" lon="9.181424"><ele>122</ele></trkpt>
   <trkpt lat="45.48179" lon="9.181439"><ele>122</ele></trkpt>
   <trkpt lat="45.481875" lon="9.18145"><ele>122</ele></trkpt>
   <trkpt lat="45.481908" lon="9.181455"><ele>122</ele></trkpt>
   <trkpt lat="45.482025" lon="9.18146"><ele>122.25</ele></trkpt>
   <trkpt lat="45.482068" lon="9.181465"><ele>122.25</ele></trkpt>
  </trkseg>
 </trk>
</gpx>