<?xml version="1.0" encoding="UTF-8"?>
<!-- track-length = 241 filtered ascend = 0 plain-ascend = 0 cost=482 energy=0.0kwh time=19s -->
<gpx 
 xmlns="http://www.topografix.com/GPX/1/1" 
 xmlns:xsi="http://www.w3.org/2001/XMLSchema-instance" 
 xsi:schemaLocation="http://www.topografix.com/GPX/1/1 http://www.topografix.com/GPX/1/1/gpx.xsd" 
 version="1.1" 
 creator="BRouter-Web 0.18.1">
 <trk>
  <name>Cadorna FN M1 M2 (Steig West-Nord) - Abzweig Piazza Virgilio Weiche Ost</name>
  <trkseg>
   <trkpt lat="45.467994" lon="9.17601"><ele>121.5</ele></trkpt>
   <trkpt lat="45.467985" lon="9.175859"><ele>121.5</ele></trkpt>
   <trkpt lat="45.467975" lon="9.17581"><ele>121.5</ele></trkpt>
   <trkpt lat="45.467948" lon="9.175727"><ele>121.5</ele></trkpt>
   <trkpt lat="45.467921" lon="9.175674"><ele>121.5</ele></trkpt>
   <trkpt lat="45.467888" lon="9.1756"><ele>121.25</ele></trkpt>
   <trkpt lat="45.467864" lon="9.175518"><ele>121.25</ele></trkpt>
   <trkpt lat="45.467863" lon="9.175514"><ele>121.25</ele></trkpt>
   <trkpt lat="45.46785" lon="9.175416"><ele>121</ele></trkpt>
   <trkpt lat="45.467847" lon="9.175343"><ele>121</ele></trkpt>
   <trkpt lat="45.467833" lon="9.17495"><ele>121</ele></trkpt>
   <trkpt lat="45.467788" lon="9.173905"><ele>121</ele></trkpt>
   <trkpt lat="45.467786" lon="9.173783"><ele>121</ele></trkpt>
   <trkpt lat="45.467796" lon="9.17361"><ele>121</ele></trkpt>
   <trkpt lat="45.46781" lon="9.17351"><ele>120.75</ele></trkpt>
   <trkpt lat="45.467844" lon="9.173367"><ele>121</ele></trkpt>
   <trkpt lat="45.467867" lon="9.173297"><ele>121</ele></trkpt>
   <trkpt lat="45.467924" lon="9.17318"><ele>121</ele></trkpt>
   <trkpt lat="45.467976" lon="9.173087"><ele>121</ele></trkpt>
   <trkpt lat="45.46798" lon="9.17308"><ele>121</ele></trkpt>
  </trkseg>
 </trk>
</gpx>