<?xml version="1.0" encoding="UTF-8"?>
<!-- track-length = 197 filtered ascend = 0 plain-ascend = 0 cost=394 energy=0.0kwh time=16s -->
<gpx 
 xmlns="http://www.topografix.com/GPX/1/1" 
 xmlns:xsi="http://www.w3.org/2001/XMLSchema-instance" 
 xsi:schemaLocation="http://www.topografix.com/GPX/1/1 http://www.topografix.com/GPX/1/1/gpx.xsd" 
 version="1.1" 
 creator="BRouter-Web 0.18.1">
 <trk>
  <name>Abzweig Via Cerisio Weiche Süd - Dreieck Piazzale Antonio Baiamonti Weiche Nordwest-West</name>
  <trkseg>
   <trkpt lat="45.484249" lon="9.179468"><ele>124</ele></trkpt>
   <trkpt lat="45.48425" lon="9.179474"><ele>124.25</ele></trkpt>
   <trkpt lat="45.484257" lon="9.179557"><ele>124.25</ele></trkpt>
   <trkpt lat="45.484255" lon="9.17963"><ele>124.25</ele></trkpt>
   <trkpt lat="45.484248" lon="9.179707"><ele>124.25</ele></trkpt>
   <trkpt lat="45.484228" lon="9.179802"><ele>124</ele></trkpt>
   <trkpt lat="45.48417" lon="9.179921"><ele>124</ele></trkpt>
   <trkpt lat="45.484145" lon="9.179953"><ele>124</ele></trkpt>
   <trkpt lat="45.484107" lon="9.179989"><ele>124</ele></trkpt>
   <trkpt lat="45.483666" lon="9.180312"><ele>124</ele></trkpt>
   <trkpt lat="45.483398" lon="9.180508"><ele>123.25</ele></trkpt>
   <trkpt lat="45.482916" lon="9.180867"><ele>123</ele></trkpt>
  </trkseg>
 </trk>
</gpx>