<?xml version="1.0" encoding="UTF-8"?>
<!-- track-length = 40 filtered ascend = 1 plain-ascend = 1 cost=80 energy=0.0kwh time=3s -->
<gpx 
 xmlns="http://www.topografix.com/GPX/1/1" 
 xmlns:xsi="http://www.w3.org/2001/XMLSchema-instance" 
 xsi:schemaLocation="http://www.topografix.com/GPX/1/1 http://www.topografix.com/GPX/1/1/gpx.xsd" 
 version="1.1" 
 creator="BRouter-Web 0.18.1">
 <trk>
  <name>Abzweig Kirkeveien Weiche Südost - Majorstuen (Steig A)</name>
  <trkseg>
   <trkpt lat="59.928714" lon="10.71582"><ele>47.75</ele></trkpt>
   <trkpt lat="59.928595" lon="10.716222"><ele>47.75</ele></trkpt>
   <trkpt lat="59.928531" lon="10.716437"><ele>49</ele></trkpt>
  </trkseg>
 </trk>
</gpx>
