<?xml version="1.0" encoding="UTF-8"?>
<!-- track-length = 176 filtered ascend = 0 plain-ascend = 0 cost=352 energy=0.0kwh time=14s -->
<gpx 
 xmlns="http://www.topografix.com/GPX/1/1" 
 xmlns:xsi="http://www.w3.org/2001/XMLSchema-instance" 
 xsi:schemaLocation="http://www.topografix.com/GPX/1/1 http://www.topografix.com/GPX/1/1/gpx.xsd" 
 version="1.1" 
 creator="BRouter-Web 0.18.1">
 <trk>
  <name>Abzweig Heinrichstraße/Platz der Republik Weiche Südost - Abzweig Schüler-/Enzianstraße Weiche Nord</name>
  <trkseg>
   <trkpt lat="50.874728" lon="12.07825"><ele>193</ele></trkpt>
   <trkpt lat="50.874691" lon="12.078368"><ele>193</ele></trkpt>
   <trkpt lat="50.87468" lon="12.078457"><ele>193</ele></trkpt>
   <trkpt lat="50.874681" lon="12.078555"><ele>193</ele></trkpt>
   <trkpt lat="50.874714" lon="12.078753"><ele>193</ele></trkpt>
   <trkpt lat="50.874734" lon="12.078849"><ele>193</ele></trkpt>
   <trkpt lat="50.87475" lon="12.078973"><ele>193</ele></trkpt>
   <trkpt lat="50.874745" lon="12.079084"><ele>193</ele></trkpt>
   <trkpt lat="50.87472" lon="12.079196"><ele>193</ele></trkpt>
   <trkpt lat="50.874701" lon="12.079242"><ele>193</ele></trkpt>
   <trkpt lat="50.874627" lon="12.079354"><ele>193</ele></trkpt>
   <trkpt lat="50.874591" lon="12.079394"><ele>193</ele></trkpt>
   <trkpt lat="50.874173" lon="12.079584"><ele>192.75</ele></trkpt>
   <trkpt lat="50.873981" lon="12.07964"><ele>192.75</ele></trkpt>
   <trkpt lat="50.873822" lon="12.079683"><ele>192.75</ele></trkpt>
  </trkseg>
 </trk>
</gpx>