<?xml version="1.0" encoding="UTF-8"?>
<!-- track-length = 256 filtered ascend = 0 plain-ascend = 0 cost=512 energy=0.0kwh time=20s -->
<gpx 
 xmlns="http://www.topografix.com/GPX/1/1" 
 xmlns:xsi="http://www.w3.org/2001/XMLSchema-instance" 
 xsi:schemaLocation="http://www.topografix.com/GPX/1/1 http://www.topografix.com/GPX/1/1/gpx.xsd" 
 version="1.1" 
 creator="BRouter-Web 99.71.0">
 <trk>
  <name>Abzweig Reinlgasse Weiche Süd - Linzer Straße (Steig Südwest)</name>
  <link href="https://brouter.damsy.net/latest/#map=19/48.19280/16.31548/standard&amp;lonlats=16.311679,48.193225;16.315025,48.192707">
   <text>BRouter-Web</text>
  </link>
  <trkseg>
   <trkpt lat="48.193223" lon="16.311678"><ele>204</ele></trkpt>
   <trkpt lat="48.193156" lon="16.312063"><ele>204.25</ele></trkpt>
   <trkpt lat="48.193032" lon="16.31277"><ele>203.75</ele></trkpt>
   <trkpt lat="48.192924" lon="16.3134"><ele>203.5</ele></trkpt>
   <trkpt lat="48.192794" lon="16.314364"><ele>203</ele></trkpt>
   <trkpt lat="48.192725" lon="16.314886"><ele>203</ele></trkpt>
   <trkpt lat="48.192707" lon="16.315025"><ele>203</ele></trkpt>
  </trkseg>
 </trk>
</gpx>