<?xml version="1.0" encoding="UTF-8"?>
<!-- track-length = 351 filtered ascend = 0 plain-ascend = 1 cost=351 energy=0.0kwh time=28s -->
<gpx 
 xmlns="http://www.topografix.com/GPX/1/1" 
 xmlns:xsi="http://www.w3.org/2001/XMLSchema-instance" 
 xsi:schemaLocation="http://www.topografix.com/GPX/1/1 http://www.topografix.com/GPX/1/1/gpx.xsd" 
 version="1.1" 
 creator="BRouter-Web 99.71.0">
 <trk>
  <name>Braunsfeld Clarenbachstift (Steig Süd) - Braunsfeld Maarweg (Steig Süd)</name>
  <link href="https://brouter.damsy.net/latest/#map=19/50.93708/6.89947/standard&amp;lonlats=6.89477,50.93729;6.899744,50.937196&amp;nogos=6.781752,51.218852,6&amp;profile=rail">
   <text>BRouter-Web</text>
  </link>
  <trkseg>
   <trkpt lat="50.937288" lon="6.894769"><ele>50</ele></trkpt>
   <trkpt lat="50.937286" lon="6.894907"><ele>50</ele></trkpt>
   <trkpt lat="50.937286" lon="6.895062"><ele>50</ele></trkpt>
   <trkpt lat="50.937284" lon="6.895199"><ele>49.75</ele></trkpt>
   <trkpt lat="50.93725" lon="6.896789"><ele>49.75</ele></trkpt>
   <trkpt lat="50.937214" lon="6.898703"><ele>50.75</ele></trkpt>
   <trkpt lat="50.937201" lon="6.89953"><ele>50.75</ele></trkpt>
   <trkpt lat="50.937199" lon="6.899744"><ele>50.75</ele></trkpt>
  </trkseg>
 </trk>
</gpx>