<?xml version="1.0" encoding="UTF-8"?>
<!-- track-length = 17 filtered ascend = 0 plain-ascend = 0 cost=17 energy=0.0kwh time=1s -->
<gpx 
 xmlns="http://www.topografix.com/GPX/1/1" 
 xmlns:xsi="http://www.w3.org/2001/XMLSchema-instance" 
 xsi:schemaLocation="http://www.topografix.com/GPX/1/1 http://www.topografix.com/GPX/1/1/gpx.xsd" 
 version="1.1" 
 creator="BRouter-Web 99.71.0">
 <trk>
  <name>Braunsfeld Aachener Straße/Gürtel (Steig 1) - Braunsfeld Kreuz Aachener Straße/Gürtel Weiche West-nach-Süd-West</name>
  <link href="https://brouter.damsy.net/latest/#map=19/50.93711/6.90818/standard&amp;lonlats=6.907659,50.937032;6.907902,50.937024&amp;nogos=6.781752,51.218852,6&amp;profile=rail">
   <text>BRouter-Web</text>
  </link>
  <trkseg>
   <trkpt lat="50.93703" lon="6.907658"><ele>49</ele></trkpt>
   <trkpt lat="50.93703" lon="6.907733"><ele>49</ele></trkpt>
   <trkpt lat="50.937021" lon="6.907901"><ele>49</ele></trkpt>
  </trkseg>
 </trk>
</gpx>