<?xml version="1.0" encoding="UTF-8"?>
<!-- track-length = 113 filtered ascend = 0 plain-ascend = -1 cost=113 energy=0.0kwh time=9s -->
<gpx 
 xmlns="http://www.topografix.com/GPX/1/1" 
 xmlns:xsi="http://www.w3.org/2001/XMLSchema-instance" 
 xsi:schemaLocation="http://www.topografix.com/GPX/1/1 http://www.topografix.com/GPX/1/1/gpx.xsd" 
 version="1.1" 
 creator="BRouter-Web 99.71.0">
 <trk>
  <name>Müngersdorf Abzweig Schleife Stadion Ost Weiche Ost - Müngersdorf Alter Militärring (Steig Süd)</name>
  <link href="https://brouter.damsy.net/latest/#map=20/50.93772/6.88143/standard&amp;lonlats=6.88025,50.937638;6.881845,50.937694&amp;nogos=6.781752,51.218852,6&amp;profile=rail">
   <text>BRouter-Web</text>
  </link>
  <trkseg>
   <trkpt lat="50.937636" lon="6.88025"><ele>56.25</ele></trkpt>
   <trkpt lat="50.937649" lon="6.880303"><ele>56.25</ele></trkpt>
   <trkpt lat="50.937696" lon="6.880544"><ele>56.25</ele></trkpt>
   <trkpt lat="50.937717" lon="6.88076"><ele>56</ele></trkpt>
   <trkpt lat="50.937705" lon="6.881476"><ele>54.75</ele></trkpt>
   <trkpt lat="50.937693" lon="6.881844"><ele>54</ele></trkpt>
  </trkseg>
 </trk>
</gpx>