<?xml version="1.0" encoding="UTF-8"?>
<!-- track-length = 82 filtered ascend = 0 plain-ascend = -2 cost=82 energy=0.0kwh time=7s -->
<gpx 
 xmlns="http://www.topografix.com/GPX/1/1" 
 xmlns:xsi="http://www.w3.org/2001/XMLSchema-instance" 
 xsi:schemaLocation="http://www.topografix.com/GPX/1/1 http://www.topografix.com/GPX/1/1/gpx.xsd" 
 version="1.1" 
 creator="BRouter-Web 99.71.0">
 <trk>
  <name>Müngersdorf Alter Militärring (Steig Süd) - Müngersdorf Üst Alter Militärring Weiche Ost</name>
  <link href="https://brouter.damsy.net/latest/#map=20/50.93764/6.88270/standard&amp;lonlats=6.881845,50.937694;6.882985,50.937655&amp;nogos=6.781752,51.218852,6&amp;profile=rail">
   <text>BRouter-Web</text>
  </link>
  <trkseg>
   <trkpt lat="50.937693" lon="6.881844"><ele>54</ele></trkpt>
   <trkpt lat="50.937689" lon="6.881995"><ele>54</ele></trkpt>
   <trkpt lat="50.937681" lon="6.882206"><ele>54</ele></trkpt>
   <trkpt lat="50.937675" lon="6.882374"><ele>53.25</ele></trkpt>
   <trkpt lat="50.937653" lon="6.882983"><ele>52.5</ele></trkpt>
   <trkpt lat="50.937652" lon="6.882984"><ele>51.25</ele></trkpt>
  </trkseg>
 </trk>
</gpx>