<?xml version="1.0" encoding="UTF-8"?>
<!-- track-length = 352 filtered ascend = 0 plain-ascend = -4 cost=352 energy=0.0kwh time=28s -->
<gpx 
 xmlns="http://www.topografix.com/GPX/1/1" 
 xmlns:xsi="http://www.w3.org/2001/XMLSchema-instance" 
 xsi:schemaLocation="http://www.topografix.com/GPX/1/1 http://www.topografix.com/GPX/1/1/gpx.xsd" 
 version="1.1" 
 creator="BRouter-Web 99.71.0">
 <trk>
  <name>Müngersdorf Abzweig Schleife Stadion West Weiche West - Müngersdorf Abzweig Schleife Stadion Ost Weiche Ost</name>
  <link href="https://brouter.damsy.net/latest/#map=18/50.93758/6.87987/standard&amp;lonlats=6.875277,50.937597;6.88025,50.937638&amp;nogos=6.781752,51.218852,6&amp;profile=rail">
   <text>BRouter-Web</text>
  </link>
  <trkseg>
   <trkpt lat="50.937589" lon="6.875276"><ele>61</ele></trkpt>
   <trkpt lat="50.93759" lon="6.875279"><ele>61</ele></trkpt>
   <trkpt lat="50.937592" lon="6.875409"><ele>61</ele></trkpt>
   <trkpt lat="50.93759" lon="6.875582"><ele>61</ele></trkpt>
   <trkpt lat="50.937604" lon="6.875942"><ele>61</ele></trkpt>
   <trkpt lat="50.937613" lon="6.876147"><ele>61</ele></trkpt>
   <trkpt lat="50.937616" lon="6.876438"><ele>61</ele></trkpt>
   <trkpt lat="50.937523" lon="6.879477"><ele>57.75</ele></trkpt>
   <trkpt lat="50.937525" lon="6.879676"><ele>57</ele></trkpt>
   <trkpt lat="50.937534" lon="6.879772"><ele>57</ele></trkpt>
   <trkpt lat="50.937565" lon="6.879956"><ele>57</ele></trkpt>
   <trkpt lat="50.937604" lon="6.88012"><ele>56.75</ele></trkpt>
   <trkpt lat="50.937635" lon="6.880246"><ele>56.5</ele></trkpt>
   <trkpt lat="50.937636" lon="6.88025"><ele>56.25</ele></trkpt>
  </trkseg>
 </trk>
</gpx>