<?xml version="1.0" encoding="UTF-8"?>
<!-- track-length = 375 filtered ascend = 0 plain-ascend = -8 cost=750 energy=0.0kwh time=30s -->
<gpx 
 xmlns="http://www.topografix.com/GPX/1/1" 
 xmlns:xsi="http://www.w3.org/2001/XMLSchema-instance" 
 xsi:schemaLocation="http://www.topografix.com/GPX/1/1 http://www.topografix.com/GPX/1/1/gpx.xsd" 
 version="1.1" 
 creator="BRouter-Web 0.18.1">
 <trk>
  <name>Eevanmäki (Steig Südwest) - Esterinportti (Steig Südwest)</name>
  <trkseg>
   <trkpt lat="60.201468" lon="24.926489"><ele>31</ele></trkpt>
   <trkpt lat="60.201411" lon="24.926516"><ele>31</ele></trkpt>
   <trkpt lat="60.200429" lon="24.926986"><ele>26.75</ele></trkpt>
   <trkpt lat="60.200338" lon="24.927028"><ele>26</ele></trkpt>
   <trkpt lat="60.200319" lon="24.927037"><ele>26</ele></trkpt>
   <trkpt lat="60.200231" lon="24.927078"><ele>25.75</ele></trkpt>
   <trkpt lat="60.200034" lon="24.92717"><ele>25.25</ele></trkpt>
   <trkpt lat="60.198948" lon="24.927682"><ele>21</ele></trkpt>
   <trkpt lat="60.19886" lon="24.927724"><ele>21</ele></trkpt>
   <trkpt lat="60.198739" lon="24.927781"><ele>20.75</ele></trkpt>
   <trkpt lat="60.198636" lon="24.92783"><ele>20.75</ele></trkpt>
   <trkpt lat="60.198186" lon="24.92804"><ele>22.5</ele></trkpt>
  </trkseg>
 </trk>
</gpx>