<?xml version="1.0" encoding="UTF-8"?>
<!-- track-length = 89 filtered ascend = 11 plain-ascend = 12 cost=178 energy=0.0kwh time=7s -->
<gpx 
 xmlns="http://www.topografix.com/GPX/1/1" 
 xmlns:xsi="http://www.w3.org/2001/XMLSchema-instance" 
 xsi:schemaLocation="http://www.topografix.com/GPX/1/1 http://www.topografix.com/GPX/1/1/gpx.xsd" 
 version="1.1" 
 creator="BRouter-Web 0.18.1">
 <trk>
  <name>Ilmalantori (Einstieg Außengleis) - Ilmalantori Weiche West</name>
  <trkseg>
   <trkpt lat="60.207492" lon="24.919916"><ele>32</ele></trkpt>
   <trkpt lat="60.207509" lon="24.919854"><ele>32</ele></trkpt>
   <trkpt lat="60.207528" lon="24.91972"><ele>31.75</ele></trkpt>
   <trkpt lat="60.207529" lon="24.919621"><ele>31.75</ele></trkpt>
   <trkpt lat="60.20752" lon="24.919532"><ele>31.75</ele></trkpt>
   <trkpt lat="60.207499" lon="24.919439"><ele>32</ele></trkpt>
   <trkpt lat="60.20747" lon="24.919365"><ele>33</ele></trkpt>
   <trkpt lat="60.207435" lon="24.919306"><ele>34</ele></trkpt>
   <trkpt lat="60.207364" lon="24.919247"><ele>36</ele></trkpt>
   <trkpt lat="60.207295" lon="24.91924"><ele>38.25</ele></trkpt>
   <trkpt lat="60.207255" lon="24.919253"><ele>39.5</ele></trkpt>
   <trkpt lat="60.2072" lon="24.919314"><ele>41.75</ele></trkpt>
   <trkpt lat="60.207185" lon="24.919331"><ele>41.75</ele></trkpt>
   <trkpt lat="60.207158" lon="24.919385"><ele>42.5</ele></trkpt>
   <trkpt lat="60.207139" lon="24.919434"><ele>43</ele></trkpt>
   <trkpt lat="60.207089" lon="24.919622"><ele>43.75</ele></trkpt>
   <trkpt lat="60.207088" lon="24.919622"><ele>43.25</ele></trkpt>
  </trkseg>
 </trk>
</gpx>