<?xml version="1.0" encoding="UTF-8"?>
<!-- track-length = 35 filtered ascend = 0 plain-ascend = -1 cost=72 energy=0.0kwh time=3s -->
<gpx 
 xmlns="http://www.topografix.com/GPX/1/1" 
 xmlns:xsi="http://www.w3.org/2001/XMLSchema-instance" 
 xsi:schemaLocation="http://www.topografix.com/GPX/1/1 http://www.topografix.com/GPX/1/1/gpx.xsd" 
 version="1.1" 
 creator="BRouter-Web 0.18.1">
 <trk>
  <name>Ilmalantori (Ausstieg) - Ilmalantori Weiche Ost</name>
  <trkseg>
   <trkpt lat="60.206702" lon="24.920192"><ele>44</ele></trkpt>
   <trkpt lat="60.206912" lon="24.920409"><ele>43.25</ele></trkpt>
   <trkpt lat="60.206987" lon="24.920487"><ele>42.25</ele></trkpt>
  </trkseg>
 </trk>
</gpx>