<?xml version="1.0" encoding="UTF-8"?>
<!-- track-length = 137 filtered ascend = 0 plain-ascend = 0 cost=137 energy=0.0kwh time=11s -->
<gpx 
 xmlns="http://www.topografix.com/GPX/1/1" 
 xmlns:xsi="http://www.w3.org/2001/XMLSchema-instance" 
 xsi:schemaLocation="http://www.topografix.com/GPX/1/1 http://www.topografix.com/GPX/1/1/gpx.xsd" 
 version="1.1" 
 creator="BRouter-Web 99.71.0">
 <trk>
  <name>Abzweig Schleife Neumarkt Ost Weiche Ost - Neumarkt (Steig 4)</name>
  <link href="https://brouter.damsy.net/latest/#map=19/50.93561/6.94874/standard&amp;lonlats=6.949092,50.935546;6.947266,50.93583&amp;nogos=6.781752,51.218852,6&amp;profile=rail">
   <text>BRouter-Web</text>
  </link>
  <trkseg>
   <trkpt lat="50.935544" lon="6.949089"><ele>52.5</ele></trkpt>
   <trkpt lat="50.935544" lon="6.94909"><ele>52.5</ele></trkpt>
   <trkpt lat="50.935579" lon="6.949027"><ele>52.5</ele></trkpt>
   <trkpt lat="50.935633" lon="6.948934"><ele>52.25</ele></trkpt>
   <trkpt lat="50.935681" lon="6.948842"><ele>52.25</ele></trkpt>
   <trkpt lat="50.935734" lon="6.948678"><ele>52</ele></trkpt>
   <trkpt lat="50.935753" lon="6.948576"><ele>52</ele></trkpt>
   <trkpt lat="50.935778" lon="6.948391"><ele>52.5</ele></trkpt>
   <trkpt lat="50.93581" lon="6.947756"><ele>52.75</ele></trkpt>
   <trkpt lat="50.93583" lon="6.947266"><ele>52.5</ele></trkpt>
  </trkseg>
 </trk>
</gpx>