<?xml version="1.0" encoding="UTF-8"?>
<!-- track-length = 118 filtered ascend = 0 plain-ascend = 0 cost=118 energy=0.0kwh time=9s -->
<gpx 
 xmlns="http://www.topografix.com/GPX/1/1" 
 xmlns:xsi="http://www.w3.org/2001/XMLSchema-instance" 
 xsi:schemaLocation="http://www.topografix.com/GPX/1/1 http://www.topografix.com/GPX/1/1/gpx.xsd" 
 version="1.1" 
 creator="BRouter-Web 99.71.0">
 <trk>
  <name>Neumarkt (Steig 4) - Abzweig Schleife Neumarkt West Weiche West</name>
  <link href="https://brouter.damsy.net/latest/#map=19/50.93566/6.94719/standard&amp;lonlats=6.947267,50.935833;6.945597,50.935894&amp;nogos=6.781752,51.218852,6&amp;profile=rail">
   <text>BRouter-Web</text>
  </link>
  <trkseg>
   <trkpt lat="50.93583" lon="6.947266"><ele>52.5</ele></trkpt>
   <trkpt lat="50.935837" lon="6.947119"><ele>52.5</ele></trkpt>
   <trkpt lat="50.935865" lon="6.946381"><ele>52</ele></trkpt>
   <trkpt lat="50.935868" lon="6.946191"><ele>52</ele></trkpt>
   <trkpt lat="50.935873" lon="6.946046"><ele>52</ele></trkpt>
   <trkpt lat="50.935877" lon="6.945894"><ele>52</ele></trkpt>
   <trkpt lat="50.935887" lon="6.945598"><ele>52</ele></trkpt>
   <trkpt lat="50.935887" lon="6.945596"><ele>51.75</ele></trkpt>
  </trkseg>
 </trk>
</gpx>