<?xml version="1.0" encoding="UTF-8"?>
<!-- track-length = 46 filtered ascend = 0 plain-ascend = 0 cost=92 energy=0.0kwh time=4s -->
<gpx 
 xmlns="http://www.topografix.com/GPX/1/1" 
 xmlns:xsi="http://www.w3.org/2001/XMLSchema-instance" 
 xsi:schemaLocation="http://www.topografix.com/GPX/1/1 http://www.topografix.com/GPX/1/1/gpx.xsd" 
 version="1.1" 
 creator="BRouter-Web 0.18.1">
 <trk>
  <name>Abzweig Wendeschleife Groenenhoek Weiche Südost - Abzweig Trammuseum Weiche Süd</name>
  <trkseg>
   <trkpt lat="51.200343" lon="4.438226"><ele>9</ele></trkpt>
   <trkpt lat="51.200343" lon="4.43823"><ele>9</ele></trkpt>
   <trkpt lat="51.200192" lon="4.438821"><ele>9</ele></trkpt>
  </trkseg>
 </trk>
</gpx>