<?xml version="1.0" encoding="UTF-8"?>
<!-- track-length = 54 filtered ascend = 0 plain-ascend = 0 cost=110 energy=0.0kwh time=4s -->
<gpx 
 xmlns="http://www.topografix.com/GPX/1/1" 
 xmlns:xsi="http://www.w3.org/2001/XMLSchema-instance" 
 xsi:schemaLocation="http://www.topografix.com/GPX/1/1 http://www.topografix.com/GPX/1/1/gpx.xsd" 
 version="1.1" 
 creator="BRouter-Web 0.18.1">
 <trk>
  <name>Dreieck Allersberger Straße/Scheurlstraße Weiche Nordost-West - Dreieck Allersberger Straße/Scheurlstraße Weiche Südost-West</name>
  <trkseg>
   <trkpt lat="49.443372" lon="11.088363"><ele>310</ele></trkpt>
   <trkpt lat="49.4433" lon="11.088325"><ele>310</ele></trkpt>
   <trkpt lat="49.443211" lon="11.088288"><ele>310.25</ele></trkpt>
   <trkpt lat="49.443198" lon="11.088282"><ele>310.25</ele></trkpt>
   <trkpt lat="49.443157" lon="11.088265"><ele>310.25</ele></trkpt>
   <trkpt lat="49.443118" lon="11.088262"><ele>310.5</ele></trkpt>
   <trkpt lat="49.44309" lon="11.088265"><ele>310.5</ele></trkpt>
   <trkpt lat="49.443079" lon="11.088266"><ele>310.5</ele></trkpt>
   <trkpt lat="49.443047" lon="11.088271"><ele>310.75</ele></trkpt>
   <trkpt lat="49.443009" lon="11.088291"><ele>310.5</ele></trkpt>
   <trkpt lat="49.442912" lon="11.088374"><ele>310.25</ele></trkpt>
   <trkpt lat="49.442911" lon="11.088374"><ele>310</ele></trkpt>
  </trkseg>
 </trk>
</gpx>
