<?xml version="1.0" encoding="UTF-8"?>
<!-- track-length = 296 filtered ascend = 0 plain-ascend = 0 cost=592 energy=0.0kwh time=24s -->
<gpx 
 xmlns="http://www.topografix.com/GPX/1/1" 
 xmlns:xsi="http://www.w3.org/2001/XMLSchema-instance" 
 xsi:schemaLocation="http://www.topografix.com/GPX/1/1 http://www.topografix.com/GPX/1/1/gpx.xsd" 
 version="1.1" 
 creator="BRouter-Web 0.18.1">
 <trk>
  <name>Möllendorffstraße/Storkower Straße (Steig West) - Abzweig Loeperplatz Weiche 090</name>
  <trkseg>
   <trkpt lat="52.523324" lon="13.479546"><ele>49</ele></trkpt>
   <trkpt lat="52.523251" lon="13.479541"><ele>49</ele></trkpt>
   <trkpt lat="52.523098" lon="13.47955"><ele>49</ele></trkpt>
   <trkpt lat="52.523058" lon="13.479551"><ele>48.75</ele></trkpt>
   <trkpt lat="52.522924" lon="13.479557"><ele>49</ele></trkpt>
   <trkpt lat="52.522912" lon="13.479557"><ele>49</ele></trkpt>
   <trkpt lat="52.521953" lon="13.479593"><ele>48.75</ele></trkpt>
   <trkpt lat="52.521284" lon="13.479601"><ele>49</ele></trkpt>
   <trkpt lat="52.520651" lon="13.4796"><ele>48.5</ele></trkpt>
  </trkseg>
 </trk>
</gpx>