<?xml version="1.0" encoding="UTF-8"?>
<!-- track-length = 290 filtered ascend = 1 plain-ascend = 1 cost=580 energy=0.0kwh time=23s -->
<gpx 
 xmlns="http://www.topografix.com/GPX/1/1" 
 xmlns:xsi="http://www.w3.org/2001/XMLSchema-instance" 
 xsi:schemaLocation="http://www.topografix.com/GPX/1/1 http://www.topografix.com/GPX/1/1/gpx.xsd" 
 version="1.1" 
 creator="BRouter-Web 0.18.1">
 <trk>
  <name>Berchem Station (Steig Südwest) - Abzweig Wendeschleife Groenenhoek Weiche Südost</name>
  <trkseg>
   <trkpt lat="51.201463" lon="4.434493"><ele>8</ele></trkpt>
   <trkpt lat="51.201456" lon="4.434526"><ele>8</ele></trkpt>
   <trkpt lat="51.201445" lon="4.434576"><ele>8</ele></trkpt>
   <trkpt lat="51.201404" lon="4.434728"><ele>8</ele></trkpt>
   <trkpt lat="51.201351" lon="4.43489"><ele>8</ele></trkpt>
   <trkpt lat="51.201297" lon="4.435058"><ele>8</ele></trkpt>
   <trkpt lat="51.200931" lon="4.436232"><ele>8</ele></trkpt>
   <trkpt lat="51.200886" lon="4.436377"><ele>8</ele></trkpt>
   <trkpt lat="51.200546" lon="4.437483"><ele>8.75</ele></trkpt>
   <trkpt lat="51.200463" lon="4.437767"><ele>9</ele></trkpt>
   <trkpt lat="51.200343" lon="4.438226"><ele>9</ele></trkpt>
  </trkseg>
 </trk>
</gpx>