<?xml version="1.0" encoding="UTF-8"?>
<!-- track-length = 38 filtered ascend = 0 plain-ascend = 0 cost=76 energy=0.0kwh time=3s -->
<gpx 
 xmlns="http://www.topografix.com/GPX/1/1" 
 xmlns:xsi="http://www.w3.org/2001/XMLSchema-instance" 
 xsi:schemaLocation="http://www.topografix.com/GPX/1/1 http://www.topografix.com/GPX/1/1/gpx.xsd" 
 version="1.1" 
 creator="BRouter-Web 0.18.1">
 <trk>
  <name>Dreieck Sörnäinen Weiche West-Nord - Sörnäinen (Steig West)</name>
  <trkseg>
   <trkpt lat="60.187654" lon="24.961216"><ele>20</ele></trkpt>
   <trkpt lat="60.18763" lon="24.960637"><ele>20</ele></trkpt>
   <trkpt lat="60.187625" lon="24.96053"><ele>20</ele></trkpt>
  </trkseg>
 </trk>
</gpx>