<?xml version="1.0" encoding="UTF-8"?>
<!-- track-length = 69 filtered ascend = 1 plain-ascend = 1 cost=140 energy=0.0kwh time=5s -->
<gpx 
 xmlns="http://www.topografix.com/GPX/1/1" 
 xmlns:xsi="http://www.w3.org/2001/XMLSchema-instance" 
 xsi:schemaLocation="http://www.topografix.com/GPX/1/1 http://www.topografix.com/GPX/1/1/gpx.xsd" 
 version="1.1" 
 creator="BRouter-Web 0.18.1">
 <trk>
  <name>Dreieck Sörnäinen Weiche Nordost-Nordwest - Dreieck Sörnäinen Weiche West-Nord</name>
  <trkseg>
   <trkpt lat="60.18775" lon="24.962415"><ele>19</ele></trkpt>
   <trkpt lat="60.187716" lon="24.962245"><ele>19</ele></trkpt>
   <trkpt lat="60.187692" lon="24.962019"><ele>19.25</ele></trkpt>
   <trkpt lat="60.18769" lon="24.962003"><ele>19.25</ele></trkpt>
   <trkpt lat="60.187674" lon="24.96165"><ele>20</ele></trkpt>
   <trkpt lat="60.187669" lon="24.961532"><ele>20</ele></trkpt>
   <trkpt lat="60.187665" lon="24.961437"><ele>20</ele></trkpt>
   <trkpt lat="60.187655" lon="24.961219"><ele>20</ele></trkpt>
   <trkpt lat="60.187654" lon="24.961216"><ele>20</ele></trkpt>
  </trkseg>
 </trk>
</gpx>