<?xml version="1.0" encoding="UTF-8"?>
<!-- track-length = 389 filtered ascend = 0 plain-ascend = 0 cost=778 energy=0.0kwh time=31s -->
<gpx 
 xmlns="http://www.topografix.com/GPX/1/1" 
 xmlns:xsi="http://www.w3.org/2001/XMLSchema-instance" 
 xsi:schemaLocation="http://www.topografix.com/GPX/1/1 http://www.topografix.com/GPX/1/1/gpx.xsd" 
 version="1.1" 
 creator="BRouter-Web 0.18.1">
 <trk>
  <name>Žižkovo náměstí (Steig Südwest) - U Bystřičky (Steig Südwest)</name>
  <trkseg>
   <trkpt lat="49.595994" lon="17.265393"><ele>213</ele></trkpt>
   <trkpt lat="49.59599" lon="17.265411"><ele>213</ele></trkpt>
   <trkpt lat="49.595914" lon="17.265683"><ele>212.5</ele></trkpt>
   <trkpt lat="49.595851" lon="17.265912"><ele>212</ele></trkpt>
   <trkpt lat="49.595799" lon="17.26609"><ele>212</ele></trkpt>
   <trkpt lat="49.595663" lon="17.266592"><ele>212.25</ele></trkpt>
   <trkpt lat="49.595519" lon="17.267081"><ele>212.75</ele></trkpt>
   <trkpt lat="49.595472" lon="17.26724"><ele>212.5</ele></trkpt>
   <trkpt lat="49.595441" lon="17.267342"><ele>212.75</ele></trkpt>
   <trkpt lat="49.595424" lon="17.267404"><ele>212.75</ele></trkpt>
   <trkpt lat="49.59523" lon="17.268098"><ele>212.25</ele></trkpt>
   <trkpt lat="49.595169" lon="17.268329"><ele>212.75</ele></trkpt>
   <trkpt lat="49.595159" lon="17.268365"><ele>213</ele></trkpt>
   <trkpt lat="49.594902" lon="17.269326"><ele>212.75</ele></trkpt>
   <trkpt lat="49.594869" lon="17.269449"><ele>213</ele></trkpt>
   <trkpt lat="49.594631" lon="17.270336"><ele>213</ele></trkpt>
   <trkpt lat="49.59463" lon="17.270336"><ele>212.75</ele></trkpt>
  </trkseg>
 </trk>
</gpx>