<?xml version="1.0" encoding="UTF-8"?>
<!-- track-length = 712 filtered ascend = 13 plain-ascend = 14 cost=1424 energy=0.0kwh time=57s -->
<gpx 
 xmlns="http://www.topografix.com/GPX/1/1" 
 xmlns:xsi="http://www.w3.org/2001/XMLSchema-instance" 
 xsi:schemaLocation="http://www.topografix.com/GPX/1/1 http://www.topografix.com/GPX/1/1/gpx.xsd" 
 version="1.1" 
 creator="BRouter-Web 0.18.1">
 <trk>
  <name>Haapaniemi (Steig Südost) - Dreieck Sörnäinen Weiche Südwest-Ost</name>
  <trkseg>
   <trkpt lat="60.18195" lon="24.955673"><ele>6.5</ele></trkpt>
   <trkpt lat="60.182047" lon="24.955936"><ele>7.25</ele></trkpt>
   <trkpt lat="60.182122" lon="24.956124"><ele>7.5</ele></trkpt>
   <trkpt lat="60.182152" lon="24.9562"><ele>7.5</ele></trkpt>
   <trkpt lat="60.182212" lon="24.956344"><ele>7.75</ele></trkpt>
   <trkpt lat="60.182406" lon="24.956765"><ele>7.5</ele></trkpt>
   <trkpt lat="60.18279" lon="24.957524"><ele>8</ele></trkpt>
   <trkpt lat="60.18292" lon="24.9578"><ele>8.25</ele></trkpt>
   <trkpt lat="60.183045" lon="24.95809"><ele>8.75</ele></trkpt>
   <trkpt lat="60.183164" lon="24.958306"><ele>9</ele></trkpt>
   <trkpt lat="60.183215" lon="24.958381"><ele>9</ele></trkpt>
   <trkpt lat="60.18329" lon="24.958486"><ele>9</ele></trkpt>
   <trkpt lat="60.183684" lon="24.958981"><ele>10.25</ele></trkpt>
   <trkpt lat="60.184068" lon="24.959502"><ele>11.5</ele></trkpt>
   <trkpt lat="60.184479" lon="24.960035"><ele>14</ele></trkpt>
   <trkpt lat="60.184549" lon="24.960126"><ele>14.25</ele></trkpt>
   <trkpt lat="60.184623" lon="24.960223"><ele>14.75</ele></trkpt>
   <trkpt lat="60.184765" lon="24.960406"><ele>16</ele></trkpt>
   <trkpt lat="60.184941" lon="24.9606"><ele>16.75</ele></trkpt>
   <trkpt lat="60.185256" lon="24.96088"><ele>16.75</ele></trkpt>
   <trkpt lat="60.185465" lon="24.961021"><ele>17.5</ele></trkpt>
   <trkpt lat="60.185673" lon="24.961129"><ele>18</ele></trkpt>
   <trkpt lat="60.185843" lon="24.961195"><ele>18</ele></trkpt>
   <trkpt lat="60.186015" lon="24.96124"><ele>18.5</ele></trkpt>
   <trkpt lat="60.186105" lon="24.96126"><ele>18.75</ele></trkpt>
   <trkpt lat="60.186204" lon="24.961282"><ele>19.25</ele></trkpt>
   <trkpt lat="60.187082" lon="24.961472"><ele>20</ele></trkpt>
   <trkpt lat="60.187196" lon="24.961526"><ele>20</ele></trkpt>
   <trkpt lat="60.187352" lon="24.96166"><ele>20</ele></trkpt>
   <trkpt lat="60.187366" lon="24.961673"><ele>20</ele></trkpt>
  </trkseg>
 </trk>
</gpx>