<?xml version="1.0" encoding="UTF-8"?>
<!-- track-length = 70 filtered ascend = 0 plain-ascend = 0 cost=140 energy=0.0kwh time=6s -->
<gpx 
 xmlns="http://www.topografix.com/GPX/1/1" 
 xmlns:xsi="http://www.w3.org/2001/XMLSchema-instance" 
 xsi:schemaLocation="http://www.topografix.com/GPX/1/1 http://www.topografix.com/GPX/1/1/gpx.xsd" 
 version="1.1" 
 creator="BRouter-Web 0.18.1">
 <trk>
  <name>Dreieck Vazovova Südost Weiche 046 - Dreieck Vazovova Südost Weiche Nordwest-Nordost</name>
  <trkseg>
   <trkpt lat="48.15372" lon="17.122367"><ele>138</ele></trkpt>
   <trkpt lat="48.153646" lon="17.122191"><ele>138</ele></trkpt>
   <trkpt lat="48.153615" lon="17.1221"><ele>138</ele></trkpt>
   <trkpt lat="48.153606" lon="17.122006"><ele>138</ele></trkpt>
   <trkpt lat="48.153613" lon="17.12188"><ele>137.75</ele></trkpt>
   <trkpt lat="48.153641" lon="17.121785"><ele>137.75</ele></trkpt>
   <trkpt lat="48.153654" lon="17.12176"><ele>138</ele></trkpt>
   <trkpt lat="48.153771" lon="17.121551"><ele>138</ele></trkpt>
   <trkpt lat="48.153771" lon="17.121549"><ele>138</ele></trkpt>
  </trkseg>
 </trk>
</gpx>