<?xml version="1.0" encoding="UTF-8"?>
<!-- track-length = 119 filtered ascend = 0 plain-ascend = -5 cost=238 energy=0.0kwh time=10s -->
<gpx 
 xmlns="http://www.topografix.com/GPX/1/1" 
 xmlns:xsi="http://www.w3.org/2001/XMLSchema-instance" 
 xsi:schemaLocation="http://www.topografix.com/GPX/1/1 http://www.topografix.com/GPX/1/1/gpx.xsd" 
 version="1.1" 
 creator="BRouter-Web 0.18.1">
 <trk>
  <name>Abzweig Holbergs plass Weiche Nordwest - Holbergs plass (Steig A)</name>
  <trkseg>
   <trkpt lat="59.919582" lon="10.734037"><ele>22.25</ele></trkpt>
   <trkpt lat="59.919579" lon="10.734043"><ele>22.25</ele></trkpt>
   <trkpt lat="59.919482" lon="10.734191"><ele>22</ele></trkpt>
   <trkpt lat="59.919396" lon="10.734315"><ele>21.25</ele></trkpt>
   <trkpt lat="59.919305" lon="10.7344"><ele>21</ele></trkpt>
   <trkpt lat="59.919245" lon="10.734431"><ele>21</ele></trkpt>
   <trkpt lat="59.919114" lon="10.734459"><ele>20.75</ele></trkpt>
   <trkpt lat="59.919062" lon="10.734469"><ele>20.5</ele></trkpt>
   <trkpt lat="59.918988" lon="10.734482"><ele>20.25</ele></trkpt>
   <trkpt lat="59.918701" lon="10.734518"><ele>19.25</ele></trkpt>
   <trkpt lat="59.918588" lon="10.734533"><ele>16.25</ele></trkpt>
  </trkseg>
 </trk>
</gpx>