<?xml version="1.0" encoding="UTF-8"?>
<!-- track-length = 96 filtered ascend = 0 plain-ascend = 0 cost=192 energy=0.0kwh time=8s -->
<gpx 
 xmlns="http://www.topografix.com/GPX/1/1" 
 xmlns:xsi="http://www.w3.org/2001/XMLSchema-instance" 
 xsi:schemaLocation="http://www.topografix.com/GPX/1/1 http://www.topografix.com/GPX/1/1/gpx.xsd" 
 version="1.1" 
 creator="BRouter-Web 99.71.0">
 <trk>
  <name>Itäkeskus Abzweig Depot Roihupelto Weiche Ost-Südost - Itäkeskus (Gleis Südost)</name>
  <link href="https://brouter.damsy.net/latest/#map=19/60.20996/25.07642/standard&amp;lonlats=25.076216,60.209624;25.077729,60.210034&amp;profile=rail">
   <text>BRouter-Web</text>
  </link>
  <trkseg>
   <trkpt lat="60.209623" lon="25.076215"/>
   <trkpt lat="60.20984" lon="25.077003"/>
   <trkpt lat="60.210033" lon="25.077728"/>
  </trkseg>
 </trk>
</gpx>