<?xml version="1.0" encoding="UTF-8"?>
<!-- track-length = 424 filtered ascend = 2 plain-ascend = 0 cost=848 energy=0.0kwh time=34s -->
<gpx 
 xmlns="http://www.topografix.com/GPX/1/1" 
 xmlns:xsi="http://www.w3.org/2001/XMLSchema-instance" 
 xsi:schemaLocation="http://www.topografix.com/GPX/1/1 http://www.topografix.com/GPX/1/1/gpx.xsd" 
 version="1.1" 
 creator="BRouter-Web 99.71.0">
 <trk>
  <name>Itäkeskus Abzweig Depot Roihupelto Weiche D6 - Itäkeskus Abzweig Depot Roihupelto Weiche Ost-Südost</name>
  <link href="https://brouter.damsy.net/latest/#map=20/60.20963/25.07611/standard&amp;lonlats=25.068914,60.208584;25.075723,60.209491;25.076216,60.209624&amp;profile=rail">
   <text>BRouter-Web</text>
  </link>
  <trkseg>
   <trkpt lat="60.208582" lon="25.068913"><ele>4.75</ele></trkpt>
   <trkpt lat="60.208583" lon="25.068916"><ele>5</ele></trkpt>
   <trkpt lat="60.208703" lon="25.070254"><ele>4.25</ele></trkpt>
   <trkpt lat="60.208881" lon="25.071853"><ele>5</ele></trkpt>
   <trkpt lat="60.20908" lon="25.073375"><ele>5.25</ele></trkpt>
   <trkpt lat="60.209208" lon="25.074283"><ele>6.75</ele></trkpt>
   <trkpt lat="60.209341" lon="25.074988"><ele>5</ele></trkpt>
   <trkpt lat="60.209467" lon="25.075616"/>
   <trkpt lat="60.209493" lon="25.075719"/>
   <trkpt lat="60.209623" lon="25.076214"/>
   <trkpt lat="60.209623" lon="25.076215"/>
  </trkseg>
 </trk>
</gpx>