<?xml version="1.0" encoding="UTF-8"?>
<!-- track-length = 75 filtered ascend = 0 plain-ascend = 0 cost=150 energy=0.0kwh time=6s -->
<gpx 
 xmlns="http://www.topografix.com/GPX/1/1" 
 xmlns:xsi="http://www.w3.org/2001/XMLSchema-instance" 
 xsi:schemaLocation="http://www.topografix.com/GPX/1/1 http://www.topografix.com/GPX/1/1/gpx.xsd" 
 version="1.1" 
 creator="BRouter-Web 99.71.0">
 <trk>
  <name>Kalasatama (Steig Südwest) - Üst Kalasatama Weiche B7</name>
  <link href="https://brouter.damsy.net/latest/#map=19/60.18743/24.97889/standard&amp;lonlats=24.978035,60.187335;24.979346,60.187193&amp;profile=rail">
   <text>BRouter-Web</text>
  </link>
  <trkseg>
   <trkpt lat="60.187339" lon="24.978036"/>
   <trkpt lat="60.18719" lon="24.979342"/>
   <trkpt lat="60.187189" lon="24.979344"/>
  </trkseg>
 </trk>
</gpx>