<?xml version="1.0" encoding="UTF-8"?>
<!-- track-length = 629 filtered ascend = 0 plain-ascend = 0 cost=1258 energy=0.0kwh time=50s -->
<gpx 
 xmlns="http://www.topografix.com/GPX/1/1" 
 xmlns:xsi="http://www.w3.org/2001/XMLSchema-instance" 
 xsi:schemaLocation="http://www.topografix.com/GPX/1/1 http://www.topografix.com/GPX/1/1/gpx.xsd" 
 version="1.1" 
 creator="BRouter-Web 99.71.0">
 <trk>
  <name>Rautatientori (Steig Süd) - Helsingin yliopisto (Steig Südost)</name>
  <link href="https://brouter.damsy.net/latest/#map=16/60.1722/24.9465/standard&amp;lonlats=24.940348,60.170259;24.949402,60.172885&amp;profile=rail">
   <text>BRouter-Web</text>
  </link>
  <trkseg>
   <trkpt lat="60.170258" lon="24.940347"/>
   <trkpt lat="60.170261" lon="24.940467"/>
   <trkpt lat="60.170294" lon="24.942152"/>
   <trkpt lat="60.170342" lon="24.94304"/>
   <trkpt lat="60.170418" lon="24.943678"/>
   <trkpt lat="60.170538" lon="24.944475"/>
   <trkpt lat="60.170691" lon="24.945184"/>
   <trkpt lat="60.170821" lon="24.945825"/>
   <trkpt lat="60.17101" lon="24.946604"/>
   <trkpt lat="60.171231" lon="24.947275"/>
   <trkpt lat="60.171443" lon="24.947809"/>
   <trkpt lat="60.171674" lon="24.948174"/>
   <trkpt lat="60.172825" lon="24.949342"/>
   <trkpt lat="60.172883" lon="24.949402"/>
  </trkseg>
 </trk>
</gpx>