<?xml version="1.0" encoding="UTF-8"?>
<!-- track-length = 887 filtered ascend = 11 plain-ascend = 10 cost=1774 energy=0.0kwh time=1m 11s -->
<gpx 
 xmlns="http://www.topografix.com/GPX/1/1" 
 xmlns:xsi="http://www.w3.org/2001/XMLSchema-instance" 
 xsi:schemaLocation="http://www.topografix.com/GPX/1/1 http://www.topografix.com/GPX/1/1/gpx.xsd" 
 version="1.1" 
 creator="BRouter-Web 99.71.0">
 <trk>
  <name>Siilitie (Steig Südost) - Üst Itäkeskus Abzweig Depot Roihupelto Weiche D5</name>
  <link href="https://brouter.damsy.net/latest/#map=18/60.20850/25.05843/standard&amp;lonlats=25.044552,60.205593;25.058354,60.208454&amp;profile=rail">
   <text>BRouter-Web</text>
  </link>
  <trkseg>
   <trkpt lat="60.205592" lon="25.044551"><ele>6.75</ele></trkpt>
   <trkpt lat="60.205699" lon="25.044689"><ele>6.75</ele></trkpt>
   <trkpt lat="60.206131" lon="25.045257"><ele>7.25</ele></trkpt>
   <trkpt lat="60.206385" lon="25.045615"><ele>7.5</ele></trkpt>
   <trkpt lat="60.206596" lon="25.045947"><ele>7.75</ele></trkpt>
   <trkpt lat="60.206847" lon="25.046385"><ele>7.75</ele></trkpt>
   <trkpt lat="60.207086" lon="25.046886"><ele>8</ele></trkpt>
   <trkpt lat="60.20729" lon="25.047418"><ele>9.5</ele></trkpt>
   <trkpt lat="60.207475" lon="25.047954"><ele>9.5</ele></trkpt>
   <trkpt lat="60.207567" lon="25.048275"><ele>10</ele></trkpt>
   <trkpt lat="60.20765" lon="25.04858"><ele>11.5</ele></trkpt>
   <trkpt lat="60.207886" lon="25.049564"><ele>13.5</ele></trkpt>
   <trkpt lat="60.208044" lon="25.050264"><ele>11</ele></trkpt>
   <trkpt lat="60.20822" lon="25.051114"><ele>16.5</ele></trkpt>
   <trkpt lat="60.208308" lon="25.051575"><ele>12.25</ele></trkpt>
   <trkpt lat="60.208426" lon="25.052269"><ele>18.5</ele></trkpt>
   <trkpt lat="60.208483" lon="25.052711"><ele>16.5</ele></trkpt>
   <trkpt lat="60.208512" lon="25.052994"><ele>13.75</ele></trkpt>
   <trkpt lat="60.208568" lon="25.053666"><ele>13.5</ele></trkpt>
   <trkpt lat="60.208597" lon="25.054175"><ele>14</ele></trkpt>
   <trkpt lat="60.208608" lon="25.054607"><ele>14.25</ele></trkpt>
   <trkpt lat="60.208608" lon="25.055067"><ele>14.5</ele></trkpt>
   <trkpt lat="60.208581" lon="25.055962"><ele>15</ele></trkpt>
   <trkpt lat="60.2085" lon="25.057459"><ele>16.25</ele></trkpt>
   <trkpt lat="60.208443" lon="25.058351"><ele>16.25</ele></trkpt>
  </trkseg>
 </trk>
</gpx>