<?xml version="1.0" encoding="UTF-8"?>
<!-- track-length = 1185 filtered ascend = 2 plain-ascend = 1 cost=2370 energy=0.0kwh time=1m 35s -->
<gpx 
 xmlns="http://www.topografix.com/GPX/1/1" 
 xmlns:xsi="http://www.w3.org/2001/XMLSchema-instance" 
 xsi:schemaLocation="http://www.topografix.com/GPX/1/1 http://www.topografix.com/GPX/1/1/gpx.xsd" 
 version="1.1" 
 creator="BRouter-Web 99.71.0">
 <trk>
  <name>Sörnäinen (Steig Südost) - Kalasatama (Steig Südwest)</name>
  <link href="https://brouter.damsy.net/latest/#map=17/60.18753/24.97311/standard&amp;lonlats=24.95978,60.186674;24.978036,60.187339&amp;profile=rail">
   <text>BRouter-Web</text>
  </link>
  <trkseg>
   <trkpt lat="60.186676" lon="24.959766"><ele>7.5</ele></trkpt>
   <trkpt lat="60.186923" lon="24.960034"><ele>7.5</ele></trkpt>
   <trkpt lat="60.18785" lon="24.961091"><ele>7.5</ele></trkpt>
   <trkpt lat="60.188286" lon="24.96166"><ele>7.5</ele></trkpt>
   <trkpt lat="60.18873" lon="24.962468"><ele>7.5</ele></trkpt>
   <trkpt lat="60.188929" lon="24.963025"><ele>7.5</ele></trkpt>
   <trkpt lat="60.189066" lon="24.963665"><ele>7.5</ele></trkpt>
   <trkpt lat="60.189157" lon="24.964377"><ele>7.5</ele></trkpt>
   <trkpt lat="60.189197" lon="24.965075"><ele>7.5</ele></trkpt>
   <trkpt lat="60.18917" lon="24.965744"><ele>7.5</ele></trkpt>
   <trkpt lat="60.189078" lon="24.96659"><ele>7.5</ele></trkpt>
   <trkpt lat="60.188943" lon="24.967984"><ele>9.75</ele></trkpt>
   <trkpt lat="60.188806" lon="24.969033"><ele>7.5</ele></trkpt>
   <trkpt lat="60.188729" lon="24.969649"><ele>8.25</ele></trkpt>
   <trkpt lat="60.188676" lon="24.969993"><ele>8.5</ele></trkpt>
   <trkpt lat="60.188615" lon="24.970418"/>
   <trkpt lat="60.188542" lon="24.970859"/>
   <trkpt lat="60.188406" lon="24.97154"/>
   <trkpt lat="60.188273" lon="24.972148"/>
   <trkpt lat="60.188134" lon="24.972835"/>
   <trkpt lat="60.187897" lon="24.973949"/>
   <trkpt lat="60.187799" lon="24.974469"/>
   <trkpt lat="60.187713" lon="24.974993"/>
   <trkpt lat="60.187626" lon="24.975576"/>
   <trkpt lat="60.18757" lon="24.976009"/>
   <trkpt lat="60.187349" lon="24.97795"/>
   <trkpt lat="60.187339" lon="24.978036"/>
  </trkseg>
 </trk>
</gpx>