<?xml version="1.0" encoding="UTF-8"?>
<!-- track-length = 1731 filtered ascend = 7 plain-ascend = 6 cost=3462 energy=0.0kwh time=2m 18s -->
<gpx 
 xmlns="http://www.topografix.com/GPX/1/1" 
 xmlns:xsi="http://www.w3.org/2001/XMLSchema-instance" 
 xsi:schemaLocation="http://www.topografix.com/GPX/1/1 http://www.topografix.com/GPX/1/1/gpx.xsd" 
 version="1.1" 
 creator="BRouter-Web 99.71.0">
 <trk>
  <name>Üst Kalasatama Weiche B8 - Kulosaari (Steig Südost)</name>
  <link href="https://brouter.damsy.net/latest/#map=19/60.18892/25.00944/standard&amp;lonlats=24.97958,60.187169;25.009319,60.188908&amp;profile=rail">
   <text>BRouter-Web</text>
  </link>
  <trkseg>
   <trkpt lat="60.187162" lon="24.979577"><ele>5.75</ele></trkpt>
   <trkpt lat="60.187162" lon="24.979585"><ele>5.75</ele></trkpt>
   <trkpt lat="60.186999" lon="24.981005"><ele>5.75</ele></trkpt>
   <trkpt lat="60.186236" lon="24.987805"><ele>5.75</ele></trkpt>
   <trkpt lat="60.186164" lon="24.988459"><ele>5.75</ele></trkpt>
   <trkpt lat="60.186103" lon="24.989087"><ele>6</ele></trkpt>
   <trkpt lat="60.186063" lon="24.989645"><ele>6</ele></trkpt>
   <trkpt lat="60.186034" lon="24.990222"><ele>4.75</ele></trkpt>
   <trkpt lat="60.186019" lon="24.990808"><ele>3.75</ele></trkpt>
   <trkpt lat="60.186018" lon="24.991261"><ele>3.25</ele></trkpt>
   <trkpt lat="60.186029" lon="24.991844"><ele>3.25</ele></trkpt>
   <trkpt lat="60.186112" lon="24.993927"><ele>6</ele></trkpt>
   <trkpt lat="60.186163" lon="24.994705"><ele>4.75</ele></trkpt>
   <trkpt lat="60.186196" lon="24.99521"><ele>5</ele></trkpt>
   <trkpt lat="60.18624" lon="24.995664"><ele>5.25</ele></trkpt>
   <trkpt lat="60.186353" lon="24.996583"><ele>4.25</ele></trkpt>
   <trkpt lat="60.186442" lon="24.997162"><ele>4</ele></trkpt>
   <trkpt lat="60.186544" lon="24.997722"><ele>4.25</ele></trkpt>
   <trkpt lat="60.186652" lon="24.99826"><ele>4.5</ele></trkpt>
   <trkpt lat="60.186775" lon="24.998793"><ele>5.75</ele></trkpt>
   <trkpt lat="60.186905" lon="24.999292"><ele>5.25</ele></trkpt>
   <trkpt lat="60.1871" lon="24.999971"><ele>5.5</ele></trkpt>
   <trkpt lat="60.187205" lon="25.000301"><ele>6</ele></trkpt>
   <trkpt lat="60.187655" lon="25.001656"><ele>5.75</ele></trkpt>
   <trkpt lat="60.187819" lon="25.00216"><ele>7.25</ele></trkpt>
   <trkpt lat="60.188029" lon="25.002911"><ele>9</ele></trkpt>
   <trkpt lat="60.188138" lon="25.00336"><ele>9.25</ele></trkpt>
   <trkpt lat="60.188307" lon="25.004145"><ele>11</ele></trkpt>
   <trkpt lat="60.188372" lon="25.004485"><ele>11.25</ele></trkpt>
   <trkpt lat="60.188438" lon="25.00488"><ele>12</ele></trkpt>
   <trkpt lat="60.188515" lon="25.0054"><ele>12</ele></trkpt>
   <trkpt lat="60.188563" lon="25.005792"><ele>12</ele></trkpt>
   <trkpt lat="60.188873" lon="25.008992"><ele>13</ele></trkpt>
   <trkpt lat="60.188903" lon="25.009319"><ele>11.75</ele></trkpt>
  </trkseg>
 </trk>
</gpx>