<?xml version="1.0" encoding="UTF-8"?>
<!-- track-length = 1294 filtered ascend = 0 plain-ascend = -4 cost=2588 energy=0.0kwh time=1m 44s -->
<gpx 
 xmlns="http://www.topografix.com/GPX/1/1" 
 xmlns:xsi="http://www.w3.org/2001/XMLSchema-instance" 
 xsi:schemaLocation="http://www.topografix.com/GPX/1/1 http://www.topografix.com/GPX/1/1/gpx.xsd" 
 version="1.1" 
 creator="BRouter-Web 99.71.0">
 <trk>
  <name>Üst Kulosaari Weiche D2 - Herttoniemi (Steig Südost)</name>
  <link href="https://brouter.damsy.net/latest/#map=18/60.19489/25.03103/standard&amp;lonlats=25.011659,60.189136;25.031331,60.194993&amp;profile=rail">
   <text>BRouter-Web</text>
  </link>
  <trkseg>
   <trkpt lat="60.189133" lon="25.011658"><ele>11.75</ele></trkpt>
   <trkpt lat="60.189134" lon="25.011671"><ele>11.75</ele></trkpt>
   <trkpt lat="60.18928" lon="25.012839"><ele>7.25</ele></trkpt>
   <trkpt lat="60.189352" lon="25.013269"><ele>7.5</ele></trkpt>
   <trkpt lat="60.189501" lon="25.014184"><ele>6.25</ele></trkpt>
   <trkpt lat="60.189616" lon="25.014793"><ele>6.25</ele></trkpt>
   <trkpt lat="60.18971" lon="25.015236"><ele>6.75</ele></trkpt>
   <trkpt lat="60.189863" lon="25.015861"><ele>5.5</ele></trkpt>
   <trkpt lat="60.19003" lon="25.016473"><ele>5.75</ele></trkpt>
   <trkpt lat="60.190157" lon="25.016877"><ele>5.75</ele></trkpt>
   <trkpt lat="60.190503" lon="25.017898"><ele>6.25</ele></trkpt>
   <trkpt lat="60.190755" lon="25.018541"><ele>6.75</ele></trkpt>
   <trkpt lat="60.190961" lon="25.019031"><ele>6.75</ele></trkpt>
   <trkpt lat="60.191373" lon="25.019974"><ele>8.75</ele></trkpt>
   <trkpt lat="60.191724" lon="25.020672"><ele>9.5</ele></trkpt>
   <trkpt lat="60.192052" lon="25.021399"><ele>9</ele></trkpt>
   <trkpt lat="60.19218" lon="25.021698"><ele>9</ele></trkpt>
   <trkpt lat="60.19241" lon="25.022353"><ele>8.75</ele></trkpt>
   <trkpt lat="60.192546" lon="25.022783"><ele>8.75</ele></trkpt>
   <trkpt lat="60.192667" lon="25.023208"><ele>8.5</ele></trkpt>
   <trkpt lat="60.192776" lon="25.02363"><ele>11</ele></trkpt>
   <trkpt lat="60.192876" lon="25.024063"><ele>10.25</ele></trkpt>
   <trkpt lat="60.193001" lon="25.024674"><ele>10.75</ele></trkpt>
   <trkpt lat="60.193321" lon="25.026598"><ele>9</ele></trkpt>
   <trkpt lat="60.193402" lon="25.027029"><ele>9</ele></trkpt>
   <trkpt lat="60.193478" lon="25.027391"><ele>8.25</ele></trkpt>
   <trkpt lat="60.193648" lon="25.028059"><ele>7</ele></trkpt>
   <trkpt lat="60.193772" lon="25.028473"><ele>7.5</ele></trkpt>
   <trkpt lat="60.193883" lon="25.028809"><ele>7</ele></trkpt>
   <trkpt lat="60.194155" lon="25.029544"/>
   <trkpt lat="60.194911" lon="25.031142"/>
   <trkpt lat="60.194997" lon="25.031321"/>
  </trkseg>
 </trk>
</gpx>