<?xml version="1.0" encoding="UTF-8"?>
<!-- track-length = 33 filtered ascend = 0 plain-ascend = 0 cost=66 energy=0.0kwh time=3s -->
<gpx 
 xmlns="http://www.topografix.com/GPX/1/1" 
 xmlns:xsi="http://www.w3.org/2001/XMLSchema-instance" 
 xsi:schemaLocation="http://www.topografix.com/GPX/1/1 http://www.topografix.com/GPX/1/1/gpx.xsd" 
 version="1.1" 
 creator="BRouter-Web 0.18.1">
 <trk>
  <name>Dreieck Kaarlenkatu Weiche West-Süd - Dreieck Kaarlenkatu Weiche Süd-West</name>
  <trkseg>
   <trkpt lat="60.186585" lon="24.95073"><ele>18</ele></trkpt>
   <trkpt lat="60.186586" lon="24.950733"><ele>18</ele></trkpt>
   <trkpt lat="60.186604" lon="24.950888"><ele>18</ele></trkpt>
   <trkpt lat="60.186602" lon="24.950997"><ele>18</ele></trkpt>
   <trkpt lat="60.186584" lon="24.951099"><ele>18</ele></trkpt>
   <trkpt lat="60.186554" lon="24.951176"><ele>18</ele></trkpt>
   <trkpt lat="60.186519" lon="24.951234"><ele>18</ele></trkpt>
   <trkpt lat="60.186518" lon="24.951234"><ele>18</ele></trkpt>
  </trkseg>
 </trk>
</gpx>