<?xml version="1.0" encoding="UTF-8"?>
<!-- track-length = 35 filtered ascend = 0 plain-ascend = 1 cost=70 energy=0.0kwh time=3s -->
<gpx 
 xmlns="http://www.topografix.com/GPX/1/1" 
 xmlns:xsi="http://www.w3.org/2001/XMLSchema-instance" 
 xsi:schemaLocation="http://www.topografix.com/GPX/1/1 http://www.topografix.com/GPX/1/1/gpx.xsd" 
 version="1.1" 
 creator="BRouter-Web 0.18.1">
 <trk>
  <name>Dreieck Kaarlenkatu Weiche Nordost-West - Dreieck Kaarlenkatu Weiche Süd-West</name>
  <trkseg>
   <trkpt lat="60.186782" lon="24.951262"><ele>17.5</ele></trkpt>
   <trkpt lat="60.186741" lon="24.951205"><ele>17.5</ele></trkpt>
   <trkpt lat="60.186694" lon="24.951168"><ele>17.75</ele></trkpt>
   <trkpt lat="60.186679" lon="24.951162"><ele>17.75</ele></trkpt>
   <trkpt lat="60.186646" lon="24.951153"><ele>18</ele></trkpt>
   <trkpt lat="60.186603" lon="24.951164"><ele>18</ele></trkpt>
   <trkpt lat="60.186564" lon="24.95119"><ele>18</ele></trkpt>
   <trkpt lat="60.186519" lon="24.951234"><ele>18</ele></trkpt>
   <trkpt lat="60.186518" lon="24.951234"><ele>18</ele></trkpt>
  </trkseg>
 </trk>
</gpx>