<?xml version="1.0" encoding="UTF-8"?>
<!-- track-length = 318 filtered ascend = 0 plain-ascend = -15 cost=636 energy=0.0kwh time=25s -->
<gpx 
 xmlns="http://www.topografix.com/GPX/1/1" 
 xmlns:xsi="http://www.w3.org/2001/XMLSchema-instance" 
 xsi:schemaLocation="http://www.topografix.com/GPX/1/1 http://www.topografix.com/GPX/1/1/gpx.xsd" 
 version="1.1" 
 creator="BRouter-Web 0.18.1">
 <trk>
  <name>Karhupuisto (Steig Südwest) - Kallion virastotalo (Steig Nordwest)</name>
  <trkseg>
   <trkpt lat="60.183509" lon="24.952778"><ele>20.75</ele></trkpt>
   <trkpt lat="60.183443" lon="24.952948"><ele>20.75</ele></trkpt>
   <trkpt lat="60.183384" lon="24.953035"><ele>20.75</ele></trkpt>
   <trkpt lat="60.183341" lon="24.953065"><ele>20.75</ele></trkpt>
   <trkpt lat="60.1833" lon="24.953077"><ele>20.75</ele></trkpt>
   <trkpt lat="60.183263" lon="24.95307"><ele>20.5</ele></trkpt>
   <trkpt lat="60.183222" lon="24.953042"><ele>20.5</ele></trkpt>
   <trkpt lat="60.183187" lon="24.952999"><ele>20.25</ele></trkpt>
   <trkpt lat="60.183142" lon="24.952943"><ele>19.75</ele></trkpt>
   <trkpt lat="60.182966" lon="24.952668"><ele>18.25</ele></trkpt>
   <trkpt lat="60.182612" lon="24.952115"><ele>15.25</ele></trkpt>
   <trkpt lat="60.18254" lon="24.951999"><ele>15</ele></trkpt>
   <trkpt lat="60.182491" lon="24.951919"><ele>14.75</ele></trkpt>
   <trkpt lat="60.181852" lon="24.95092"><ele>10.25</ele></trkpt>
   <trkpt lat="60.181795" lon="24.950823"><ele>9.75</ele></trkpt>
   <trkpt lat="60.181748" lon="24.950742"><ele>9.5</ele></trkpt>
   <trkpt lat="60.181243" lon="24.949949"><ele>5.25</ele></trkpt>
  </trkseg>
 </trk>
</gpx>