<?xml version="1.0" encoding="UTF-8"?>
<!-- track-length = 144 filtered ascend = 0 plain-ascend = 0 cost=288 energy=0.0kwh time=12s -->
<gpx 
 xmlns="http://www.topografix.com/GPX/1/1" 
 xmlns:xsi="http://www.w3.org/2001/XMLSchema-instance" 
 xsi:schemaLocation="http://www.topografix.com/GPX/1/1 http://www.topografix.com/GPX/1/1/gpx.xsd" 
 version="1.1" 
 creator="BRouter-Web 0.18.1">
 <trk>
  <name>Dreieck Allersberger Straße/Scheuristraße Weiche Südost-Ost - Scheuerlstraße (Steig Südost)</name>
  <trkseg>
   <trkpt lat="49.442931" lon="11.088404"><ele>310</ele></trkpt>
   <trkpt lat="49.442934" lon="11.088401"><ele>310.25</ele></trkpt>
   <trkpt lat="49.442974" lon="11.088368"><ele>310.5</ele></trkpt>
   <trkpt lat="49.443049" lon="11.088313"><ele>310.75</ele></trkpt>
   <trkpt lat="49.443091" lon="11.088301"><ele>310.75</ele></trkpt>
   <trkpt lat="49.443156" lon="11.088304"><ele>310.5</ele></trkpt>
   <trkpt lat="49.44319" lon="11.088316"><ele>310.25</ele></trkpt>
   <trkpt lat="49.44328" lon="11.088355"><ele>310</ele></trkpt>
   <trkpt lat="49.443642" lon="11.088531"><ele>310</ele></trkpt>
   <trkpt lat="49.443723" lon="11.08857"><ele>310</ele></trkpt>
   <trkpt lat="49.44414" lon="11.088783"><ele>310</ele></trkpt>
   <trkpt lat="49.444166" lon="11.088796"><ele>309.5</ele></trkpt>
  </trkseg>
 </trk>
</gpx>