<?xml version="1.0" encoding="UTF-8"?>
<!-- track-length = 429 filtered ascend = 0 plain-ascend = -3 cost=860 energy=0.0kwh time=34s -->
<gpx 
 xmlns="http://www.topografix.com/GPX/1/1" 
 xmlns:xsi="http://www.w3.org/2001/XMLSchema-instance" 
 xsi:schemaLocation="http://www.topografix.com/GPX/1/1 http://www.topografix.com/GPX/1/1/gpx.xsd" 
 version="1.1" 
 creator="BRouter-Web 0.18.1">
 <trk>
  <name>Scheuerlstraße (Steig Südost) - Abzweig Marientunnel Weiche Nord</name>
  <trkseg>
   <trkpt lat="49.444166" lon="11.088796"><ele>309.75</ele></trkpt>
   <trkpt lat="49.44466" lon="11.089034"><ele>309.5</ele></trkpt>
   <trkpt lat="49.444776" lon="11.089093"><ele>309</ele></trkpt>
   <trkpt lat="49.444985" lon="11.089186"><ele>309</ele></trkpt>
   <trkpt lat="49.445172" lon="11.089227"><ele>308.5</ele></trkpt>
   <trkpt lat="49.446007" lon="11.089334"><ele>306.25</ele></trkpt>
   <trkpt lat="49.446036" lon="11.089338"><ele>306.25</ele></trkpt>
   <trkpt lat="49.446162" lon="11.089351"><ele>306</ele></trkpt>
   <trkpt lat="49.4464" lon="11.089345"><ele>306.5</ele></trkpt>
   <trkpt lat="49.447415" lon="11.089165"><ele>306.75</ele></trkpt>
   <trkpt lat="49.447453" lon="11.089155"><ele>306</ele></trkpt>
   <trkpt lat="49.447495" lon="11.089143"><ele>305</ele></trkpt>
   <trkpt lat="49.447535" lon="11.089126"><ele>305</ele></trkpt>
   <trkpt lat="49.447564" lon="11.089106"><ele>305</ele></trkpt>
   <trkpt lat="49.447574" lon="11.089096"><ele>305</ele></trkpt>
   <trkpt lat="49.447633" lon="11.089016"><ele>305.25</ele></trkpt>
   <trkpt lat="49.447662" lon="11.088949"><ele>305.25</ele></trkpt>
   <trkpt lat="49.447682" lon="11.088859"><ele>305.25</ele></trkpt>
   <trkpt lat="49.447688" lon="11.088744"><ele>305.5</ele></trkpt>
   <trkpt lat="49.447672" lon="11.088638"><ele>305.5</ele></trkpt>
   <trkpt lat="49.447653" lon="11.08857"><ele>305.5</ele></trkpt>
  </trkseg>
 </trk>
</gpx>