<?xml version="1.0" encoding="UTF-8"?>
<!-- track-length = 477 filtered ascend = 0 plain-ascend = 0 cost=954 energy=0.0kwh time=38s -->
<gpx 
 xmlns="http://www.topografix.com/GPX/1/1" 
 xmlns:xsi="http://www.w3.org/2001/XMLSchema-instance" 
 xsi:schemaLocation="http://www.topografix.com/GPX/1/1 http://www.topografix.com/GPX/1/1/gpx.xsd" 
 version="1.1" 
 creator="BRouter-Web 0.18.1">
 <trk>
  <name>Kublov (Steig B) - Dreieck Dvorce Weiche Nordost-West</name>
  <trkseg>
   <trkpt lat="50.054513" lon="14.418093"><ele>193.5</ele></trkpt>
   <trkpt lat="50.054483" lon="14.418078"><ele>193.75</ele></trkpt>
   <trkpt lat="50.05167" lon="14.416472"><ele>193</ele></trkpt>
   <trkpt lat="50.051446" lon="14.416346"><ele>193</ele></trkpt>
   <trkpt lat="50.050496" lon="14.415819"><ele>193</ele></trkpt>
   <trkpt lat="50.050478" lon="14.415809"><ele>193</ele></trkpt>
  </trkseg>
 </trk>
</gpx>