<?xml version="1.0" encoding="UTF-8"?>
<!-- track-length = 495 filtered ascend = 1 plain-ascend = -2 cost=990 energy=0.0kwh time=40s -->
<gpx 
 xmlns="http://www.topografix.com/GPX/1/1" 
 xmlns:xsi="http://www.w3.org/2001/XMLSchema-instance" 
 xsi:schemaLocation="http://www.topografix.com/GPX/1/1 http://www.topografix.com/GPX/1/1/gpx.xsd" 
 version="1.1" 
 creator="BRouter-Web 99.71.0">
 <trk>
  <name>Observatoř Libuš (Steig D) - Sídliště Libuš (Steig D)</name>
  <link href="https://brouter.damsy.net/latest/#map=18/50.00594/14.45595/standard&amp;lonlats=14.447292,50.006405;14.454135,50.005931&amp;profile=rail">
   <text>BRouter-Web</text>
  </link>
  <trkseg>
   <trkpt lat="50.006407" lon="14.447292"><ele>300</ele></trkpt>
   <trkpt lat="50.006406" lon="14.447301"><ele>300.25</ele></trkpt>
   <trkpt lat="50.00631" lon="14.4479"><ele>301</ele></trkpt>
   <trkpt lat="50.006243" lon="14.448392"><ele>301.25</ele></trkpt>
   <trkpt lat="50.006191" lon="14.448911"><ele>300.5</ele></trkpt>
   <trkpt lat="50.006146" lon="14.449565"><ele>300</ele></trkpt>
   <trkpt lat="50.006001" lon="14.452699"><ele>298</ele></trkpt>
   <trkpt lat="50.005968" lon="14.45342"><ele>298</ele></trkpt>
   <trkpt lat="50.00596" lon="14.453583"><ele>298</ele></trkpt>
   <trkpt lat="50.005934" lon="14.454135"><ele>297.25</ele></trkpt>
  </trkseg>
 </trk>
</gpx>