<?xml version="1.0" encoding="UTF-8"?>
<!-- track-length = 76 filtered ascend = 0 plain-ascend = 0 cost=152 energy=0.0kwh time=6s -->
<gpx 
 xmlns="http://www.topografix.com/GPX/1/1" 
 xmlns:xsi="http://www.w3.org/2001/XMLSchema-instance" 
 xsi:schemaLocation="http://www.topografix.com/GPX/1/1 http://www.topografix.com/GPX/1/1/gpx.xsd" 
 version="1.1" 
 creator="BRouter-Web 0.18.1">
 <trk>
  <name>Dreieck Ylioppilastalo Weiche Nordost-Südost - Ylioppilastalo (Steig Ost-Süd)</name>
  <trkseg>
   <trkpt lat="60.1686" lon="24.941193"><ele>5.5</ele></trkpt>
   <trkpt lat="60.168602" lon="24.941196"><ele>5.5</ele></trkpt>
   <trkpt lat="60.168736" lon="24.941557"><ele>5</ele></trkpt>
   <trkpt lat="60.168764" lon="24.941648"><ele>5</ele></trkpt>
   <trkpt lat="60.168785" lon="24.941745"><ele>4.75</ele></trkpt>
   <trkpt lat="60.168796" lon="24.941856"><ele>4.5</ele></trkpt>
   <trkpt lat="60.168808" lon="24.942423"><ele>4.25</ele></trkpt>
  </trkseg>
 </trk>
</gpx>