<?xml version="1.0" encoding="UTF-8"?>
<!-- track-length = 199 filtered ascend = 0 plain-ascend = -1 cost=398 energy=0.0kwh time=16s -->
<gpx 
 xmlns="http://www.topografix.com/GPX/1/1" 
 xmlns:xsi="http://www.w3.org/2001/XMLSchema-instance" 
 xsi:schemaLocation="http://www.topografix.com/GPX/1/1 http://www.topografix.com/GPX/1/1/gpx.xsd" 
 version="1.1" 
 creator="BRouter-Web 0.18.1">
 <trk>
  <name>Ylioppilastalo (Steig Ost-Süd) - Abzweig Aleksanterinkatu/Mikonkatu Weiche Süd</name>
  <trkseg>
   <trkpt lat="60.168808" lon="24.942423"><ele>4.25</ele></trkpt>
   <trkpt lat="60.168818" lon="24.942824"><ele>4.25</ele></trkpt>
   <trkpt lat="60.16882" lon="24.942908"><ele>4</ele></trkpt>
   <trkpt lat="60.168822" lon="24.942975"><ele>4</ele></trkpt>
   <trkpt lat="60.168852" lon="24.94421"><ele>3</ele></trkpt>
   <trkpt lat="60.168854" lon="24.944303"><ele>3</ele></trkpt>
   <trkpt lat="60.168856" lon="24.944391"><ele>3</ele></trkpt>
   <trkpt lat="60.168881" lon="24.945419"><ele>2</ele></trkpt>
   <trkpt lat="60.168884" lon="24.945551"><ele>2</ele></trkpt>
   <trkpt lat="60.168894" lon="24.945995"><ele>2</ele></trkpt>
  </trkseg>
 </trk>
</gpx>