<?xml version="1.0" encoding="UTF-8"?>
<!-- track-length = 689 filtered ascend = 3 plain-ascend = 0 cost=1380 energy=0.0kwh time=55s -->
<gpx 
 xmlns="http://www.topografix.com/GPX/1/1" 
 xmlns:xsi="http://www.w3.org/2001/XMLSchema-instance" 
 xsi:schemaLocation="http://www.topografix.com/GPX/1/1 http://www.topografix.com/GPX/1/1/gpx.xsd" 
 version="1.1" 
 creator="BRouter-Web 0.18.1">
 <trk>
  <name>Ideontorget (Steig A) - Telefonplan (Steig A)</name>
  <trkseg>
   <trkpt lat="55.715561" lon="13.21459"><ele>77</ele></trkpt>
   <trkpt lat="55.715574" lon="13.21482"><ele>77</ele></trkpt>
   <trkpt lat="55.715577" lon="13.214879"><ele>77</ele></trkpt>
   <trkpt lat="55.715611" lon="13.215475"><ele>78</ele></trkpt>
   <trkpt lat="55.715635" lon="13.216042"><ele>78.75</ele></trkpt>
   <trkpt lat="55.71565" lon="13.216742"><ele>79</ele></trkpt>
   <trkpt lat="55.715652" lon="13.216874"><ele>79</ele></trkpt>
   <trkpt lat="55.715647" lon="13.217147"><ele>79</ele></trkpt>
   <trkpt lat="55.715645" lon="13.217449"><ele>79</ele></trkpt>
   <trkpt lat="55.715643" lon="13.217536"><ele>79</ele></trkpt>
   <trkpt lat="55.715609" lon="13.218949"><ele>80</ele></trkpt>
   <trkpt lat="55.715559" lon="13.221168"><ele>78</ele></trkpt>
   <trkpt lat="55.715557" lon="13.222258"><ele>77</ele></trkpt>
   <trkpt lat="55.715557" lon="13.222317"><ele>77</ele></trkpt>
   <trkpt lat="55.715578" lon="13.223022"><ele>77</ele></trkpt>
   <trkpt lat="55.715614" lon="13.224105"><ele>76</ele></trkpt>
   <trkpt lat="55.715618" lon="13.224203"><ele>76</ele></trkpt>
   <trkpt lat="55.715628" lon="13.224438"><ele>76</ele></trkpt>
   <trkpt lat="55.715633" lon="13.224594"><ele>75.5</ele></trkpt>
   <trkpt lat="55.715637" lon="13.224674"><ele>75.25</ele></trkpt>
   <trkpt lat="55.715673" lon="13.225544"><ele>76</ele></trkpt>
  </trkseg>
 </trk>
</gpx>