<?xml version="1.0" encoding="UTF-8"?>
<!-- track-length = 538 filtered ascend = 4 plain-ascend = 5 cost=1076 energy=0.0kwh time=43s -->
<gpx 
 xmlns="http://www.topografix.com/GPX/1/1" 
 xmlns:xsi="http://www.w3.org/2001/XMLSchema-instance" 
 xsi:schemaLocation="http://www.topografix.com/GPX/1/1 http://www.topografix.com/GPX/1/1/gpx.xsd" 
 version="1.1" 
 creator="BRouter-Web 0.18.1">
 <trk>
  <name>LTH (Steig A) - Üst Ideontorget Weiche Ost</name>
  <trkseg>
   <trkpt lat="55.712576" lon="13.207548"><ele>69.25</ele></trkpt>
   <trkpt lat="55.712575" lon="13.207555"><ele>69.25</ele></trkpt>
   <trkpt lat="55.712524" lon="13.207814"><ele>69</ele></trkpt>
   <trkpt lat="55.712509" lon="13.207891"><ele>69</ele></trkpt>
   <trkpt lat="55.712475" lon="13.20809"><ele>69</ele></trkpt>
   <trkpt lat="55.712473" lon="13.208213"><ele>69</ele></trkpt>
   <trkpt lat="55.712483" lon="13.20834"><ele>69</ele></trkpt>
   <trkpt lat="55.712505" lon="13.208451"><ele>69</ele></trkpt>
   <trkpt lat="55.712531" lon="13.20853"><ele>69</ele></trkpt>
   <trkpt lat="55.712573" lon="13.208626"><ele>69.25</ele></trkpt>
   <trkpt lat="55.712648" lon="13.208709"><ele>69.5</ele></trkpt>
   <trkpt lat="55.712717" lon="13.208764"><ele>69.75</ele></trkpt>
   <trkpt lat="55.713043" lon="13.208994"><ele>70</ele></trkpt>
   <trkpt lat="55.713827" lon="13.209536"><ele>71</ele></trkpt>
   <trkpt lat="55.713868" lon="13.209565"><ele>71</ele></trkpt>
   <trkpt lat="55.71392" lon="13.209603"><ele>71</ele></trkpt>
   <trkpt lat="55.714083" lon="13.209721"><ele>71</ele></trkpt>
   <trkpt lat="55.714254" lon="13.209864"><ele>71.5</ele></trkpt>
   <trkpt lat="55.714413" lon="13.210015"><ele>72</ele></trkpt>
   <trkpt lat="55.714663" lon="13.2103"><ele>72</ele></trkpt>
   <trkpt lat="55.714695" lon="13.210338"><ele>72</ele></trkpt>
   <trkpt lat="55.71473" lon="13.210387"><ele>72</ele></trkpt>
   <trkpt lat="55.714878" lon="13.210599"><ele>72</ele></trkpt>
   <trkpt lat="55.715031" lon="13.210847"><ele>72</ele></trkpt>
   <trkpt lat="55.715141" lon="13.211042"><ele>72</ele></trkpt>
   <trkpt lat="55.715221" lon="13.211221"><ele>72</ele></trkpt>
   <trkpt lat="55.715289" lon="13.211403"><ele>72</ele></trkpt>
   <trkpt lat="55.715338" lon="13.211569"><ele>72.5</ele></trkpt>
   <trkpt lat="55.71538" lon="13.21175"><ele>72.5</ele></trkpt>
   <trkpt lat="55.715407" lon="13.211906"><ele>72.5</ele></trkpt>
   <trkpt lat="55.715436" lon="13.212139"><ele>72.75</ele></trkpt>
   <trkpt lat="55.715486" lon="13.213113"><ele>74</ele></trkpt>
   <trkpt lat="55.715486" lon="13.213115"><ele>74</ele></trkpt>
  </trkseg>
 </trk>
</gpx>