<?xml version="1.0" encoding="UTF-8"?>
<!-- track-length = 689 filtered ascend = 10 plain-ascend = 10 cost=1378 energy=0.0kwh time=55s -->
<gpx 
 xmlns="http://www.topografix.com/GPX/1/1" 
 xmlns:xsi="http://www.w3.org/2001/XMLSchema-instance" 
 xsi:schemaLocation="http://www.topografix.com/GPX/1/1 http://www.topografix.com/GPX/1/1/gpx.xsd" 
 version="1.1" 
 creator="BRouter-Web 0.18.1">
 <trk>
  <name>Universitetssjukhuset (Steig A) - LTH (Steig A)</name>
  <trkseg>
   <trkpt lat="55.713297" lon="13.197353"><ele>59.25</ele></trkpt>
   <trkpt lat="55.713434" lon="13.19757"><ele>59.5</ele></trkpt>
   <trkpt lat="55.713453" lon="13.197599"><ele>59.5</ele></trkpt>
   <trkpt lat="55.713543" lon="13.197752"><ele>59</ele></trkpt>
   <trkpt lat="55.713591" lon="13.197841"><ele>59</ele></trkpt>
   <trkpt lat="55.713635" lon="13.197932"><ele>59</ele></trkpt>
   <trkpt lat="55.713668" lon="13.198021"><ele>59</ele></trkpt>
   <trkpt lat="55.71369" lon="13.19807"><ele>59</ele></trkpt>
   <trkpt lat="55.713729" lon="13.198182"><ele>59</ele></trkpt>
   <trkpt lat="55.713771" lon="13.198334"><ele>59</ele></trkpt>
   <trkpt lat="55.713814" lon="13.198544"><ele>59</ele></trkpt>
   <trkpt lat="55.713848" lon="13.198779"><ele>59.5</ele></trkpt>
   <trkpt lat="55.713869" lon="13.199006"><ele>59.75</ele></trkpt>
   <trkpt lat="55.71388" lon="13.199229"><ele>60</ele></trkpt>
   <trkpt lat="55.713879" lon="13.199503"><ele>60</ele></trkpt>
   <trkpt lat="55.713861" lon="13.199749"><ele>61</ele></trkpt>
   <trkpt lat="55.713834" lon="13.199986"><ele>61</ele></trkpt>
   <trkpt lat="55.71378" lon="13.200281"><ele>62.25</ele></trkpt>
   <trkpt lat="55.713735" lon="13.20044"><ele>62.5</ele></trkpt>
   <trkpt lat="55.713704" lon="13.200543"><ele>62.5</ele></trkpt>
   <trkpt lat="55.713611" lon="13.200798"><ele>63.75</ele></trkpt>
   <trkpt lat="55.713476" lon="13.201112"><ele>64</ele></trkpt>
   <trkpt lat="55.713402" lon="13.201303"><ele>64</ele></trkpt>
   <trkpt lat="55.713366" lon="13.201408"><ele>64</ele></trkpt>
   <trkpt lat="55.713314" lon="13.201634"><ele>64</ele></trkpt>
   <trkpt lat="55.713309" lon="13.201659"><ele>64</ele></trkpt>
   <trkpt lat="55.713282" lon="13.201794"><ele>64.5</ele></trkpt>
   <trkpt lat="55.713264" lon="13.201905"><ele>64.75</ele></trkpt>
   <trkpt lat="55.713223" lon="13.202278"><ele>65.5</ele></trkpt>
   <trkpt lat="55.713214" lon="13.202377"><ele>65.75</ele></trkpt>
   <trkpt lat="55.713071" lon="13.203817"><ele>67.75</ele></trkpt>
   <trkpt lat="55.713031" lon="13.204294"><ele>69</ele></trkpt>
   <trkpt lat="55.71299" lon="13.205005"><ele>69</ele></trkpt>
   <trkpt lat="55.712971" lon="13.205322"><ele>69.25</ele></trkpt>
   <trkpt lat="55.712935" lon="13.205729"><ele>69</ele></trkpt>
   <trkpt lat="55.71287" lon="13.206134"><ele>69</ele></trkpt>
   <trkpt lat="55.712706" lon="13.206919"><ele>70</ele></trkpt>
   <trkpt lat="55.712576" lon="13.207548"><ele>69.25</ele></trkpt>
  </trkseg>
 </trk>
</gpx>