<?xml version="1.0" encoding="UTF-8"?>
<!-- track-length = 871 filtered ascend = 15 plain-ascend = 16 cost=1742 energy=0.0kwh time=1m 10s -->
<gpx 
 xmlns="http://www.topografix.com/GPX/1/1" 
 xmlns:xsi="http://www.w3.org/2001/XMLSchema-instance" 
 xsi:schemaLocation="http://www.topografix.com/GPX/1/1 http://www.topografix.com/GPX/1/1/gpx.xsd" 
 version="1.1" 
 creator="BRouter-Web 0.18.1">
 <trk>
  <name>Üst Lund C Weiche Nordost-Südost - Universitetssjukhuset (Steig A)</name>
  <trkseg>
   <trkpt lat="55.707507" lon="13.189049"><ele>43.75</ele></trkpt>
   <trkpt lat="55.707508" lon="13.189053"><ele>44</ele></trkpt>
   <trkpt lat="55.707514" lon="13.189068"><ele>44</ele></trkpt>
   <trkpt lat="55.707559" lon="13.189165"><ele>44</ele></trkpt>
   <trkpt lat="55.707593" lon="13.189241"><ele>44</ele></trkpt>
   <trkpt lat="55.707673" lon="13.189421"><ele>44.5</ele></trkpt>
   <trkpt lat="55.708349" lon="13.190924"><ele>46.75</ele></trkpt>
   <trkpt lat="55.708835" lon="13.192002"><ele>49</ele></trkpt>
   <trkpt lat="55.708914" lon="13.192177"><ele>49</ele></trkpt>
   <trkpt lat="55.709074" lon="13.192535"><ele>50</ele></trkpt>
   <trkpt lat="55.709096" lon="13.192584"><ele>50</ele></trkpt>
   <trkpt lat="55.709185" lon="13.192781"><ele>51</ele></trkpt>
   <trkpt lat="55.7092" lon="13.192809"><ele>51</ele></trkpt>
   <trkpt lat="55.709254" lon="13.192893"><ele>51.25</ele></trkpt>
   <trkpt lat="55.709318" lon="13.192949"><ele>51.5</ele></trkpt>
   <trkpt lat="55.709371" lon="13.192979"><ele>51.5</ele></trkpt>
   <trkpt lat="55.709455" lon="13.193005"><ele>52</ele></trkpt>
   <trkpt lat="55.709838" lon="13.192957"><ele>52.5</ele></trkpt>
   <trkpt lat="55.710089" lon="13.192925"><ele>52.5</ele></trkpt>
   <trkpt lat="55.710131" lon="13.19293"><ele>52.75</ele></trkpt>
   <trkpt lat="55.710165" lon="13.192934"><ele>52.75</ele></trkpt>
   <trkpt lat="55.710198" lon="13.192943"><ele>52.75</ele></trkpt>
   <trkpt lat="55.710282" lon="13.192964"><ele>53</ele></trkpt>
   <trkpt lat="55.71043" lon="13.19304"><ele>53</ele></trkpt>
   <trkpt lat="55.710803" lon="13.193301"><ele>53.75</ele></trkpt>
   <trkpt lat="55.710934" lon="13.1934"><ele>54</ele></trkpt>
   <trkpt lat="55.710955" lon="13.193415"><ele>54.25</ele></trkpt>
   <trkpt lat="55.711" lon="13.193452"><ele>54.25</ele></trkpt>
   <trkpt lat="55.711091" lon="13.193531"><ele>54.5</ele></trkpt>
   <trkpt lat="55.711345" lon="13.193803"><ele>54.5</ele></trkpt>
   <trkpt lat="55.711478" lon="13.193971"><ele>55</ele></trkpt>
   <trkpt lat="55.711619" lon="13.194174"><ele>55</ele></trkpt>
   <trkpt lat="55.71193" lon="13.194702"><ele>55.75</ele></trkpt>
   <trkpt lat="55.711951" lon="13.194737"><ele>56</ele></trkpt>
   <trkpt lat="55.71198" lon="13.194786"><ele>56</ele></trkpt>
   <trkpt lat="55.712241" lon="13.195234"><ele>56</ele></trkpt>
   <trkpt lat="55.712333" lon="13.195422"><ele>56.25</ele></trkpt>
   <trkpt lat="55.712547" lon="13.196078"><ele>57</ele></trkpt>
   <trkpt lat="55.712613" lon="13.196246"><ele>57.25</ele></trkpt>
   <trkpt lat="55.712707" lon="13.196413"><ele>58</ele></trkpt>
   <trkpt lat="55.712748" lon="13.196478"><ele>58</ele></trkpt>
   <trkpt lat="55.713263" lon="13.197299"><ele>59.25</ele></trkpt>
   <trkpt lat="55.713297" lon="13.197353"><ele>59.5</ele></trkpt>
  </trkseg>
 </trk>
</gpx>