<?xml version="1.0" encoding="UTF-8"?>
<!-- track-length = 32 filtered ascend = 0 plain-ascend = 0 cost=64 energy=0.0kwh time=3s -->
<gpx 
 xmlns="http://www.topografix.com/GPX/1/1" 
 xmlns:xsi="http://www.w3.org/2001/XMLSchema-instance" 
 xsi:schemaLocation="http://www.topografix.com/GPX/1/1 http://www.topografix.com/GPX/1/1/gpx.xsd" 
 version="1.1" 
 creator="BRouter-Web 0.18.1">
 <trk>
  <name>Üst ESS Weiche Südwest-Südost - Üst ESS Weiche Nordost-Nordwest</name>
  <trkseg>
   <trkpt lat="55.730383" lon="13.24262"><ele>77.5</ele></trkpt>
   <trkpt lat="55.730384" lon="13.242622"><ele>77.5</ele></trkpt>
   <trkpt lat="55.730481" lon="13.242799"><ele>77.5</ele></trkpt>
   <trkpt lat="55.730575" lon="13.242961"><ele>77.25</ele></trkpt>
   <trkpt lat="55.730574" lon="13.242958"><ele>77.75</ele></trkpt>
  </trkseg>
 </trk>
</gpx>