<?xml version="1.0" encoding="UTF-8"?>
<!-- track-length = 35 filtered ascend = 0 plain-ascend = 1 cost=70 energy=0.0kwh time=3s -->
<gpx 
 xmlns="http://www.topografix.com/GPX/1/1" 
 xmlns:xsi="http://www.w3.org/2001/XMLSchema-instance" 
 xsi:schemaLocation="http://www.topografix.com/GPX/1/1 http://www.topografix.com/GPX/1/1/gpx.xsd" 
 version="1.1" 
 creator="BRouter-Web 0.18.1">
 <trk>
  <name>Dreieck Runeberginkatu/Ruusulankatu Weiche Nordost-Nordwest - Dreieck Runeberginkatu/Ruusulankatu Weiche Nordwest-Nordost</name>
  <trkseg>
   <trkpt lat="60.18127" lon="24.926131"><ele>8.25</ele></trkpt>
   <trkpt lat="60.181238" lon="24.926005"><ele>8.5</ele></trkpt>
   <trkpt lat="60.181224" lon="24.925882"><ele>8.75</ele></trkpt>
   <trkpt lat="60.181227" lon="24.92582"><ele>9</ele></trkpt>
   <trkpt lat="60.181247" lon="24.925707"><ele>9</ele></trkpt>
   <trkpt lat="60.181265" lon="24.925661"><ele>9</ele></trkpt>
   <trkpt lat="60.181307" lon="24.925591"><ele>9</ele></trkpt>
   <trkpt lat="60.181308" lon="24.925589"><ele>9</ele></trkpt>
  </trkseg>
 </trk>
</gpx>