<?xml version="1.0" encoding="UTF-8"?>
<!-- track-length = 65 filtered ascend = 0 plain-ascend = 0 cost=130 energy=0.0kwh time=5s -->
<gpx 
 xmlns="http://www.topografix.com/GPX/1/1" 
 xmlns:xsi="http://www.w3.org/2001/XMLSchema-instance" 
 xsi:schemaLocation="http://www.topografix.com/GPX/1/1 http://www.topografix.com/GPX/1/1/gpx.xsd" 
 version="1.1" 
 creator="BRouter-Web 0.18.1">
 <trk>
  <name>Dreieck Runeberginkatu/Ruusulankatu Weiche Nordwest-Nordost - Ruusulankatu (Steig Nordost)</name>
  <trkseg>
   <trkpt lat="60.181308" lon="24.925589"><ele>9</ele></trkpt>
   <trkpt lat="60.18169" lon="24.925062"><ele>9</ele></trkpt>
   <trkpt lat="60.181789" lon="24.924925"><ele>9</ele></trkpt>
  </trkseg>
 </trk>
</gpx>