<?xml version="1.0" encoding="UTF-8"?>
<!-- track-length = 152 filtered ascend = 0 plain-ascend = -1 cost=304 energy=0.0kwh time=12s -->
<gpx 
 xmlns="http://www.topografix.com/GPX/1/1" 
 xmlns:xsi="http://www.w3.org/2001/XMLSchema-instance" 
 xsi:schemaLocation="http://www.topografix.com/GPX/1/1 http://www.topografix.com/GPX/1/1/gpx.xsd" 
 version="1.1" 
 creator="BRouter-Web 0.18.1">
 <trk>
  <name>Ruusulankatu (Steig Nordost) - Abzweig Ruusulankatu/Sibeliuksenkatu Weiche Ost</name>
  <trkseg>
   <trkpt lat="60.181789" lon="24.924925"><ele>9</ele></trkpt>
   <trkpt lat="60.182073" lon="24.924534"><ele>9</ele></trkpt>
   <trkpt lat="60.182515" lon="24.923897"><ele>7.75</ele></trkpt>
   <trkpt lat="60.18257" lon="24.923818"><ele>7.5</ele></trkpt>
   <trkpt lat="60.182617" lon="24.92375"><ele>7.5</ele></trkpt>
   <trkpt lat="60.18267" lon="24.923674"><ele>7.25</ele></trkpt>
   <trkpt lat="60.182737" lon="24.923608"><ele>7</ele></trkpt>
   <trkpt lat="60.182771" lon="24.923602"><ele>7</ele></trkpt>
   <trkpt lat="60.182837" lon="24.923623"><ele>7</ele></trkpt>
   <trkpt lat="60.182895" lon="24.9237"><ele>7</ele></trkpt>
   <trkpt lat="60.182919" lon="24.923749"><ele>7</ele></trkpt>
   <trkpt lat="60.182917" lon="24.923743"><ele>7</ele></trkpt>
  </trkseg>
 </trk>
</gpx>