<?xml version="1.0" encoding="UTF-8"?>
<!-- track-length = 883 filtered ascend = 1 plain-ascend = 1 cost=883 energy=0.0kwh time=1m 11s -->
<gpx 
 xmlns="http://www.topografix.com/GPX/1/1" 
 xmlns:xsi="http://www.w3.org/2001/XMLSchema-instance" 
 xsi:schemaLocation="http://www.topografix.com/GPX/1/1 http://www.topografix.com/GPX/1/1/gpx.xsd" 
 version="1.1" 
 creator="BRouter-Web 99.71.0">
 <trk>
  <name>Junkersdorf Mohnweg (Steig Süd) - Junkersdorf Abzweig Wendeanlage Weiche Süd</name>
  <link href="https://brouter.damsy.net/latest/#map=19/50.93753/6.86810/standard&amp;lonlats=6.855434,50.937945;6.867984,50.93766&amp;nogos=6.781752,51.218852,6&amp;profile=rail">
   <text>BRouter-Web</text>
  </link>
  <trkseg>
   <trkpt lat="50.937948" lon="6.855434"><ele>61</ele></trkpt>
   <trkpt lat="50.937946" lon="6.85564"><ele>61</ele></trkpt>
   <trkpt lat="50.937939" lon="6.855991"><ele>61</ele></trkpt>
   <trkpt lat="50.937851" lon="6.860286"><ele>61</ele></trkpt>
   <trkpt lat="50.937849" lon="6.860432"><ele>61</ele></trkpt>
   <trkpt lat="50.937774" lon="6.862823"><ele>61.75</ele></trkpt>
   <trkpt lat="50.937774" lon="6.863203"><ele>61.75</ele></trkpt>
   <trkpt lat="50.93777" lon="6.863296"><ele>61.75</ele></trkpt>
   <trkpt lat="50.937766" lon="6.86337"><ele>61.75</ele></trkpt>
   <trkpt lat="50.937766" lon="6.863421"><ele>61.75</ele></trkpt>
   <trkpt lat="50.93778" lon="6.865743"><ele>61.75</ele></trkpt>
   <trkpt lat="50.937773" lon="6.866043"><ele>62</ele></trkpt>
   <trkpt lat="50.937736" lon="6.866415"><ele>61.75</ele></trkpt>
   <trkpt lat="50.937723" lon="6.866507"><ele>61.75</ele></trkpt>
   <trkpt lat="50.937717" lon="6.866553"><ele>61.75</ele></trkpt>
   <trkpt lat="50.937708" lon="6.866629"><ele>61.75</ele></trkpt>
   <trkpt lat="50.937694" lon="6.866762"><ele>61.75</ele></trkpt>
   <trkpt lat="50.937674" lon="6.867083"><ele>61.5</ele></trkpt>
   <trkpt lat="50.937659" lon="6.867625"><ele>61.75</ele></trkpt>
   <trkpt lat="50.937657" lon="6.867836"><ele>61.75</ele></trkpt>
   <trkpt lat="50.937658" lon="6.867981"><ele>61.5</ele></trkpt>
   <trkpt lat="50.937658" lon="6.867983"><ele>61.75</ele></trkpt>
  </trkseg>
 </trk>
</gpx>