<?xml version="1.0" encoding="UTF-8"?>
<!-- track-length = 37 filtered ascend = 0 plain-ascend = 0 cost=37 energy=0.0kwh time=3s -->
<gpx 
 xmlns="http://www.topografix.com/GPX/1/1" 
 xmlns:xsi="http://www.w3.org/2001/XMLSchema-instance" 
 xsi:schemaLocation="http://www.topografix.com/GPX/1/1 http://www.topografix.com/GPX/1/1/gpx.xsd" 
 version="1.1" 
 creator="BRouter-Web 99.71.0">
 <trk>
  <name>Weiden Üst West Weiche Nordwest-Nordost - Weiden Üst West Weiche Südost-Südwest</name>
  <link href="https://brouter.damsy.net/latest/#map=19/50.93911/6.81707/standard&amp;lonlats=6.816552,50.939421;6.81669,50.939108&amp;nogos=6.781752,51.218852,6&amp;profile=rail">
   <text>BRouter-Web</text>
  </link>
  <trkseg>
   <trkpt lat="50.939421" lon="6.816552"><ele>60</ele></trkpt>
   <trkpt lat="50.939419" lon="6.816554"><ele>60</ele></trkpt>
   <trkpt lat="50.939275" lon="6.816622"><ele>60</ele></trkpt>
   <trkpt lat="50.939107" lon="6.816689"><ele>60</ele></trkpt>
  </trkseg>
 </trk>
</gpx>