<?xml version="1.0" encoding="UTF-8"?>
<!-- track-length = 699 filtered ascend = 0 plain-ascend = 0 cost=699 energy=0.0kwh time=56s -->
<gpx 
 xmlns="http://www.topografix.com/GPX/1/1" 
 xmlns:xsi="http://www.w3.org/2001/XMLSchema-instance" 
 xsi:schemaLocation="http://www.topografix.com/GPX/1/1 http://www.topografix.com/GPX/1/1/gpx.xsd" 
 version="1.1" 
 creator="BRouter-Web 99.71.0">
 <trk>
  <name>Weiden Bahnstraße (Steig Süd) - Junkersdorf Mohnweg (Steig Süd)</name>
  <link href="https://brouter.damsy.net/latest/#map=17/50.93659/6.85721/standard&amp;lonlats=6.845486,50.938114;6.855434,50.937945&amp;nogos=6.781752,51.218852,6&amp;profile=rail">
   <text>BRouter-Web</text>
  </link>
  <trkseg>
   <trkpt lat="50.938103" lon="6.845484"><ele>61</ele></trkpt>
   <trkpt lat="50.938092" lon="6.845713"><ele>61</ele></trkpt>
   <trkpt lat="50.938082" lon="6.845889"><ele>61</ele></trkpt>
   <trkpt lat="50.938079" lon="6.845962"><ele>61</ele></trkpt>
   <trkpt lat="50.938066" lon="6.846265"><ele>60.75</ele></trkpt>
   <trkpt lat="50.938064" lon="6.846779"><ele>60.75</ele></trkpt>
   <trkpt lat="50.938086" lon="6.847774"><ele>61</ele></trkpt>
   <trkpt lat="50.938098" lon="6.848275"><ele>61</ele></trkpt>
   <trkpt lat="50.93809" lon="6.849085"><ele>60</ele></trkpt>
   <trkpt lat="50.938079" lon="6.849808"><ele>60.75</ele></trkpt>
   <trkpt lat="50.938078" lon="6.849857"><ele>60.75</ele></trkpt>
   <trkpt lat="50.938036" lon="6.851159"><ele>60.75</ele></trkpt>
   <trkpt lat="50.938016" lon="6.852219"><ele>61</ele></trkpt>
   <trkpt lat="50.938008" lon="6.852478"><ele>61</ele></trkpt>
   <trkpt lat="50.938005" lon="6.852665"><ele>61</ele></trkpt>
   <trkpt lat="50.937967" lon="6.854606"><ele>61</ele></trkpt>
   <trkpt lat="50.937949" lon="6.855382"><ele>61</ele></trkpt>
   <trkpt lat="50.937948" lon="6.855434"><ele>61</ele></trkpt>
  </trkseg>
 </trk>
</gpx>