<?xml version="1.0" encoding="UTF-8"?>
<!-- track-length = 61 filtered ascend = 0 plain-ascend = 0 cost=122 energy=0.0kwh time=5s -->
<gpx 
 xmlns="http://www.topografix.com/GPX/1/1" 
 xmlns:xsi="http://www.w3.org/2001/XMLSchema-instance" 
 xsi:schemaLocation="http://www.topografix.com/GPX/1/1 http://www.topografix.com/GPX/1/1/gpx.xsd" 
 version="1.1" 
 creator="BRouter-Web 0.18.1">
 <trk>
  <name>Kreuz Hohenschönhauser Straße Weiche 076 - Kreuz Hohenschönhauser Straße Weiche 575</name>
  <trkseg>
   <trkpt lat="52.536259" lon="13.473966"><ele>57</ele></trkpt>
   <trkpt lat="52.53626" lon="13.473968"><ele>57</ele></trkpt>
   <trkpt lat="52.536209" lon="13.473837"><ele>57</ele></trkpt>
   <trkpt lat="52.536198" lon="13.473821"><ele>57</ele></trkpt>
   <trkpt lat="52.536182" lon="13.473796"><ele>57</ele></trkpt>
   <trkpt lat="52.53617" lon="13.473779"><ele>57</ele></trkpt>
   <trkpt lat="52.536118" lon="13.473716"><ele>57</ele></trkpt>
   <trkpt lat="52.536052" lon="13.473677"><ele>56.75</ele></trkpt>
   <trkpt lat="52.536021" lon="13.473666"><ele>56.5</ele></trkpt>
   <trkpt lat="52.535944" lon="13.47366"><ele>56.25</ele></trkpt>
   <trkpt lat="52.535912" lon="13.473669"><ele>56.25</ele></trkpt>
   <trkpt lat="52.535825" lon="13.47371"><ele>56</ele></trkpt>
   <trkpt lat="52.535823" lon="13.473711"><ele>56</ele></trkpt>
  </trkseg>
 </trk>
</gpx>