<?xml version="1.0" encoding="UTF-8"?>
<!-- track-length = 610 filtered ascend = 0 plain-ascend = -1 cost=1220 energy=0.0kwh time=49s -->
<gpx 
 xmlns="http://www.topografix.com/GPX/1/1" 
 xmlns:xsi="http://www.w3.org/2001/XMLSchema-instance" 
 xsi:schemaLocation="http://www.topografix.com/GPX/1/1 http://www.topografix.com/GPX/1/1/gpx.xsd" 
 version="1.1" 
 creator="BRouter-Web 0.18.1">
 <trk>
  <name>Landsberger Allee/Weißenseer Weg (Steig Südwest) - Roederplatz (Steig Nord-West)</name>
  <trkseg>
   <trkpt lat="52.532256" lon="13.476706"><ele>50.75</ele></trkpt>
   <trkpt lat="52.532021" lon="13.476864"><ele>50.75</ele></trkpt>
   <trkpt lat="52.531806" lon="13.476987"><ele>51</ele></trkpt>
   <trkpt lat="52.530934" lon="13.47748"><ele>50</ele></trkpt>
   <trkpt lat="52.530822" lon="13.477539"><ele>50</ele></trkpt>
   <trkpt lat="52.530763" lon="13.477573"><ele>50</ele></trkpt>
   <trkpt lat="52.529244" lon="13.478432"><ele>50</ele></trkpt>
   <trkpt lat="52.528787" lon="13.478687"><ele>50</ele></trkpt>
   <trkpt lat="52.528122" lon="13.479077"><ele>49</ele></trkpt>
   <trkpt lat="52.527732" lon="13.479288"><ele>49</ele></trkpt>
   <trkpt lat="52.527093" lon="13.479599"><ele>49</ele></trkpt>
   <trkpt lat="52.527079" lon="13.479605"><ele>49</ele></trkpt>
  </trkseg>
 </trk>
</gpx>