<?xml version="1.0" encoding="UTF-8"?>
<!-- track-length = 98 filtered ascend = 0 plain-ascend = 0 cost=196 energy=0.0kwh time=8s -->
<gpx 
 xmlns="http://www.topografix.com/GPX/1/1" 
 xmlns:xsi="http://www.w3.org/2001/XMLSchema-instance" 
 xsi:schemaLocation="http://www.topografix.com/GPX/1/1 http://www.topografix.com/GPX/1/1/gpx.xsd" 
 version="1.1" 
 creator="BRouter-Web 99.71.0">
 <trk>
  <name>Düsseldorf Abzweig Schleife Graf-Adolf-Platz Ost Weiche OOO1 - Düsseldorf Graf-Adolf-Platz U (Steig 4)</name>
  <link href="https://brouter.damsy.net/latest/#map=19/51.21904/6.77617/standard&amp;lonlats=6.777306,51.219018;6.77591,51.21903&amp;nogos=6.781752,51.218852,6&amp;profile=rail">
   <text>BRouter-Web</text>
  </link>
  <trkseg>
   <trkpt lat="51.219014" lon="6.777306"><ele>37</ele></trkpt>
   <trkpt lat="51.219014" lon="6.777303"><ele>37</ele></trkpt>
   <trkpt lat="51.219016" lon="6.777129"><ele>37</ele></trkpt>
   <trkpt lat="51.219018" lon="6.77695"><ele>37</ele></trkpt>
   <trkpt lat="51.219018" lon="6.776903"><ele>37</ele></trkpt>
   <trkpt lat="51.219018" lon="6.776871"><ele>37</ele></trkpt>
   <trkpt lat="51.219021" lon="6.776722"><ele>37</ele></trkpt>
   <trkpt lat="51.219021" lon="6.776704"><ele>37</ele></trkpt>
   <trkpt lat="51.219022" lon="6.776233"><ele>37</ele></trkpt>
   <trkpt lat="51.219029" lon="6.775909"><ele>36</ele></trkpt>
  </trkseg>
 </trk>
</gpx>
