<?xml version="1.0" encoding="UTF-8"?>
<!-- track-length = 328 filtered ascend = 0 plain-ascend = 0 cost=656 energy=0.0kwh time=26s -->
<gpx 
 xmlns="http://www.topografix.com/GPX/1/1" 
 xmlns:xsi="http://www.w3.org/2001/XMLSchema-instance" 
 xsi:schemaLocation="http://www.topografix.com/GPX/1/1 http://www.topografix.com/GPX/1/1/gpx.xsd" 
 version="1.1" 
 creator="BRouter-Web 0.18.1">
 <trk>
  <name>Kamppi (Steig Nordost) - Abzweig Arkadiankatu Weiche Nord</name>
  <trkseg>
   <trkpt lat="60.168872" lon="24.930607"><ele>16.75</ele></trkpt>
   <trkpt lat="60.169004" lon="24.930427"><ele>16.25</ele></trkpt>
   <trkpt lat="60.16955" lon="24.929666"><ele>15</ele></trkpt>
   <trkpt lat="60.169879" lon="24.929236"><ele>14.25</ele></trkpt>
   <trkpt lat="60.169961" lon="24.929133"><ele>13.5</ele></trkpt>
   <trkpt lat="60.170029" lon="24.929047"><ele>12.25</ele></trkpt>
   <trkpt lat="60.170122" lon="24.928922"><ele>12</ele></trkpt>
   <trkpt lat="60.170165" lon="24.928861"><ele>12.25</ele></trkpt>
   <trkpt lat="60.170247" lon="24.928748"><ele>13.75</ele></trkpt>
   <trkpt lat="60.171044" lon="24.927684"><ele>15.75</ele></trkpt>
   <trkpt lat="60.171135" lon="24.927542"><ele>16</ele></trkpt>
   <trkpt lat="60.171179" lon="24.927457"><ele>16</ele></trkpt>
   <trkpt lat="60.171191" lon="24.927425"><ele>16</ele></trkpt>
   <trkpt lat="60.17121" lon="24.927343"><ele>16</ele></trkpt>
   <trkpt lat="60.171227" lon="24.927208"><ele>16</ele></trkpt>
   <trkpt lat="60.171227" lon="24.9272"><ele>15.5</ele></trkpt>
  </trkseg>
 </trk>
</gpx>