<?xml version="1.0" encoding="UTF-8"?>
<!-- track-length = 465 filtered ascend = 0 plain-ascend = -1 cost=930 energy=0.0kwh time=37s -->
<gpx 
 xmlns="http://www.topografix.com/GPX/1/1" 
 xmlns:xsi="http://www.w3.org/2001/XMLSchema-instance" 
 xsi:schemaLocation="http://www.topografix.com/GPX/1/1 http://www.topografix.com/GPX/1/1/gpx.xsd" 
 version="1.1" 
 creator="BRouter-Web 0.18.1">
 <trk>
  <name>Lange Leemstraat (Steig Südost) - Abzweig Belgiëlei Weiche Ost</name>
  <trkseg>
   <trkpt lat="51.206286" lon="4.418793"><ele>7</ele></trkpt>
   <trkpt lat="51.206327" lon="4.418852"><ele>7</ele></trkpt>
   <trkpt lat="51.206387" lon="4.418938"><ele>7</ele></trkpt>
   <trkpt lat="51.207176" lon="4.420058"><ele>6</ele></trkpt>
   <trkpt lat="51.207237" lon="4.420144"><ele>5.75</ele></trkpt>
   <trkpt lat="51.207255" lon="4.42017"><ele>5.75</ele></trkpt>
   <trkpt lat="51.208179" lon="4.421471"><ele>5</ele></trkpt>
   <trkpt lat="51.208909" lon="4.422563"/>
   <trkpt lat="51.208989" lon="4.422651"/>
   <trkpt lat="51.209064" lon="4.422722"/>
   <trkpt lat="51.209232" lon="4.422785"/>
   <trkpt lat="51.209508" lon="4.422768"/>
   <trkpt lat="51.20951" lon="4.422766"/>
  </trkseg>
 </trk>
</gpx>