<?xml version="1.0" encoding="UTF-8"?>
<!-- track-length = 59 filtered ascend = 0 plain-ascend = 0 cost=118 energy=0.0kwh time=5s -->
<gpx 
 xmlns="http://www.topografix.com/GPX/1/1" 
 xmlns:xsi="http://www.w3.org/2001/XMLSchema-instance" 
 xsi:schemaLocation="http://www.topografix.com/GPX/1/1 http://www.topografix.com/GPX/1/1/gpx.xsd" 
 version="1.1" 
 creator="BRouter-Web 0.18.1">
 <trk>
  <name>Dreieck Prāgas iela/Aspazijas bulvāris Weiche Nordwest-Südwest - Dreieck Prāgas iela/Aspazijas bulvāris Weiche Südwest-Nordwest</name>
  <trkseg>
   <trkpt lat="56.947009" lon="24.114982"><ele>4</ele></trkpt>
   <trkpt lat="56.947006" lon="24.114985"><ele>4</ele></trkpt>
   <trkpt lat="56.946839" lon="24.11508"><ele>4.25</ele></trkpt>
   <trkpt lat="56.946808" lon="24.115088"><ele>4.25</ele></trkpt>
   <trkpt lat="56.946749" lon="24.115087"><ele>4.5</ele></trkpt>
   <trkpt lat="56.946692" lon="24.115062"><ele>4.75</ele></trkpt>
   <trkpt lat="56.946624" lon="24.114998"><ele>4.75</ele></trkpt>
   <trkpt lat="56.946548" lon="24.114858"><ele>4.5</ele></trkpt>
   <trkpt lat="56.946546" lon="24.114856"><ele>4</ele></trkpt>
  </trkseg>
 </trk>
</gpx>