<?xml version="1.0" encoding="UTF-8"?>
<!-- track-length = 63 filtered ascend = 0 plain-ascend = 0 cost=126 energy=0.0kwh time=5s -->
<gpx 
 xmlns="http://www.topografix.com/GPX/1/1" 
 xmlns:xsi="http://www.w3.org/2001/XMLSchema-instance" 
 xsi:schemaLocation="http://www.topografix.com/GPX/1/1 http://www.topografix.com/GPX/1/1/gpx.xsd" 
 version="1.1" 
 creator="BRouter-Web 0.18.1">
 <trk>
  <name>Dreieck Oostplein/Burgemeester van Walsumweg Weiche 298 - Dreieck Oostplein/Burgemeester van Walsumweg Weiche Nordwest-Ost</name>
  <trkseg>
   <trkpt lat="51.922947" lon="4.497389"><ele>4</ele></trkpt>
   <trkpt lat="51.922947" lon="4.497388"><ele>4</ele></trkpt>
   <trkpt lat="51.922911" lon="4.497239"><ele>4</ele></trkpt>
   <trkpt lat="51.922902" lon="4.497134"><ele>4</ele></trkpt>
   <trkpt lat="51.922903" lon="4.497051"><ele>4</ele></trkpt>
   <trkpt lat="51.922914" lon="4.496946"><ele>4</ele></trkpt>
   <trkpt lat="51.922942" lon="4.496833"><ele>4</ele></trkpt>
   <trkpt lat="51.922963" lon="4.49678"><ele>4</ele></trkpt>
   <trkpt lat="51.923022" lon="4.496677"><ele>4</ele></trkpt>
   <trkpt lat="51.923078" lon="4.496613"><ele>4</ele></trkpt>
   <trkpt lat="51.923084" lon="4.496607"><ele>3.25</ele></trkpt>
  </trkseg>
 </trk>
</gpx>