<?xml version="1.0" encoding="UTF-8"?>
<!-- track-length = 161 filtered ascend = 0 plain-ascend = 0 cost=322 energy=0.0kwh time=13s -->
<gpx 
 xmlns="http://www.topografix.com/GPX/1/1" 
 xmlns:xsi="http://www.w3.org/2001/XMLSchema-instance" 
 xsi:schemaLocation="http://www.topografix.com/GPX/1/1 http://www.topografix.com/GPX/1/1/gpx.xsd" 
 version="1.1" 
 creator="BRouter-Web 99.71.0">
 <trk>
  <name>Itäkeskus Mittelgleis/nach Vuosaari Weiche Südwest - Itäkeskus (Gleis Mitte)</name>
  <link href="https://brouter.damsy.net/latest/#map=19/60.21002/25.07807/standard&amp;lonlats=25.079734,60.210611;25.077212,60.209916&amp;profile=rail">
   <text>BRouter-Web</text>
  </link>
  <trkseg>
   <trkpt lat="60.210609" lon="25.079735"/>
   <trkpt lat="60.210608" lon="25.079732"/>
   <trkpt lat="60.210416" lon="25.079025"/>
   <trkpt lat="60.209921" lon="25.077205"/>
  </trkseg>
 </trk>
</gpx>
