<?xml version="1.0" encoding="UTF-8"?>
<!-- track-length = 131 filtered ascend = 0 plain-ascend = 0 cost=262 energy=0.0kwh time=10s -->
<gpx 
 xmlns="http://www.topografix.com/GPX/1/1" 
 xmlns:xsi="http://www.w3.org/2001/XMLSchema-instance" 
 xsi:schemaLocation="http://www.topografix.com/GPX/1/1 http://www.topografix.com/GPX/1/1/gpx.xsd" 
 version="1.1" 
 creator="BRouter-Web 99.71.0">
 <trk>
  <name>Rastila (Gleis Nordost) - Üst Rastila Weiche L2</name>
  <link href="https://brouter.damsy.net/latest/#map=18/60.20596/25.12054/standard&amp;lonlats=25.120841,60.205548;25.118611,60.205928&amp;profile=rail">
   <text>BRouter-Web</text>
  </link>
  <trkseg>
   <trkpt lat="60.205548" lon="25.120841"><ele>7.25</ele></trkpt>
   <trkpt lat="60.205572" lon="25.12071"><ele>7.25</ele></trkpt>
   <trkpt lat="60.205805" lon="25.119379"><ele>7.25</ele></trkpt>
   <trkpt lat="60.205925" lon="25.118609"><ele>7.25</ele></trkpt>
  </trkseg>
 </trk>
</gpx>
