<?xml version="1.0" encoding="UTF-8"?>
<!-- track-length = 113 filtered ascend = 0 plain-ascend = 0 cost=226 energy=0.0kwh time=9s -->
<gpx 
 xmlns="http://www.topografix.com/GPX/1/1" 
 xmlns:xsi="http://www.w3.org/2001/XMLSchema-instance" 
 xsi:schemaLocation="http://www.topografix.com/GPX/1/1 http://www.topografix.com/GPX/1/1/gpx.xsd" 
 version="1.1" 
 creator="BRouter-Web 99.71.0">
 <trk>
  <name>Vuosaari (Gleis Nord) - Üst Vuosaari Weiche L4</name>
  <link href="https://brouter.damsy.net/latest/#map=18/60.20737/25.14219/standard&amp;lonlats=25.142474,60.207246;25.140463,60.207117&amp;profile=rail">
   <text>BRouter-Web</text>
  </link>
  <trkseg>
   <trkpt lat="60.207252" lon="25.142471"><ele>8.75</ele></trkpt>
   <trkpt lat="60.207217" lon="25.141959"><ele>8.75</ele></trkpt>
   <trkpt lat="60.207143" lon="25.140886"><ele>8</ele></trkpt>
   <trkpt lat="60.207128" lon="25.140654"><ele>8</ele></trkpt>
   <trkpt lat="60.207116" lon="25.140462"><ele>8</ele></trkpt>
  </trkseg>
 </trk>
</gpx>