<?xml version="1.0" encoding="UTF-8"?>
<!-- track-length = 79 filtered ascend = 0 plain-ascend = 0 cost=160 energy=0.0kwh time=6s -->
<gpx 
 xmlns="http://www.topografix.com/GPX/1/1" 
 xmlns:xsi="http://www.w3.org/2001/XMLSchema-instance" 
 xsi:schemaLocation="http://www.topografix.com/GPX/1/1 http://www.topografix.com/GPX/1/1/gpx.xsd" 
 version="1.1" 
 creator="BRouter-Web 99.71.0">
 <trk>
  <name>Üst Itäkeskus M1-Nordost Weiche Nordost-Nordwest - Üst Itäkeskus M1-Nordost Weiche Südwest-Nordwest</name>
  <link href="https://brouter.damsy.net/latest/#map=20/60.21215/25.08348/standard&amp;lonlats=25.083998,60.212689;25.083363,60.212295;25.083087,60.212144&amp;profile=rail">
   <text>BRouter-Web</text>
  </link>
  <trkseg>
   <trkpt lat="60.212687" lon="25.084001"/>
   <trkpt lat="60.212299" lon="25.08335"/>
   <trkpt lat="60.212144" lon="25.08309"/>
   <trkpt lat="60.212142" lon="25.083088"/>
  </trkseg>
 </trk>
</gpx>
