<?xml version="1.0" encoding="UTF-8"?>
<!-- track-length = 1662 filtered ascend = 0 plain-ascend = -1 cost=3324 energy=0.0kwh time=2m 13s -->
<gpx 
 xmlns="http://www.topografix.com/GPX/1/1" 
 xmlns:xsi="http://www.w3.org/2001/XMLSchema-instance" 
 xsi:schemaLocation="http://www.topografix.com/GPX/1/1 http://www.topografix.com/GPX/1/1/gpx.xsd" 
 version="1.1" 
 creator="BRouter-Web 99.71.0">
 <trk>
  <name>Üst Rastila Weiche L1 - Puotila (Gleis Nordost)</name>
  <link href="https://brouter.damsy.net/latest/#map=18/60.21450/25.09396/standard&amp;lonlats=25.115897,60.206387;25.092316,60.214823&amp;profile=rail">
   <text>BRouter-Web</text>
  </link>
  <trkseg>
   <trkpt lat="60.206386" lon="25.115896"><ele>5.25</ele></trkpt>
   <trkpt lat="60.206538" lon="25.115143"><ele>4.5</ele></trkpt>
   <trkpt lat="60.20659" lon="25.114928"><ele>4.5</ele></trkpt>
   <trkpt lat="60.208058" lon="25.109241"><ele>4.5</ele></trkpt>
   <trkpt lat="60.208192" lon="25.108773"><ele>4.75</ele></trkpt>
   <trkpt lat="60.208347" lon="25.108256"><ele>4.75</ele></trkpt>
   <trkpt lat="60.208467" lon="25.107881"><ele>4.25</ele></trkpt>
   <trkpt lat="60.208675" lon="25.107314"><ele>3.25</ele></trkpt>
   <trkpt lat="60.208832" lon="25.106938"><ele>3</ele></trkpt>
   <trkpt lat="60.209078" lon="25.106398"><ele>3</ele></trkpt>
   <trkpt lat="60.209261" lon="25.10604"><ele>3.75</ele></trkpt>
   <trkpt lat="60.210232" lon="25.104331"/>
   <trkpt lat="60.211098" lon="25.103209"/>
   <trkpt lat="60.212138" lon="25.101671"/>
   <trkpt lat="60.212976" lon="25.100055"/>
   <trkpt lat="60.213661" lon="25.098692"/>
   <trkpt lat="60.214221" lon="25.097402"/>
   <trkpt lat="60.214522" lon="25.096111"/>
   <trkpt lat="60.21463" lon="25.095003"/>
   <trkpt lat="60.214815" lon="25.092313"/>
  </trkseg>
 </trk>
</gpx>
