<?xml version="1.0" encoding="UTF-8"?>
<!-- track-length = 161 filtered ascend = 0 plain-ascend = -1 cost=322 energy=0.0kwh time=13s -->
<gpx 
 xmlns="http://www.topografix.com/GPX/1/1" 
 xmlns:xsi="http://www.w3.org/2001/XMLSchema-instance" 
 xsi:schemaLocation="http://www.topografix.com/GPX/1/1 http://www.topografix.com/GPX/1/1/gpx.xsd" 
 version="1.1" 
 creator="BRouter-Web 99.71.0">
 <trk>
  <name>Üst Rastila Weiche L2 - Üst Rastila Weiche L1</name>
  <link href="https://brouter.damsy.net/latest/#map=18/60.20629/25.11782/standard&amp;lonlats=25.118611,60.205928;25.116922,60.206199;25.115897,60.206387&amp;profile=rail">
   <text>BRouter-Web</text>
  </link>
  <trkseg>
   <trkpt lat="60.205925" lon="25.118609"><ele>7.25</ele></trkpt>
   <trkpt lat="60.205926" lon="25.118609"><ele>7.25</ele></trkpt>
   <trkpt lat="60.206105" lon="25.117412"><ele>6</ele></trkpt>
   <trkpt lat="60.206189" lon="25.116915"><ele>5</ele></trkpt>
   <trkpt lat="60.206192" lon="25.116902"><ele>5</ele></trkpt>
   <trkpt lat="60.206386" lon="25.115899"><ele>5.5</ele></trkpt>
   <trkpt lat="60.206386" lon="25.115896"><ele>4.5</ele></trkpt>
  </trkseg>
 </trk>
</gpx>