<?xml version="1.0" encoding="UTF-8"?>
<!-- track-length = 87 filtered ascend = 0 plain-ascend = 0 cost=174 energy=0.0kwh time=7s -->
<gpx 
 xmlns="http://www.topografix.com/GPX/1/1" 
 xmlns:xsi="http://www.w3.org/2001/XMLSchema-instance" 
 xsi:schemaLocation="http://www.topografix.com/GPX/1/1 http://www.topografix.com/GPX/1/1/gpx.xsd" 
 version="1.1" 
 creator="BRouter-Web 0.18.1">
 <trk>
  <name>Kauppiaankatu (Steig Südwest) - Abzweig Linnankatu Weiche Südwest</name>
  <trkseg>
   <trkpt lat="60.166687" lon="24.964992"><ele>4.25</ele></trkpt>
   <trkpt lat="60.166642" lon="24.96513"><ele>4.25</ele></trkpt>
   <trkpt lat="60.166597" lon="24.9653"><ele>3.5</ele></trkpt>
   <trkpt lat="60.166261" lon="24.966294"><ele>3</ele></trkpt>
  </trkseg>
 </trk>
</gpx>
