<?xml version="1.0" encoding="UTF-8"?>
<!-- track-length = 516 filtered ascend = 4 plain-ascend = 1 cost=1032 energy=0.0kwh time=40.84s -->
<gpx 
 xmlns="http://www.topografix.com/GPX/1/1" 
 xmlns:xsi="http://www.w3.org/2001/XMLSchema-instance" 
 xsi:schemaLocation="http://www.topografix.com/GPX/1/1 http://www.topografix.com/GPX/1/1/gpx.xsd" 
 version="1.1" 
 creator="BRouter-Web 0.18.1">
 <trk>
  <name>Ritarihuone (Steig Süd) - Tove Janssonin puisto (Steig Südwest)</name>
  <trkseg>
   <trkpt lat="60.169135" lon="24.955664"><ele>5</ele></trkpt>
   <trkpt lat="60.169142" lon="24.955916"><ele>5</ele></trkpt>
   <trkpt lat="60.169142" lon="24.955947"><ele>5</ele></trkpt>
   <trkpt lat="60.169143" lon="24.955976"><ele>5</ele></trkpt>
   <trkpt lat="60.169156" lon="24.956568"><ele>4</ele></trkpt>
   <trkpt lat="60.169153" lon="24.956642"><ele>4</ele></trkpt>
   <trkpt lat="60.169145" lon="24.956695"><ele>4</ele></trkpt>
   <trkpt lat="60.169117" lon="24.956784"><ele>4</ele></trkpt>
   <trkpt lat="60.169103" lon="24.956808"><ele>4</ele></trkpt>
   <trkpt lat="60.169062" lon="24.956855"><ele>4</ele></trkpt>
   <trkpt lat="60.169002" lon="24.956886"><ele>4</ele></trkpt>
   <trkpt lat="60.168882" lon="24.9569"><ele>4</ele></trkpt>
   <trkpt lat="60.168804" lon="24.956909"><ele>4</ele></trkpt>
   <trkpt lat="60.168686" lon="24.956933"><ele>4</ele></trkpt>
   <trkpt lat="60.168668" lon="24.956947"><ele>4</ele></trkpt>
   <trkpt lat="60.168647" lon="24.956971"><ele>4</ele></trkpt>
   <trkpt lat="60.168627" lon="24.957003"><ele>4</ele></trkpt>
   <trkpt lat="60.168609" lon="24.95704"><ele>3.75</ele></trkpt>
   <trkpt lat="60.168591" lon="24.957089"><ele>3.75</ele></trkpt>
   <trkpt lat="60.168571" lon="24.957154"><ele>3.75</ele></trkpt>
   <trkpt lat="60.168492" lon="24.957429"><ele>4.25</ele></trkpt>
   <trkpt lat="60.168487" lon="24.957446"><ele>4.25</ele></trkpt>
   <trkpt lat="60.168476" lon="24.957484"><ele>4.25</ele></trkpt>
   <trkpt lat="60.168469" lon="24.957507"><ele>4</ele></trkpt>
   <trkpt lat="60.168368" lon="24.957848"><ele>4.75</ele></trkpt>
   <trkpt lat="60.168351" lon="24.957904"><ele>4.75</ele></trkpt>
   <trkpt lat="60.168292" lon="24.958079"><ele>4.75</ele></trkpt>
   <trkpt lat="60.168242" lon="24.958225"><ele>4.75</ele></trkpt>
   <trkpt lat="60.168228" lon="24.958269"><ele>4.75</ele></trkpt>
   <trkpt lat="60.168209" lon="24.958325"><ele>4.75</ele></trkpt>
   <trkpt lat="60.168202" lon="24.958347"><ele>4.75</ele></trkpt>
   <trkpt lat="60.167814" lon="24.95952"><ele>9.5</ele></trkpt>
   <trkpt lat="60.167793" lon="24.959584"><ele>9.25</ele></trkpt>
   <trkpt lat="60.167717" lon="24.959827"><ele>8.25</ele></trkpt>
   <trkpt lat="60.167634" lon="24.960158"><ele>7.5</ele></trkpt>
   <trkpt lat="60.167588" lon="24.960319"><ele>6.75</ele></trkpt>
   <trkpt lat="60.167286" lon="24.961217"><ele>3</ele></trkpt>
   <trkpt lat="60.167275" lon="24.961253"><ele>3</ele></trkpt>
   <trkpt lat="60.167252" lon="24.961359"><ele>3</ele></trkpt>
   <trkpt lat="60.167248" lon="24.961463"><ele>3</ele></trkpt>
   <trkpt lat="60.167264" lon="24.961582"><ele>3</ele></trkpt>
   <trkpt lat="60.167279" lon="24.961632"><ele>3</ele></trkpt>
   <trkpt lat="60.167324" lon="24.961722"><ele>3</ele></trkpt>
   <trkpt lat="60.16734" lon="24.961747"><ele>3</ele></trkpt>
   <trkpt lat="60.167525" lon="24.961996"><ele>4</ele></trkpt>
   <trkpt lat="60.167566" lon="24.962081"><ele>4</ele></trkpt>
   <trkpt lat="60.167576" lon="24.962113"><ele>4</ele></trkpt>
   <trkpt lat="60.167585" lon="24.962153"><ele>4</ele></trkpt>
   <trkpt lat="60.167591" lon="24.962244"><ele>4</ele></trkpt>
   <trkpt lat="60.167584" lon="24.962363"><ele>4</ele></trkpt>
   <trkpt lat="60.167574" lon="24.962402"><ele>4</ele></trkpt>
   <trkpt lat="60.167538" lon="24.962513"><ele>4</ele></trkpt>
   <trkpt lat="60.167485" lon="24.962643"><ele>4</ele></trkpt>
   <trkpt lat="60.167394" lon="24.962914"><ele>5</ele></trkpt>
  </trkseg>
 </trk>
</gpx>