<?xml version="1.0" encoding="UTF-8"?>
<!-- track-length = 126 filtered ascend = 0 plain-ascend = 0 cost=127 energy=0.0kwh time=10s -->
<gpx 
 xmlns="http://www.topografix.com/GPX/1/1" 
 xmlns:xsi="http://www.w3.org/2001/XMLSchema-instance" 
 xsi:schemaLocation="http://www.topografix.com/GPX/1/1 http://www.topografix.com/GPX/1/1/gpx.xsd" 
 version="1.1" 
 creator="BRouter-Web 0.18.1">
 <trk>
  <name>76500 Litovel předměstí (Gleis 3) - Litovel předměstí Weiche 7</name>
  <trkseg>
   <trkpt lat="49.693667" lon="17.070952"><ele>233.5</ele></trkpt>
   <trkpt lat="49.692606" lon="17.070334"><ele>233</ele></trkpt>
  </trkseg>
 </trk>
</gpx>