<?xml version="1.0" encoding="UTF-8"?>
<!-- track-length = 225 filtered ascend = 2 plain-ascend = -1 cost=450 energy=0.0kwh time=18s -->
<gpx 
 xmlns="http://www.topografix.com/GPX/1/1" 
 xmlns:xsi="http://www.w3.org/2001/XMLSchema-instance" 
 xsi:schemaLocation="http://www.topografix.com/GPX/1/1 http://www.topografix.com/GPX/1/1/gpx.xsd" 
 version="1.1" 
 creator="BRouter-Web 0.18.1">
 <trk>
  <name>Abzweig Kyllikinportti Weiche Ost - Maistraatintori Weiche Nord</name>
  <trkseg>
   <trkpt lat="60.200044" lon="24.927239"><ele>24.75</ele></trkpt>
   <trkpt lat="60.200047" lon="24.927238"><ele>25</ele></trkpt>
   <trkpt lat="60.200188" lon="24.927135"><ele>25.75</ele></trkpt>
   <trkpt lat="60.200231" lon="24.927078"><ele>25.75</ele></trkpt>
   <trkpt lat="60.200283" lon="24.926956"><ele>26</ele></trkpt>
   <trkpt lat="60.200302" lon="24.926858"><ele>26.25</ele></trkpt>
   <trkpt lat="60.200307" lon="24.926823"><ele>26.5</ele></trkpt>
   <trkpt lat="60.20031" lon="24.926675"><ele>27</ele></trkpt>
   <trkpt lat="60.200304" lon="24.926614"><ele>27</ele></trkpt>
   <trkpt lat="60.200223" lon="24.92597"><ele>26.75</ele></trkpt>
   <trkpt lat="60.200203" lon="24.925869"><ele>26.75</ele></trkpt>
   <trkpt lat="60.200181" lon="24.925804"><ele>26.5</ele></trkpt>
   <trkpt lat="60.200134" lon="24.925719"><ele>26.25</ele></trkpt>
   <trkpt lat="60.200114" lon="24.925691"><ele>26.25</ele></trkpt>
   <trkpt lat="60.199979" lon="24.925511"><ele>25.75</ele></trkpt>
   <trkpt lat="60.199577" lon="24.925036"><ele>23.75</ele></trkpt>
   <trkpt lat="60.199535" lon="24.925003"><ele>23.5</ele></trkpt>
   <trkpt lat="60.199448" lon="24.924994"><ele>23</ele></trkpt>
   <trkpt lat="60.199272" lon="24.925068"><ele>23</ele></trkpt>
   <trkpt lat="60.199178" lon="24.925111"><ele>23</ele></trkpt>
  </trkseg>
 </trk>
</gpx>