<?xml version="1.0" encoding="UTF-8"?>
<!-- track-length = 28 filtered ascend = 0 plain-ascend = 0 cost=56 energy=0.0kwh time=2s -->
<gpx 
 xmlns="http://www.topografix.com/GPX/1/1" 
 xmlns:xsi="http://www.w3.org/2001/XMLSchema-instance" 
 xsi:schemaLocation="http://www.topografix.com/GPX/1/1 http://www.topografix.com/GPX/1/1/gpx.xsd" 
 version="1.1" 
 creator="BRouter-Web 0.18.1">
 <trk>
  <name>Maistraatintori (Steig Südwest) - Maistraatintori Weiche Süd</name>
  <trkseg>
   <trkpt lat="60.198498" lon="24.925429"><ele>22</ele></trkpt>
   <trkpt lat="60.198421" lon="24.925465"><ele>22</ele></trkpt>
   <trkpt lat="60.198363" lon="24.925492"><ele>22</ele></trkpt>
   <trkpt lat="60.198255" lon="24.925536"><ele>22.25</ele></trkpt>
  </trkseg>
 </trk>
</gpx>