<?xml version="1.0" encoding="UTF-8"?>
<!-- track-length = 176 filtered ascend = 4 plain-ascend = 4 cost=352 energy=0.0kwh time=14s -->
<gpx 
 xmlns="http://www.topografix.com/GPX/1/1" 
 xmlns:xsi="http://www.w3.org/2001/XMLSchema-instance" 
 xsi:schemaLocation="http://www.topografix.com/GPX/1/1 http://www.topografix.com/GPX/1/1/gpx.xsd" 
 version="1.1" 
 creator="BRouter-Web 0.18.1">
 <trk>
  <name>Abzweig Rautatientori Weiche Ost - Kaisaniemenkatu (Steig Südost)</name>
  <trkseg>
   <trkpt lat="60.170841" lon="24.945641"><ele>2</ele></trkpt>
   <trkpt lat="60.170842" lon="24.945645"><ele>2.25</ele></trkpt>
   <trkpt lat="60.171133" lon="24.946575"><ele>4.75</ele></trkpt>
   <trkpt lat="60.171319" lon="24.947088"><ele>6.25</ele></trkpt>
   <trkpt lat="60.171378" lon="24.947213"><ele>6</ele></trkpt>
   <trkpt lat="60.171429" lon="24.947298"><ele>6</ele></trkpt>
   <trkpt lat="60.171503" lon="24.947373"><ele>6</ele></trkpt>
   <trkpt lat="60.171746" lon="24.947518"><ele>6</ele></trkpt>
   <trkpt lat="60.171883" lon="24.947625"><ele>6</ele></trkpt>
   <trkpt lat="60.171954" lon="24.947693"><ele>6</ele></trkpt>
  </trkseg>
 </trk>
</gpx>