<?xml version="1.0" encoding="UTF-8"?>
<!-- track-length = 3 filtered ascend = 0 plain-ascend = 0 cost=3 energy=0.0kwh time= -->
<gpx 
 xmlns="http://www.topografix.com/GPX/1/1" 
 xmlns:xsi="http://www.w3.org/2001/XMLSchema-instance" 
 xsi:schemaLocation="http://www.topografix.com/GPX/1/1 http://www.topografix.com/GPX/1/1/gpx.xsd" 
 version="1.1" 
 creator="BRouter-Web 99.71.0">
 <trk>
  <name>Braunsfeld Aachener Straße/Gürtel (Steig 4) - Braunsfeld Kreuz Aachener Straße/Gürtel Weiche Süd-nach-West-Süd</name>
  <link href="https://brouter.damsy.net/latest/#map=20/50.93678/6.90873/standard&amp;lonlats=6.90841,50.936547;6.908418,50.936573&amp;nogos=6.781752,51.218852,6&amp;profile=rail">
   <text>BRouter-Web</text>
  </link>
  <trkseg>
   <trkpt lat="50.936545" lon="6.90841"><ele>49</ele></trkpt>
   <trkpt lat="50.936566" lon="6.908416"><ele>49</ele></trkpt>
   <trkpt lat="50.936572" lon="6.908417"><ele>49</ele></trkpt>
  </trkseg>
 </trk>
</gpx>