<?xml version="1.0" encoding="UTF-8"?>
<!-- track-length = 3435 filtered ascend = 8 plain-ascend = -1 cost=3435 energy=0.0kwh time=4m 35s -->
<gpx 
 xmlns="http://www.topografix.com/GPX/1/1" 
 xmlns:xsi="http://www.w3.org/2001/XMLSchema-instance" 
 xsi:schemaLocation="http://www.topografix.com/GPX/1/1 http://www.topografix.com/GPX/1/1/gpx.xsd" 
 version="1.1" 
 creator="BRouter-Web 0.18.1">
 <trk>
  <name>221 Kymi Weiche 412 - Kyminlinna</name>
  <trkseg>
   <trkpt lat="60.536449" lon="26.90354"><ele>9.75</ele></trkpt>
   <trkpt lat="60.53622" lon="26.903238"><ele>10</ele></trkpt>
   <trkpt lat="60.535053" lon="26.901699"><ele>11.25</ele></trkpt>
   <trkpt lat="60.534714" lon="26.901252"><ele>12</ele></trkpt>
   <trkpt lat="60.534302" lon="26.900708"><ele>13.5</ele></trkpt>
   <trkpt lat="60.533887" lon="26.900286"><ele>14</ele></trkpt>
   <trkpt lat="60.533656" lon="26.90011"><ele>14.25</ele></trkpt>
   <trkpt lat="60.533403" lon="26.899943"><ele>15.5</ele></trkpt>
   <trkpt lat="60.533074" lon="26.899767"><ele>15</ele></trkpt>
   <trkpt lat="60.532835" lon="26.899657"><ele>13.75</ele></trkpt>
   <trkpt lat="60.532612" lon="26.899554"><ele>13.75</ele></trkpt>
   <trkpt lat="60.531742" lon="26.899207"><ele>15.5</ele></trkpt>
   <trkpt lat="60.531418" lon="26.899121"><ele>15</ele></trkpt>
   <trkpt lat="60.531051" lon="26.899059"><ele>13.75</ele></trkpt>
   <trkpt lat="60.530777" lon="26.899043"><ele>13</ele></trkpt>
   <trkpt lat="60.53074" lon="26.899041"><ele>13</ele></trkpt>
   <trkpt lat="60.53037" lon="26.899039"><ele>13</ele></trkpt>
   <trkpt lat="60.528172" lon="26.899153"><ele>13.75</ele></trkpt>
   <trkpt lat="60.52785" lon="26.899174"><ele>13.75</ele></trkpt>
   <trkpt lat="60.52721" lon="26.899192"><ele>13.75</ele></trkpt>
   <trkpt lat="60.52685" lon="26.899162"><ele>14</ele></trkpt>
   <trkpt lat="60.526557" lon="26.89911"><ele>13.75</ele></trkpt>
   <trkpt lat="60.526347" lon="26.899053"><ele>13.5</ele></trkpt>
   <trkpt lat="60.525901" lon="26.898928"><ele>13.75</ele></trkpt>
   <trkpt lat="60.525235" lon="26.89865"><ele>14</ele></trkpt>
   <trkpt lat="60.524712" lon="26.898359"><ele>14</ele></trkpt>
   <trkpt lat="60.524381" lon="26.898109"><ele>13.75</ele></trkpt>
   <trkpt lat="60.523583" lon="26.897461"><ele>14.75</ele></trkpt>
   <trkpt lat="60.522694" lon="26.896529"><ele>14.75</ele></trkpt>
   <trkpt lat="60.520728" lon="26.894198"><ele>17.25</ele></trkpt>
   <trkpt lat="60.519929" lon="26.893252"><ele>16.5</ele></trkpt>
   <trkpt lat="60.519816" lon="26.893118"><ele>16.5</ele></trkpt>
   <trkpt lat="60.518465" lon="26.891533"><ele>18.25</ele></trkpt>
   <trkpt lat="60.518282" lon="26.891346"><ele>15.75</ele></trkpt>
   <trkpt lat="60.517743" lon="26.890828"><ele>13.75</ele></trkpt>
   <trkpt lat="60.517243" lon="26.890443"><ele>12.5</ele></trkpt>
   <trkpt lat="60.516973" lon="26.890255"><ele>12.5</ele></trkpt>
   <trkpt lat="60.516696" lon="26.890096"><ele>11.25</ele></trkpt>
   <trkpt lat="60.516127" lon="26.889832"><ele>11</ele></trkpt>
   <trkpt lat="60.515862" lon="26.889729"><ele>11.75</ele></trkpt>
   <trkpt lat="60.515573" lon="26.88964"><ele>10.25</ele></trkpt>
   <trkpt lat="60.515216" lon="26.889569"><ele>8.25</ele></trkpt>
   <trkpt lat="60.514912" lon="26.889536"><ele>8</ele></trkpt>
   <trkpt lat="60.514653" lon="26.889522"><ele>8</ele></trkpt>
   <trkpt lat="60.514334" lon="26.88953"><ele>8</ele></trkpt>
   <trkpt lat="60.513944" lon="26.889565"><ele>7.5</ele></trkpt>
   <trkpt lat="60.513299" lon="26.88972"><ele>8.75</ele></trkpt>
   <trkpt lat="60.512885" lon="26.889898"><ele>5.75</ele></trkpt>
   <trkpt lat="60.512669" lon="26.890002"><ele>6</ele></trkpt>
   <trkpt lat="60.511779" lon="26.890511"><ele>4</ele></trkpt>
   <trkpt lat="60.511202" lon="26.89091"><ele>4</ele></trkpt>
   <trkpt lat="60.511011" lon="26.891047"><ele>5.5</ele></trkpt>
   <trkpt lat="60.510648" lon="26.891319"><ele>4</ele></trkpt>
   <trkpt lat="60.510454" lon="26.891482"><ele>4.5</ele></trkpt>
   <trkpt lat="60.510127" lon="26.891851"><ele>7</ele></trkpt>
   <trkpt lat="60.509935" lon="26.892096"><ele>6.25</ele></trkpt>
   <trkpt lat="60.509742" lon="26.892389"><ele>6.5</ele></trkpt>
   <trkpt lat="60.509534" lon="26.892729"><ele>6.75</ele></trkpt>
   <trkpt lat="60.509335" lon="26.893114"><ele>6.75</ele></trkpt>
   <trkpt lat="60.509134" lon="26.893567"><ele>7</ele></trkpt>
   <trkpt lat="60.508978" lon="26.893943"><ele>7</ele></trkpt>
   <trkpt lat="60.508631" lon="26.894824"><ele>7.25</ele></trkpt>
   <trkpt lat="60.508255" lon="26.895807"><ele>7.75</ele></trkpt>
  </trkseg>
 </trk>
</gpx>