<?xml version="1.0" encoding="UTF-8"?>
<!-- track-length = 299 filtered ascend = 0 plain-ascend = 0 cost=299 energy=0.0kwh time=24s -->
<gpx 
 xmlns="http://www.topografix.com/GPX/1/1" 
 xmlns:xsi="http://www.w3.org/2001/XMLSchema-instance" 
 xsi:schemaLocation="http://www.topografix.com/GPX/1/1 http://www.topografix.com/GPX/1/1/gpx.xsd" 
 version="1.1" 
 creator="BRouter-Web 0.18.1">
 <trk>
  <name>221 Paimenportti (Gleis 1) - Kotka tavara Weiche 512</name>
  <trkseg>
   <trkpt lat="60.479673" lon="26.919373"><ele>6.75</ele></trkpt>
   <trkpt lat="60.479216" lon="26.919379"><ele>6.75</ele></trkpt>
   <trkpt lat="60.478868" lon="26.919382"><ele>7</ele></trkpt>
   <trkpt lat="60.478849" lon="26.919382"><ele>7</ele></trkpt>
   <trkpt lat="60.47762" lon="26.919387"><ele>6.75</ele></trkpt>
   <trkpt lat="60.477" lon="26.9194"><ele>7</ele></trkpt>
   <trkpt lat="60.476999" lon="26.9194"><ele>7</ele></trkpt>
  </trkseg>
 </trk>
</gpx>