<?xml version="1.0" encoding="UTF-8"?>
<!-- track-length = 923 filtered ascend = 1 plain-ascend = 0 cost=923 energy=0.0kwh time=1m 14s -->
<gpx 
 xmlns="http://www.topografix.com/GPX/1/1" 
 xmlns:xsi="http://www.w3.org/2001/XMLSchema-instance" 
 xsi:schemaLocation="http://www.topografix.com/GPX/1/1 http://www.topografix.com/GPX/1/1/gpx.xsd" 
 version="1.1" 
 creator="BRouter-Web 0.18.1">
 <trk>
  <name>221 Kotka Weiche 667 - Kotka tavara Weiche 512</name>
  <trkseg>
   <trkpt lat="60.468819" lon="26.919711"><ele>7.5</ele></trkpt>
   <trkpt lat="60.46882" lon="26.919711"><ele>7.75</ele></trkpt>
   <trkpt lat="60.469862" lon="26.919284"><ele>6.75</ele></trkpt>
   <trkpt lat="60.471386" lon="26.918653"><ele>8</ele></trkpt>
   <trkpt lat="60.47191" lon="26.918517"><ele>9</ele></trkpt>
   <trkpt lat="60.472435" lon="26.918458"><ele>8.5</ele></trkpt>
   <trkpt lat="60.472905" lon="26.918463"><ele>7.75</ele></trkpt>
   <trkpt lat="60.473545" lon="26.918563"><ele>8</ele></trkpt>
   <trkpt lat="60.473783" lon="26.918617"><ele>7.25</ele></trkpt>
   <trkpt lat="60.473996" lon="26.918681"><ele>7</ele></trkpt>
   <trkpt lat="60.474691" lon="26.918995"><ele>6.75</ele></trkpt>
   <trkpt lat="60.475024" lon="26.919123"><ele>6.75</ele></trkpt>
   <trkpt lat="60.475457" lon="26.919261"><ele>7</ele></trkpt>
   <trkpt lat="60.475637" lon="26.919288"><ele>7.25</ele></trkpt>
   <trkpt lat="60.475978" lon="26.91934"><ele>8.25</ele></trkpt>
   <trkpt lat="60.47682" lon="26.919403"><ele>7</ele></trkpt>
   <trkpt lat="60.476999" lon="26.9194"><ele>7</ele></trkpt>
  </trkseg>
 </trk>
</gpx>