<?xml version="1.0" encoding="UTF-8"?>
<!-- track-length = 3956 filtered ascend = 12 plain-ascend = 4 cost=3956 energy=0.0kwh time=5m 16s -->
<gpx 
 xmlns="http://www.topografix.com/GPX/1/1" 
 xmlns:xsi="http://www.w3.org/2001/XMLSchema-instance" 
 xsi:schemaLocation="http://www.topografix.com/GPX/1/1 http://www.topografix.com/GPX/1/1/gpx.xsd" 
 version="1.1" 
 creator="BRouter-Web 0.18.1">
 <trk>
  <name>221 Kymi Weiche 411 - Tavastila</name>
  <trkseg>
   <trkpt lat="60.544551" lon="26.913675"><ele>9.25</ele></trkpt>
   <trkpt lat="60.544557" lon="26.913682"><ele>9.5</ele></trkpt>
   <trkpt lat="60.545804" lon="26.914991"><ele>10</ele></trkpt>
   <trkpt lat="60.548321" lon="26.917656"><ele>11.5</ele></trkpt>
   <trkpt lat="60.548821" lon="26.918268"><ele>12</ele></trkpt>
   <trkpt lat="60.549275" lon="26.918886"><ele>11.5</ele></trkpt>
   <trkpt lat="60.549974" lon="26.919909"><ele>11.5</ele></trkpt>
   <trkpt lat="60.550215" lon="26.920307"><ele>11.75</ele></trkpt>
   <trkpt lat="60.55024" lon="26.92035"><ele>11.75</ele></trkpt>
   <trkpt lat="60.550378" lon="26.920583"><ele>11.5</ele></trkpt>
   <trkpt lat="60.550797" lon="26.921344"><ele>12.75</ele></trkpt>
   <trkpt lat="60.557037" lon="26.932842"><ele>15.5</ele></trkpt>
   <trkpt lat="60.55885" lon="26.936205"><ele>17.75</ele></trkpt>
   <trkpt lat="60.559699" lon="26.937781"><ele>19.75</ele></trkpt>
   <trkpt lat="60.560295" lon="26.93889"><ele>21</ele></trkpt>
   <trkpt lat="60.560941" lon="26.940089"><ele>22</ele></trkpt>
   <trkpt lat="60.563128" lon="26.94415"><ele>20.75</ele></trkpt>
   <trkpt lat="60.56369" lon="26.945062"><ele>21.5</ele></trkpt>
   <trkpt lat="60.563889" lon="26.945368"><ele>20.5</ele></trkpt>
   <trkpt lat="60.564247" lon="26.945877"><ele>21</ele></trkpt>
   <trkpt lat="60.564684" lon="26.946428"><ele>20.75</ele></trkpt>
   <trkpt lat="60.564999" lon="26.94678"><ele>20</ele></trkpt>
   <trkpt lat="60.565306" lon="26.947072"><ele>20.25</ele></trkpt>
   <trkpt lat="60.565806" lon="26.947513"><ele>20</ele></trkpt>
   <trkpt lat="60.566225" lon="26.947827"><ele>19.75</ele></trkpt>
   <trkpt lat="60.567186" lon="26.94849"><ele>17</ele></trkpt>
   <trkpt lat="60.567722" lon="26.948877"><ele>16.75</ele></trkpt>
   <trkpt lat="60.568195" lon="26.949238"><ele>17</ele></trkpt>
   <trkpt lat="60.568778" lon="26.949808"><ele>15.25</ele></trkpt>
   <trkpt lat="60.569284" lon="26.95032"><ele>15.5</ele></trkpt>
   <trkpt lat="60.571703" lon="26.952949"><ele>12.25</ele></trkpt>
   <trkpt lat="60.571738" lon="26.952986"><ele>12.25</ele></trkpt>
   <trkpt lat="60.571808" lon="26.953062"><ele>12.25</ele></trkpt>
   <trkpt lat="60.572581" lon="26.953889"><ele>11.5</ele></trkpt>
   <trkpt lat="60.572692" lon="26.954013"><ele>11.5</ele></trkpt>
   <trkpt lat="60.573181" lon="26.95456"><ele>12.75</ele></trkpt>
   <trkpt lat="60.573322" lon="26.954712"><ele>13</ele></trkpt>
  </trkseg>
 </trk>
</gpx>