<?xml version="1.0" encoding="UTF-8"?>
<!-- track-length = 345 filtered ascend = 1 plain-ascend = 0 cost=690 energy=0.0kwh time=28s -->
<gpx 
 xmlns="http://www.topografix.com/GPX/1/1" 
 xmlns:xsi="http://www.w3.org/2001/XMLSchema-instance" 
 xsi:schemaLocation="http://www.topografix.com/GPX/1/1 http://www.topografix.com/GPX/1/1/gpx.xsd" 
 version="1.1" 
 creator="BRouter-Web 0.18.1">
 <trk>
  <name>Lanza M2 (Steig Nordost) - Arena (Steig Ost)</name>
  <trkseg>
   <trkpt lat="45.472169" lon="9.181987"><ele>122</ele></trkpt>
   <trkpt lat="45.472296" lon="9.181844"><ele>122.25</ele></trkpt>
   <trkpt lat="45.472388" lon="9.181783"><ele>122.5</ele></trkpt>
   <trkpt lat="45.472471" lon="9.181755"><ele>122.75</ele></trkpt>
   <trkpt lat="45.472891" lon="9.181682"><ele>123</ele></trkpt>
   <trkpt lat="45.472959" lon="9.181678"><ele>123</ele></trkpt>
   <trkpt lat="45.473041" lon="9.18169"><ele>123</ele></trkpt>
   <trkpt lat="45.473129" lon="9.181732"><ele>123</ele></trkpt>
   <trkpt lat="45.473254" lon="9.18181"><ele>123</ele></trkpt>
   <trkpt lat="45.473325" lon="9.181839"><ele>123</ele></trkpt>
   <trkpt lat="45.473411" lon="9.181851"><ele>123</ele></trkpt>
   <trkpt lat="45.473474" lon="9.181846"><ele>123</ele></trkpt>
   <trkpt lat="45.47376" lon="9.181796"><ele>122.75</ele></trkpt>
   <trkpt lat="45.473847" lon="9.181779"><ele>122.5</ele></trkpt>
   <trkpt lat="45.474967" lon="9.181585"><ele>122</ele></trkpt>
   <trkpt lat="45.475165" lon="9.181554"><ele>122</ele></trkpt>
   <trkpt lat="45.475204" lon="9.181546"><ele>122</ele></trkpt>
  </trkseg>
 </trk>
</gpx>