<?xml version="1.0" encoding="UTF-8"?>
<!-- track-length = 142 filtered ascend = 3 plain-ascend = 4 cost=284 energy=0.0kwh time=11s -->
<gpx 
 xmlns="http://www.topografix.com/GPX/1/1" 
 xmlns:xsi="http://www.w3.org/2001/XMLSchema-instance" 
 xsi:schemaLocation="http://www.topografix.com/GPX/1/1 http://www.topografix.com/GPX/1/1/gpx.xsd" 
 version="1.1" 
 creator="BRouter-Web 0.18.1">
 <trk>
  <name>Munkkiniemi Saunalahdentie Weiche Südost - Tiilimäki (Steig Nordost)</name>
  <trkseg>
   <trkpt lat="60.194365" lon="24.873214"><ele>4</ele></trkpt>
   <trkpt lat="60.194345" lon="24.873387"><ele>4</ele></trkpt>
   <trkpt lat="60.194344" lon="24.87345"><ele>4</ele></trkpt>
   <trkpt lat="60.194352" lon="24.873537"><ele>4</ele></trkpt>
   <trkpt lat="60.194356" lon="24.873559"><ele>4</ele></trkpt>
   <trkpt lat="60.194392" lon="24.873664"><ele>4</ele></trkpt>
   <trkpt lat="60.194412" lon="24.873696"><ele>4.25</ele></trkpt>
   <trkpt lat="60.194453" lon="24.87373"><ele>4.25</ele></trkpt>
   <trkpt lat="60.194502" lon="24.873745"><ele>4.5</ele></trkpt>
   <trkpt lat="60.194611" lon="24.873722"><ele>4.75</ele></trkpt>
   <trkpt lat="60.19485" lon="24.873631"><ele>5.25</ele></trkpt>
   <trkpt lat="60.194911" lon="24.873609"><ele>5.5</ele></trkpt>
   <trkpt lat="60.195395" lon="24.873428"><ele>7.75</ele></trkpt>
  </trkseg>
 </trk>
</gpx>