<?xml version="1.0" encoding="UTF-8"?>
<!-- track-length = 215 filtered ascend = 2 plain-ascend = 3 cost=215 energy=0.0kwh time=17s -->
<gpx 
 xmlns="http://www.topografix.com/GPX/1/1" 
 xmlns:xsi="http://www.w3.org/2001/XMLSchema-instance" 
 xsi:schemaLocation="http://www.topografix.com/GPX/1/1 http://www.topografix.com/GPX/1/1/gpx.xsd" 
 version="1.1" 
 creator="BRouter-Web 99.71.0">
 <trk>
  <name>1113 Lübeck-Dänischburg IKEA Weiche 1 - Lübeck-Dänischburg IKEA (Gleis 2)</name>
  <link href="https://brouter.damsy.net/latest/#map=19/53.91097/10.73573/standard&amp;lonlats=10.731704,53.910706;10.734907,53.911087&amp;profile=rail">
   <text>BRouter-Web</text>
  </link>
  <trkseg>
   <trkpt lat="53.910702" lon="10.731704"><ele>2</ele></trkpt>
   <trkpt lat="53.910703" lon="10.731706"><ele>2</ele></trkpt>
   <trkpt lat="53.91083" lon="10.732705"><ele>2</ele></trkpt>
   <trkpt lat="53.91085" lon="10.732855"><ele>2</ele></trkpt>
   <trkpt lat="53.910905" lon="10.73329"><ele>2</ele></trkpt>
   <trkpt lat="53.911035" lon="10.734379"><ele>3.5</ele></trkpt>
   <trkpt lat="53.911087" lon="10.734905"><ele>4.75</ele></trkpt>
  </trkseg>
 </trk>
</gpx>