<?xml version="1.0" encoding="UTF-8"?>
<!-- track-length = 3010 filtered ascend = 2 plain-ascend = -1 cost=3010 energy=0.0kwh time=4m 1s -->
<gpx 
 xmlns="http://www.topografix.com/GPX/1/1" 
 xmlns:xsi="http://www.w3.org/2001/XMLSchema-instance" 
 xsi:schemaLocation="http://www.topografix.com/GPX/1/1 http://www.topografix.com/GPX/1/1/gpx.xsd" 
 version="1.1" 
 creator="BRouter-Web 99.71.0">
 <trk>
  <name>1113 Schwartau Waldhalle Weiche 1 - Lübeck-Dänischburg IKEA Weiche 1</name>
  <link href="https://brouter.damsy.net/latest/#map=18/53.91055/10.73248/standard&amp;lonlats=10.692536,53.906414;10.731704,53.910706&amp;profile=rail">
   <text>BRouter-Web</text>
  </link>
  <trkseg>
   <trkpt lat="53.906413" lon="10.692535"><ele>3.5</ele></trkpt>
   <trkpt lat="53.906417" lon="10.692537"><ele>3.5</ele></trkpt>
   <trkpt lat="53.906886" lon="10.69279"><ele>3.5</ele></trkpt>
   <trkpt lat="53.907081" lon="10.692921"><ele>3.5</ele></trkpt>
   <trkpt lat="53.907244" lon="10.693044"><ele>4</ele></trkpt>
   <trkpt lat="53.907419" lon="10.693188"><ele>3.75</ele></trkpt>
   <trkpt lat="53.907552" lon="10.693306"><ele>3.5</ele></trkpt>
   <trkpt lat="53.907733" lon="10.69348"><ele>4</ele></trkpt>
   <trkpt lat="53.907895" lon="10.693652"><ele>4.25</ele></trkpt>
   <trkpt lat="53.908188" lon="10.694"><ele>5</ele></trkpt>
   <trkpt lat="53.908479" lon="10.694402"><ele>5.5</ele></trkpt>
   <trkpt lat="53.908627" lon="10.694633"><ele>5.25</ele></trkpt>
   <trkpt lat="53.908775" lon="10.694881"><ele>5</ele></trkpt>
   <trkpt lat="53.909048" lon="10.69539"><ele>5</ele></trkpt>
   <trkpt lat="53.911358" lon="10.70014"><ele>3.25</ele></trkpt>
   <trkpt lat="53.911649" lon="10.700749"><ele>2</ele></trkpt>
   <trkpt lat="53.911784" lon="10.701064"><ele>1.5</ele></trkpt>
   <trkpt lat="53.911883" lon="10.701317"><ele>1.75</ele></trkpt>
   <trkpt lat="53.911975" lon="10.701584"><ele>1.25</ele></trkpt>
   <trkpt lat="53.912059" lon="10.701868"><ele>1</ele></trkpt>
   <trkpt lat="53.912172" lon="10.702308"><ele>1</ele></trkpt>
   <trkpt lat="53.912234" lon="10.702625"><ele>0.75</ele></trkpt>
   <trkpt lat="53.912297" lon="10.703043"><ele>1</ele></trkpt>
   <trkpt lat="53.912319" lon="10.703242"><ele>1</ele></trkpt>
   <trkpt lat="53.912348" lon="10.703706"><ele>1</ele></trkpt>
   <trkpt lat="53.91235" lon="10.704129"><ele>1</ele></trkpt>
   <trkpt lat="53.912343" lon="10.704338"><ele>1</ele></trkpt>
   <trkpt lat="53.912323" lon="10.704624"><ele>1</ele></trkpt>
   <trkpt lat="53.912293" lon="10.70491"><ele>1</ele></trkpt>
   <trkpt lat="53.912203" lon="10.7055"><ele>1</ele></trkpt>
   <trkpt lat="53.912067" lon="10.706155"><ele>1</ele></trkpt>
   <trkpt lat="53.911925" lon="10.706706"><ele>1</ele></trkpt>
   <trkpt lat="53.911736" lon="10.707303"><ele>1</ele></trkpt>
   <trkpt lat="53.911529" lon="10.707849"><ele>1</ele></trkpt>
   <trkpt lat="53.911416" lon="10.708109"><ele>1</ele></trkpt>
   <trkpt lat="53.911177" lon="10.708605"><ele>1</ele></trkpt>
   <trkpt lat="53.91105" lon="10.708838"><ele>1</ele></trkpt>
   <trkpt lat="53.910649" lon="10.709528"><ele>1</ele></trkpt>
   <trkpt lat="53.909925" lon="10.710756"><ele>1</ele></trkpt>
   <trkpt lat="53.909784" lon="10.711007"><ele>1</ele></trkpt>
   <trkpt lat="53.909669" lon="10.71123"><ele>1</ele></trkpt>
   <trkpt lat="53.909523" lon="10.711544"><ele>1</ele></trkpt>
   <trkpt lat="53.909393" lon="10.711879"><ele>1</ele></trkpt>
   <trkpt lat="53.909271" lon="10.712262"><ele>1</ele></trkpt>
   <trkpt lat="53.909211" lon="10.712492"><ele>1</ele></trkpt>
   <trkpt lat="53.909138" lon="10.71282"><ele>1</ele></trkpt>
   <trkpt lat="53.90907" lon="10.713229"><ele>1</ele></trkpt>
   <trkpt lat="53.909046" lon="10.713431"><ele>1</ele></trkpt>
   <trkpt lat="53.909009" lon="10.71384"><ele>1</ele></trkpt>
   <trkpt lat="53.909001" lon="10.713944"><ele>1</ele></trkpt>
   <trkpt lat="53.908977" lon="10.714403"><ele>1</ele></trkpt>
   <trkpt lat="53.908929" lon="10.715482"><ele>1</ele></trkpt>
   <trkpt lat="53.908929" lon="10.715488"><ele>1</ele></trkpt>
   <trkpt lat="53.908906" lon="10.71613"><ele>1</ele></trkpt>
   <trkpt lat="53.908895" lon="10.716616"><ele>1</ele></trkpt>
   <trkpt lat="53.908889" lon="10.717742"><ele>1</ele></trkpt>
   <trkpt lat="53.908937" lon="10.720326"><ele>1</ele></trkpt>
   <trkpt lat="53.908961" lon="10.721068"><ele>1</ele></trkpt>
   <trkpt lat="53.908991" lon="10.721589"><ele>1.5</ele></trkpt>
   <trkpt lat="53.909041" lon="10.722107"><ele>1.25</ele></trkpt>
   <trkpt lat="53.90911" lon="10.722657"><ele>1.5</ele></trkpt>
   <trkpt lat="53.909195" lon="10.723184"><ele>1.75</ele></trkpt>
   <trkpt lat="53.909289" lon="10.723664"><ele>2</ele></trkpt>
   <trkpt lat="53.909604" lon="10.725005"><ele>2</ele></trkpt>
   <trkpt lat="53.90979" lon="10.725859"><ele>1.75</ele></trkpt>
   <trkpt lat="53.909805" lon="10.725931"><ele>1.75</ele></trkpt>
   <trkpt lat="53.909916" lon="10.726487"><ele>2</ele></trkpt>
   <trkpt lat="53.910063" lon="10.72729"><ele>1.75</ele></trkpt>
   <trkpt lat="53.910173" lon="10.727949"><ele>2</ele></trkpt>
   <trkpt lat="53.910275" lon="10.728611"><ele>2</ele></trkpt>
   <trkpt lat="53.910507" lon="10.730216"><ele>2</ele></trkpt>
   <trkpt lat="53.910622" lon="10.731081"><ele>2</ele></trkpt>
   <trkpt lat="53.910702" lon="10.731704"><ele>2</ele></trkpt>
  </trkseg>
 </trk>
</gpx>