<?xml version="1.0" encoding="UTF-8"?>
<!-- track-length = 123 filtered ascend = 0 plain-ascend = 1 cost=124 energy=0.0kwh time=10s -->
<gpx 
 xmlns="http://www.topografix.com/GPX/1/1" 
 xmlns:xsi="http://www.w3.org/2001/XMLSchema-instance" 
 xsi:schemaLocation="http://www.topografix.com/GPX/1/1 http://www.topografix.com/GPX/1/1/gpx.xsd" 
 version="1.1" 
 creator="BRouter-Web 99.71.0">
 <trk>
  <name>1113 Lübeck-Dänischburg IKEA (Gleis 2) - Lübeck-Dänischburg IKEA Weiche 6</name>
  <link href="https://brouter.damsy.net/latest/#map=20/53.91118/10.73639/standard&amp;lonlats=10.734907,53.911087;10.73675,53.911257&amp;profile=rail">
   <text>BRouter-Web</text>
  </link>
  <trkseg>
   <trkpt lat="53.911087" lon="10.734905"><ele>4.5</ele></trkpt>
   <trkpt lat="53.9111" lon="10.735035"><ele>4.75</ele></trkpt>
   <trkpt lat="53.911162" lon="10.735715"><ele>5</ele></trkpt>
   <trkpt lat="53.911256" lon="10.736749"><ele>5</ele></trkpt>
  </trkseg>
 </trk>
</gpx>