<?xml version="1.0" encoding="UTF-8"?>
<!-- track-length = 7 filtered ascend = 0 plain-ascend = -2 cost=14 energy=0.0kwh time=1s -->
<gpx 
 xmlns="http://www.topografix.com/GPX/1/1" 
 xmlns:xsi="http://www.w3.org/2001/XMLSchema-instance" 
 xsi:schemaLocation="http://www.topografix.com/GPX/1/1 http://www.topografix.com/GPX/1/1/gpx.xsd" 
 version="1.1" 
 creator="BRouter-Web 0.18.1">
 <trk>
  <name>Abzweig Raxstraße Weiche Nord-von-Innengleis - Abzweig Raxstraße Weiche Nord-von-Außengleis</name>
  <trkseg>
   <trkpt lat="48.166962" lon="16.363946"><ele>239.75</ele></trkpt>
   <trkpt lat="48.167013" lon="16.363953"><ele>239.75</ele></trkpt>
   <trkpt lat="48.167015" lon="16.363953"><ele>236.75</ele></trkpt>
  </trkseg>
 </trk>
</gpx>