<?xml version="1.0" encoding="UTF-8"?>
<!-- track-length = 180 filtered ascend = 0 plain-ascend = -4 cost=362 energy=0.0kwh time=14s -->
<gpx 
 xmlns="http://www.topografix.com/GPX/1/1" 
 xmlns:xsi="http://www.w3.org/2001/XMLSchema-instance" 
 xsi:schemaLocation="http://www.topografix.com/GPX/1/1 http://www.topografix.com/GPX/1/1/gpx.xsd" 
 version="1.1" 
 creator="BRouter-Web 0.18.1">
 <trk>
  <name>Raxstraße (Steig Neilreichgasse-Südost) - Abzweig Raxstraße Weiche Nord-von-Innengleis</name>
  <trkseg>
   <trkpt lat="48.165374" lon="16.363663"><ele>244.25</ele></trkpt>
   <trkpt lat="48.165468" lon="16.363664"><ele>244.25</ele></trkpt>
   <trkpt lat="48.165548" lon="16.363654"><ele>244</ele></trkpt>
   <trkpt lat="48.165628" lon="16.363631"><ele>244</ele></trkpt>
   <trkpt lat="48.165743" lon="16.363612"><ele>244</ele></trkpt>
   <trkpt lat="48.165829" lon="16.363614"><ele>244</ele></trkpt>
   <trkpt lat="48.165921" lon="16.363635"><ele>243.5</ele></trkpt>
   <trkpt lat="48.166756" lon="16.36391"><ele>240.5</ele></trkpt>
   <trkpt lat="48.166798" lon="16.363919"><ele>240.5</ele></trkpt>
   <trkpt lat="48.166858" lon="16.363929"><ele>240.25</ele></trkpt>
   <trkpt lat="48.166962" lon="16.363946"><ele>239.75</ele></trkpt>
  </trkseg>
 </trk>
</gpx>