<?xml version="1.0" encoding="UTF-8"?>
<!-- track-length = 398 filtered ascend = 8 plain-ascend = 8 cost=796 energy=0.0kwh time=32s -->
<gpx 
 xmlns="http://www.topografix.com/GPX/1/1" 
 xmlns:xsi="http://www.w3.org/2001/XMLSchema-instance" 
 xsi:schemaLocation="http://www.topografix.com/GPX/1/1 http://www.topografix.com/GPX/1/1/gpx.xsd" 
 version="1.1" 
 creator="BRouter-Web 0.18.1">
 <trk>
  <name>Sahulkastraße (Steig Südost) - Raxstraße (Steig Neilreichgasse-Südost)</name>
  <trkseg>
   <trkpt lat="48.161967" lon="16.362097"><ele>236.5</ele></trkpt>
   <trkpt lat="48.162047" lon="16.362144"><ele>237</ele></trkpt>
   <trkpt lat="48.162259" lon="16.362278"><ele>238</ele></trkpt>
   <trkpt lat="48.162886" lon="16.362714"><ele>241.25</ele></trkpt>
   <trkpt lat="48.163128" lon="16.362853"><ele>242.25</ele></trkpt>
   <trkpt lat="48.163423" lon="16.362983"><ele>243</ele></trkpt>
   <trkpt lat="48.163566" lon="16.363038"><ele>243</ele></trkpt>
   <trkpt lat="48.163716" lon="16.36309"><ele>243</ele></trkpt>
   <trkpt lat="48.165022" lon="16.363551"><ele>244.75</ele></trkpt>
   <trkpt lat="48.165034" lon="16.363555"><ele>244.75</ele></trkpt>
   <trkpt lat="48.165243" lon="16.363629"><ele>244.75</ele></trkpt>
   <trkpt lat="48.165373" lon="16.363663"><ele>244.5</ele></trkpt>
  </trkseg>
 </trk>
</gpx>