<?xml version="1.0" encoding="UTF-8"?>
<!-- track-length = 398 filtered ascend = 20 plain-ascend = 21 cost=796 energy=0.0kwh time=32s -->
<gpx 
 xmlns="http://www.topografix.com/GPX/1/1" 
 xmlns:xsi="http://www.w3.org/2001/XMLSchema-instance" 
 xsi:schemaLocation="http://www.topografix.com/GPX/1/1 http://www.topografix.com/GPX/1/1/gpx.xsd" 
 version="1.1" 
 creator="BRouter-Web 0.18.1">
 <trk>
  <name>Wienerfeldgasse (Steig Südost) - Sahulkastraße (Steig Südost)</name>
  <trkseg>
   <trkpt lat="48.158568" lon="16.360459"><ele>216.25</ele></trkpt>
   <trkpt lat="48.159477" lon="16.360876"><ele>222</ele></trkpt>
   <trkpt lat="48.159611" lon="16.360937"><ele>222.5</ele></trkpt>
   <trkpt lat="48.159718" lon="16.360984"><ele>222.75</ele></trkpt>
   <trkpt lat="48.160216" lon="16.361203"><ele>225.5</ele></trkpt>
   <trkpt lat="48.160852" lon="16.361504"><ele>229.5</ele></trkpt>
   <trkpt lat="48.161917" lon="16.362068"><ele>236.25</ele></trkpt>
   <trkpt lat="48.161967" lon="16.362097"><ele>237</ele></trkpt>
  </trkseg>
 </trk>
</gpx>