<?xml version="1.0" encoding="UTF-8"?>
<!-- track-length = 58 filtered ascend = 1 plain-ascend = 1 cost=116 energy=0.0kwh time=5s -->
<gpx 
 xmlns="http://www.topografix.com/GPX/1/1" 
 xmlns:xsi="http://www.w3.org/2001/XMLSchema-instance" 
 xsi:schemaLocation="http://www.topografix.com/GPX/1/1 http://www.topografix.com/GPX/1/1/gpx.xsd" 
 version="1.1" 
 creator="BRouter-Web 0.18.1">
 <trk>
  <name>Dreieck Liisankatu Weiche Nordost-West - Dreieck Liisankatu Weiche Südwest-West</name>
  <trkseg>
   <trkpt lat="60.174358" lon="24.950267"><ele>5</ele></trkpt>
   <trkpt lat="60.174357" lon="24.950266"><ele>5.25</ele></trkpt>
   <trkpt lat="60.174333" lon="24.95025"><ele>5.25</ele></trkpt>
   <trkpt lat="60.174221" lon="24.950174"><ele>5.25</ele></trkpt>
   <trkpt lat="60.174115" lon="24.950086"><ele>5.25</ele></trkpt>
   <trkpt lat="60.173901" lon="24.949858"><ele>5.75</ele></trkpt>
   <trkpt lat="60.173899" lon="24.949855"><ele>6</ele></trkpt>
  </trkseg>
 </trk>
</gpx>