<?xml version="1.0" encoding="UTF-8"?>
<!-- track-length = 137 filtered ascend = 0 plain-ascend = 1 cost=274 energy=0.0kwh time=11s -->
<gpx 
 xmlns="http://www.topografix.com/GPX/1/1" 
 xmlns:xsi="http://www.w3.org/2001/XMLSchema-instance" 
 xsi:schemaLocation="http://www.topografix.com/GPX/1/1 http://www.topografix.com/GPX/1/1/gpx.xsd" 
 version="1.1" 
 creator="BRouter-Web 0.18.1">
 <trk>
  <name>Kaisaniemenpuisto (Steig Nordwest) - Abzweig Vilhonkatu Weiche West</name>
  <trkseg>
   <trkpt lat="60.173258" lon="24.949133"><ele>5.25</ele></trkpt>
   <trkpt lat="60.173219" lon="24.949088"><ele>5.25</ele></trkpt>
   <trkpt lat="60.173165" lon="24.949027"><ele>5</ele></trkpt>
   <trkpt lat="60.172743" lon="24.948546"><ele>5.25</ele></trkpt>
   <trkpt lat="60.172656" lon="24.948447"><ele>5.5</ele></trkpt>
   <trkpt lat="60.172197" lon="24.947911"><ele>6</ele></trkpt>
   <trkpt lat="60.172193" lon="24.947905"><ele>6</ele></trkpt>
  </trkseg>
 </trk>
</gpx>