<?xml version="1.0" encoding="UTF-8"?>
<!-- track-length = 704 filtered ascend = 0 plain-ascend = 0 cost=704 energy=0.0kwh time=56s -->
<gpx 
 xmlns="http://www.topografix.com/GPX/1/1" 
 xmlns:xsi="http://www.w3.org/2001/XMLSchema-instance" 
 xsi:schemaLocation="http://www.topografix.com/GPX/1/1 http://www.topografix.com/GPX/1/1/gpx.xsd" 
 version="1.1" 
 creator="BRouter-Web 99.71.0">
 <trk>
  <name>Junkersdorf Mohnweg (Steig Nord) - Weiden Bahnstraße (Steig Nord)</name>
  <link href="https://brouter.damsy.net/latest/#map=19/50.93816/6.84540/standard&amp;lonlats=6.85476,50.937999;6.844751,50.938168&amp;nogos=6.781752,51.218852,6&amp;profile=rail">
   <text>BRouter-Web</text>
  </link>
  <trkseg>
   <trkpt lat="50.937994" lon="6.854759"><ele>61</ele></trkpt>
   <trkpt lat="50.937997" lon="6.854632"><ele>61</ele></trkpt>
   <trkpt lat="50.938033" lon="6.852694"><ele>61</ele></trkpt>
   <trkpt lat="50.93804" lon="6.852469"><ele>61</ele></trkpt>
   <trkpt lat="50.938042" lon="6.852268"><ele>61</ele></trkpt>
   <trkpt lat="50.938067" lon="6.851161"><ele>60.75</ele></trkpt>
   <trkpt lat="50.938103" lon="6.849911"><ele>60.5</ele></trkpt>
   <trkpt lat="50.938106" lon="6.849804"><ele>60.5</ele></trkpt>
   <trkpt lat="50.938118" lon="6.849088"><ele>60</ele></trkpt>
   <trkpt lat="50.938126" lon="6.848277"><ele>61</ele></trkpt>
   <trkpt lat="50.938114" lon="6.847792"><ele>61</ele></trkpt>
   <trkpt lat="50.938096" lon="6.846779"><ele>61</ele></trkpt>
   <trkpt lat="50.938097" lon="6.846267"><ele>60.75</ele></trkpt>
   <trkpt lat="50.938106" lon="6.845957"><ele>61</ele></trkpt>
   <trkpt lat="50.93811" lon="6.845904"><ele>61</ele></trkpt>
   <trkpt lat="50.938119" lon="6.845736"><ele>61</ele></trkpt>
   <trkpt lat="50.938158" lon="6.844997"><ele>61</ele></trkpt>
   <trkpt lat="50.938169" lon="6.844751"><ele>61</ele></trkpt>
  </trkseg>
 </trk>
</gpx>