<?xml version="1.0" encoding="UTF-8"?>
<!-- track-length = 698 filtered ascend = 0 plain-ascend = -1 cost=698 energy=0.0kwh time=56s -->
<gpx 
 xmlns="http://www.topografix.com/GPX/1/1" 
 xmlns:xsi="http://www.w3.org/2001/XMLSchema-instance" 
 xsi:schemaLocation="http://www.topografix.com/GPX/1/1 http://www.topografix.com/GPX/1/1/gpx.xsd" 
 version="1.1" 
 creator="BRouter-Web 99.71.0">
 <trk>
  <name>Weiden Bahnstraße (Steig Nord) - Weiden Zentrum (Steig 2)</name>
  <link href="https://brouter.damsy.net/latest/#map=19/50.93828/6.83550/standard&amp;lonlats=6.844751,50.938168;6.834832,50.938336&amp;nogos=6.781752,51.218852,6&amp;profile=rail">
   <text>BRouter-Web</text>
  </link>
  <trkseg>
   <trkpt lat="50.938169" lon="6.844751"><ele>61</ele></trkpt>
   <trkpt lat="50.938178" lon="6.844574"><ele>61</ele></trkpt>
   <trkpt lat="50.938189" lon="6.844369"><ele>61</ele></trkpt>
   <trkpt lat="50.938197" lon="6.844213"><ele>61</ele></trkpt>
   <trkpt lat="50.9382" lon="6.843998"><ele>61</ele></trkpt>
   <trkpt lat="50.938194" lon="6.843175"><ele>61</ele></trkpt>
   <trkpt lat="50.938253" lon="6.840026"><ele>60.25</ele></trkpt>
   <trkpt lat="50.938258" lon="6.839821"><ele>60.25</ele></trkpt>
   <trkpt lat="50.938283" lon="6.83869"><ele>60</ele></trkpt>
   <trkpt lat="50.938284" lon="6.83815"><ele>60</ele></trkpt>
   <trkpt lat="50.938277" lon="6.837629"><ele>60</ele></trkpt>
   <trkpt lat="50.938283" lon="6.837166"><ele>60</ele></trkpt>
   <trkpt lat="50.938293" lon="6.836927"><ele>60</ele></trkpt>
   <trkpt lat="50.938312" lon="6.836449"><ele>59.25</ele></trkpt>
   <trkpt lat="50.938323" lon="6.835864"><ele>59</ele></trkpt>
   <trkpt lat="50.938328" lon="6.835245"><ele>59</ele></trkpt>
   <trkpt lat="50.938331" lon="6.834831"><ele>59</ele></trkpt>
  </trkseg>
 </trk>
</gpx>