<?xml version="1.0" encoding="UTF-8"?>
<!-- track-length = 137 filtered ascend = 0 plain-ascend = 1 cost=276 energy=0.0kwh time=11s -->
<gpx 
 xmlns="http://www.topografix.com/GPX/1/1" 
 xmlns:xsi="http://www.w3.org/2001/XMLSchema-instance" 
 xsi:schemaLocation="http://www.topografix.com/GPX/1/1 http://www.topografix.com/GPX/1/1/gpx.xsd" 
 version="1.1" 
 creator="BRouter-Web 0.18.1">
 <trk>
  <name>Länsilinkki (Steig Nordost) - Abzweig Ruoholahdenkatu Weiche Südost</name>
  <trkseg>
   <trkpt lat="60.16282" lon="24.923056"><ele>3.5</ele></trkpt>
   <trkpt lat="60.162899" lon="24.922947"><ele>3.5</ele></trkpt>
   <trkpt lat="60.162914" lon="24.922925"><ele>3.5</ele></trkpt>
   <trkpt lat="60.162926" lon="24.922908"><ele>3.5</ele></trkpt>
   <trkpt lat="60.163052" lon="24.922733"><ele>2.75</ele></trkpt>
   <trkpt lat="60.163107" lon="24.922683"><ele>3</ele></trkpt>
   <trkpt lat="60.163177" lon="24.922652"><ele>3.25</ele></trkpt>
   <trkpt lat="60.163288" lon="24.922625"><ele>3.75</ele></trkpt>
   <trkpt lat="60.163314" lon="24.922619"><ele>3.75</ele></trkpt>
   <trkpt lat="60.163344" lon="24.922611"><ele>3.75</ele></trkpt>
   <trkpt lat="60.16355" lon="24.922561"><ele>3.25</ele></trkpt>
   <trkpt lat="60.163682" lon="24.922532"><ele>3.25</ele></trkpt>
   <trkpt lat="60.163721" lon="24.922536"><ele>3.25</ele></trkpt>
   <trkpt lat="60.163793" lon="24.922568"><ele>3.5</ele></trkpt>
   <trkpt lat="60.163858" lon="24.922632"><ele>3.75</ele></trkpt>
   <trkpt lat="60.163927" lon="24.922757"><ele>4</ele></trkpt>
   <trkpt lat="60.163954" lon="24.922815"><ele>4</ele></trkpt>
  </trkseg>
 </trk>
</gpx>