<?xml version="1.0" encoding="UTF-8"?>
<!-- track-length = 213 filtered ascend = 0 plain-ascend = -4 cost=426 energy=0.0kwh time=17s -->
<gpx 
 xmlns="http://www.topografix.com/GPX/1/1" 
 xmlns:xsi="http://www.w3.org/2001/XMLSchema-instance" 
 xsi:schemaLocation="http://www.topografix.com/GPX/1/1 http://www.topografix.com/GPX/1/1/gpx.xsd" 
 version="1.1" 
 creator="BRouter-Web 0.18.1">
 <trk>
  <name>Alppila (Steig Südwest) - Abzweig Porvoonkatu Weiche West</name>
  <trkseg>
   <trkpt lat="60.190598" lon="24.945704"><ele>23.75</ele></trkpt>
   <trkpt lat="60.190572" lon="24.945767"><ele>24</ele></trkpt>
   <trkpt lat="60.190557" lon="24.945802"><ele>24</ele></trkpt>
   <trkpt lat="60.190494" lon="24.945929"><ele>24</ele></trkpt>
   <trkpt lat="60.19046" lon="24.945976"><ele>24</ele></trkpt>
   <trkpt lat="60.190367" lon="24.946119"><ele>23.75</ele></trkpt>
   <trkpt lat="60.19029" lon="24.946297"><ele>23.25</ele></trkpt>
   <trkpt lat="60.189814" lon="24.947429"><ele>21.5</ele></trkpt>
   <trkpt lat="60.189802" lon="24.947458"><ele>21.5</ele></trkpt>
   <trkpt lat="60.189734" lon="24.9476"><ele>20.5</ele></trkpt>
   <trkpt lat="60.189647" lon="24.947744"><ele>20</ele></trkpt>
   <trkpt lat="60.189598" lon="24.947816"><ele>20</ele></trkpt>
   <trkpt lat="60.189544" lon="24.947893"><ele>20</ele></trkpt>
   <trkpt lat="60.189338" lon="24.94817"><ele>19.25</ele></trkpt>
   <trkpt lat="60.189301" lon="24.948208"><ele>19</ele></trkpt>
   <trkpt lat="60.18923" lon="24.948236"><ele>19</ele></trkpt>
   <trkpt lat="60.189229" lon="24.948236"><ele>19</ele></trkpt>
  </trkseg>
 </trk>
</gpx>