<?xml version="1.0" encoding="UTF-8"?>
<!-- track-length = 295 filtered ascend = 0 plain-ascend = 0 cost=590 energy=0.0kwh time=24s -->
<gpx 
 xmlns="http://www.topografix.com/GPX/1/1" 
 xmlns:xsi="http://www.w3.org/2001/XMLSchema-instance" 
 xsi:schemaLocation="http://www.topografix.com/GPX/1/1 http://www.topografix.com/GPX/1/1/gpx.xsd" 
 version="1.1" 
 creator="BRouter-Web 0.18.1">
 <trk>
  <name>Laxenburger Straße/Troststraße (Steig Nordost) - Neilreichstraße/Trostgasse (Steig Nordost)</name>
  <trkseg>
   <trkpt lat="48.169406" lon="16.368654"><ele>230</ele></trkpt>
   <trkpt lat="48.169437" lon="16.368436"><ele>230</ele></trkpt>
   <trkpt lat="48.169546" lon="16.367683"><ele>230</ele></trkpt>
   <trkpt lat="48.169685" lon="16.366712"><ele>230</ele></trkpt>
   <trkpt lat="48.169695" lon="16.366643"><ele>230</ele></trkpt>
   <trkpt lat="48.169841" lon="16.36562"><ele>229.75</ele></trkpt>
   <trkpt lat="48.169961" lon="16.364775"><ele>230</ele></trkpt>
  </trkseg>
 </trk>
</gpx>