<?xml version="1.0" encoding="UTF-8"?>
<!-- track-length = 479 filtered ascend = 1 plain-ascend = 0 cost=958 energy=0.0kwh time=38s -->
<gpx 
 xmlns="http://www.topografix.com/GPX/1/1" 
 xmlns:xsi="http://www.w3.org/2001/XMLSchema-instance" 
 xsi:schemaLocation="http://www.topografix.com/GPX/1/1 http://www.topografix.com/GPX/1/1/gpx.xsd" 
 version="1.1" 
 creator="BRouter-Web 0.18.1">
 <trk>
  <name>Agnes-Bernauer-Platz (Steig Nord) - Abzweig Wendeschleife Willibaldplatz Weiche 27</name>
  <trkseg>
   <trkpt lat="48.13994" lon="11.495359"><ele>528</ele></trkpt>
   <trkpt lat="48.140248" lon="11.492698"><ele>529</ele></trkpt>
   <trkpt lat="48.140263" lon="11.492571"><ele>529</ele></trkpt>
   <trkpt lat="48.140354" lon="11.491837"><ele>529</ele></trkpt>
   <trkpt lat="48.140463" lon="11.49117"><ele>528</ele></trkpt>
   <trkpt lat="48.14079" lon="11.489399"><ele>528</ele></trkpt>
   <trkpt lat="48.140831" lon="11.48918"><ele>528</ele></trkpt>
   <trkpt lat="48.140846" lon="11.489097"><ele>527.75</ele></trkpt>
   <trkpt lat="48.140846" lon="11.489094"><ele>527.5</ele></trkpt>
  </trkseg>
 </trk>
</gpx>