<?xml version="1.0" encoding="UTF-8"?>
<!-- track-length = 59 filtered ascend = 0 plain-ascend = 0 cost=118 energy=0.0kwh time=5s -->
<gpx 
 xmlns="http://www.topografix.com/GPX/1/1" 
 xmlns:xsi="http://www.w3.org/2001/XMLSchema-instance" 
 xsi:schemaLocation="http://www.topografix.com/GPX/1/1 http://www.topografix.com/GPX/1/1/gpx.xsd" 
 version="1.1" 
 creator="BRouter-Web 0.18.1">
 <trk>
  <name>Kreuz Fürstenrieder Straße Weiche 186 - Kreuz Fürstenrieder Straße Weiche Süd-nach-West-West</name>
  <trkseg>
   <trkpt lat="48.13971" lon="11.503543"><ele>528</ele></trkpt>
   <trkpt lat="48.13971" lon="11.50351"><ele>528</ele></trkpt>
   <trkpt lat="48.139709" lon="11.503293"><ele>528</ele></trkpt>
   <trkpt lat="48.139708" lon="11.503186"><ele>528</ele></trkpt>
   <trkpt lat="48.139708" lon="11.503129"><ele>528</ele></trkpt>
   <trkpt lat="48.139708" lon="11.503091"><ele>528</ele></trkpt>
   <trkpt lat="48.139708" lon="11.503025"><ele>528</ele></trkpt>
   <trkpt lat="48.139708" lon="11.502928"><ele>528</ele></trkpt>
   <trkpt lat="48.139709" lon="11.502737"><ele>528</ele></trkpt>
  </trkseg>
 </trk>
</gpx>