<?xml version="1.0" encoding="UTF-8"?>
<!-- track-length = 551 filtered ascend = 1 plain-ascend = 1 cost=1102 energy=0.0kwh time=44s -->
<gpx 
 xmlns="http://www.topografix.com/GPX/1/1" 
 xmlns:xsi="http://www.w3.org/2001/XMLSchema-instance" 
 xsi:schemaLocation="http://www.topografix.com/GPX/1/1 http://www.topografix.com/GPX/1/1/gpx.xsd" 
 version="1.1" 
 creator="BRouter-Web 0.18.1">
 <trk>
  <name>Kreuz Fürstenrieder Straße Weiche Süd-nach-West-West - Agnes-Bernauer-Platz (Steig Nord)</name>
  <trkseg>
   <trkpt lat="48.139709" lon="11.502737"><ele>528</ele></trkpt>
   <trkpt lat="48.13971" lon="11.502736"><ele>528</ele></trkpt>
   <trkpt lat="48.139717" lon="11.502254"><ele>528</ele></trkpt>
   <trkpt lat="48.139726" lon="11.501684"><ele>528</ele></trkpt>
   <trkpt lat="48.139719" lon="11.50134"><ele>527</ele></trkpt>
   <trkpt lat="48.139717" lon="11.501249"><ele>527</ele></trkpt>
   <trkpt lat="48.139699" lon="11.500613"><ele>527</ele></trkpt>
   <trkpt lat="48.139692" lon="11.500378"><ele>527</ele></trkpt>
   <trkpt lat="48.139686" lon="11.500225"><ele>527</ele></trkpt>
   <trkpt lat="48.139668" lon="11.499637"><ele>527.25</ele></trkpt>
   <trkpt lat="48.139656" lon="11.499256"><ele>528</ele></trkpt>
   <trkpt lat="48.13965" lon="11.498969"><ele>528</ele></trkpt>
   <trkpt lat="48.139657" lon="11.498386"><ele>528</ele></trkpt>
   <trkpt lat="48.13968" lon="11.497924"><ele>528</ele></trkpt>
   <trkpt lat="48.139693" lon="11.497766"><ele>528</ele></trkpt>
   <trkpt lat="48.139727" lon="11.497384"><ele>528</ele></trkpt>
   <trkpt lat="48.139849" lon="11.496191"><ele>528</ele></trkpt>
   <trkpt lat="48.139864" lon="11.49604"><ele>528</ele></trkpt>
   <trkpt lat="48.13988" lon="11.495893"><ele>528.25</ele></trkpt>
   <trkpt lat="48.139933" lon="11.495425"><ele>528</ele></trkpt>
   <trkpt lat="48.13994" lon="11.495359"><ele>529</ele></trkpt>
  </trkseg>
 </trk>
</gpx>