<?xml version="1.0" encoding="UTF-8"?>
<!-- track-length = 10 filtered ascend = 0 plain-ascend = 0 cost=10 energy=0.0kwh time=1s -->
<gpx 
 xmlns="http://www.topografix.com/GPX/1/1" 
 xmlns:xsi="http://www.w3.org/2001/XMLSchema-instance" 
 xsi:schemaLocation="http://www.topografix.com/GPX/1/1 http://www.topografix.com/GPX/1/1/gpx.xsd" 
 version="1.1" 
 creator="BRouter-Web 99.71.0">
 <trk>
  <name>Sülz Üst Hermeskeiler Platz Nordost Weiche Südwest - Sülz Üst Hermeskeiler Platz Südwest Weiche Nordost</name>
  <link href="https://brouter.damsy.net/latest/#map=20/50.91763/6.90800/standard&amp;lonlats=6.908209,50.917783;6.908108,50.917719&amp;nogos=6.781752,51.218852,6&amp;profile=rail">
   <text>BRouter-Web</text>
  </link>
  <trkseg>
   <trkpt lat="50.917782" lon="6.908208"><ele>49.75</ele></trkpt>
   <trkpt lat="50.917717" lon="6.90811"><ele>50</ele></trkpt>
  </trkseg>
 </trk>
</gpx>