<?xml version="1.0" encoding="UTF-8"?>
<!-- track-length = 368 filtered ascend = 1 plain-ascend = 1 cost=611 energy=0.0kwh time=29s -->
<gpx 
 xmlns="http://www.topografix.com/GPX/1/1" 
 xmlns:xsi="http://www.w3.org/2001/XMLSchema-instance" 
 xsi:schemaLocation="http://www.topografix.com/GPX/1/1 http://www.topografix.com/GPX/1/1/gpx.xsd" 
 version="1.1" 
 creator="BRouter-Web 99.71.0">
 <trk>
  <name>Sülz Abzweig Zülpicher Straße/Gürtel Weiche Südwest-Nord - Sülz Mommsenstraße (Steig Nordwest)</name>
  <link href="https://brouter.damsy.net/latest/#map=18/50.91902/6.91190/standard&amp;lonlats=6.914735,50.92029;6.910079,50.919006&amp;nogos=6.781752,51.218852,6&amp;profile=rail">
   <text>BRouter-Web</text>
  </link>
  <trkseg>
   <trkpt lat="50.920286" lon="6.914735"><ele>49.75</ele></trkpt>
   <trkpt lat="50.920195" lon="6.914171"><ele>49.5</ele></trkpt>
   <trkpt lat="50.919887" lon="6.91209"><ele>50.5</ele></trkpt>
   <trkpt lat="50.919814" lon="6.911647"><ele>51</ele></trkpt>
   <trkpt lat="50.919777" lon="6.911448"><ele>51</ele></trkpt>
   <trkpt lat="50.919759" lon="6.911376"><ele>51</ele></trkpt>
   <trkpt lat="50.919691" lon="6.911166"><ele>51</ele></trkpt>
   <trkpt lat="50.919616" lon="6.910996"><ele>51</ele></trkpt>
   <trkpt lat="50.919517" lon="6.910831"><ele>51</ele></trkpt>
   <trkpt lat="50.919406" lon="6.910665"><ele>51</ele></trkpt>
   <trkpt lat="50.919348" lon="6.910576"><ele>51</ele></trkpt>
   <trkpt lat="50.919112" lon="6.910216"><ele>51</ele></trkpt>
   <trkpt lat="50.919013" lon="6.910065"><ele>50.75</ele></trkpt>
  </trkseg>
 </trk>
</gpx>
