<?xml version="1.0" encoding="UTF-8"?>
<!-- track-length = 396 filtered ascend = 1 plain-ascend = 1 cost=792 energy=0.0kwh time=32s -->
<gpx 
 xmlns="http://www.topografix.com/GPX/1/1" 
 xmlns:xsi="http://www.w3.org/2001/XMLSchema-instance" 
 xsi:schemaLocation="http://www.topografix.com/GPX/1/1 http://www.topografix.com/GPX/1/1/gpx.xsd" 
 version="1.1" 
 creator="BRouter-Web 0.18.1">
 <trk>
  <name>Duisburg Mannesmann Tor 1 (Steig 1) - Duisburg Üst Medefurthstraße Weiche 416</name>
  <trkseg>
   <trkpt lat="51.372886" lon="6.732855"><ele>33</ele></trkpt>
   <trkpt lat="51.372131" lon="6.73271"><ele>33</ele></trkpt>
   <trkpt lat="51.371755" lon="6.732605"><ele>33.25</ele></trkpt>
   <trkpt lat="51.371453" lon="6.732446"><ele>33.5</ele></trkpt>
   <trkpt lat="51.371162" lon="6.732213"><ele>33.75</ele></trkpt>
   <trkpt lat="51.370875" lon="6.731878"><ele>33.75</ele></trkpt>
   <trkpt lat="51.37025" lon="6.731026"><ele>34</ele></trkpt>
   <trkpt lat="51.369798" lon="6.730385"><ele>34</ele></trkpt>
  </trkseg>
 </trk>
</gpx>