<?xml version="1.0" encoding="UTF-8"?>
<!-- track-length = 64 filtered ascend = 0 plain-ascend = -2 cost=128 energy=0.0kwh time=5s -->
<gpx 
 xmlns="http://www.topografix.com/GPX/1/1" 
 xmlns:xsi="http://www.w3.org/2001/XMLSchema-instance" 
 xsi:schemaLocation="http://www.topografix.com/GPX/1/1 http://www.topografix.com/GPX/1/1/gpx.xsd" 
 version="1.1" 
 creator="BRouter-Web 0.18.1">
 <trk>
  <name>Kalevankatu - Abzweig Kalevankatu Weiche Nordost</name>
  <trkseg>
   <trkpt lat="60.162788" lon="24.924889"><ele>5.75</ele></trkpt>
   <trkpt lat="60.16246" lon="24.923956"><ele>4.5</ele></trkpt>
   <trkpt lat="60.162459" lon="24.923954"><ele>3.25</ele></trkpt>
  </trkseg>
 </trk>
</gpx>