<?xml version="1.0" encoding="UTF-8"?>
<!-- track-length = 12 filtered ascend = 0 plain-ascend = 0 cost=24 energy=0.0kwh time=1s -->
<gpx 
 xmlns="http://www.topografix.com/GPX/1/1" 
 xmlns:xsi="http://www.w3.org/2001/XMLSchema-instance" 
 xsi:schemaLocation="http://www.topografix.com/GPX/1/1 http://www.topografix.com/GPX/1/1/gpx.xsd" 
 version="1.1" 
 creator="BRouter-Web 99.71.0">
 <trk>
  <name>Sülz Zülpicher Straße/Gürtel (Steig 1) - Sülz Abzweig Zülpicher Straße/Gürtel Weiche Südwest-Süd</name>
  <link href="https://brouter.damsy.net/latest/#map=19/50.92030/6.91538/standard&amp;lonlats=6.914686,50.920244;6.914849,50.920272&amp;nogos=6.781752,51.218852,6&amp;profile=rail">
   <text>BRouter-Web</text>
  </link>
  <trkseg>
   <trkpt lat="50.920243" lon="6.914685"><ele>49.5</ele></trkpt>
   <trkpt lat="50.920268" lon="6.914849"><ele>49.75</ele></trkpt>
  </trkseg>
 </trk>
</gpx>