<?xml version="1.0" encoding="UTF-8"?>
<!-- track-length = 178 filtered ascend = 1 plain-ascend = 1 cost=178 energy=0.0kwh time=14s -->
<gpx 
 xmlns="http://www.topografix.com/GPX/1/1" 
 xmlns:xsi="http://www.w3.org/2001/XMLSchema-instance" 
 xsi:schemaLocation="http://www.topografix.com/GPX/1/1 http://www.topografix.com/GPX/1/1/gpx.xsd" 
 version="1.1" 
 creator="BRouter-Web 99.71.0">
 <trk>
  <name>Sülz Üst Hermeskeiler Platz Nordost Weiche Nordost - Sülz Mommsenstraße (Steig Südost)</name>
  <link href="https://brouter.damsy.net/latest/#map=19/50.91913/6.91084/standard&amp;lonlats=6.908623,50.918022;6.910379,50.919177&amp;nogos=6.781752,51.218852,6&amp;profile=rail">
   <text>BRouter-Web</text>
  </link>
  <trkseg>
   <trkpt lat="50.918021" lon="6.908622"><ele>49.75</ele></trkpt>
   <trkpt lat="50.918244" lon="6.90895"><ele>50.5</ele></trkpt>
   <trkpt lat="50.918836" lon="6.909851"><ele>50.75</ele></trkpt>
   <trkpt lat="50.919063" lon="6.910197"><ele>51</ele></trkpt>
   <trkpt lat="50.919177" lon="6.910376"><ele>51</ele></trkpt>
  </trkseg>
 </trk>
</gpx>