<?xml version="1.0" encoding="UTF-8"?>
<!-- track-length = 207 filtered ascend = 0 plain-ascend = 0 cost=414 energy=0.0kwh time=17s -->
<gpx 
 xmlns="http://www.topografix.com/GPX/1/1" 
 xmlns:xsi="http://www.w3.org/2001/XMLSchema-instance" 
 xsi:schemaLocation="http://www.topografix.com/GPX/1/1 http://www.topografix.com/GPX/1/1/gpx.xsd" 
 version="1.1" 
 creator="BRouter-Web 0.18.1">
 <trk>
  <name>Abzweig Via Mario Pagano Weiche Nordwest - Via Ariosta (Steig Nordwest)</name>
  <trkseg>
   <trkpt lat="45.471949" lon="9.166667"><ele>122</ele></trkpt>
   <trkpt lat="45.471949" lon="9.166666"><ele>122</ele></trkpt>
   <trkpt lat="45.471879" lon="9.166599"><ele>122</ele></trkpt>
   <trkpt lat="45.47183" lon="9.166566"><ele>122</ele></trkpt>
   <trkpt lat="45.471691" lon="9.166512"><ele>122</ele></trkpt>
   <trkpt lat="45.470193" lon="9.166059"><ele>121</ele></trkpt>
   <trkpt lat="45.470152" lon="9.166046"><ele>121</ele></trkpt>
  </trkseg>
 </trk>
</gpx>