<?xml version="1.0" encoding="UTF-8"?>
<!-- track-length = 39 filtered ascend = 0 plain-ascend = 1 cost=78 energy=0.0kwh time=3s -->
<gpx 
 xmlns="http://www.topografix.com/GPX/1/1" 
 xmlns:xsi="http://www.w3.org/2001/XMLSchema-instance" 
 xsi:schemaLocation="http://www.topografix.com/GPX/1/1 http://www.topografix.com/GPX/1/1/gpx.xsd" 
 version="1.1" 
 creator="BRouter-Web 0.18.1">
 <trk>
  <name>Kreuz Largo Quinto Alpini Weiche Südost-nach-Südwest-Südost - Kreuz Largo Quinto Alpini Weiche Südost-nach-Südwest-Südwest</name>
  <trkseg>
   <trkpt lat="45.472209" lon="9.167509"><ele>121.5</ele></trkpt>
   <trkpt lat="45.472211" lon="9.167507"><ele>121.75</ele></trkpt>
   <trkpt lat="45.472247" lon="9.167441"><ele>122</ele></trkpt>
   <trkpt lat="45.472271" lon="9.16738"><ele>121.75</ele></trkpt>
   <trkpt lat="45.472279" lon="9.167327"><ele>121.75</ele></trkpt>
   <trkpt lat="45.472276" lon="9.167213"><ele>122</ele></trkpt>
   <trkpt lat="45.472262" lon="9.167167"><ele>122</ele></trkpt>
   <trkpt lat="45.472249" lon="9.167132"><ele>122</ele></trkpt>
   <trkpt lat="45.472228" lon="9.167075"><ele>122</ele></trkpt>
   <trkpt lat="45.472228" lon="9.167076"><ele>122</ele></trkpt>
  </trkseg>
 </trk>
</gpx>