<?xml version="1.0" encoding="UTF-8"?>
<!-- track-length = 283 filtered ascend = 0 plain-ascend = 0 cost=568 energy=0.0kwh time=23s -->
<gpx 
 xmlns="http://www.topografix.com/GPX/1/1" 
 xmlns:xsi="http://www.w3.org/2001/XMLSchema-instance" 
 xsi:schemaLocation="http://www.topografix.com/GPX/1/1 http://www.topografix.com/GPX/1/1/gpx.xsd" 
 version="1.1" 
 creator="BRouter-Web 99.71.0">
 <trk>
  <name>Düsseldorf Kreuz Berliner Allee Weiche 409 - Düsseldorf Graf-Adolf-Platz U (Steig 5)</name>
  <link href="https://brouter.damsy.net/latest/#map=20/51.21913/6.77741/standard&amp;lonlats=6.781382,51.218927;6.77734,51.21901&amp;nogos=6.781752,51.218852,6&amp;profile=rail">
   <text>BRouter-Web</text>
  </link>
  <trkseg>
   <trkpt lat="51.218926" lon="6.781382"><ele>38</ele></trkpt>
   <trkpt lat="51.218958" lon="6.780503"><ele>38</ele></trkpt>
   <trkpt lat="51.218969" lon="6.780148"><ele>38</ele></trkpt>
   <trkpt lat="51.218993" lon="6.779321"><ele>37.75</ele></trkpt>
   <trkpt lat="51.218996" lon="6.779256"><ele>37.5</ele></trkpt>
   <trkpt lat="51.219001" lon="6.779122"><ele>37.5</ele></trkpt>
   <trkpt lat="51.219005" lon="6.778975"><ele>37.75</ele></trkpt>
   <trkpt lat="51.21902" lon="6.778464"><ele>37.25</ele></trkpt>
   <trkpt lat="51.21902" lon="6.777802"><ele>37</ele></trkpt>
   <trkpt lat="51.219014" lon="6.777348"><ele>37</ele></trkpt>
   <trkpt lat="51.219014" lon="6.77734"><ele>37</ele></trkpt>
  </trkseg>
 </trk>
</gpx>
