<?xml version="1.0" encoding="UTF-8"?>
<!-- track-length = 2 filtered ascend = 0 plain-ascend = 0 cost=4 energy=0.0kwh time= -->
<gpx 
 xmlns="http://www.topografix.com/GPX/1/1" 
 xmlns:xsi="http://www.w3.org/2001/XMLSchema-instance" 
 xsi:schemaLocation="http://www.topografix.com/GPX/1/1 http://www.topografix.com/GPX/1/1/gpx.xsd" 
 version="1.1" 
 creator="BRouter-Web 99.71.0">
 <trk>
  <name>Düsseldorf Graf-Adolf-Platz U (Steig 4) - Düsseldorf Abzweig Schleife Graf-Adolf-Platz Ost Weiche OOO1</name>
  <link href="https://brouter.damsy.net/latest/#map=21/51.21904/6.77736/standard&amp;lonlats=6.77734,51.21901;6.777306,51.219018&amp;nogos=6.781752,51.218852,6&amp;profile=rail">
   <text>BRouter-Web</text>
  </link>
  <trkseg>
   <trkpt lat="51.219014" lon="6.77734"><ele>37</ele></trkpt>
   <trkpt lat="51.219014" lon="6.777306"><ele>37</ele></trkpt>
  </trkseg>
 </trk>
</gpx>
