<?xml version="1.0" encoding="UTF-8"?>
<!-- track-length = 175 filtered ascend = 0 plain-ascend = -1 cost=350 energy=0.0kwh time=14s -->
<gpx 
 xmlns="http://www.topografix.com/GPX/1/1" 
 xmlns:xsi="http://www.w3.org/2001/XMLSchema-instance" 
 xsi:schemaLocation="http://www.topografix.com/GPX/1/1 http://www.topografix.com/GPX/1/1/gpx.xsd" 
 version="1.1" 
 creator="BRouter-Web 0.18.1">
 <trk>
  <name>Päärautatieasema (Steig Süd) - Abzweig Kaivokatu/Mikonkatu Weiche Süd</name>
  <trkseg>
   <trkpt lat="60.170388" lon="24.941315"><ele>4</ele></trkpt>
   <trkpt lat="60.170393" lon="24.941531"><ele>4</ele></trkpt>
   <trkpt lat="60.170418" lon="24.942535"><ele>3</ele></trkpt>
   <trkpt lat="60.170423" lon="24.94277"><ele>3</ele></trkpt>
   <trkpt lat="60.170429" lon="24.943012"><ele>3</ele></trkpt>
   <trkpt lat="60.170451" lon="24.943918"><ele>2</ele></trkpt>
   <trkpt lat="60.170466" lon="24.944188"><ele>2</ele></trkpt>
   <trkpt lat="60.170507" lon="24.944465"><ele>2</ele></trkpt>
  </trkseg>
 </trk>
</gpx>