<?xml version="1.0" encoding="UTF-8"?>
<!-- track-length = 1347 filtered ascend = 0 plain-ascend = -3 cost=1348 energy=0.0kwh time=1m 48s -->
<gpx 
 xmlns="http://www.topografix.com/GPX/1/1" 
 xmlns:xsi="http://www.w3.org/2001/XMLSchema-instance" 
 xsi:schemaLocation="http://www.topografix.com/GPX/1/1 http://www.topografix.com/GPX/1/1/gpx.xsd" 
 version="1.1" 
 creator="BRouter-Web 0.18.1">
 <trk>
  <name>76400 Blatec Weiche 1 - Kožušany</name>
  <trkseg>
   <trkpt lat="49.528346" lon="17.249429"><ele>226.75</ele></trkpt>
   <trkpt lat="49.528392" lon="17.249464"><ele>226.5</ele></trkpt>
   <trkpt lat="49.528704" lon="17.249691"><ele>226</ele></trkpt>
   <trkpt lat="49.5289" lon="17.249814"><ele>224.25</ele></trkpt>
   <trkpt lat="49.529032" lon="17.249882"><ele>222</ele></trkpt>
   <trkpt lat="49.529232" lon="17.249968"><ele>221.25</ele></trkpt>
   <trkpt lat="49.529395" lon="17.250019"><ele>224.75</ele></trkpt>
   <trkpt lat="49.529549" lon="17.25006"><ele>225.25</ele></trkpt>
   <trkpt lat="49.529823" lon="17.250108"><ele>225</ele></trkpt>
   <trkpt lat="49.529965" lon="17.250119"><ele>225.25</ele></trkpt>
   <trkpt lat="49.530349" lon="17.250148"><ele>226</ele></trkpt>
   <trkpt lat="49.531522" lon="17.250236"><ele>226</ele></trkpt>
   <trkpt lat="49.533497" lon="17.250378"><ele>222</ele></trkpt>
   <trkpt lat="49.533697" lon="17.250393"><ele>221.5</ele></trkpt>
   <trkpt lat="49.536281" lon="17.250578"><ele>224.75</ele></trkpt>
   <trkpt lat="49.537488" lon="17.250657"><ele>221.5</ele></trkpt>
   <trkpt lat="49.537869" lon="17.250655"><ele>221</ele></trkpt>
   <trkpt lat="49.538076" lon="17.250642"><ele>220.5</ele></trkpt>
   <trkpt lat="49.538283" lon="17.250621"><ele>220.5</ele></trkpt>
   <trkpt lat="49.538754" lon="17.250547"><ele>222.75</ele></trkpt>
   <trkpt lat="49.539199" lon="17.250436"><ele>219.5</ele></trkpt>
   <trkpt lat="49.539412" lon="17.250365"><ele>218.5</ele></trkpt>
   <trkpt lat="49.539585" lon="17.250306"><ele>220.75</ele></trkpt>
   <trkpt lat="49.539903" lon="17.25018"><ele>221.75</ele></trkpt>
   <trkpt lat="49.540318" lon="17.249994"><ele>222.75</ele></trkpt>
  </trkseg>
 </trk>
</gpx>