<?xml version="1.0" encoding="UTF-8"?>
<!-- track-length = 2125 filtered ascend = 0 plain-ascend = -5 cost=2125 energy=0.0kwh time=2m 50s -->
<gpx 
 xmlns="http://www.topografix.com/GPX/1/1" 
 xmlns:xsi="http://www.w3.org/2001/XMLSchema-instance" 
 xsi:schemaLocation="http://www.topografix.com/GPX/1/1 http://www.topografix.com/GPX/1/1/gpx.xsd" 
 version="1.1" 
 creator="BRouter-Web 0.18.1">
 <trk>
  <name>76400 Kožušany - Nemilany</name>
  <trkseg>
   <trkpt lat="49.540318" lon="17.249994"><ele>222.75</ele></trkpt>
   <trkpt lat="49.5439" lon="17.248404"><ele>223</ele></trkpt>
   <trkpt lat="49.54856" lon="17.246322"><ele>222</ele></trkpt>
   <trkpt lat="49.549143" lon="17.246081"><ele>219.5</ele></trkpt>
   <trkpt lat="49.54946" lon="17.245961"><ele>216.75</ele></trkpt>
   <trkpt lat="49.549711" lon="17.245878"><ele>215.25</ele></trkpt>
   <trkpt lat="49.549874" lon="17.245824"><ele>217.5</ele></trkpt>
   <trkpt lat="49.550258" lon="17.245713"><ele>215.75</ele></trkpt>
   <trkpt lat="49.550592" lon="17.245627"><ele>215.5</ele></trkpt>
   <trkpt lat="49.551147" lon="17.245501"><ele>219.75</ele></trkpt>
   <trkpt lat="49.55431" lon="17.24498"><ele>218</ele></trkpt>
   <trkpt lat="49.55636" lon="17.244642"><ele>218</ele></trkpt>
   <trkpt lat="49.55819" lon="17.244348"><ele>218</ele></trkpt>
   <trkpt lat="49.558769" lon="17.244283"><ele>217.75</ele></trkpt>
   <trkpt lat="49.558978" lon="17.244263"><ele>216.5</ele></trkpt>
  </trkseg>
 </trk>
</gpx>