<?xml version="1.0" encoding="UTF-8"?>
<!-- track-length = 448 filtered ascend = 0 plain-ascend = -2 cost=448 energy=0.0kwh time=36s -->
<gpx 
 xmlns="http://www.topografix.com/GPX/1/1" 
 xmlns:xsi="http://www.w3.org/2001/XMLSchema-instance" 
 xsi:schemaLocation="http://www.topografix.com/GPX/1/1 http://www.topografix.com/GPX/1/1/gpx.xsd" 
 version="1.1" 
 creator="BRouter-Web 0.18.1">
 <trk>
  <name>76400 Blatec (Gleis 2) - Blatec Weiche 4</name>
  <trkseg>
   <trkpt lat="49.525873" lon="17.246931"><ele>228</ele></trkpt>
   <trkpt lat="49.525863" lon="17.246915"><ele>228</ele></trkpt>
   <trkpt lat="49.525686" lon="17.246594"><ele>228.5</ele></trkpt>
   <trkpt lat="49.525543" lon="17.246305"><ele>228</ele></trkpt>
   <trkpt lat="49.525362" lon="17.24591"><ele>228</ele></trkpt>
   <trkpt lat="49.525258" lon="17.245659"><ele>228</ele></trkpt>
   <trkpt lat="49.525135" lon="17.245333"><ele>228</ele></trkpt>
   <trkpt lat="49.525027" lon="17.245003"><ele>228</ele></trkpt>
   <trkpt lat="49.524927" lon="17.244672"><ele>227.75</ele></trkpt>
   <trkpt lat="49.524767" lon="17.24403"><ele>227</ele></trkpt>
   <trkpt lat="49.5247" lon="17.243708"><ele>227</ele></trkpt>
   <trkpt lat="49.524615" lon="17.24322"><ele>227</ele></trkpt>
   <trkpt lat="49.524592" lon="17.243087"><ele>227</ele></trkpt>
   <trkpt lat="49.524438" lon="17.241844"><ele>226</ele></trkpt>
   <trkpt lat="49.524372" lon="17.241314"><ele>225.5</ele></trkpt>
   <trkpt lat="49.524371" lon="17.241312"><ele>225.25</ele></trkpt>
  </trkseg>
 </trk>
</gpx>