<?xml version="1.0" encoding="UTF-8"?>
<!-- track-length = 36 filtered ascend = 0 plain-ascend = 0 cost=36 energy=0.0kwh time=3s -->
<gpx 
 xmlns="http://www.topografix.com/GPX/1/1" 
 xmlns:xsi="http://www.w3.org/2001/XMLSchema-instance" 
 xsi:schemaLocation="http://www.topografix.com/GPX/1/1 http://www.topografix.com/GPX/1/1/gpx.xsd" 
 version="1.1" 
 creator="BRouter-Web 0.18.1">
 <trk>
  <name>76400 Vrbátky Weiche 10 - Vrbátky Weiche 11</name>
  <trkseg>
   <trkpt lat="49.49832" lon="17.194253"><ele>216.75</ele></trkpt>
   <trkpt lat="49.49832" lon="17.194252"><ele>216.75</ele></trkpt>
   <trkpt lat="49.498074" lon="17.193971"><ele>216.5</ele></trkpt>
   <trkpt lat="49.498071" lon="17.193967"><ele>216.75</ele></trkpt>
  </trkseg>
 </trk>
</gpx>