<?xml version="1.0" encoding="UTF-8"?>
<!-- track-length = 185 filtered ascend = 0 plain-ascend = 0 cost=185 energy=0.0kwh time=15s -->
<gpx 
 xmlns="http://www.topografix.com/GPX/1/1" 
 xmlns:xsi="http://www.w3.org/2001/XMLSchema-instance" 
 xsi:schemaLocation="http://www.topografix.com/GPX/1/1 http://www.topografix.com/GPX/1/1/gpx.xsd" 
 version="1.1" 
 creator="BRouter-Web 0.18.1">
 <trk>
  <name>76400 Olomouc hl.n. (Gleis 1) - Olomouc hl.n. Weiche 42</name>
  <trkseg>
   <trkpt lat="49.592621" lon="17.278206"><ele>214</ele></trkpt>
   <trkpt lat="49.59106" lon="17.278927"><ele>214</ele></trkpt>
   <trkpt lat="49.591025" lon="17.278942"><ele>213.75</ele></trkpt>
  </trkseg>
 </trk>
</gpx>