<?xml version="1.0" encoding="UTF-8"?>
<!-- track-length = 41 filtered ascend = 1 plain-ascend = 2 cost=41 energy=0.0kwh time=3s -->
<gpx 
 xmlns="http://www.topografix.com/GPX/1/1" 
 xmlns:xsi="http://www.w3.org/2001/XMLSchema-instance" 
 xsi:schemaLocation="http://www.topografix.com/GPX/1/1 http://www.topografix.com/GPX/1/1/gpx.xsd" 
 version="1.1" 
 creator="BRouter-Web 0.18.1">
 <trk>
  <name>76400 Blatec Weiche 1 - Blatec Weiche 2</name>
  <trkseg>
   <trkpt lat="49.528346" lon="17.249429"><ele>226.75</ele></trkpt>
   <trkpt lat="49.528024" lon="17.249196"><ele>228</ele></trkpt>
   <trkpt lat="49.528022" lon="17.249195"><ele>228.25</ele></trkpt>
  </trkseg>
 </trk>
</gpx>