<?xml version="1.0" encoding="UTF-8"?>
<!-- track-length = 12 filtered ascend = 0 plain-ascend = 0 cost=12 energy=0.0kwh time=1s -->
<gpx 
 xmlns="http://www.topografix.com/GPX/1/1" 
 xmlns:xsi="http://www.w3.org/2001/XMLSchema-instance" 
 xsi:schemaLocation="http://www.topografix.com/GPX/1/1 http://www.topografix.com/GPX/1/1/gpx.xsd" 
 version="1.1" 
 creator="BRouter-Web 0.18.1">
 <trk>
  <name>76400 Prostějov hl.n. Weiche 4 - Prostějov hl.n. Weiche 6</name>
  <trkseg>
   <trkpt lat="49.474597" lon="17.129752"><ele>217</ele></trkpt>
   <trkpt lat="49.474487" lon="17.129744"><ele>217</ele></trkpt>
  </trkseg>
 </trk>
</gpx>