<?xml version="1.0" encoding="UTF-8"?>
<!-- track-length = 173 filtered ascend = 0 plain-ascend = 1 cost=174 energy=0.0kwh time=14s -->
<gpx 
 xmlns="http://www.topografix.com/GPX/1/1" 
 xmlns:xsi="http://www.w3.org/2001/XMLSchema-instance" 
 xsi:schemaLocation="http://www.topografix.com/GPX/1/1 http://www.topografix.com/GPX/1/1/gpx.xsd" 
 version="1.1" 
 creator="BRouter-Web 0.18.1">
 <trk>
  <name>76400 Olomouc hl.n. Weiche 6a/b - Olomouc hl.n. Weiche 16</name>
  <trkseg>
   <trkpt lat="49.586587" lon="17.280431"><ele>213.75</ele></trkpt>
   <trkpt lat="49.58659" lon="17.280432"><ele>214</ele></trkpt>
   <trkpt lat="49.587021" lon="17.280385"><ele>214</ele></trkpt>
   <trkpt lat="49.587563" lon="17.280318"><ele>214</ele></trkpt>
   <trkpt lat="49.587813" lon="17.28027"><ele>214</ele></trkpt>
   <trkpt lat="49.588066" lon="17.280203"><ele>214.5</ele></trkpt>
   <trkpt lat="49.588126" lon="17.280185"><ele>214.25</ele></trkpt>
  </trkseg>
 </trk>
</gpx>