<?xml version="1.0" encoding="UTF-8"?>
<!-- track-length = 41 filtered ascend = 0 plain-ascend = 0 cost=41 energy=0.0kwh time=3s -->
<gpx 
 xmlns="http://www.topografix.com/GPX/1/1" 
 xmlns:xsi="http://www.w3.org/2001/XMLSchema-instance" 
 xsi:schemaLocation="http://www.topografix.com/GPX/1/1 http://www.topografix.com/GPX/1/1/gpx.xsd" 
 version="1.1" 
 creator="BRouter-Web 0.18.1">
 <trk>
  <name>76400 Olomouc hl.n. Weiche 16 - Olomouc hl.n. Weiche 19</name>
  <trkseg>
   <trkpt lat="49.588126" lon="17.280185"><ele>214.25</ele></trkpt>
   <trkpt lat="49.588491" lon="17.280077"><ele>214</ele></trkpt>
  </trkseg>
 </trk>
</gpx>