<?xml version="1.0" encoding="UTF-8"?>
<!-- track-length = 2919 filtered ascend = 5 plain-ascend = 2 cost=2919 energy=0.0kwh time=3m 54s -->
<gpx 
 xmlns="http://www.topografix.com/GPX/1/1" 
 xmlns:xsi="http://www.w3.org/2001/XMLSchema-instance" 
 xsi:schemaLocation="http://www.topografix.com/GPX/1/1 http://www.topografix.com/GPX/1/1/gpx.xsd" 
 version="1.1" 
 creator="BRouter-Web 0.18.1">
 <trk>
  <name>76400 Kraličky - Vrahovice</name>
  <trkseg>
   <trkpt lat="49.486399" lon="17.18095"><ele>222</ele></trkpt>
   <trkpt lat="49.48562" lon="17.180084"><ele>222</ele></trkpt>
   <trkpt lat="49.484485" lon="17.178811"><ele>222</ele></trkpt>
   <trkpt lat="49.481802" lon="17.175832"><ele>224</ele></trkpt>
   <trkpt lat="49.47997" lon="17.173785"><ele>226.25</ele></trkpt>
   <trkpt lat="49.479781" lon="17.173561"><ele>226.25</ele></trkpt>
   <trkpt lat="49.479399" lon="17.173069"><ele>226</ele></trkpt>
   <trkpt lat="49.478998" lon="17.172481"><ele>227.25</ele></trkpt>
   <trkpt lat="49.478805" lon="17.172166"><ele>226.5</ele></trkpt>
   <trkpt lat="49.478646" lon="17.171896"><ele>227</ele></trkpt>
   <trkpt lat="49.478444" lon="17.171525"><ele>227</ele></trkpt>
   <trkpt lat="49.478311" lon="17.171266"><ele>226.75</ele></trkpt>
   <trkpt lat="49.477955" lon="17.1705"><ele>226.5</ele></trkpt>
   <trkpt lat="49.477706" lon="17.169877"><ele>226.5</ele></trkpt>
   <trkpt lat="49.477324" lon="17.16879"><ele>226.5</ele></trkpt>
   <trkpt lat="49.47721" lon="17.168449"><ele>226.25</ele></trkpt>
   <trkpt lat="49.477088" lon="17.168069"><ele>226</ele></trkpt>
   <trkpt lat="49.477001" lon="17.167772"><ele>226</ele></trkpt>
   <trkpt lat="49.476837" lon="17.167124"><ele>225</ele></trkpt>
   <trkpt lat="49.476759" lon="17.166728"><ele>225.25</ele></trkpt>
   <trkpt lat="49.476702" lon="17.166372"><ele>225.25</ele></trkpt>
   <trkpt lat="49.476622" lon="17.165659"><ele>225.75</ele></trkpt>
   <trkpt lat="49.47658" lon="17.164965"><ele>225.25</ele></trkpt>
   <trkpt lat="49.476579" lon="17.164565"><ele>225.25</ele></trkpt>
   <trkpt lat="49.476589" lon="17.164192"><ele>226</ele></trkpt>
   <trkpt lat="49.476607" lon="17.163841"><ele>226</ele></trkpt>
   <trkpt lat="49.476636" lon="17.163482"><ele>225.75</ele></trkpt>
   <trkpt lat="49.476679" lon="17.163123"><ele>226</ele></trkpt>
   <trkpt lat="49.47673" lon="17.162778"><ele>225.75</ele></trkpt>
   <trkpt lat="49.476798" lon="17.16241"><ele>225.25</ele></trkpt>
   <trkpt lat="49.476863" lon="17.162098"><ele>225.5</ele></trkpt>
   <trkpt lat="49.476948" lon="17.161755"><ele>225.25</ele></trkpt>
   <trkpt lat="49.47704" lon="17.161423"><ele>225</ele></trkpt>
   <trkpt lat="49.477149" lon="17.161081"><ele>225.25</ele></trkpt>
   <trkpt lat="49.477259" lon="17.160765"><ele>225.25</ele></trkpt>
   <trkpt lat="49.477509" lon="17.160166"><ele>225</ele></trkpt>
   <trkpt lat="49.477647" lon="17.159877"><ele>224.25</ele></trkpt>
   <trkpt lat="49.477835" lon="17.159524"><ele>224.5</ele></trkpt>
   <trkpt lat="49.478015" lon="17.159193"><ele>225.25</ele></trkpt>
   <trkpt lat="49.478355" lon="17.158595"><ele>225.5</ele></trkpt>
   <trkpt lat="49.478474" lon="17.158381"><ele>223.5</ele></trkpt>
   <trkpt lat="49.479818" lon="17.156005"><ele>224.5</ele></trkpt>
   <trkpt lat="49.480596" lon="17.154635"><ele>222.5</ele></trkpt>
   <trkpt lat="49.480685" lon="17.154481"><ele>221</ele></trkpt>
   <trkpt lat="49.482788" lon="17.150741"><ele>224</ele></trkpt>
  </trkseg>
 </trk>
</gpx>