<?xml version="1.0" encoding="UTF-8"?>
<!-- track-length = 12 filtered ascend = 0 plain-ascend = 1 cost=26 energy=0.0kwh time=1s -->
<gpx 
 xmlns="http://www.topografix.com/GPX/1/1" 
 xmlns:xsi="http://www.w3.org/2001/XMLSchema-instance" 
 xsi:schemaLocation="http://www.topografix.com/GPX/1/1 http://www.topografix.com/GPX/1/1/gpx.xsd" 
 version="1.1" 
 creator="BRouter-Web 0.18.1">
 <trk>
  <name>Abzweig Hakaniemi Weiche West - Abzweig Hakaniemenranta Weiche West</name>
  <trkseg>
   <trkpt lat="60.178229" lon="24.950036"><ele>3.25</ele></trkpt>
   <trkpt lat="60.178159" lon="24.949989"><ele>3.5</ele></trkpt>
   <trkpt lat="60.178131" lon="24.949977"><ele>3.5</ele></trkpt>
   <trkpt lat="60.178126" lon="24.949976"><ele>4</ele></trkpt>
  </trkseg>
 </trk>
</gpx>