<?xml version="1.0" encoding="UTF-8"?>
<!-- track-length = 373 filtered ascend = 3 plain-ascend = 4 cost=746 energy=0.0kwh time=30s -->
<gpx 
 xmlns="http://www.topografix.com/GPX/1/1" 
 xmlns:xsi="http://www.w3.org/2001/XMLSchema-instance" 
 xsi:schemaLocation="http://www.topografix.com/GPX/1/1 http://www.topografix.com/GPX/1/1/gpx.xsd" 
 version="1.1" 
 creator="BRouter-Web 0.18.1">
 <trk>
  <name>Platz der Jugend (Steig A) - Schlossblick IHK (Steig A)</name>
  <trkseg>
   <trkpt lat="53.621776" lon="11.408959"><ele>42</ele></trkpt>
   <trkpt lat="53.621938" lon="11.40896"><ele>42</ele></trkpt>
   <trkpt lat="53.62233" lon="11.409011"><ele>43.5</ele></trkpt>
   <trkpt lat="53.622932" lon="11.409095"><ele>43</ele></trkpt>
   <trkpt lat="53.623367" lon="11.409192"><ele>42.75</ele></trkpt>
   <trkpt lat="53.624111" lon="11.409282"><ele>43.75</ele></trkpt>
   <trkpt lat="53.624659" lon="11.409304"><ele>45.25</ele></trkpt>
   <trkpt lat="53.624826" lon="11.409323"><ele>45.5</ele></trkpt>
   <trkpt lat="53.625109" lon="11.409409"><ele>45.5</ele></trkpt>
  </trkseg>
 </trk>
</gpx>