<?xml version="1.0" encoding="UTF-8"?>
<!-- track-length = 123 filtered ascend = 1 plain-ascend = 1 cost=246 energy=0.0kwh time=10s -->
<gpx 
 xmlns="http://www.topografix.com/GPX/1/1" 
 xmlns:xsi="http://www.w3.org/2001/XMLSchema-instance" 
 xsi:schemaLocation="http://www.topografix.com/GPX/1/1 http://www.topografix.com/GPX/1/1/gpx.xsd" 
 version="1.1" 
 creator="BRouter-Web 0.18.1">
 <trk>
  <name>Üst Goethestraße Weiche 1-44 - Marienplatz (Steig A)</name>
  <trkseg>
   <trkpt lat="53.627389" lon="11.41059"><ele>45.25</ele></trkpt>
   <trkpt lat="53.627392" lon="11.410592"><ele>45.25</ele></trkpt>
   <trkpt lat="53.627512" lon="11.410674"><ele>45.5</ele></trkpt>
   <trkpt lat="53.627601" lon="11.410732"><ele>45.25</ele></trkpt>
   <trkpt lat="53.627703" lon="11.410799"><ele>45</ele></trkpt>
   <trkpt lat="53.62783" lon="11.410861"><ele>45</ele></trkpt>
   <trkpt lat="53.627912" lon="11.410891"><ele>45.25</ele></trkpt>
   <trkpt lat="53.628005" lon="11.410911"><ele>45.5</ele></trkpt>
   <trkpt lat="53.628091" lon="11.410925"><ele>45.75</ele></trkpt>
   <trkpt lat="53.628348" lon="11.41094"><ele>46.5</ele></trkpt>
   <trkpt lat="53.628458" lon="11.410937"><ele>46.25</ele></trkpt>
  </trkseg>
 </trk>
</gpx>