<?xml version="1.0" encoding="UTF-8"?>
<!-- track-length = 84 filtered ascend = 0 plain-ascend = 0 cost=168 energy=0.0kwh time=7s -->
<gpx 
 xmlns="http://www.topografix.com/GPX/1/1" 
 xmlns:xsi="http://www.w3.org/2001/XMLSchema-instance" 
 xsi:schemaLocation="http://www.topografix.com/GPX/1/1 http://www.topografix.com/GPX/1/1/gpx.xsd" 
 version="1.1" 
 creator="BRouter-Web 99.71.0">
 <trk>
  <name>Dreieck Poznań Główny Weiche Nordwest-Süd - Dreieck Poznań Główny Weiche Nord-Ost</name>
  <link href="https://brouter.damsy.net/latest/#map=18/52.40355/16.91700/standard&amp;lonlats=16.915979,52.402782;16.916524,52.403248">
   <text>BRouter-Web</text>
  </link>
  <trkseg>
   <trkpt lat="52.402779" lon="16.915977"><ele>77</ele></trkpt>
   <trkpt lat="52.402779" lon="16.915982"><ele>77</ele></trkpt>
   <trkpt lat="52.402754" lon="16.916138"><ele>76.75</ele></trkpt>
   <trkpt lat="52.402757" lon="16.916267"><ele>76.25</ele></trkpt>
   <trkpt lat="52.402785" lon="16.916383"><ele>76</ele></trkpt>
   <trkpt lat="52.402827" lon="16.916464"><ele>76</ele></trkpt>
   <trkpt lat="52.402844" lon="16.916486"><ele>76</ele></trkpt>
   <trkpt lat="52.402891" lon="16.916532"><ele>76</ele></trkpt>
   <trkpt lat="52.402925" lon="16.916551"><ele>76</ele></trkpt>
   <trkpt lat="52.403008" lon="16.916562"><ele>76.25</ele></trkpt>
   <trkpt lat="52.403188" lon="16.916544"><ele>76.25</ele></trkpt>
   <trkpt lat="52.403243" lon="16.916538"><ele>76.25</ele></trkpt>
   <trkpt lat="52.403248" lon="16.916537"><ele>76.25</ele></trkpt>
  </trkseg>
 </trk>
</gpx>