<?xml version="1.0" encoding="UTF-8"?>
<!-- track-length = 150 filtered ascend = 1 plain-ascend = 1 cost=302 energy=0.0kwh time=12s -->
<gpx 
 xmlns="http://www.topografix.com/GPX/1/1" 
 xmlns:xsi="http://www.w3.org/2001/XMLSchema-instance" 
 xsi:schemaLocation="http://www.topografix.com/GPX/1/1 http://www.topografix.com/GPX/1/1/gpx.xsd" 
 version="1.1" 
 creator="BRouter-Web 99.71.0">
 <trk>
  <name>Uniwersytet Ekonomiczny (Steig Ost) - Abzweig Zamek Weiche Süd</name>
  <link href="https://brouter.damsy.net/latest/#map=20/52.40728/16.91818/standard&amp;lonlats=16.917138,52.406349;16.917694,52.4073;16.918099,52.407315">
   <text>BRouter-Web</text>
  </link>
  <trkseg>
   <trkpt lat="52.406349" lon="16.917116"><ele>76</ele></trkpt>
   <trkpt lat="52.406528" lon="16.917153"><ele>76</ele></trkpt>
   <trkpt lat="52.406892" lon="16.917207"><ele>76.75</ele></trkpt>
   <trkpt lat="52.406928" lon="16.917214"><ele>76.75</ele></trkpt>
   <trkpt lat="52.407013" lon="16.917246"><ele>77</ele></trkpt>
   <trkpt lat="52.407098" lon="16.917311"><ele>77</ele></trkpt>
   <trkpt lat="52.407155" lon="16.917372"><ele>77</ele></trkpt>
   <trkpt lat="52.407228" lon="16.917496"><ele>77</ele></trkpt>
   <trkpt lat="52.407253" lon="16.917557"><ele>77</ele></trkpt>
   <trkpt lat="52.407265" lon="16.91759"><ele>76.75</ele></trkpt>
   <trkpt lat="52.407295" lon="16.917697"><ele>77</ele></trkpt>
   <trkpt lat="52.407318" lon="16.917863"><ele>77</ele></trkpt>
   <trkpt lat="52.407319" lon="16.917918"><ele>77</ele></trkpt>
   <trkpt lat="52.407312" lon="16.918097"><ele>76.75</ele></trkpt>
   <trkpt lat="52.407311" lon="16.918098"><ele>76</ele></trkpt>
  </trkseg>
 </trk>
</gpx>