<?xml version="1.0" encoding="UTF-8"?>
<!-- track-length = 659 filtered ascend = 1 plain-ascend = 1 cost=1318 energy=0.0kwh time=53s -->
<gpx 
 xmlns="http://www.topografix.com/GPX/1/1" 
 xmlns:xsi="http://www.w3.org/2001/XMLSchema-instance" 
 xsi:schemaLocation="http://www.topografix.com/GPX/1/1 http://www.topografix.com/GPX/1/1/gpx.xsd" 
 version="1.1" 
 creator="BRouter-Web 0.18.1">
 <trk>
  <name>Lasurstraße (Steig Nordost) - Pforten (Steig Nordost)</name>
  <trkseg>
   <trkpt lat="50.852327" lon="12.089268"><ele>197.75</ele></trkpt>
   <trkpt lat="50.85245" lon="12.089189"><ele>197.75</ele></trkpt>
   <trkpt lat="50.852508" lon="12.089151"><ele>197.75</ele></trkpt>
   <trkpt lat="50.852594" lon="12.089095"><ele>197.75</ele></trkpt>
   <trkpt lat="50.852689" lon="12.08906"><ele>197.75</ele></trkpt>
   <trkpt lat="50.852804" lon="12.089063"><ele>197.75</ele></trkpt>
   <trkpt lat="50.852957" lon="12.08913"><ele>197.75</ele></trkpt>
   <trkpt lat="50.853197" lon="12.089314"><ele>197.25</ele></trkpt>
   <trkpt lat="50.853905" lon="12.089838"><ele>196.75</ele></trkpt>
   <trkpt lat="50.854125" lon="12.089975"><ele>196</ele></trkpt>
   <trkpt lat="50.854256" lon="12.090043"><ele>196.75</ele></trkpt>
   <trkpt lat="50.854474" lon="12.090116"><ele>197.5</ele></trkpt>
   <trkpt lat="50.854672" lon="12.09017"><ele>197</ele></trkpt>
   <trkpt lat="50.854865" lon="12.090197"><ele>197.25</ele></trkpt>
   <trkpt lat="50.855135" lon="12.090203"><ele>197.75</ele></trkpt>
   <trkpt lat="50.855325" lon="12.090178"><ele>198.5</ele></trkpt>
   <trkpt lat="50.855488" lon="12.090141"><ele>199.25</ele></trkpt>
   <trkpt lat="50.855659" lon="12.090096"><ele>199.25</ele></trkpt>
   <trkpt lat="50.856419" lon="12.08987"><ele>198</ele></trkpt>
   <trkpt lat="50.8567" lon="12.089786"><ele>198</ele></trkpt>
   <trkpt lat="50.85738" lon="12.089587"><ele>199.25</ele></trkpt>
   <trkpt lat="50.857458" lon="12.08956"><ele>198.25</ele></trkpt>
   <trkpt lat="50.857607" lon="12.089482"><ele>198.25</ele></trkpt>
   <trkpt lat="50.857994" lon="12.089195"><ele>198.75</ele></trkpt>
   <trkpt lat="50.858002" lon="12.089189"><ele>198.75</ele></trkpt>
  </trkseg>
 </trk>
</gpx>