<?xml version="1.0" encoding="UTF-8"?>
<!-- track-length = 103 filtered ascend = 0 plain-ascend = 0 cost=206 energy=0.0kwh time=8s -->
<gpx 
 xmlns="http://www.topografix.com/GPX/1/1" 
 xmlns:xsi="http://www.w3.org/2001/XMLSchema-instance" 
 xsi:schemaLocation="http://www.topografix.com/GPX/1/1 http://www.topografix.com/GPX/1/1/gpx.xsd" 
 version="1.1" 
 creator="BRouter-Web 0.18.1">
 <trk>
  <name>Schmelzhüttenstraße (Steig Nordost) - Abzweig Enzian-/Reichsstraße Weiche Südost</name>
  <trkseg>
   <trkpt lat="50.872835" lon="12.082388"><ele>193.75</ele></trkpt>
   <trkpt lat="50.872899" lon="12.082355"><ele>193.75</ele></trkpt>
   <trkpt lat="50.873009" lon="12.082296"><ele>194</ele></trkpt>
   <trkpt lat="50.873125" lon="12.082242"><ele>194</ele></trkpt>
   <trkpt lat="50.873731" lon="12.081951"><ele>194</ele></trkpt>
  </trkseg>
 </trk>
</gpx>