<?xml version="1.0" encoding="UTF-8"?>
<!-- track-length = 469 filtered ascend = 0 plain-ascend = -1 cost=938 energy=0.0kwh time=38s -->
<gpx 
 xmlns="http://www.topografix.com/GPX/1/1" 
 xmlns:xsi="http://www.w3.org/2001/XMLSchema-instance" 
 xsi:schemaLocation="http://www.topografix.com/GPX/1/1 http://www.topografix.com/GPX/1/1/gpx.xsd" 
 version="1.1" 
 creator="BRouter-Web 0.18.1">
 <trk>
  <name>Zwötzen - Lasurstraße (Steig Nordost)</name>
  <trkseg>
   <trkpt lat="50.848533" lon="12.087131"><ele>200</ele></trkpt>
   <trkpt lat="50.848563" lon="12.087148"><ele>200</ele></trkpt>
   <trkpt lat="50.848595" lon="12.087163"><ele>200</ele></trkpt>
   <trkpt lat="50.848647" lon="12.087189"><ele>199.75</ele></trkpt>
   <trkpt lat="50.848715" lon="12.087221"><ele>199.75</ele></trkpt>
   <trkpt lat="50.848784" lon="12.087252"><ele>200</ele></trkpt>
   <trkpt lat="50.84886" lon="12.087286"><ele>200</ele></trkpt>
   <trkpt lat="50.849034" lon="12.087391"><ele>200</ele></trkpt>
   <trkpt lat="50.849244" lon="12.08755"><ele>200</ele></trkpt>
   <trkpt lat="50.849349" lon="12.087647"><ele>200</ele></trkpt>
   <trkpt lat="50.849667" lon="12.087963"><ele>199.25</ele></trkpt>
   <trkpt lat="50.849779" lon="12.088074"><ele>199</ele></trkpt>
   <trkpt lat="50.850215" lon="12.088454"><ele>199</ele></trkpt>
   <trkpt lat="50.850891" lon="12.088995"><ele>199</ele></trkpt>
   <trkpt lat="50.851347" lon="12.089332"><ele>199</ele></trkpt>
   <trkpt lat="50.851663" lon="12.089575"><ele>198.5</ele></trkpt>
   <trkpt lat="50.851738" lon="12.089605"><ele>198.25</ele></trkpt>
   <trkpt lat="50.851831" lon="12.089588"><ele>198</ele></trkpt>
   <trkpt lat="50.851886" lon="12.08956"><ele>198</ele></trkpt>
   <trkpt lat="50.852011" lon="12.089478"><ele>197.75</ele></trkpt>
   <trkpt lat="50.852318" lon="12.089275"><ele>198</ele></trkpt>
   <trkpt lat="50.852327" lon="12.089268"><ele>197.75</ele></trkpt>
  </trkseg>
 </trk>
</gpx>