<?xml version="1.0" encoding="UTF-8"?>
<!-- track-length = 30 filtered ascend = 0 plain-ascend = 0 cost=60 energy=0.0kwh time=2s -->
<gpx 
 xmlns="http://www.topografix.com/GPX/1/1" 
 xmlns:xsi="http://www.w3.org/2001/XMLSchema-instance" 
 xsi:schemaLocation="http://www.topografix.com/GPX/1/1 http://www.topografix.com/GPX/1/1/gpx.xsd" 
 version="1.1" 
 creator="BRouter-Web 0.18.1">
 <trk>
  <name>Capelsebrug Weiche 1247 - Capelsebrug Weiche 1249</name>
  <trkseg>
   <trkpt lat="51.922566" lon="4.561422"><ele>1.25</ele></trkpt>
   <trkpt lat="51.922568" lon="4.561428"><ele>1.25</ele></trkpt>
   <trkpt lat="51.922447" lon="4.561068"><ele>1</ele></trkpt>
   <trkpt lat="51.922445" lon="4.561063"><ele>1.25</ele></trkpt>
  </trkseg>
 </trk>
</gpx>