<?xml version="1.0" encoding="UTF-8"?>
<!-- track-length = 329 filtered ascend = 0 plain-ascend = 0 cost=660 energy=0.0kwh time=26s -->
<gpx 
 xmlns="http://www.topografix.com/GPX/1/1" 
 xmlns:xsi="http://www.w3.org/2001/XMLSchema-instance" 
 xsi:schemaLocation="http://www.topografix.com/GPX/1/1 http://www.topografix.com/GPX/1/1/gpx.xsd" 
 version="1.1" 
 creator="BRouter-Web 0.18.1">
 <trk>
  <name>Capelsebrug (Gleis 1) - Abzweig Capelsebrug Weiche Nord</name>
  <trkseg>
   <trkpt lat="51.921011" lon="4.556822"><ele>1.75</ele></trkpt>
   <trkpt lat="51.920782" lon="4.556136"><ele>1.75</ele></trkpt>
   <trkpt lat="51.920581" lon="4.555488"><ele>1.75</ele></trkpt>
   <trkpt lat="51.920433" lon="4.554968"><ele>1.75</ele></trkpt>
   <trkpt lat="51.920292" lon="4.554406"/>
   <trkpt lat="51.920175" lon="4.553886"/>
   <trkpt lat="51.919968" lon="4.55281"/>
   <trkpt lat="51.919885" lon="4.552415"/>
  </trkseg>
 </trk>
</gpx>