<?xml version="1.0" encoding="UTF-8"?>
<!-- track-length = 135 filtered ascend = 1 plain-ascend = 1 cost=270 energy=0.0kwh time=11s -->
<gpx 
 xmlns="http://www.topografix.com/GPX/1/1" 
 xmlns:xsi="http://www.w3.org/2001/XMLSchema-instance" 
 xsi:schemaLocation="http://www.topografix.com/GPX/1/1 http://www.topografix.com/GPX/1/1/gpx.xsd" 
 version="1.1" 
 creator="BRouter-Web 0.18.1">
 <trk>
  <name>Capelsebrug Weiche 1249 - Capelsebrug Weiche 1241</name>
  <trkseg>
   <trkpt lat="51.922445" lon="4.561063"><ele>1</ele></trkpt>
   <trkpt lat="51.922447" lon="4.561068"><ele>1</ele></trkpt>
   <trkpt lat="51.921875" lon="4.559374"><ele>2</ele></trkpt>
   <trkpt lat="51.921873" lon="4.559371"><ele>1.75</ele></trkpt>
  </trkseg>
 </trk>
</gpx>