<?xml version="1.0" encoding="UTF-8"?>
<!-- track-length = 113 filtered ascend = 0 plain-ascend = 0 cost=113 energy=0.0kwh time=9s -->
<gpx 
 xmlns="http://www.topografix.com/GPX/1/1" 
 xmlns:xsi="http://www.w3.org/2001/XMLSchema-instance" 
 xsi:schemaLocation="http://www.topografix.com/GPX/1/1 http://www.topografix.com/GPX/1/1/gpx.xsd" 
 version="1.1" 
 creator="BRouter-Web 0.18.1">
 <trk>
  <name>Prinsenlaan (Gleis 1) - Üst Prinsenlaan Weiche 1257</name>
  <trkseg>
   <trkpt lat="51.939654" lon="4.55698"><ele>-5.75</ele></trkpt>
   <trkpt lat="51.93867" lon="4.557402"><ele>-6</ele></trkpt>
  </trkseg>
 </trk>
</gpx>