<?xml version="1.0" encoding="UTF-8"?>
<!-- track-length = 134 filtered ascend = 0 plain-ascend = 0 cost=134 energy=0.0kwh time=11s -->
<gpx 
 xmlns="http://www.topografix.com/GPX/1/1" 
 xmlns:xsi="http://www.w3.org/2001/XMLSchema-instance" 
 xsi:schemaLocation="http://www.topografix.com/GPX/1/1 http://www.topografix.com/GPX/1/1/gpx.xsd" 
 version="1.1" 
 creator="BRouter-Web 0.18.1">
 <trk>
  <name>Üst Prinsenlaan Weiche 1257 - Üst Prinsenlaan Weiche 1255</name>
  <trkseg>
   <trkpt lat="51.93867" lon="4.557402"><ele>-5.75</ele></trkpt>
   <trkpt lat="51.938666" lon="4.557404"><ele>-6</ele></trkpt>
   <trkpt lat="51.937519" lon="4.557894"><ele>-6.5</ele></trkpt>
   <trkpt lat="51.937517" lon="4.557894"><ele>-6</ele></trkpt>
  </trkseg>
 </trk>
</gpx>