<?xml version="1.0" encoding="UTF-8"?>
<!-- track-length = 18 filtered ascend = 0 plain-ascend = 0 cost=18 energy=0.0kwh time=1s -->
<gpx 
 xmlns="http://www.topografix.com/GPX/1/1" 
 xmlns:xsi="http://www.w3.org/2001/XMLSchema-instance" 
 xsi:schemaLocation="http://www.topografix.com/GPX/1/1 http://www.topografix.com/GPX/1/1/gpx.xsd" 
 version="1.1" 
 creator="BRouter-Web 99.71.0">
 <trk>
  <name>Üst Heumarkt Südwest Weiche Nordost - Üst Heumarkt Nordost Weiche Südwest</name>
  <link href="https://brouter.damsy.net/latest/#map=19/50.93602/6.96282/standard&amp;lonlats=6.961441,50.935972;6.96167,50.936042&amp;nogos=6.781752,51.218852,6&amp;profile=rail">
   <text>BRouter-Web</text>
  </link>
  <trkseg>
   <trkpt lat="50.935972" lon="6.961441"><ele>48.75</ele></trkpt>
   <trkpt lat="50.936039" lon="6.96167"><ele>48.5</ele></trkpt>
  </trkseg>
 </trk>
</gpx>