<?xml version="1.0" encoding="UTF-8"?>
<!-- track-length = 41 filtered ascend = 0 plain-ascend = 0 cost=82 energy=0.0kwh time=3s -->
<gpx 
 xmlns="http://www.topografix.com/GPX/1/1" 
 xmlns:xsi="http://www.w3.org/2001/XMLSchema-instance" 
 xsi:schemaLocation="http://www.topografix.com/GPX/1/1 http://www.topografix.com/GPX/1/1/gpx.xsd" 
 version="1.1" 
 creator="BRouter-Web 99.71.0">
 <trk>
  <name>Dreieck Otakarova/Na Zámecké Weiche Süd-Ost - Dreieck Otakarova/Na Zámecké Weiche Nordost-Süd</name>
  <link href="https://brouter.damsy.net/latest/#map=18/50.06517/14.44202/standard&amp;lonlats=14.441355,50.065612;14.441566,50.065934&amp;profile=rail">
   <text>BRouter-Web</text>
  </link>
  <trkseg>
   <trkpt lat="50.065612" lon="14.441355"><ele>197</ele></trkpt>
   <trkpt lat="50.065748" lon="14.441361"><ele>197</ele></trkpt>
   <trkpt lat="50.065809" lon="14.441392"><ele>197</ele></trkpt>
   <trkpt lat="50.065863" lon="14.441445"><ele>196.75</ele></trkpt>
   <trkpt lat="50.065899" lon="14.441494"><ele>196.75</ele></trkpt>
   <trkpt lat="50.065933" lon="14.441563"><ele>196.75</ele></trkpt>
   <trkpt lat="50.065933" lon="14.441565"><ele>196.5</ele></trkpt>
  </trkseg>
 </trk>
</gpx>