<?xml version="1.0" encoding="UTF-8"?>
<!-- track-length = 18 filtered ascend = 0 plain-ascend = -4 cost=36 energy=0.0kwh time=1s -->
<gpx 
 xmlns="http://www.topografix.com/GPX/1/1" 
 xmlns:xsi="http://www.w3.org/2001/XMLSchema-instance" 
 xsi:schemaLocation="http://www.topografix.com/GPX/1/1 http://www.topografix.com/GPX/1/1/gpx.xsd" 
 version="1.1" 
 creator="BRouter-Web 0.18.1">
 <trk>
  <name>Abzweig Schleife Kolmikulma Weiche Ost-Süd - Abzweig Schleife Kolmikulma Weiche Ost-Nord</name>
  <trkseg>
   <trkpt lat="60.16559" lon="24.943848"><ele>15.5</ele></trkpt>
   <trkpt lat="60.165612" lon="24.943845"><ele>15.5</ele></trkpt>
   <trkpt lat="60.16575" lon="24.943824"><ele>15</ele></trkpt>
   <trkpt lat="60.165752" lon="24.943823"><ele>11</ele></trkpt>
  </trkseg>
 </trk>
</gpx>