<?xml version="1.0" encoding="UTF-8"?>
<!-- track-length = 113 filtered ascend = 0 plain-ascend = 0 cost=226 energy=0.0kwh time=9s -->
<gpx 
 xmlns="http://www.topografix.com/GPX/1/1" 
 xmlns:xsi="http://www.w3.org/2001/XMLSchema-instance" 
 xsi:schemaLocation="http://www.topografix.com/GPX/1/1 http://www.topografix.com/GPX/1/1/gpx.xsd" 
 version="1.1" 
 creator="BRouter-Web 99.71.0">
 <trk>
  <name>Sülz Universität (Steig 2) - Sülz Üst Universität Weiche Nordost</name>
  <link href="https://brouter.damsy.net/latest/#map=18/50.92660/6.93281/standard&amp;lonlats=6.9312,50.925992;6.932327,50.926697&amp;nogos=6.781752,51.218852,6&amp;profile=rail">
   <text>BRouter-Web</text>
  </link>
  <trkseg>
   <trkpt lat="50.925993" lon="6.931196"><ele>51.75</ele></trkpt>
   <trkpt lat="50.926118" lon="6.931393"><ele>51.75</ele></trkpt>
   <trkpt lat="50.926693" lon="6.932325"><ele>51.25</ele></trkpt>
   <trkpt lat="50.926695" lon="6.932328"><ele>51</ele></trkpt>
  </trkseg>
 </trk>
</gpx>