<?xml version="1.0" encoding="UTF-8"?>
<!-- track-length = 46 filtered ascend = 2 plain-ascend = 2 cost=92 energy=0.0kwh time=4s -->
<gpx 
 xmlns="http://www.topografix.com/GPX/1/1" 
 xmlns:xsi="http://www.w3.org/2001/XMLSchema-instance" 
 xsi:schemaLocation="http://www.topografix.com/GPX/1/1 http://www.topografix.com/GPX/1/1/gpx.xsd" 
 version="1.1" 
 creator="BRouter-Web 0.18.1">
 <trk>
  <name>Pasilan asema Weiche Ratapihantie-Süd - Abzweig Ratapihantie Weiche Nord</name>
  <trkseg>
   <trkpt lat="60.198802" lon="24.934502"><ele>26.75</ele></trkpt>
   <trkpt lat="60.198399" lon="24.934694"><ele>29</ele></trkpt>
  </trkseg>
 </trk>
</gpx>