<?xml version="1.0" encoding="UTF-8"?>
<!-- track-length = 33 filtered ascend = 0 plain-ascend = 1 cost=68 energy=0.0kwh time=3s -->
<gpx 
 xmlns="http://www.topografix.com/GPX/1/1" 
 xmlns:xsi="http://www.w3.org/2001/XMLSchema-instance" 
 xsi:schemaLocation="http://www.topografix.com/GPX/1/1 http://www.topografix.com/GPX/1/1/gpx.xsd" 
 version="1.1" 
 creator="BRouter-Web 0.18.1">
 <trk>
  <name>Dreieck Kaarlenkatu Weiche Nordost-West - Dreieck Kaarlenkatu Weiche West-Nord</name>
  <trkseg>
   <trkpt lat="60.186782" lon="24.951262"><ele>17.25</ele></trkpt>
   <trkpt lat="60.186693" lon="24.951091"><ele>17.75</ele></trkpt>
   <trkpt lat="60.186678" lon="24.951038"><ele>17.75</ele></trkpt>
   <trkpt lat="60.18664" lon="24.950885"><ele>18</ele></trkpt>
   <trkpt lat="60.186626" lon="24.950784"><ele>18</ele></trkpt>
   <trkpt lat="60.186625" lon="24.950779"><ele>18</ele></trkpt>
  </trkseg>
 </trk>
</gpx>