<?xml version="1.0" encoding="UTF-8"?>
<!-- track-length = 51 filtered ascend = 0 plain-ascend = 0 cost=102 energy=0.0kwh time=4s -->
<gpx 
 xmlns="http://www.topografix.com/GPX/1/1" 
 xmlns:xsi="http://www.w3.org/2001/XMLSchema-instance" 
 xsi:schemaLocation="http://www.topografix.com/GPX/1/1 http://www.topografix.com/GPX/1/1/gpx.xsd" 
 version="1.1" 
 creator="BRouter-Web 0.18.1">
 <trk>
  <name>Abzweig Wendeschleife Ausekļa iela Weiche Ost - Ausekļa iela (Steig Wendeschleife)</name>
  <trkseg>
   <trkpt lat="56.958299" lon="24.100076"><ele>3</ele></trkpt>
   <trkpt lat="56.958302" lon="24.100074"><ele>3</ele></trkpt>
   <trkpt lat="56.958382" lon="24.100021"><ele>3</ele></trkpt>
   <trkpt lat="56.958496" lon="24.100007"><ele>3</ele></trkpt>
   <trkpt lat="56.958734" lon="24.10002"><ele>3</ele></trkpt>
   <trkpt lat="56.958739" lon="24.10002"><ele>2.75</ele></trkpt>
  </trkseg>
 </trk>
</gpx>