<?xml version="1.0" encoding="UTF-8"?>
<!-- track-length = 98 filtered ascend = 0 plain-ascend = 0 cost=196 energy=0.0kwh time=8s -->
<gpx 
 xmlns="http://www.topografix.com/GPX/1/1" 
 xmlns:xsi="http://www.w3.org/2001/XMLSchema-instance" 
 xsi:schemaLocation="http://www.topografix.com/GPX/1/1 http://www.topografix.com/GPX/1/1/gpx.xsd" 
 version="1.1" 
 creator="BRouter-Web 0.18.1">
 <trk>
  <name>Ausekļa iela (Steig Wendeschleife) - Abzweig Wendeschleife Ausekļa iela Weiche West</name>
  <trkseg>
   <trkpt lat="56.958739" lon="24.10002"><ele>2.75</ele></trkpt>
   <trkpt lat="56.95884" lon="24.100027"><ele>2.75</ele></trkpt>
   <trkpt lat="56.958877" lon="24.100026"><ele>3</ele></trkpt>
   <trkpt lat="56.958916" lon="24.100004"><ele>2.75</ele></trkpt>
   <trkpt lat="56.958962" lon="24.099958"><ele>3</ele></trkpt>
   <trkpt lat="56.959006" lon="24.099882"><ele>3</ele></trkpt>
   <trkpt lat="56.959023" lon="24.099819"><ele>3</ele></trkpt>
   <trkpt lat="56.959053" lon="24.0996"><ele>2.75</ele></trkpt>
   <trkpt lat="56.959039" lon="24.099449"><ele>3</ele></trkpt>
   <trkpt lat="56.959" lon="24.099342"><ele>3</ele></trkpt>
   <trkpt lat="56.95894" lon="24.099266"><ele>3</ele></trkpt>
   <trkpt lat="56.958905" lon="24.099252"><ele>3</ele></trkpt>
   <trkpt lat="56.958842" lon="24.099249"><ele>3</ele></trkpt>
   <trkpt lat="56.958804" lon="24.099252"><ele>3</ele></trkpt>
   <trkpt lat="56.958751" lon="24.099272"><ele>3</ele></trkpt>
   <trkpt lat="56.958745" lon="24.09928"><ele>3</ele></trkpt>
  </trkseg>
 </trk>
</gpx>