<?xml version="1.0" encoding="UTF-8"?>
<!-- track-length = 46 filtered ascend = 1 plain-ascend = 1 cost=46 energy=0.0kwh time=4s -->
<gpx 
 xmlns="http://www.topografix.com/GPX/1/1" 
 xmlns:xsi="http://www.w3.org/2001/XMLSchema-instance" 
 xsi:schemaLocation="http://www.topografix.com/GPX/1/1 http://www.topografix.com/GPX/1/1/gpx.xsd" 
 version="1.1" 
 creator="BRouter-Web 0.18.1">
 <trk>
  <name>Dreieck Hämeenkatu Weiche Ost-Süd - Koskipuisto (Steig B)</name>
  <trkseg>
   <trkpt lat="61.498091" lon="23.765997"><ele>89</ele></trkpt>
   <trkpt lat="61.498152" lon="23.766826"><ele>90.25</ele></trkpt>
   <trkpt lat="61.498153" lon="23.766847"><ele>90.25</ele></trkpt>
  </trkseg>
 </trk>
</gpx>