<?xml version="1.0" encoding="UTF-8"?>
<!-- track-length = 83 filtered ascend = 4 plain-ascend = 4 cost=83 energy=0.0kwh time=7s -->
<gpx 
 xmlns="http://www.topografix.com/GPX/1/1" 
 xmlns:xsi="http://www.w3.org/2001/XMLSchema-instance" 
 xsi:schemaLocation="http://www.topografix.com/GPX/1/1 http://www.topografix.com/GPX/1/1/gpx.xsd" 
 version="1.1" 
 creator="BRouter-Web 0.18.1">
 <trk>
  <name>Dreieck Hämeenkatu Weiche West-Süd - Dreieck Hämeenkatu Weiche Ost-Süd</name>
  <trkseg>
   <trkpt lat="61.497977" lon="23.764469"><ele>86</ele></trkpt>
   <trkpt lat="61.497978" lon="23.764471"><ele>86.25</ele></trkpt>
   <trkpt lat="61.497996" lon="23.764724"><ele>88</ele></trkpt>
   <trkpt lat="61.498003" lon="23.764824"><ele>88.25</ele></trkpt>
   <trkpt lat="61.498065" lon="23.765646"><ele>89</ele></trkpt>
   <trkpt lat="61.498072" lon="23.765722"><ele>89</ele></trkpt>
   <trkpt lat="61.498082" lon="23.765879"><ele>89</ele></trkpt>
   <trkpt lat="61.498091" lon="23.765996"><ele>89</ele></trkpt>
   <trkpt lat="61.498091" lon="23.765997"><ele>90.25</ele></trkpt>
  </trkseg>
 </trk>
</gpx>