<?xml version="1.0" encoding="UTF-8"?>
<!-- track-length = 238 filtered ascend = 0 plain-ascend = 1 cost=238 energy=0.0kwh time=19s -->
<gpx 
 xmlns="http://www.topografix.com/GPX/1/1" 
 xmlns:xsi="http://www.w3.org/2001/XMLSchema-instance" 
 xsi:schemaLocation="http://www.topografix.com/GPX/1/1 http://www.topografix.com/GPX/1/1/gpx.xsd" 
 version="1.1" 
 creator="BRouter-Web 0.18.1">
 <trk>
  <name>Koskipuisto (Steig B) - Rautatieasema (Steig B)</name>
  <trkseg>
   <trkpt lat="61.498153" lon="23.766847"><ele>90.25</ele></trkpt>
   <trkpt lat="61.498161" lon="23.766957"><ele>90.25</ele></trkpt>
   <trkpt lat="61.498164" lon="23.766999"><ele>90.5</ele></trkpt>
   <trkpt lat="61.498172" lon="23.767112"><ele>90.75</ele></trkpt>
   <trkpt lat="61.498265" lon="23.768395"><ele>90</ele></trkpt>
   <trkpt lat="61.498276" lon="23.768548"><ele>90</ele></trkpt>
   <trkpt lat="61.498292" lon="23.768765"><ele>90</ele></trkpt>
   <trkpt lat="61.49839" lon="23.770126"><ele>90</ele></trkpt>
   <trkpt lat="61.498468" lon="23.771217"><ele>91</ele></trkpt>
   <trkpt lat="61.498471" lon="23.771269"><ele>91</ele></trkpt>
  </trkseg>
 </trk>
</gpx>