<?xml version="1.0" encoding="UTF-8"?>
<!-- track-length = 70 filtered ascend = 0 plain-ascend = 0 cost=70 energy=0.0kwh time=6s -->
<gpx 
 xmlns="http://www.topografix.com/GPX/1/1" 
 xmlns:xsi="http://www.w3.org/2001/XMLSchema-instance" 
 xsi:schemaLocation="http://www.topografix.com/GPX/1/1 http://www.topografix.com/GPX/1/1/gpx.xsd" 
 version="1.1" 
 creator="BRouter-Web 0.18.1">
 <trk>
  <name>Sammonaukio (Steig B) - Abzweig Sammonaukio Weiche Süd</name>
  <trkseg>
   <trkpt lat="61.499067" lon="23.787845"><ele>105</ele></trkpt>
   <trkpt lat="61.499004" lon="23.787163"><ele>105</ele></trkpt>
   <trkpt lat="61.498993" lon="23.786939"><ele>105</ele></trkpt>
   <trkpt lat="61.49899" lon="23.786805"><ele>105</ele></trkpt>
   <trkpt lat="61.49899" lon="23.78674"><ele>105</ele></trkpt>
   <trkpt lat="61.498987" lon="23.786534"><ele>105</ele></trkpt>
  </trkseg>
 </trk>
</gpx>