<?xml version="1.0" encoding="UTF-8"?>
<!-- track-length = 204 filtered ascend = 0 plain-ascend = 0 cost=204 energy=0.0kwh time=16s -->
<gpx 
 xmlns="http://www.topografix.com/GPX/1/1" 
 xmlns:xsi="http://www.w3.org/2001/XMLSchema-instance" 
 xsi:schemaLocation="http://www.topografix.com/GPX/1/1 http://www.topografix.com/GPX/1/1/gpx.xsd" 
 version="1.1" 
 creator="BRouter-Web 0.18.1">
 <trk>
  <name>Üst Tulli Weiche Ost - Sammonaukio (Steig B)</name>
  <trkseg>
   <trkpt lat="61.498954" lon="23.782706"><ele>105.5</ele></trkpt>
   <trkpt lat="61.498955" lon="23.782709"><ele>105.75</ele></trkpt>
   <trkpt lat="61.498964" lon="23.783597"><ele>106</ele></trkpt>
   <trkpt lat="61.498965" lon="23.783755"><ele>106</ele></trkpt>
   <trkpt lat="61.498976" lon="23.785503"><ele>105</ele></trkpt>
   <trkpt lat="61.498987" lon="23.786465"><ele>105</ele></trkpt>
   <trkpt lat="61.498987" lon="23.786536"><ele>105</ele></trkpt>
  </trkseg>
 </trk>
</gpx>