<?xml version="1.0" encoding="UTF-8"?>
<!-- track-length = 486 filtered ascend = 0 plain-ascend = -1 cost=972 energy=0.0kwh time=39s -->
<gpx 
 xmlns="http://www.topografix.com/GPX/1/1" 
 xmlns:xsi="http://www.w3.org/2001/XMLSchema-instance" 
 xsi:schemaLocation="http://www.topografix.com/GPX/1/1 http://www.topografix.com/GPX/1/1/gpx.xsd" 
 version="1.1" 
 creator="BRouter-Web 0.18.1">
 <trk>
  <name>Aindorferstraße (Steig Ost) - Laimer Platz (Steig Ost)</name>
  <trkseg>
   <trkpt lat="48.131488" lon="11.502868"><ele>532</ele></trkpt>
   <trkpt lat="48.131901" lon="11.502876"><ele>532</ele></trkpt>
   <trkpt lat="48.132282" lon="11.502899"><ele>532</ele></trkpt>
   <trkpt lat="48.133256" lon="11.502926"><ele>531</ele></trkpt>
   <trkpt lat="48.133455" lon="11.502934"><ele>531</ele></trkpt>
   <trkpt lat="48.134146" lon="11.50293"><ele>531</ele></trkpt>
   <trkpt lat="48.135273" lon="11.502972"><ele>530</ele></trkpt>
   <trkpt lat="48.135411" lon="11.502976"><ele>530</ele></trkpt>
   <trkpt lat="48.135544" lon="11.502981"><ele>530</ele></trkpt>
   <trkpt lat="48.135853" lon="11.503"><ele>530</ele></trkpt>
   <trkpt lat="48.135869" lon="11.503001"><ele>530</ele></trkpt>
  </trkseg>
 </trk>
</gpx>