<?xml version="1.0" encoding="UTF-8"?>
<!-- track-length = 9 filtered ascend = 0 plain-ascend = 0 cost=18 energy=0.0kwh time=1s -->
<gpx 
 xmlns="http://www.topografix.com/GPX/1/1" 
 xmlns:xsi="http://www.w3.org/2001/XMLSchema-instance" 
 xsi:schemaLocation="http://www.topografix.com/GPX/1/1 http://www.topografix.com/GPX/1/1/gpx.xsd" 
 version="1.1" 
 creator="BRouter-Web 0.18.1">
 <trk>
  <name>Fürstenrieder Straße (Steig Süd-Ost) - Kreuz Fürstenrieder Straße Weiche 179</name>
  <trkseg>
   <trkpt lat="48.139329" lon="11.503116"><ele>528</ele></trkpt>
   <trkpt lat="48.139394" lon="11.503119"><ele>528</ele></trkpt>
   <trkpt lat="48.139411" lon="11.50312"><ele>528</ele></trkpt>
  </trkseg>
 </trk>
</gpx>