<?xml version="1.0" encoding="UTF-8"?>
<!-- track-length = 51 filtered ascend = 0 plain-ascend = 0 cost=102 energy=0.0kwh time=4s -->
<gpx 
 xmlns="http://www.topografix.com/GPX/1/1" 
 xmlns:xsi="http://www.w3.org/2001/XMLSchema-instance" 
 xsi:schemaLocation="http://www.topografix.com/GPX/1/1 http://www.topografix.com/GPX/1/1/gpx.xsd" 
 version="1.1" 
 creator="BRouter-Web 0.18.1">
 <trk>
  <name>Kreuz Ammerseestraße Weiche 175 - Kreuz Ammerseestraße Weiche West-nach-Nord-Nord</name>
  <trkseg>
   <trkpt lat="48.126105" lon="11.502386"><ele>534.75</ele></trkpt>
   <trkpt lat="48.126106" lon="11.502394"><ele>534.75</ele></trkpt>
   <trkpt lat="48.126114" lon="11.50252"><ele>535</ele></trkpt>
   <trkpt lat="48.126125" lon="11.502569"><ele>535</ele></trkpt>
   <trkpt lat="48.126149" lon="11.502646"><ele>535.25</ele></trkpt>
   <trkpt lat="48.126193" lon="11.502725"><ele>535.5</ele></trkpt>
   <trkpt lat="48.126221" lon="11.502759"><ele>535.5</ele></trkpt>
   <trkpt lat="48.126284" lon="11.502801"><ele>535.25</ele></trkpt>
   <trkpt lat="48.126319" lon="11.50281"><ele>535.25</ele></trkpt>
   <trkpt lat="48.126374" lon="11.50281"><ele>535</ele></trkpt>
   <trkpt lat="48.126378" lon="11.502809"><ele>535</ele></trkpt>
  </trkseg>
 </trk>
</gpx>