<?xml version="1.0" encoding="UTF-8"?>
<!-- track-length = 292 filtered ascend = 0 plain-ascend = -9 cost=584 energy=0.0kwh time=23s -->
<gpx 
 xmlns="http://www.topografix.com/GPX/1/1" 
 xmlns:xsi="http://www.w3.org/2001/XMLSchema-instance" 
 xsi:schemaLocation="http://www.topografix.com/GPX/1/1 http://www.topografix.com/GPX/1/1/gpx.xsd" 
 version="1.1" 
 creator="BRouter-Web 0.18.1">
 <trk>
  <name>Abzweig Parkveien/Welhavens gate Weiche Südost - Abzweig Holbergs plass Weiche Nordwest</name>
  <trkseg>
   <trkpt lat="59.921159" lon="10.729968"><ele>32</ele></trkpt>
   <trkpt lat="59.921115" lon="10.730081"><ele>32</ele></trkpt>
   <trkpt lat="59.921048" lon="10.730297"><ele>32</ele></trkpt>
   <trkpt lat="59.920328" lon="10.732792"><ele>27.75</ele></trkpt>
   <trkpt lat="59.920286" lon="10.732927"><ele>27.25</ele></trkpt>
   <trkpt lat="59.920242" lon="10.733026"><ele>27</ele></trkpt>
   <trkpt lat="59.919582" lon="10.734037"><ele>22.25</ele></trkpt>
  </trkseg>
 </trk>
</gpx>