<?xml version="1.0" encoding="UTF-8"?>
<!-- track-length = 71 filtered ascend = 1 plain-ascend = 2 cost=71 energy=0.0kwh time=6s -->
<gpx 
 xmlns="http://www.topografix.com/GPX/1/1" 
 xmlns:xsi="http://www.w3.org/2001/XMLSchema-instance" 
 xsi:schemaLocation="http://www.topografix.com/GPX/1/1 http://www.topografix.com/GPX/1/1/gpx.xsd" 
 version="1.1" 
 creator="BRouter-Web 0.18.1">
 <trk>
  <name>84000 Krnov Weiche 2 - Krnov Weiche 5</name>
  <trkseg>
   <trkpt lat="50.095663" lon="17.683386"><ele>321.5</ele></trkpt>
   <trkpt lat="50.095197" lon="17.683309"><ele>323</ele></trkpt>
   <trkpt lat="50.095031" lon="17.683299"><ele>323</ele></trkpt>
   <trkpt lat="50.095029" lon="17.683299"><ele>323</ele></trkpt>
  </trkseg>
 </trk>
</gpx>