<?xml version="1.0" encoding="UTF-8"?>
<!-- track-length = 4 filtered ascend = 0 plain-ascend = 0 cost=4 energy=0.0kwh time= -->
<gpx 
 xmlns="http://www.topografix.com/GPX/1/1" 
 xmlns:xsi="http://www.w3.org/2001/XMLSchema-instance" 
 xsi:schemaLocation="http://www.topografix.com/GPX/1/1 http://www.topografix.com/GPX/1/1/gpx.xsd" 
 version="1.1" 
 creator="BRouter-Web 0.18.1">
 <trk>
  <name>84000 Opava východ Weiche 17 - Opava východ Weiche 18</name>
  <trkseg>
   <trkpt lat="49.931363" lon="17.915041"><ele>253</ele></trkpt>
   <trkpt lat="49.931364" lon="17.91504"><ele>253</ele></trkpt>
   <trkpt lat="49.931378" lon="17.914998"><ele>252.75</ele></trkpt>
  </trkseg>
 </trk>
</gpx>