<?xml version="1.0" encoding="UTF-8"?>
<!-- track-length = 646 filtered ascend = 0 plain-ascend = -4 cost=646 energy=0.0kwh time=52s -->
<gpx 
 xmlns="http://www.topografix.com/GPX/1/1" 
 xmlns:xsi="http://www.w3.org/2001/XMLSchema-instance" 
 xsi:schemaLocation="http://www.topografix.com/GPX/1/1 http://www.topografix.com/GPX/1/1/gpx.xsd" 
 version="1.1" 
 creator="BRouter-Web 0.18.1">
 <trk>
  <name>84000 Opava vlečka Navos Weiche Nord - Opava západ Weiche 3</name>
  <trkseg>
   <trkpt lat="49.93281" lon="17.895018"><ele>272.5</ele></trkpt>
   <trkpt lat="49.932941" lon="17.894932"><ele>272.5</ele></trkpt>
   <trkpt lat="49.933243" lon="17.894718"><ele>272.25</ele></trkpt>
   <trkpt lat="49.933475" lon="17.894523"><ele>271.75</ele></trkpt>
   <trkpt lat="49.93373" lon="17.894262"><ele>270.75</ele></trkpt>
   <trkpt lat="49.93479" lon="17.893011"><ele>267.75</ele></trkpt>
   <trkpt lat="49.934999" lon="17.892764"><ele>267.75</ele></trkpt>
   <trkpt lat="49.937272" lon="17.890088"><ele>267.25</ele></trkpt>
   <trkpt lat="49.937359" lon="17.889989"><ele>266.75</ele></trkpt>
   <trkpt lat="49.937487" lon="17.889835"><ele>267.5</ele></trkpt>
   <trkpt lat="49.937512" lon="17.889805"><ele>268</ele></trkpt>
   <trkpt lat="49.937512" lon="17.889804"><ele>268</ele></trkpt>
  </trkseg>
 </trk>
</gpx>