<?xml version="1.0" encoding="UTF-8"?>
<!-- track-length = 1849 filtered ascend = 5 plain-ascend = 5 cost=1849 energy=0.0kwh time=2m 28s -->
<gpx 
 xmlns="http://www.topografix.com/GPX/1/1" 
 xmlns:xsi="http://www.w3.org/2001/XMLSchema-instance" 
 xsi:schemaLocation="http://www.topografix.com/GPX/1/1 http://www.topografix.com/GPX/1/1/gpx.xsd" 
 version="1.1" 
 creator="BRouter-Web 0.18.1">
 <trk>
  <name>84000 Opava vlečka Agrana Weiche 19 - Vávrovice</name>
  <trkseg>
   <trkpt lat="49.95946" lon="17.867808"><ele>260.5</ele></trkpt>
   <trkpt lat="49.959465" lon="17.867806"><ele>260.75</ele></trkpt>
   <trkpt lat="49.959982" lon="17.867526"><ele>260</ele></trkpt>
   <trkpt lat="49.960558" lon="17.867213"><ele>259.75</ele></trkpt>
   <trkpt lat="49.968114" lon="17.863096"><ele>261.75</ele></trkpt>
   <trkpt lat="49.968164" lon="17.863068"><ele>261.75</ele></trkpt>
   <trkpt lat="49.968934" lon="17.862649"><ele>262.25</ele></trkpt>
   <trkpt lat="49.969265" lon="17.86247"><ele>263</ele></trkpt>
   <trkpt lat="49.970709" lon="17.861685"><ele>264</ele></trkpt>
   <trkpt lat="49.970792" lon="17.861638"><ele>264</ele></trkpt>
   <trkpt lat="49.970874" lon="17.861594"><ele>264</ele></trkpt>
   <trkpt lat="49.972962" lon="17.860445"><ele>265.25</ele></trkpt>
   <trkpt lat="49.973251" lon="17.860243"><ele>265.25</ele></trkpt>
   <trkpt lat="49.973757" lon="17.859842"><ele>265</ele></trkpt>
   <trkpt lat="49.974232" lon="17.859376"><ele>265.5</ele></trkpt>
   <trkpt lat="49.974565" lon="17.858998"><ele>265</ele></trkpt>
   <trkpt lat="49.974672" lon="17.85887"><ele>265</ele></trkpt>
   <trkpt lat="49.974902" lon="17.858561"><ele>265</ele></trkpt>
  </trkseg>
 </trk>
</gpx>