<?xml version="1.0" encoding="UTF-8"?>
<!-- track-length = 227 filtered ascend = 0 plain-ascend = 0 cost=227 energy=0.0kwh time=18s -->
<gpx 
 xmlns="http://www.topografix.com/GPX/1/1" 
 xmlns:xsi="http://www.w3.org/2001/XMLSchema-instance" 
 xsi:schemaLocation="http://www.topografix.com/GPX/1/1 http://www.topografix.com/GPX/1/1/gpx.xsd" 
 version="1.1" 
 creator="BRouter-Web 0.18.1">
 <trk>
  <name>84000 Opava západ (Gleis 2) - Opava západ Weiche 4</name>
  <trkseg>
   <trkpt lat="49.939413" lon="17.887567"><ele>268</ele></trkpt>
   <trkpt lat="49.938821" lon="17.888266"><ele>268</ele></trkpt>
   <trkpt lat="49.938319" lon="17.888857"><ele>268</ele></trkpt>
   <trkpt lat="49.938303" lon="17.888876"><ele>268</ele></trkpt>
   <trkpt lat="49.937797" lon="17.889471"><ele>268</ele></trkpt>
   <trkpt lat="49.937794" lon="17.889473"><ele>268</ele></trkpt>
  </trkseg>
 </trk>
</gpx>