<?xml version="1.0" encoding="UTF-8"?>
<!-- track-length = 301 filtered ascend = 0 plain-ascend = 1 cost=301 energy=0.0kwh time=24s -->
<gpx 
 xmlns="http://www.topografix.com/GPX/1/1" 
 xmlns:xsi="http://www.w3.org/2001/XMLSchema-instance" 
 xsi:schemaLocation="http://www.topografix.com/GPX/1/1 http://www.topografix.com/GPX/1/1/gpx.xsd" 
 version="1.1" 
 creator="BRouter-Web 0.18.1">
 <trk>
  <name>84000 Opava západ Weiche 13 - Opava západ Weiche 18</name>
  <trkseg>
   <trkpt lat="49.941449" lon="17.885251"><ele>268.5</ele></trkpt>
   <trkpt lat="49.941478" lon="17.885219"><ele>268.5</ele></trkpt>
   <trkpt lat="49.943079" lon="17.883333"><ele>269</ele></trkpt>
   <trkpt lat="49.943089" lon="17.883321"><ele>269</ele></trkpt>
   <trkpt lat="49.943597" lon="17.882725"><ele>269</ele></trkpt>
   <trkpt lat="49.943599" lon="17.882722"><ele>269</ele></trkpt>
  </trkseg>
 </trk>
</gpx>