<?xml version="1.0" encoding="UTF-8"?>
<!-- track-length = 3 filtered ascend = 0 plain-ascend = 0 cost=3 energy=0.0kwh time= -->
<gpx 
 xmlns="http://www.topografix.com/GPX/1/1" 
 xmlns:xsi="http://www.w3.org/2001/XMLSchema-instance" 
 xsi:schemaLocation="http://www.topografix.com/GPX/1/1 http://www.topografix.com/GPX/1/1/gpx.xsd" 
 version="1.1" 
 creator="BRouter-Web 0.18.1">
 <trk>
  <name>84000 Opava východ Weiche 37 - Opava východ Weiche 39</name>
  <trkseg>
   <trkpt lat="49.932858" lon="17.911579"><ele>253</ele></trkpt>
   <trkpt lat="49.932874" lon="17.911545"><ele>253.25</ele></trkpt>
  </trkseg>
 </trk>
</gpx>