<?xml version="1.0" encoding="UTF-8"?>
<!-- track-length = 68 filtered ascend = 0 plain-ascend = 0 cost=68 energy=0.0kwh time=5s -->
<gpx 
 xmlns="http://www.topografix.com/GPX/1/1" 
 xmlns:xsi="http://www.w3.org/2001/XMLSchema-instance" 
 xsi:schemaLocation="http://www.topografix.com/GPX/1/1 http://www.topografix.com/GPX/1/1/gpx.xsd" 
 version="1.1" 
 creator="BRouter-Web 0.18.1">
 <trk>
  <name>84000 Opava východ Weiche 13 - Opava východ Weiche 17</name>
  <trkseg>
   <trkpt lat="49.931049" lon="17.915834"><ele>253.5</ele></trkpt>
   <trkpt lat="49.931049" lon="17.915836"><ele>253.75</ele></trkpt>
   <trkpt lat="49.931197" lon="17.915486"><ele>253.5</ele></trkpt>
   <trkpt lat="49.931363" lon="17.915041"><ele>253</ele></trkpt>
  </trkseg>
 </trk>
</gpx>