<?xml version="1.0" encoding="UTF-8"?>
<!-- track-length = 76 filtered ascend = 1 plain-ascend = 1 cost=76 energy=0.0kwh time=6s -->
<gpx 
 xmlns="http://www.topografix.com/GPX/1/1" 
 xmlns:xsi="http://www.w3.org/2001/XMLSchema-instance" 
 xsi:schemaLocation="http://www.topografix.com/GPX/1/1 http://www.topografix.com/GPX/1/1/gpx.xsd" 
 version="1.1" 
 creator="BRouter-Web 0.18.1">
 <trk>
  <name>84000 Opava východ Weiche 39 - Opava východ Weiche 40</name>
  <trkseg>
   <trkpt lat="49.932874" lon="17.911545"><ele>253</ele></trkpt>
   <trkpt lat="49.932875" lon="17.911544"><ele>253.25</ele></trkpt>
   <trkpt lat="49.933041" lon="17.911146"><ele>253</ele></trkpt>
   <trkpt lat="49.933205" lon="17.910641"><ele>254</ele></trkpt>
  </trkseg>
 </trk>
</gpx>