<?xml version="1.0" encoding="UTF-8"?>
<!-- track-length = 104 filtered ascend = 0 plain-ascend = 0 cost=104 energy=0.0kwh time=8s -->
<gpx 
 xmlns="http://www.topografix.com/GPX/1/1" 
 xmlns:xsi="http://www.w3.org/2001/XMLSchema-instance" 
 xsi:schemaLocation="http://www.topografix.com/GPX/1/1 http://www.topografix.com/GPX/1/1/gpx.xsd" 
 version="1.1" 
 creator="BRouter-Web 0.18.1">
 <trk>
  <name>84000 Opava východ (Gleis 15) - Opava východ Weiche 40</name>
  <trkseg>
   <trkpt lat="49.933659" lon="17.909382"><ele>253.5</ele></trkpt>
   <trkpt lat="49.93356" lon="17.909601"><ele>253.5</ele></trkpt>
   <trkpt lat="49.933469" lon="17.909826"><ele>253.5</ele></trkpt>
   <trkpt lat="49.933407" lon="17.910004"><ele>253.75</ele></trkpt>
   <trkpt lat="49.933208" lon="17.910635"><ele>254</ele></trkpt>
   <trkpt lat="49.933205" lon="17.910641"><ele>253</ele></trkpt>
  </trkseg>
 </trk>
</gpx>