<?xml version="1.0" encoding="UTF-8"?>
<!-- track-length = 4891 filtered ascend = 0 plain-ascend = -22 cost=4892 energy=0.1kwh time=6m 31s -->
<gpx 
 xmlns="http://www.topografix.com/GPX/1/1" 
 xmlns:xsi="http://www.w3.org/2001/XMLSchema-instance" 
 xsi:schemaLocation="http://www.topografix.com/GPX/1/1 http://www.topografix.com/GPX/1/1/gpx.xsd" 
 version="1.1" 
 creator="BRouter-Web 0.18.1">
 <trk>
  <name>84000 Holasovice - Vávrovice</name>
  <trkseg>
   <trkpt lat="50.000187" lon="17.804051"><ele>287.75</ele></trkpt>
   <trkpt lat="49.999703" lon="17.804618"><ele>286.5</ele></trkpt>
   <trkpt lat="49.999133" lon="17.80529"><ele>284.75</ele></trkpt>
   <trkpt lat="49.998699" lon="17.805815"><ele>282.75</ele></trkpt>
   <trkpt lat="49.998449" lon="17.806129"><ele>282.5</ele></trkpt>
   <trkpt lat="49.998213" lon="17.806455"><ele>283</ele></trkpt>
   <trkpt lat="49.99812" lon="17.806583"><ele>283.25</ele></trkpt>
   <trkpt lat="49.997956" lon="17.80683"><ele>282.75</ele></trkpt>
   <trkpt lat="49.997731" lon="17.807191"><ele>283</ele></trkpt>
   <trkpt lat="49.997581" lon="17.807455"><ele>282.25</ele></trkpt>
   <trkpt lat="49.997213" lon="17.808164"><ele>283</ele></trkpt>
   <trkpt lat="49.996518" lon="17.809703"><ele>282</ele></trkpt>
   <trkpt lat="49.995755" lon="17.81142"><ele>280.25</ele></trkpt>
   <trkpt lat="49.995194" lon="17.812688"><ele>279</ele></trkpt>
   <trkpt lat="49.992616" lon="17.818474"><ele>270.75</ele></trkpt>
   <trkpt lat="49.992459" lon="17.818835"><ele>271.25</ele></trkpt>
   <trkpt lat="49.992381" lon="17.819009"><ele>271</ele></trkpt>
   <trkpt lat="49.99237" lon="17.819033"><ele>271</ele></trkpt>
   <trkpt lat="49.990012" lon="17.824336"><ele>269.75</ele></trkpt>
   <trkpt lat="49.989795" lon="17.824799"><ele>269</ele></trkpt>
   <trkpt lat="49.989613" lon="17.825169"><ele>269</ele></trkpt>
   <trkpt lat="49.989466" lon="17.825457"><ele>269</ele></trkpt>
   <trkpt lat="49.989276" lon="17.825802"><ele>269</ele></trkpt>
   <trkpt lat="49.98851" lon="17.827163"><ele>267.5</ele></trkpt>
   <trkpt lat="49.986677" lon="17.830388"><ele>269</ele></trkpt>
   <trkpt lat="49.984295" lon="17.834583"><ele>265.25</ele></trkpt>
   <trkpt lat="49.984248" lon="17.834666"><ele>265.5</ele></trkpt>
   <trkpt lat="49.983706" lon="17.83562"><ele>266.75</ele></trkpt>
   <trkpt lat="49.983428" lon="17.83611"><ele>267</ele></trkpt>
   <trkpt lat="49.983405" lon="17.83615"><ele>266.75</ele></trkpt>
   <trkpt lat="49.982807" lon="17.837217"><ele>267.75</ele></trkpt>
   <trkpt lat="49.982603" lon="17.837602"><ele>268.75</ele></trkpt>
   <trkpt lat="49.982355" lon="17.838113"><ele>268.75</ele></trkpt>
   <trkpt lat="49.982167" lon="17.838542"><ele>267.75</ele></trkpt>
   <trkpt lat="49.981978" lon="17.838991"><ele>267.25</ele></trkpt>
   <trkpt lat="49.981808" lon="17.839432"><ele>267</ele></trkpt>
   <trkpt lat="49.98165" lon="17.839869"><ele>267.5</ele></trkpt>
   <trkpt lat="49.981505" lon="17.8403"><ele>267.5</ele></trkpt>
   <trkpt lat="49.981278" lon="17.841059"><ele>267.75</ele></trkpt>
   <trkpt lat="49.981053" lon="17.841959"><ele>268</ele></trkpt>
   <trkpt lat="49.980936" lon="17.842487"><ele>267.75</ele></trkpt>
   <trkpt lat="49.980795" lon="17.843236"><ele>266.5</ele></trkpt>
   <trkpt lat="49.980626" lon="17.844277"><ele>264.5</ele></trkpt>
   <trkpt lat="49.980029" lon="17.848203"><ele>263.25</ele></trkpt>
   <trkpt lat="49.979735" lon="17.850095"><ele>267.25</ele></trkpt>
   <trkpt lat="49.979632" lon="17.850598"><ele>267</ele></trkpt>
   <trkpt lat="49.97956" lon="17.850869"><ele>268.25</ele></trkpt>
   <trkpt lat="49.979413" lon="17.851318"><ele>267.75</ele></trkpt>
   <trkpt lat="49.97932" lon="17.851563"><ele>267.5</ele></trkpt>
   <trkpt lat="49.979229" lon="17.851775"><ele>267.25</ele></trkpt>
   <trkpt lat="49.978918" lon="17.852378"><ele>266.25</ele></trkpt>
   <trkpt lat="49.975273" lon="17.858034"><ele>265.75</ele></trkpt>
   <trkpt lat="49.975245" lon="17.858075"><ele>265.75</ele></trkpt>
   <trkpt lat="49.975175" lon="17.858178"><ele>265.5</ele></trkpt>
   <trkpt lat="49.975032" lon="17.858388"><ele>265</ele></trkpt>
   <trkpt lat="49.974902" lon="17.858561"><ele>265</ele></trkpt>
  </trkseg>
 </trk>
</gpx>