<?xml version="1.0" encoding="UTF-8"?>
<!-- track-length = 38 filtered ascend = 0 plain-ascend = -1 cost=38 energy=0.0kwh time=3s -->
<gpx 
 xmlns="http://www.topografix.com/GPX/1/1" 
 xmlns:xsi="http://www.w3.org/2001/XMLSchema-instance" 
 xsi:schemaLocation="http://www.topografix.com/GPX/1/1 http://www.topografix.com/GPX/1/1/gpx.xsd" 
 version="1.1" 
 creator="BRouter-Web 0.18.1">
 <trk>
  <name>84000 Skrochovice Weiche 5 - Skrochovice Weiche 6</name>
  <trkseg>
   <trkpt lat="50.019734" lon="17.775874"><ele>284.5</ele></trkpt>
   <trkpt lat="50.02003" lon="17.775631"><ele>282.75</ele></trkpt>
   <trkpt lat="50.020035" lon="17.775626"><ele>282.75</ele></trkpt>
  </trkseg>
 </trk>
</gpx>