<?xml version="1.0" encoding="UTF-8"?>
<!-- track-length = 57 filtered ascend = 0 plain-ascend = 0 cost=57 energy=0.0kwh time=5s -->
<gpx 
 xmlns="http://www.topografix.com/GPX/1/1" 
 xmlns:xsi="http://www.w3.org/2001/XMLSchema-instance" 
 xsi:schemaLocation="http://www.topografix.com/GPX/1/1 http://www.topografix.com/GPX/1/1/gpx.xsd" 
 version="1.1" 
 creator="BRouter-Web 0.18.1">
 <trk>
  <name>84000 Skrochovice Weiche 1 - Skrochovice Weiche 2</name>
  <trkseg>
   <trkpt lat="50.014845" lon="17.780821"><ele>288.75</ele></trkpt>
   <trkpt lat="50.014847" lon="17.780819"><ele>289</ele></trkpt>
   <trkpt lat="50.0152" lon="17.780272"><ele>287.25</ele></trkpt>
   <trkpt lat="50.015201" lon="17.780269"><ele>287.5</ele></trkpt>
  </trkseg>
 </trk>
</gpx>