<?xml version="1.0" encoding="UTF-8"?>
<!-- track-length = 2166 filtered ascend = 9 plain-ascend = 9 cost=2166 energy=0.0kwh time=2m 53s -->
<gpx 
 xmlns="http://www.topografix.com/GPX/1/1" 
 xmlns:xsi="http://www.w3.org/2001/XMLSchema-instance" 
 xsi:schemaLocation="http://www.topografix.com/GPX/1/1 http://www.topografix.com/GPX/1/1/gpx.xsd" 
 version="1.1" 
 creator="BRouter-Web 0.18.1">
 <trk>
  <name>84000 Opava vlečka Agrana Weiche 19 - Opava západ Weiche 18</name>
  <trkseg>
   <trkpt lat="49.95946" lon="17.867808"><ele>260.5</ele></trkpt>
   <trkpt lat="49.956219" lon="17.869581"><ele>259.25</ele></trkpt>
   <trkpt lat="49.955892" lon="17.869786"><ele>259</ele></trkpt>
   <trkpt lat="49.95564" lon="17.869975"><ele>259</ele></trkpt>
   <trkpt lat="49.955433" lon="17.870144"><ele>258.5</ele></trkpt>
   <trkpt lat="49.954993" lon="17.87055"><ele>259</ele></trkpt>
   <trkpt lat="49.953227" lon="17.872219"><ele>259</ele></trkpt>
   <trkpt lat="49.953139" lon="17.872304"><ele>259</ele></trkpt>
   <trkpt lat="49.953035" lon="17.872401"><ele>259</ele></trkpt>
   <trkpt lat="49.95252" lon="17.872869"><ele>259</ele></trkpt>
   <trkpt lat="49.952335" lon="17.873008"><ele>259</ele></trkpt>
   <trkpt lat="49.951986" lon="17.873212"><ele>259.75</ele></trkpt>
   <trkpt lat="49.951538" lon="17.873395"><ele>259.5</ele></trkpt>
   <trkpt lat="49.950899" lon="17.873617"><ele>260.5</ele></trkpt>
   <trkpt lat="49.950786" lon="17.873655"><ele>260.5</ele></trkpt>
   <trkpt lat="49.950637" lon="17.873706"><ele>259.75</ele></trkpt>
   <trkpt lat="49.949901" lon="17.873962"><ele>259</ele></trkpt>
   <trkpt lat="49.94972" lon="17.874022"><ele>258.75</ele></trkpt>
   <trkpt lat="49.949413" lon="17.874129"><ele>260.75</ele></trkpt>
   <trkpt lat="49.94921" lon="17.874199"><ele>261.5</ele></trkpt>
   <trkpt lat="49.948162" lon="17.874561"><ele>266.25</ele></trkpt>
   <trkpt lat="49.947959" lon="17.874645"><ele>266</ele></trkpt>
   <trkpt lat="49.947701" lon="17.874766"><ele>265.75</ele></trkpt>
   <trkpt lat="49.947581" lon="17.874835"><ele>266.25</ele></trkpt>
   <trkpt lat="49.947367" lon="17.874981"><ele>265.5</ele></trkpt>
   <trkpt lat="49.947081" lon="17.87523"><ele>266</ele></trkpt>
   <trkpt lat="49.947009" lon="17.875303"><ele>265.75</ele></trkpt>
   <trkpt lat="49.946822" lon="17.875518"><ele>266</ele></trkpt>
   <trkpt lat="49.946668" lon="17.875724"><ele>266.25</ele></trkpt>
   <trkpt lat="49.946523" lon="17.875946"><ele>266.75</ele></trkpt>
   <trkpt lat="49.946441" lon="17.876085"><ele>266.75</ele></trkpt>
   <trkpt lat="49.946302" lon="17.876354"><ele>266.75</ele></trkpt>
   <trkpt lat="49.946233" lon="17.8765"><ele>266.75</ele></trkpt>
   <trkpt lat="49.946163" lon="17.87667"><ele>266.75</ele></trkpt>
   <trkpt lat="49.94599" lon="17.87715"><ele>266.5</ele></trkpt>
   <trkpt lat="49.945927" lon="17.877343"><ele>266.5</ele></trkpt>
   <trkpt lat="49.945393" lon="17.879105"><ele>267.75</ele></trkpt>
   <trkpt lat="49.94513" lon="17.87998"><ele>269</ele></trkpt>
   <trkpt lat="49.944983" lon="17.880456"><ele>268.5</ele></trkpt>
   <trkpt lat="49.9449" lon="17.8807"><ele>269.25</ele></trkpt>
   <trkpt lat="49.944805" lon="17.880948"><ele>270</ele></trkpt>
   <trkpt lat="49.944686" lon="17.881221"><ele>269.5</ele></trkpt>
   <trkpt lat="49.944534" lon="17.881509"><ele>269</ele></trkpt>
   <trkpt lat="49.944353" lon="17.881792"><ele>268.75</ele></trkpt>
   <trkpt lat="49.944248" lon="17.881938"><ele>268.5</ele></trkpt>
   <trkpt lat="49.944005" lon="17.882244"><ele>268.75</ele></trkpt>
   <trkpt lat="49.943847" lon="17.882428"><ele>269</ele></trkpt>
   <trkpt lat="49.943599" lon="17.882722"><ele>269</ele></trkpt>
  </trkseg>
 </trk>
</gpx>