<?xml version="1.0" encoding="UTF-8"?>
<!-- track-length = 68 filtered ascend = 0 plain-ascend = 0 cost=136 energy=0.0kwh time=5s -->
<gpx 
 xmlns="http://www.topografix.com/GPX/1/1" 
 xmlns:xsi="http://www.w3.org/2001/XMLSchema-instance" 
 xsi:schemaLocation="http://www.topografix.com/GPX/1/1 http://www.topografix.com/GPX/1/1/gpx.xsd" 
 version="1.1" 
 creator="BRouter-Web 0.18.1">
 <trk>
  <name>Hohenschönhauser Straße (Steig Nordost-Südost) - Abzweig Altenhofer Straße Weiche 112</name>
  <trkseg>
   <trkpt lat="52.536478" lon="13.474821"><ele>57</ele></trkpt>
   <trkpt lat="52.536479" lon="13.474825"><ele>57</ele></trkpt>
   <trkpt lat="52.536531" lon="13.475"><ele>57</ele></trkpt>
   <trkpt lat="52.536553" lon="13.475076"><ele>56.75</ele></trkpt>
   <trkpt lat="52.53657" lon="13.475131"><ele>56.5</ele></trkpt>
   <trkpt lat="52.536746" lon="13.475718"><ele>56</ele></trkpt>
  </trkseg>
 </trk>
</gpx>