<?xml version="1.0" encoding="UTF-8"?>
<!-- track-length = 87 filtered ascend = 0 plain-ascend = 0 cost=174 energy=0.0kwh time=7s -->
<gpx 
 xmlns="http://www.topografix.com/GPX/1/1" 
 xmlns:xsi="http://www.w3.org/2001/XMLSchema-instance" 
 xsi:schemaLocation="http://www.topografix.com/GPX/1/1 http://www.topografix.com/GPX/1/1/gpx.xsd" 
 version="1.1" 
 creator="BRouter-Web 0.18.1">
 <trk>
  <name>Dreieck Kaarlenkatu Weiche Süd-Ost - Dreieck Kaarlenkatu Weiche Nordost-Süd</name>
  <trkseg>
   <trkpt lat="60.186359" lon="24.95142"><ele>18</ele></trkpt>
   <trkpt lat="60.186359" lon="24.951421"><ele>18</ele></trkpt>
   <trkpt lat="60.186435" lon="24.951411"><ele>18</ele></trkpt>
   <trkpt lat="60.186556" lon="24.951395"><ele>18</ele></trkpt>
   <trkpt lat="60.186697" lon="24.951387"><ele>17.75</ele></trkpt>
   <trkpt lat="60.186755" lon="24.951403"><ele>17.5</ele></trkpt>
   <trkpt lat="60.186783" lon="24.951425"><ele>17.5</ele></trkpt>
   <trkpt lat="60.186809" lon="24.951456"><ele>17.5</ele></trkpt>
   <trkpt lat="60.18686" lon="24.951544"><ele>17.5</ele></trkpt>
   <trkpt lat="60.186889" lon="24.95164"><ele>17.75</ele></trkpt>
   <trkpt lat="60.1869" lon="24.951703"><ele>18</ele></trkpt>
   <trkpt lat="60.186933" lon="24.952021"><ele>18</ele></trkpt>
  </trkseg>
 </trk>
</gpx>
