<?xml version="1.0" encoding="UTF-8"?>
<!-- track-length = 185 filtered ascend = 0 plain-ascend = -2 cost=370 energy=0.0kwh time=15s -->
<gpx 
 xmlns="http://www.topografix.com/GPX/1/1" 
 xmlns:xsi="http://www.w3.org/2001/XMLSchema-instance" 
 xsi:schemaLocation="http://www.topografix.com/GPX/1/1 http://www.topografix.com/GPX/1/1/gpx.xsd" 
 version="1.1" 
 creator="BRouter-Web 0.18.1">
 <trk>
  <name>Abzweig Töölöntulli Weiche Südwest - Abzweig Mannerheimintie/Reijolankatu Weiche Südwest</name>
  <trkseg>
   <trkpt lat="60.19099" lon="24.913442"><ele>15</ele></trkpt>
   <trkpt lat="60.19099" lon="24.913444"><ele>15</ele></trkpt>
   <trkpt lat="60.190492" lon="24.914565"><ele>13</ele></trkpt>
   <trkpt lat="60.190421" lon="24.914751"><ele>13</ele></trkpt>
   <trkpt lat="60.190313" lon="24.915045"><ele>13</ele></trkpt>
   <trkpt lat="60.189904" lon="24.915964"><ele>12</ele></trkpt>
  </trkseg>
 </trk>
</gpx>