<?xml version="1.0" encoding="UTF-8"?>
<!-- track-length = 398 filtered ascend = 0 plain-ascend = -8 cost=796 energy=0.0kwh time=32s -->
<gpx 
 xmlns="http://www.topografix.com/GPX/1/1" 
 xmlns:xsi="http://www.w3.org/2001/XMLSchema-instance" 
 xsi:schemaLocation="http://www.topografix.com/GPX/1/1 http://www.topografix.com/GPX/1/1/gpx.xsd" 
 version="1.1" 
 creator="BRouter-Web 0.18.1">
 <trk>
  <name>Arthaberplatz (Steig Südost) - Quellenplatz (Steig Südwest)</name>
  <trkseg>
   <trkpt lat="48.171898" lon="16.371917"><ele>220</ele></trkpt>
   <trkpt lat="48.173336" lon="16.372545"><ele>215.75</ele></trkpt>
   <trkpt lat="48.173407" lon="16.372573"><ele>215.75</ele></trkpt>
   <trkpt lat="48.173459" lon="16.372594"><ele>215.75</ele></trkpt>
   <trkpt lat="48.173544" lon="16.372632"><ele>215.5</ele></trkpt>
   <trkpt lat="48.174811" lon="16.373183"><ele>212.25</ele></trkpt>
   <trkpt lat="48.175152" lon="16.373332"><ele>211.25</ele></trkpt>
   <trkpt lat="48.175326" lon="16.373404"><ele>211</ele></trkpt>
  </trkseg>
 </trk>
</gpx>