<?xml version="1.0" encoding="UTF-8"?>
<!-- track-length = 457 filtered ascend = 0 plain-ascend = 0 cost=914 energy=0.0kwh time=37s -->
<gpx 
 xmlns="http://www.topografix.com/GPX/1/1" 
 xmlns:xsi="http://www.w3.org/2001/XMLSchema-instance" 
 xsi:schemaLocation="http://www.topografix.com/GPX/1/1 http://www.topografix.com/GPX/1/1/gpx.xsd" 
 version="1.1" 
 creator="BRouter-Web 0.18.1">
 <trk>
  <name>Neilreichstraße/Trostgasse (Steig Ost) - Laxenburger Straße/Troststraße (Steig Südwest)</name>
  <trkseg>
   <trkpt lat="48.169792" lon="16.364328"><ele>230.5</ele></trkpt>
   <trkpt lat="48.169844" lon="16.364341"><ele>230.5</ele></trkpt>
   <trkpt lat="48.169898" lon="16.364388"><ele>230.25</ele></trkpt>
   <trkpt lat="48.169904" lon="16.364397"><ele>230.25</ele></trkpt>
   <trkpt lat="48.169926" lon="16.364438"><ele>230.25</ele></trkpt>
   <trkpt lat="48.169947" lon="16.364508"><ele>230</ele></trkpt>
   <trkpt lat="48.169954" lon="16.364589"><ele>230</ele></trkpt>
   <trkpt lat="48.169944" lon="16.364713"><ele>230</ele></trkpt>
   <trkpt lat="48.169814" lon="16.365612"><ele>230</ele></trkpt>
   <trkpt lat="48.169667" lon="16.366634"><ele>230</ele></trkpt>
   <trkpt lat="48.169517" lon="16.367673"><ele>230</ele></trkpt>
   <trkpt lat="48.16941" lon="16.368427"><ele>230</ele></trkpt>
   <trkpt lat="48.169301" lon="16.369188"><ele>230</ele></trkpt>
   <trkpt lat="48.169285" lon="16.3693"><ele>230</ele></trkpt>
   <trkpt lat="48.169184" lon="16.370003"><ele>229.75</ele></trkpt>
   <trkpt lat="48.169156" lon="16.370194"><ele>229.75</ele></trkpt>
  </trkseg>
 </trk>
</gpx>