<?xml version="1.0" encoding="UTF-8"?>
<!-- track-length = 11 filtered ascend = 0 plain-ascend = 0 cost=22 energy=0.0kwh time=1s -->
<gpx 
 xmlns="http://www.topografix.com/GPX/1/1" 
 xmlns:xsi="http://www.w3.org/2001/XMLSchema-instance" 
 xsi:schemaLocation="http://www.topografix.com/GPX/1/1 http://www.topografix.com/GPX/1/1/gpx.xsd" 
 version="1.1" 
 creator="BRouter-Web 0.18.1">
 <trk>
  <name>Quellenplatz (Steig Südwest) - Kreuz Quellenplatz Weiche 10-16a/67</name>
  <trkseg>
   <trkpt lat="48.175324" lon="16.373404"><ele>211</ele></trkpt>
   <trkpt lat="48.175417" lon="16.373443"><ele>211</ele></trkpt>
  </trkseg>
 </trk>
</gpx>