<?xml version="1.0" encoding="UTF-8"?>
<!-- track-length = 7721 filtered ascend = 10 plain-ascend = 8 cost=16288 energy=0.8kwh time=17m 11.319999999999936s -->
<gpx 
 xmlns="http://www.topografix.com/GPX/1/1" 
 xmlns:xsi="http://www.w3.org/2001/XMLSchema-instance" 
 xsi:schemaLocation="http://www.topografix.com/GPX/1/1 http://www.topografix.com/GPX/1/1/gpx.xsd" 
 version="1.1" 
 creator="BRouter-Web 0.18.1">
 <trk>
  <name>VOR Bus 850 Floridsdorf Bahnhof - Langenzersdorf Bisamberggasse</name>
  <trkseg>
   <trkpt lat="48.257533" lon="16.399494"><ele>162</ele></trkpt>
   <trkpt lat="48.257555" lon="16.399509"><ele>162</ele></trkpt>
   <trkpt lat="48.257595" lon="16.399539"><ele>162.25</ele></trkpt>
   <trkpt lat="48.257721" lon="16.399637"><ele>162.75</ele></trkpt>
   <trkpt lat="48.25773" lon="16.399644"><ele>162.75</ele></trkpt>
   <trkpt lat="48.257747" lon="16.399657"><ele>162.75</ele></trkpt>
   <trkpt lat="48.257826" lon="16.39948"><ele>163</ele></trkpt>
   <trkpt lat="48.258044" lon="16.398992"><ele>163</ele></trkpt>
   <trkpt lat="48.258307" lon="16.398403"><ele>163</ele></trkpt>
   <trkpt lat="48.258308" lon="16.398382"><ele>163</ele></trkpt>
   <trkpt lat="48.258313" lon="16.398324"><ele>163</ele></trkpt>
   <trkpt lat="48.258318" lon="16.398246"><ele>163</ele></trkpt>
   <trkpt lat="48.258287" lon="16.398143"><ele>163</ele></trkpt>
   <trkpt lat="48.258256" lon="16.398041"><ele>163.25</ele></trkpt>
   <trkpt lat="48.258264" lon="16.398022"><ele>163</ele></trkpt>
   <trkpt lat="48.258284" lon="16.397979"><ele>163</ele></trkpt>
   <trkpt lat="48.258301" lon="16.397871"><ele>163</ele></trkpt>
   <trkpt lat="48.258337" lon="16.397582"><ele>163.5</ele></trkpt>
   <trkpt lat="48.258355" lon="16.397029"><ele>164</ele></trkpt>
   <trkpt lat="48.258349" lon="16.396875"><ele>164</ele></trkpt>
   <trkpt lat="48.258342" lon="16.396761"><ele>164</ele></trkpt>
   <trkpt lat="48.258351" lon="16.396672"><ele>164</ele></trkpt>
   <trkpt lat="48.258353" lon="16.39663"><ele>164</ele></trkpt>
   <trkpt lat="48.258381" lon="16.396612"><ele>164</ele></trkpt>
   <trkpt lat="48.258432" lon="16.396586"><ele>164</ele></trkpt>
   <trkpt lat="48.258514" lon="16.396549"><ele>164</ele></trkpt>
   <trkpt lat="48.26027" lon="16.395801"><ele>163.75</ele></trkpt>
   <trkpt lat="48.260269" lon="16.395792"><ele>164</ele></trkpt>
   <trkpt lat="48.260267" lon="16.395774"><ele>164</ele></trkpt>
   <trkpt lat="48.260317" lon="16.395771"><ele>164</ele></trkpt>
   <trkpt lat="48.260354" lon="16.395769"><ele>164</ele></trkpt>
   <trkpt lat="48.260855" lon="16.395616"><ele>164</ele></trkpt>
   <trkpt lat="48.261011" lon="16.395546"><ele>164</ele></trkpt>
   <trkpt lat="48.261081" lon="16.395514"><ele>164</ele></trkpt>
   <trkpt lat="48.261181" lon="16.395483"><ele>164</ele></trkpt>
   <trkpt lat="48.261557" lon="16.395309"><ele>163.75</ele></trkpt>
   <trkpt lat="48.261596" lon="16.395289"><ele>163.75</ele></trkpt>
   <trkpt lat="48.261618" lon="16.39528"><ele>163.75</ele></trkpt>
   <trkpt lat="48.261742" lon="16.39522"><ele>164</ele></trkpt>
   <trkpt lat="48.262293" lon="16.394952"><ele>164</ele></trkpt>
   <trkpt lat="48.262316" lon="16.394942"><ele>164</ele></trkpt>
   <trkpt lat="48.262721" lon="16.394787"><ele>164</ele></trkpt>
   <trkpt lat="48.262767" lon="16.394767"><ele>164</ele></trkpt>
   <trkpt lat="48.262896" lon="16.394712"><ele>164</ele></trkpt>
   <trkpt lat="48.262935" lon="16.394694"><ele>164</ele></trkpt>
   <trkpt lat="48.263209" lon="16.394581"><ele>164</ele></trkpt>
   <trkpt lat="48.263404" lon="16.394521"><ele>164</ele></trkpt>
   <trkpt lat="48.263458" lon="16.394505"><ele>164</ele></trkpt>
   <trkpt lat="48.263652" lon="16.39441"><ele>164</ele></trkpt>
   <trkpt lat="48.263681" lon="16.394395"><ele>164</ele></trkpt>
   <trkpt lat="48.263813" lon="16.39433"><ele>164</ele></trkpt>
   <trkpt lat="48.263883" lon="16.394299"><ele>164</ele></trkpt>
   <trkpt lat="48.263926" lon="16.394279"><ele>164</ele></trkpt>
   <trkpt lat="48.264573" lon="16.393979"><ele>164</ele></trkpt>
   <trkpt lat="48.264944" lon="16.393802"><ele>164.75</ele></trkpt>
   <trkpt lat="48.265205" lon="16.393689"><ele>165</ele></trkpt>
   <trkpt lat="48.265414" lon="16.393612"><ele>164.75</ele></trkpt>
   <trkpt lat="48.265775" lon="16.393472"><ele>164.5</ele></trkpt>
   <trkpt lat="48.265812" lon="16.393458"><ele>164.5</ele></trkpt>
   <trkpt lat="48.265895" lon="16.39341"><ele>164.5</ele></trkpt>
   <trkpt lat="48.265999" lon="16.393352"><ele>164.25</ele></trkpt>
   <trkpt lat="48.266183" lon="16.393249"><ele>164</ele></trkpt>
   <trkpt lat="48.266379" lon="16.393142"><ele>164</ele></trkpt>
   <trkpt lat="48.266555" lon="16.393054"><ele>164.5</ele></trkpt>
   <trkpt lat="48.268344" lon="16.392257"><ele>165</ele></trkpt>
   <trkpt lat="48.268523" lon="16.392178"><ele>165</ele></trkpt>
   <trkpt lat="48.268861" lon="16.392031"><ele>164.5</ele></trkpt>
   <trkpt lat="48.269149" lon="16.391902"><ele>165</ele></trkpt>
   <trkpt lat="48.269198" lon="16.391872"><ele>165</ele></trkpt>
   <trkpt lat="48.269277" lon="16.391813"><ele>165</ele></trkpt>
   <trkpt lat="48.269371" lon="16.391764"><ele>165</ele></trkpt>
   <trkpt lat="48.269453" lon="16.39172"><ele>164.75</ele></trkpt>
   <trkpt lat="48.270122" lon="16.391418"><ele>165</ele></trkpt>
   <trkpt lat="48.271291" lon="16.390868"><ele>164.75</ele></trkpt>
   <trkpt lat="48.271747" lon="16.390675"><ele>165</ele></trkpt>
   <trkpt lat="48.272295" lon="16.390439"><ele>164.75</ele></trkpt>
   <trkpt lat="48.273114" lon="16.390111"><ele>165</ele></trkpt>
   <trkpt lat="48.273155" lon="16.390095"><ele>165</ele></trkpt>
   <trkpt lat="48.273251" lon="16.390056"><ele>165</ele></trkpt>
   <trkpt lat="48.273338" lon="16.390014"><ele>164.75</ele></trkpt>
   <trkpt lat="48.273871" lon="16.389752"><ele>165</ele></trkpt>
   <trkpt lat="48.274385" lon="16.389504"><ele>164.75</ele></trkpt>
   <trkpt lat="48.275103" lon="16.389183"><ele>165</ele></trkpt>
   <trkpt lat="48.2753" lon="16.3891"><ele>165</ele></trkpt>
   <trkpt lat="48.275897" lon="16.388808"><ele>165</ele></trkpt>
   <trkpt lat="48.276587" lon="16.388527"><ele>165</ele></trkpt>
   <trkpt lat="48.276653" lon="16.3885"><ele>165</ele></trkpt>
   <trkpt lat="48.277009" lon="16.388356"><ele>165</ele></trkpt>
   <trkpt lat="48.27716" lon="16.388294"><ele>165</ele></trkpt>
   <trkpt lat="48.277357" lon="16.3882"><ele>164.5</ele></trkpt>
   <trkpt lat="48.277402" lon="16.388179"><ele>164.5</ele></trkpt>
   <trkpt lat="48.277552" lon="16.388107"><ele>164.5</ele></trkpt>
   <trkpt lat="48.277748" lon="16.387998"><ele>165</ele></trkpt>
   <trkpt lat="48.27785" lon="16.387941"><ele>165</ele></trkpt>
   <trkpt lat="48.278278" lon="16.387744"><ele>165</ele></trkpt>
   <trkpt lat="48.278799" lon="16.387507"><ele>165</ele></trkpt>
   <trkpt lat="48.280078" lon="16.386933"><ele>166.25</ele></trkpt>
   <trkpt lat="48.280348" lon="16.386831"><ele>166.5</ele></trkpt>
   <trkpt lat="48.28092" lon="16.386578"><ele>168.5</ele></trkpt>
   <trkpt lat="48.281042" lon="16.386525"><ele>168.5</ele></trkpt>
   <trkpt lat="48.281211" lon="16.386453"><ele>169.5</ele></trkpt>
   <trkpt lat="48.281643" lon="16.386244"><ele>169.75</ele></trkpt>
   <trkpt lat="48.282935" lon="16.385673"><ele>170.5</ele></trkpt>
   <trkpt lat="48.283942" lon="16.385229"><ele>166</ele></trkpt>
   <trkpt lat="48.283953" lon="16.385224"><ele>165.75</ele></trkpt>
   <trkpt lat="48.284225" lon="16.385104"><ele>163.5</ele></trkpt>
   <trkpt lat="48.284255" lon="16.385088"><ele>164.25</ele></trkpt>
   <trkpt lat="48.284336" lon="16.385046"><ele>165.5</ele></trkpt>
   <trkpt lat="48.285314" lon="16.384551"><ele>166</ele></trkpt>
   <trkpt lat="48.285669" lon="16.384356"><ele>166</ele></trkpt>
   <trkpt lat="48.286059" lon="16.384113"><ele>165.75</ele></trkpt>
   <trkpt lat="48.28627" lon="16.383982"><ele>166</ele></trkpt>
   <trkpt lat="48.286703" lon="16.383712"><ele>166</ele></trkpt>
   <trkpt lat="48.286734" lon="16.383693"><ele>166</ele></trkpt>
   <trkpt lat="48.287043" lon="16.383503"><ele>166</ele></trkpt>
   <trkpt lat="48.28723" lon="16.38337"><ele>166</ele></trkpt>
   <trkpt lat="48.287279" lon="16.383335"><ele>166</ele></trkpt>
   <trkpt lat="48.28733" lon="16.383302"><ele>166</ele></trkpt>
   <trkpt lat="48.287369" lon="16.383268"><ele>166</ele></trkpt>
   <trkpt lat="48.287386" lon="16.383254"><ele>166</ele></trkpt>
   <trkpt lat="48.287404" lon="16.383243"><ele>166</ele></trkpt>
   <trkpt lat="48.28748" lon="16.383192"><ele>166</ele></trkpt>
   <trkpt lat="48.287587" lon="16.383117"><ele>166</ele></trkpt>
   <trkpt lat="48.288161" lon="16.382733"><ele>166</ele></trkpt>
   <trkpt lat="48.288919" lon="16.382207"><ele>166.75</ele></trkpt>
   <trkpt lat="48.289132" lon="16.382058"><ele>166.5</ele></trkpt>
   <trkpt lat="48.290106" lon="16.381375"><ele>166.5</ele></trkpt>
   <trkpt lat="48.29101" lon="16.380737"><ele>166.25</ele></trkpt>
   <trkpt lat="48.291134" lon="16.380649"><ele>166.5</ele></trkpt>
   <trkpt lat="48.291253" lon="16.380564"><ele>166.25</ele></trkpt>
   <trkpt lat="48.292429" lon="16.379723"><ele>166.25</ele></trkpt>
   <trkpt lat="48.292863" lon="16.379398"><ele>166.5</ele></trkpt>
   <trkpt lat="48.292914" lon="16.37939"><ele>166.5</ele></trkpt>
   <trkpt lat="48.292953" lon="16.379399"><ele>166.25</ele></trkpt>
   <trkpt lat="48.292981" lon="16.379422"><ele>166.25</ele></trkpt>
   <trkpt lat="48.293013" lon="16.37943"><ele>166</ele></trkpt>
   <trkpt lat="48.293045" lon="16.379425"><ele>166</ele></trkpt>
   <trkpt lat="48.293075" lon="16.379407"><ele>166</ele></trkpt>
   <trkpt lat="48.293099" lon="16.379377"><ele>165.75</ele></trkpt>
   <trkpt lat="48.293117" lon="16.379338"><ele>166</ele></trkpt>
   <trkpt lat="48.293127" lon="16.379293"><ele>166</ele></trkpt>
   <trkpt lat="48.293145" lon="16.379246"><ele>166.25</ele></trkpt>
   <trkpt lat="48.293183" lon="16.379197"><ele>166.25</ele></trkpt>
   <trkpt lat="48.293352" lon="16.379089"><ele>166</ele></trkpt>
   <trkpt lat="48.293477" lon="16.378966"><ele>166.25</ele></trkpt>
   <trkpt lat="48.293583" lon="16.378784"><ele>166.25</ele></trkpt>
   <trkpt lat="48.293697" lon="16.378651"><ele>166.25</ele></trkpt>
   <trkpt lat="48.29616" lon="16.376894"><ele>166.5</ele></trkpt>
   <trkpt lat="48.296393" lon="16.376859"><ele>166</ele></trkpt>
   <trkpt lat="48.296445" lon="16.376854"><ele>166</ele></trkpt>
   <trkpt lat="48.296478" lon="16.376864"><ele>166</ele></trkpt>
   <trkpt lat="48.2965" lon="16.376883"><ele>166</ele></trkpt>
   <trkpt lat="48.296551" lon="16.376893"><ele>166</ele></trkpt>
   <trkpt lat="48.296574" lon="16.376884"><ele>166</ele></trkpt>
   <trkpt lat="48.296613" lon="16.376845"><ele>166.25</ele></trkpt>
   <trkpt lat="48.296627" lon="16.376817"><ele>166.25</ele></trkpt>
   <trkpt lat="48.296641" lon="16.376751"><ele>166.5</ele></trkpt>
   <trkpt lat="48.296689" lon="16.37668"><ele>166.75</ele></trkpt>
   <trkpt lat="48.29699" lon="16.376483"><ele>166</ele></trkpt>
   <trkpt lat="48.297038" lon="16.376448"><ele>166.25</ele></trkpt>
   <trkpt lat="48.29742" lon="16.376187"><ele>166.25</ele></trkpt>
   <trkpt lat="48.297567" lon="16.376064"><ele>166.25</ele></trkpt>
   <trkpt lat="48.297622" lon="16.376028"><ele>166</ele></trkpt>
   <trkpt lat="48.297661" lon="16.376012"><ele>165.75</ele></trkpt>
   <trkpt lat="48.297722" lon="16.376005"><ele>165.5</ele></trkpt>
   <trkpt lat="48.297754" lon="16.376019"><ele>165.25</ele></trkpt>
   <trkpt lat="48.297788" lon="16.376017"><ele>165.25</ele></trkpt>
   <trkpt lat="48.29782" lon="16.376001"><ele>165.25</ele></trkpt>
   <trkpt lat="48.297848" lon="16.37597"><ele>165.25</ele></trkpt>
   <trkpt lat="48.297868" lon="16.375929"><ele>165.25</ele></trkpt>
   <trkpt lat="48.298342" lon="16.375389"><ele>166.25</ele></trkpt>
   <trkpt lat="48.298419" lon="16.375288"><ele>166.25</ele></trkpt>
   <trkpt lat="48.299672" lon="16.374399"><ele>166.75</ele></trkpt>
   <trkpt lat="48.299853" lon="16.374306"><ele>166.75</ele></trkpt>
   <trkpt lat="48.300417" lon="16.374051"><ele>166.25</ele></trkpt>
   <trkpt lat="48.300691" lon="16.373839"><ele>166.5</ele></trkpt>
   <trkpt lat="48.300837" lon="16.373726"><ele>166.5</ele></trkpt>
   <trkpt lat="48.301091" lon="16.373561"><ele>166.75</ele></trkpt>
   <trkpt lat="48.301249" lon="16.373438"><ele>167</ele></trkpt>
   <trkpt lat="48.301287" lon="16.373409"><ele>167</ele></trkpt>
   <trkpt lat="48.301397" lon="16.373324"><ele>167</ele></trkpt>
   <trkpt lat="48.301476" lon="16.373261"><ele>167</ele></trkpt>
   <trkpt lat="48.301599" lon="16.373184"><ele>167</ele></trkpt>
   <trkpt lat="48.301876" lon="16.372988"><ele>166.75</ele></trkpt>
   <trkpt lat="48.301916" lon="16.372956"><ele>166.75</ele></trkpt>
   <trkpt lat="48.3022" lon="16.37275"><ele>166.75</ele></trkpt>
   <trkpt lat="48.302383" lon="16.372581"><ele>166.75</ele></trkpt>
   <trkpt lat="48.302539" lon="16.37239"><ele>166.25</ele></trkpt>
   <trkpt lat="48.3026" lon="16.372299"><ele>166</ele></trkpt>
   <trkpt lat="48.302709" lon="16.3721"><ele>166.25</ele></trkpt>
   <trkpt lat="48.302996" lon="16.371384"><ele>166</ele></trkpt>
   <trkpt lat="48.30307" lon="16.371212"><ele>166</ele></trkpt>
   <trkpt lat="48.303116" lon="16.3711"><ele>166</ele></trkpt>
   <trkpt lat="48.303151" lon="16.371012"><ele>166</ele></trkpt>
   <trkpt lat="48.303611" lon="16.369877"><ele>166.75</ele></trkpt>
   <trkpt lat="48.304099" lon="16.368708"><ele>166.25</ele></trkpt>
   <trkpt lat="48.30431" lon="16.368194"><ele>166.25</ele></trkpt>
   <trkpt lat="48.304356" lon="16.368087"><ele>166.5</ele></trkpt>
   <trkpt lat="48.305283" lon="16.365869"><ele>165.75</ele></trkpt>
   <trkpt lat="48.305555" lon="16.365219"><ele>165.75</ele></trkpt>
   <trkpt lat="48.305932" lon="16.364321"><ele>166</ele></trkpt>
   <trkpt lat="48.306072" lon="16.363983"><ele>165.75</ele></trkpt>
   <trkpt lat="48.306235" lon="16.363596"><ele>166.25</ele></trkpt>
   <trkpt lat="48.306455" lon="16.363108"><ele>166.75</ele></trkpt>
   <trkpt lat="48.306846" lon="16.362199"><ele>166.5</ele></trkpt>
   <trkpt lat="48.307084" lon="16.361658"><ele>167.5</ele></trkpt>
   <trkpt lat="48.307158" lon="16.361489"><ele>167.75</ele></trkpt>
   <trkpt lat="48.307231" lon="16.361323"><ele>168</ele></trkpt>
   <trkpt lat="48.307607" lon="16.360529"><ele>166.75</ele></trkpt>
   <trkpt lat="48.307804" lon="16.360185"><ele>167</ele></trkpt>
   <trkpt lat="48.307815" lon="16.360167"><ele>167</ele></trkpt>
   <trkpt lat="48.307879" lon="16.360067"><ele>167</ele></trkpt>
   <trkpt lat="48.308069" lon="16.359791"><ele>166</ele></trkpt>
   <trkpt lat="48.30822" lon="16.359571"><ele>166</ele></trkpt>
   <trkpt lat="48.308335" lon="16.359387"><ele>166</ele></trkpt>
   <trkpt lat="48.308438" lon="16.359198"><ele>166.25</ele></trkpt>
   <trkpt lat="48.308805" lon="16.358458"><ele>167</ele></trkpt>
   <trkpt lat="48.308881" lon="16.358327"><ele>167</ele></trkpt>
   <trkpt lat="48.309005" lon="16.358134"><ele>167</ele></trkpt>
   <trkpt lat="48.309203" lon="16.357873"><ele>167</ele></trkpt>
   <trkpt lat="48.309669" lon="16.357393"><ele>167</ele></trkpt>
   <trkpt lat="48.309738" lon="16.357327"><ele>167</ele></trkpt>
   <trkpt lat="48.309817" lon="16.357258"><ele>167</ele></trkpt>
   <trkpt lat="48.310273" lon="16.356831"><ele>167</ele></trkpt>
   <trkpt lat="48.311466" lon="16.35569"><ele>168</ele></trkpt>
   <trkpt lat="48.311585" lon="16.355574"><ele>168</ele></trkpt>
   <trkpt lat="48.311766" lon="16.35538"><ele>168</ele></trkpt>
   <trkpt lat="48.311881" lon="16.355198"><ele>167.75</ele></trkpt>
   <trkpt lat="48.311948" lon="16.355039"><ele>168</ele></trkpt>
   <trkpt lat="48.312043" lon="16.35469"><ele>167.75</ele></trkpt>
   <trkpt lat="48.312192" lon="16.354044"><ele>167.25</ele></trkpt>
   <trkpt lat="48.312232" lon="16.353893"><ele>167</ele></trkpt>
   <trkpt lat="48.312282" lon="16.353752"><ele>167.25</ele></trkpt>
   <trkpt lat="48.312343" lon="16.353612"><ele>167</ele></trkpt>
   <trkpt lat="48.31238" lon="16.353538"><ele>167</ele></trkpt>
   <trkpt lat="48.31245" lon="16.353413"><ele>166.75</ele></trkpt>
   <trkpt lat="48.312523" lon="16.353311"><ele>166.75</ele></trkpt>
   <trkpt lat="48.312636" lon="16.353185"><ele>166.25</ele></trkpt>
   <trkpt lat="48.312758" lon="16.353085"><ele>166.75</ele></trkpt>
   <trkpt lat="48.312868" lon="16.35302"><ele>167</ele></trkpt>
   <trkpt lat="48.31298" lon="16.352975"><ele>167</ele></trkpt>
   <trkpt lat="48.313113" lon="16.352957"><ele>167</ele></trkpt>
   <trkpt lat="48.31323" lon="16.35296"><ele>167</ele></trkpt>
   <trkpt lat="48.313376" lon="16.352994"><ele>167</ele></trkpt>
   <trkpt lat="48.313432" lon="16.353016"><ele>167.25</ele></trkpt>
   <trkpt lat="48.313529" lon="16.353068"><ele>167.5</ele></trkpt>
   <trkpt lat="48.313606" lon="16.35312"><ele>167.5</ele></trkpt>
   <trkpt lat="48.313644" lon="16.353155"><ele>167.25</ele></trkpt>
   <trkpt lat="48.314365" lon="16.353879"><ele>168.5</ele></trkpt>
   <trkpt lat="48.314611" lon="16.354107"><ele>169.75</ele></trkpt>
   <trkpt lat="48.314738" lon="16.354212"><ele>170</ele></trkpt>
   <trkpt lat="48.314821" lon="16.354266"><ele>170.25</ele></trkpt>
   <trkpt lat="48.314903" lon="16.354311"><ele>170.5</ele></trkpt>
   <trkpt lat="48.315001" lon="16.354351"><ele>170.5</ele></trkpt>
   <trkpt lat="48.315055" lon="16.354371"><ele>170.25</ele></trkpt>
   <trkpt lat="48.3151" lon="16.354383"><ele>170.25</ele></trkpt>
   <trkpt lat="48.315296" lon="16.354429"><ele>169.75</ele></trkpt>
  </trkseg>
 </trk>
</gpx>