<?xml version="1.0" encoding="UTF-8"?>
<!-- track-length = 145 filtered ascend = 1 plain-ascend = 2 cost=145 energy=0.0kwh time=12s -->
<gpx 
 xmlns="http://www.topografix.com/GPX/1/1" 
 xmlns:xsi="http://www.w3.org/2001/XMLSchema-instance" 
 xsi:schemaLocation="http://www.topografix.com/GPX/1/1 http://www.topografix.com/GPX/1/1/gpx.xsd" 
 version="1.1" 
 creator="BRouter-Web 99.71.0">
 <trk>
  <name>Moltkestraße (Steig Nord) - Abzweig Schleife Innerer Grüngürtel Weiche Nord</name>
  <link href="https://brouter.damsy.net/latest/#map=17/50.93561/6.93563/standard&amp;lonlats=6.933039,50.936508;6.930989,50.93653&amp;nogos=6.781752,51.218852,6&amp;profile=rail">
   <text>BRouter-Web</text>
  </link>
  <trkseg>
   <trkpt lat="50.936508" lon="6.933039"><ele>49</ele></trkpt>
   <trkpt lat="50.936512" lon="6.932826"><ele>49</ele></trkpt>
   <trkpt lat="50.936514" lon="6.932718"><ele>49</ele></trkpt>
   <trkpt lat="50.936514" lon="6.932508"><ele>49</ele></trkpt>
   <trkpt lat="50.936514" lon="6.932372"><ele>49</ele></trkpt>
   <trkpt lat="50.936516" lon="6.931886"><ele>49</ele></trkpt>
   <trkpt lat="50.936517" lon="6.931545"><ele>49.25</ele></trkpt>
   <trkpt lat="50.936525" lon="6.930988"><ele>50.5</ele></trkpt>
  </trkseg>
 </trk>
</gpx>