<?xml version="1.0" encoding="UTF-8"?>
<!-- track-length = 303 filtered ascend = 1 plain-ascend = 1 cost=606 energy=0.0kwh time=24s -->
<gpx 
 xmlns="http://www.topografix.com/GPX/1/1" 
 xmlns:xsi="http://www.w3.org/2001/XMLSchema-instance" 
 xsi:schemaLocation="http://www.topografix.com/GPX/1/1 http://www.topografix.com/GPX/1/1/gpx.xsd" 
 version="1.1" 
 creator="BRouter-Web 0.18.1">
 <trk>
  <name>Dreieck Karl-Lade-/Oderbruchstraße Weiche 556 - S Landsberger Allee (Steig Nordwest)</name>
  <trkseg>
   <trkpt lat="52.529521" lon="13.460424"><ele>51.75</ele></trkpt>
   <trkpt lat="52.529036" lon="13.458224"><ele>51</ele></trkpt>
   <trkpt lat="52.528986" lon="13.457986"><ele>51</ele></trkpt>
   <trkpt lat="52.528964" lon="13.457887"><ele>51.25</ele></trkpt>
   <trkpt lat="52.528923" lon="13.457693"><ele>51.75</ele></trkpt>
   <trkpt lat="52.528883" lon="13.457508"><ele>51.75</ele></trkpt>
   <trkpt lat="52.528861" lon="13.457401"><ele>52</ele></trkpt>
   <trkpt lat="52.528619" lon="13.456208"><ele>52.75</ele></trkpt>
  </trkseg>
 </trk>
</gpx>