<?xml version="1.0" encoding="UTF-8"?>
<!-- track-length = 77 filtered ascend = 0 plain-ascend = 0 cost=154 energy=0.0kwh time=6s -->
<gpx 
 xmlns="http://www.topografix.com/GPX/1/1" 
 xmlns:xsi="http://www.w3.org/2001/XMLSchema-instance" 
 xsi:schemaLocation="http://www.topografix.com/GPX/1/1 http://www.topografix.com/GPX/1/1/gpx.xsd" 
 version="1.1" 
 creator="BRouter-Web 0.18.1">
 <trk>
  <name>Dreieck Karl-Lade-/Oderbruchstraße Weiche 202 - Dreieck Karl-Lade-/Oderbruchstraße Weiche 556</name>
  <trkseg>
   <trkpt lat="52.529434" lon="13.461503"><ele>52</ele></trkpt>
   <trkpt lat="52.529435" lon="13.461502"><ele>52</ele></trkpt>
   <trkpt lat="52.529451" lon="13.461402"><ele>52</ele></trkpt>
   <trkpt lat="52.529465" lon="13.461317"><ele>51.75</ele></trkpt>
   <trkpt lat="52.529484" lon="13.461203"><ele>52</ele></trkpt>
   <trkpt lat="52.529496" lon="13.461134"><ele>52</ele></trkpt>
   <trkpt lat="52.529502" lon="13.461097"><ele>52</ele></trkpt>
   <trkpt lat="52.529535" lon="13.460892"><ele>52</ele></trkpt>
   <trkpt lat="52.529549" lon="13.46076"><ele>52</ele></trkpt>
   <trkpt lat="52.529548" lon="13.460628"><ele>52</ele></trkpt>
   <trkpt lat="52.529536" lon="13.460501"><ele>52</ele></trkpt>
   <trkpt lat="52.529522" lon="13.460428"><ele>52</ele></trkpt>
   <trkpt lat="52.529521" lon="13.460424"><ele>51</ele></trkpt>
  </trkseg>
 </trk>
</gpx>