<?xml version="1.0" encoding="UTF-8"?>
<!-- track-length = 13 filtered ascend = 0 plain-ascend = 0 cost=26 energy=0.0kwh time=1s -->
<gpx 
 xmlns="http://www.topografix.com/GPX/1/1" 
 xmlns:xsi="http://www.w3.org/2001/XMLSchema-instance" 
 xsi:schemaLocation="http://www.topografix.com/GPX/1/1 http://www.topografix.com/GPX/1/1/gpx.xsd" 
 version="1.1" 
 creator="BRouter-Web 0.18.1">
 <trk>
  <name>Bahnhof SBB Weiche 194 - Bahnhof SBB Weiche 141</name>
  <trkseg>
   <trkpt lat="47.548806" lon="7.591188"><ele>278</ele></trkpt>
   <trkpt lat="47.548805" lon="7.591187"><ele>278</ele></trkpt>
   <trkpt lat="47.548757" lon="7.591104"><ele>278</ele></trkpt>
   <trkpt lat="47.548733" lon="7.591061"><ele>278</ele></trkpt>
  </trkseg>
 </trk>
</gpx>