<?xml version="1.0" encoding="UTF-8"?>
<!-- track-length = 57 filtered ascend = 0 plain-ascend = 0 cost=114 energy=0.0kwh time=5s -->
<gpx 
 xmlns="http://www.topografix.com/GPX/1/1" 
 xmlns:xsi="http://www.w3.org/2001/XMLSchema-instance" 
 xsi:schemaLocation="http://www.topografix.com/GPX/1/1 http://www.topografix.com/GPX/1/1/gpx.xsd" 
 version="1.1" 
 creator="BRouter-Web 0.18.1">
 <trk>
  <name>Bahnhof SBB Weiche 141 - Bahnhof SBB Weiche 339</name>
  <trkseg>
   <trkpt lat="47.548733" lon="7.591061"><ele>278</ele></trkpt>
   <trkpt lat="47.548731" lon="7.591057"><ele>278</ele></trkpt>
   <trkpt lat="47.548713" lon="7.591026"><ele>278</ele></trkpt>
   <trkpt lat="47.548678" lon="7.590912"><ele>278.5</ele></trkpt>
   <trkpt lat="47.548666" lon="7.590779"><ele>278.5</ele></trkpt>
   <trkpt lat="47.548667" lon="7.59067"><ele>278.25</ele></trkpt>
   <trkpt lat="47.548666" lon="7.590623"><ele>278.25</ele></trkpt>
   <trkpt lat="47.548663" lon="7.590576"><ele>278</ele></trkpt>
   <trkpt lat="47.548648" lon="7.590506"><ele>278.25</ele></trkpt>
   <trkpt lat="47.548617" lon="7.590438"><ele>278.25</ele></trkpt>
   <trkpt lat="47.548605" lon="7.590421"><ele>278.25</ele></trkpt>
   <trkpt lat="47.548584" lon="7.590397"><ele>278.5</ele></trkpt>
   <trkpt lat="47.548576" lon="7.590391"><ele>278.25</ele></trkpt>
  </trkseg>
 </trk>
</gpx>