<?xml version="1.0" encoding="UTF-8"?>
<!-- track-length = 329 filtered ascend = 1 plain-ascend = 1 cost=658 energy=0.0kwh time=26s -->
<gpx 
 xmlns="http://www.topografix.com/GPX/1/1" 
 xmlns:xsi="http://www.w3.org/2001/XMLSchema-instance" 
 xsi:schemaLocation="http://www.topografix.com/GPX/1/1 http://www.topografix.com/GPX/1/1/gpx.xsd" 
 version="1.1" 
 creator="BRouter-Web 0.18.1">
 <trk>
  <name>Maria (Steig Ost) - Arkadiankatu (Steig Ost)</name>
  <trkseg>
   <trkpt lat="60.169047" lon="24.921066"><ele>8</ele></trkpt>
   <trkpt lat="60.169112" lon="24.921058"><ele>8</ele></trkpt>
   <trkpt lat="60.169131" lon="24.921055"><ele>8</ele></trkpt>
   <trkpt lat="60.169171" lon="24.921051"><ele>8</ele></trkpt>
   <trkpt lat="60.169267" lon="24.921037"><ele>8</ele></trkpt>
   <trkpt lat="60.169316" lon="24.921033"><ele>8</ele></trkpt>
   <trkpt lat="60.169426" lon="24.921006"><ele>8</ele></trkpt>
   <trkpt lat="60.169712" lon="24.920916"><ele>8</ele></trkpt>
   <trkpt lat="60.169801" lon="24.920887"><ele>8</ele></trkpt>
   <trkpt lat="60.169831" lon="24.920877"><ele>8</ele></trkpt>
   <trkpt lat="60.169984" lon="24.920831"><ele>8</ele></trkpt>
   <trkpt lat="60.170035" lon="24.920816"><ele>8</ele></trkpt>
   <trkpt lat="60.170057" lon="24.92081"><ele>8</ele></trkpt>
   <trkpt lat="60.170116" lon="24.920791"><ele>8</ele></trkpt>
   <trkpt lat="60.170164" lon="24.920776"><ele>8</ele></trkpt>
   <trkpt lat="60.170295" lon="24.920734"><ele>8</ele></trkpt>
   <trkpt lat="60.171445" lon="24.920385"><ele>8</ele></trkpt>
   <trkpt lat="60.171485" lon="24.920372"><ele>8</ele></trkpt>
   <trkpt lat="60.17157" lon="24.920337"><ele>8</ele></trkpt>
   <trkpt lat="60.171673" lon="24.920293"><ele>8</ele></trkpt>
   <trkpt lat="60.17169" lon="24.920284"><ele>8</ele></trkpt>
   <trkpt lat="60.17197" lon="24.920137"><ele>9</ele></trkpt>
  </trkseg>
 </trk>
</gpx>