<?xml version="1.0" encoding="UTF-8"?>
<!-- track-length = 429 filtered ascend = 4 plain-ascend = 5 cost=858 energy=0.0kwh time=34s -->
<gpx 
 xmlns="http://www.topografix.com/GPX/1/1" 
 xmlns:xsi="http://www.w3.org/2001/XMLSchema-instance" 
 xsi:schemaLocation="http://www.topografix.com/GPX/1/1 http://www.topografix.com/GPX/1/1/gpx.xsd" 
 version="1.1" 
 creator="BRouter-Web 0.18.1">
 <trk>
  <name>Abzweig Marientunnel Weiche Süd - Scheuerlstraße (Steig Nordwest)</name>
  <trkseg>
   <trkpt lat="49.447628" lon="11.088586"><ele>305.5</ele></trkpt>
   <trkpt lat="49.447631" lon="11.088592"><ele>305.5</ele></trkpt>
   <trkpt lat="49.447655" lon="11.088681"><ele>305.5</ele></trkpt>
   <trkpt lat="49.447662" lon="11.088729"><ele>305.5</ele></trkpt>
   <trkpt lat="49.447659" lon="11.08883"><ele>305.25</ele></trkpt>
   <trkpt lat="49.447645" lon="11.088901"><ele>305.25</ele></trkpt>
   <trkpt lat="49.447621" lon="11.08897"><ele>305.25</ele></trkpt>
   <trkpt lat="49.447598" lon="11.089013"><ele>305.25</ele></trkpt>
   <trkpt lat="49.447563" lon="11.089056"><ele>305.25</ele></trkpt>
   <trkpt lat="49.447507" lon="11.089097"><ele>305</ele></trkpt>
   <trkpt lat="49.44749" lon="11.089104"><ele>305.25</ele></trkpt>
   <trkpt lat="49.447449" lon="11.089118"><ele>306</ele></trkpt>
   <trkpt lat="49.447417" lon="11.089128"><ele>306.75</ele></trkpt>
   <trkpt lat="49.446397" lon="11.089306"><ele>306.5</ele></trkpt>
   <trkpt lat="49.446322" lon="11.089314"><ele>306.25</ele></trkpt>
   <trkpt lat="49.446157" lon="11.089313"><ele>306</ele></trkpt>
   <trkpt lat="49.446033" lon="11.089301"><ele>306.25</ele></trkpt>
   <trkpt lat="49.445137" lon="11.089182"><ele>308.5</ele></trkpt>
   <trkpt lat="49.445024" lon="11.089148"><ele>308.75</ele></trkpt>
   <trkpt lat="49.444789" lon="11.089036"><ele>309.25</ele></trkpt>
   <trkpt lat="49.444734" lon="11.089008"><ele>309.5</ele></trkpt>
   <trkpt lat="49.444123" lon="11.088723"><ele>310</ele></trkpt>
   <trkpt lat="49.444115" lon="11.088719"><ele>310</ele></trkpt>
  </trkseg>
 </trk>
</gpx>