<?xml version="1.0" encoding="UTF-8"?>
<!-- track-length = 86 filtered ascend = 0 plain-ascend = 0 cost=172 energy=0.0kwh time=7s -->
<gpx 
 xmlns="http://www.topografix.com/GPX/1/1" 
 xmlns:xsi="http://www.w3.org/2001/XMLSchema-instance" 
 xsi:schemaLocation="http://www.topografix.com/GPX/1/1 http://www.topografix.com/GPX/1/1/gpx.xsd" 
 version="1.1" 
 creator="BRouter-Web 0.18.1">
 <trk>
  <name>Scheuerlstraße (Steig Nordwest) - Dreieck Allersberger Straße/Scheuristraße Weiche Nordost-West</name>
  <trkseg>
   <trkpt lat="49.444114" lon="11.088718"><ele>310</ele></trkpt>
   <trkpt lat="49.443723" lon="11.088521"><ele>310</ele></trkpt>
   <trkpt lat="49.44365" lon="11.088489"><ele>310</ele></trkpt>
   <trkpt lat="49.443372" lon="11.088363"><ele>310</ele></trkpt>
  </trkseg>
 </trk>
</gpx>