<?xml version="1.0" encoding="UTF-8"?>
<!-- track-length = 77 filtered ascend = 0 plain-ascend = 0 cost=156 energy=0.0kwh time=6s -->
<gpx 
 xmlns="http://www.topografix.com/GPX/1/1" 
 xmlns:xsi="http://www.w3.org/2001/XMLSchema-instance" 
 xsi:schemaLocation="http://www.topografix.com/GPX/1/1 http://www.topografix.com/GPX/1/1/gpx.xsd" 
 version="1.1" 
 creator="BRouter-Web 0.18.1">
 <trk>
  <name>Tahitinkatu (Steig Nordost) - Tahitinkatu Weiche Nordwest</name>
  <trkseg>
   <trkpt lat="60.152957" lon="24.90875"><ele>3</ele></trkpt>
   <trkpt lat="60.153289" lon="24.908476"><ele>3</ele></trkpt>
   <trkpt lat="60.153348" lon="24.908441"><ele>3</ele></trkpt>
   <trkpt lat="60.153409" lon="24.908433"><ele>2.75</ele></trkpt>
   <trkpt lat="60.153448" lon="24.908447"><ele>3</ele></trkpt>
   <trkpt lat="60.153507" lon="24.9085"><ele>3</ele></trkpt>
   <trkpt lat="60.153542" lon="24.908553"><ele>3</ele></trkpt>
   <trkpt lat="60.153581" lon="24.908659"><ele>3</ele></trkpt>
  </trkseg>
 </trk>
</gpx>