<?xml version="1.0" encoding="UTF-8"?>
<!-- track-length = 36 filtered ascend = 0 plain-ascend = 0 cost=72 energy=0.0kwh time=3s -->
<gpx 
 xmlns="http://www.topografix.com/GPX/1/1" 
 xmlns:xsi="http://www.w3.org/2001/XMLSchema-instance" 
 xsi:schemaLocation="http://www.topografix.com/GPX/1/1 http://www.topografix.com/GPX/1/1/gpx.xsd" 
 version="1.1" 
 creator="BRouter-Web 0.18.1">
 <trk>
  <name>Tahitinkatu Weiche Nordwest - Abzweig Kanariankatu Weiche Südwest</name>
  <trkseg>
   <trkpt lat="60.153581" lon="24.908659"><ele>3</ele></trkpt>
   <trkpt lat="60.15374" lon="24.909213"><ele>3.25</ele></trkpt>
  </trkseg>
 </trk>
</gpx>