<?xml version="1.0" encoding="UTF-8"?>
<!-- track-length = 291 filtered ascend = 0 plain-ascend = 0 cost=291 energy=0.0kwh time=23s -->
<gpx 
 xmlns="http://www.topografix.com/GPX/1/1" 
 xmlns:xsi="http://www.w3.org/2001/XMLSchema-instance" 
 xsi:schemaLocation="http://www.topografix.com/GPX/1/1 http://www.topografix.com/GPX/1/1/gpx.xsd" 
 version="1.1" 
 creator="BRouter-Web 0.18.1">
 <trk>
  <name>Cruyslei (Steig Süd) - Jozef Verboven (Steig Südost)</name>
  <trkseg>
   <trkpt lat="51.198813" lon="4.458342"><ele>9</ele></trkpt>
   <trkpt lat="51.198814" lon="4.45837"><ele>9</ele></trkpt>
   <trkpt lat="51.19883" lon="4.459454"><ele>9</ele></trkpt>
   <trkpt lat="51.198843" lon="4.459549"><ele>9</ele></trkpt>
   <trkpt lat="51.198876" lon="4.459647"><ele>9</ele></trkpt>
   <trkpt lat="51.198912" lon="4.459708"><ele>9</ele></trkpt>
   <trkpt lat="51.19893" lon="4.459725"><ele>9</ele></trkpt>
   <trkpt lat="51.198977" lon="4.459754"><ele>9</ele></trkpt>
   <trkpt lat="51.19901" lon="4.459764"><ele>9</ele></trkpt>
   <trkpt lat="51.200092" lon="4.459953"><ele>9</ele></trkpt>
   <trkpt lat="51.200214" lon="4.459984"><ele>9</ele></trkpt>
   <trkpt lat="51.200336" lon="4.460035"><ele>9</ele></trkpt>
   <trkpt lat="51.200358" lon="4.460047"><ele>9</ele></trkpt>
   <trkpt lat="51.200595" lon="4.460161"><ele>9</ele></trkpt>
  </trkseg>
 </trk>
</gpx>