<?xml version="1.0" encoding="UTF-8"?>
<!-- track-length = 6 filtered ascend = 0 plain-ascend = 0 cost=6 energy=0.0kwh time= -->
<gpx 
 xmlns="http://www.topografix.com/GPX/1/1" 
 xmlns:xsi="http://www.w3.org/2001/XMLSchema-instance" 
 xsi:schemaLocation="http://www.topografix.com/GPX/1/1 http://www.topografix.com/GPX/1/1/gpx.xsd" 
 version="1.1" 
 creator="BRouter-Web 0.18.1">
 <trk>
  <name>Florent Pauwels (Steig Südwest) - Kreuz Florent Pauwels Weiche Südwest-nach-Südost-Südwest</name>
  <trkseg>
   <trkpt lat="51.205453" lon="4.47097"><ele>8.25</ele></trkpt>
   <trkpt lat="51.20547" lon="4.470978"><ele>8.25</ele></trkpt>
   <trkpt lat="51.205508" lon="4.470995"><ele>8</ele></trkpt>
  </trkseg>
 </trk>
</gpx>