<?xml version="1.0" encoding="UTF-8"?>
<!-- track-length = 336 filtered ascend = 0 plain-ascend = 0 cost=336 energy=0.0kwh time=27s -->
<gpx 
 xmlns="http://www.topografix.com/GPX/1/1" 
 xmlns:xsi="http://www.w3.org/2001/XMLSchema-instance" 
 xsi:schemaLocation="http://www.topografix.com/GPX/1/1 http://www.topografix.com/GPX/1/1/gpx.xsd" 
 version="1.1" 
 creator="BRouter-Web 0.18.1">
 <trk>
  <name>Te Boelaarpark (Steig Südwest) - Cruyslei (Steig Süd)</name>
  <trkseg>
   <trkpt lat="51.198343" lon="4.45384"><ele>9</ele></trkpt>
   <trkpt lat="51.198327" lon="4.453897"><ele>9</ele></trkpt>
   <trkpt lat="51.19826" lon="4.454118"><ele>9.25</ele></trkpt>
   <trkpt lat="51.19824" lon="4.454212"><ele>9.25</ele></trkpt>
   <trkpt lat="51.198235" lon="4.454247"><ele>9.25</ele></trkpt>
   <trkpt lat="51.198231" lon="4.454332"><ele>9</ele></trkpt>
   <trkpt lat="51.198241" lon="4.454427"><ele>9</ele></trkpt>
   <trkpt lat="51.198264" lon="4.454507"><ele>9</ele></trkpt>
   <trkpt lat="51.1983" lon="4.454589"><ele>9</ele></trkpt>
   <trkpt lat="51.198469" lon="4.454897"><ele>9</ele></trkpt>
   <trkpt lat="51.19858" lon="4.455143"><ele>9</ele></trkpt>
   <trkpt lat="51.198664" lon="4.455405"><ele>9</ele></trkpt>
   <trkpt lat="51.198738" lon="4.455747"><ele>9.5</ele></trkpt>
   <trkpt lat="51.198761" lon="4.455922"><ele>9.25</ele></trkpt>
   <trkpt lat="51.198782" lon="4.456185"><ele>9.25</ele></trkpt>
   <trkpt lat="51.198792" lon="4.456594"><ele>9.25</ele></trkpt>
   <trkpt lat="51.198807" lon="4.457838"><ele>9</ele></trkpt>
   <trkpt lat="51.198813" lon="4.458342"><ele>9</ele></trkpt>
  </trkseg>
 </trk>
</gpx>