<?xml version="1.0" encoding="UTF-8"?>
<!-- track-length = 438 filtered ascend = 0 plain-ascend = 0 cost=438 energy=0.0kwh time=35s -->
<gpx 
 xmlns="http://www.topografix.com/GPX/1/1" 
 xmlns:xsi="http://www.w3.org/2001/XMLSchema-instance" 
 xsi:schemaLocation="http://www.topografix.com/GPX/1/1 http://www.topografix.com/GPX/1/1/gpx.xsd" 
 version="1.1" 
 creator="BRouter-Web 0.18.1">
 <trk>
  <name>Van Den Hautelei (Steig Süd) - Florent Pauwels (Steig Südwest)</name>
  <trkseg>
   <trkpt lat="51.202517" lon="4.46776"><ele>9</ele></trkpt>
   <trkpt lat="51.202513" lon="4.467838"><ele>9</ele></trkpt>
   <trkpt lat="51.20251" lon="4.467933"><ele>9</ele></trkpt>
   <trkpt lat="51.202515" lon="4.4681"><ele>9</ele></trkpt>
   <trkpt lat="51.202535" lon="4.468346"><ele>9</ele></trkpt>
   <trkpt lat="51.202583" lon="4.468651"><ele>9</ele></trkpt>
   <trkpt lat="51.202628" lon="4.468836"><ele>9</ele></trkpt>
   <trkpt lat="51.202714" lon="4.469102"><ele>9</ele></trkpt>
   <trkpt lat="51.202817" lon="4.469338"><ele>9</ele></trkpt>
   <trkpt lat="51.202898" lon="4.469483"><ele>9</ele></trkpt>
   <trkpt lat="51.202984" lon="4.469613"><ele>9</ele></trkpt>
   <trkpt lat="51.203069" lon="4.469725"><ele>9</ele></trkpt>
   <trkpt lat="51.203214" lon="4.469871"><ele>9</ele></trkpt>
   <trkpt lat="51.203382" lon="4.469999"><ele>9</ele></trkpt>
   <trkpt lat="51.2035" lon="4.470064"><ele>9</ele></trkpt>
   <trkpt lat="51.204232" lon="4.470404"><ele>9</ele></trkpt>
   <trkpt lat="51.205076" lon="4.470793"><ele>9</ele></trkpt>
   <trkpt lat="51.205455" lon="4.47097"><ele>8.25</ele></trkpt>
  </trkseg>
 </trk>
</gpx>