<?xml version="1.0" encoding="UTF-8"?>
<!-- track-length = 1035 filtered ascend = 6 plain-ascend = 6 cost=2070 energy=0.0kwh time=1m 23s -->
<gpx 
 xmlns="http://www.topografix.com/GPX/1/1" 
 xmlns:xsi="http://www.w3.org/2001/XMLSchema-instance" 
 xsi:schemaLocation="http://www.topografix.com/GPX/1/1 http://www.topografix.com/GPX/1/1/gpx.xsd" 
 version="1.1" 
 creator="BRouter-Web 99.71.0">
 <trk>
  <name>Abzweig Itäkeskus Weiche D18 - Üst Itäkeskus M2-Nord Süd Weiche G9</name>
  <link href="https://brouter.damsy.net/latest/#map=18/60.21857/25.08408/standard&amp;lonlats=25.079752,60.210585;25.082368,60.218772&amp;profile=rail">
   <text>BRouter-Web</text>
  </link>
  <trkseg>
   <trkpt lat="60.210585" lon="25.07975"><ele>5.5</ele></trkpt>
   <trkpt lat="60.210587" lon="25.079758"><ele>5.5</ele></trkpt>
   <trkpt lat="60.210812" lon="25.080636"><ele>5.5</ele></trkpt>
   <trkpt lat="60.211052" lon="25.081446"><ele>5.5</ele></trkpt>
   <trkpt lat="60.211338" lon="25.082162"><ele>5.5</ele></trkpt>
   <trkpt lat="60.211781" lon="25.082908"><ele>5.5</ele></trkpt>
   <trkpt lat="60.212085" lon="25.083283"><ele>5.5</ele></trkpt>
   <trkpt lat="60.2126" lon="25.083744"><ele>5.5</ele></trkpt>
   <trkpt lat="60.212941" lon="25.083999"><ele>5.5</ele></trkpt>
   <trkpt lat="60.213222" lon="25.084168"><ele>5.5</ele></trkpt>
   <trkpt lat="60.213515" lon="25.084296"><ele>5.5</ele></trkpt>
   <trkpt lat="60.213843" lon="25.084377"><ele>5.5</ele></trkpt>
   <trkpt lat="60.214228" lon="25.084377"><ele>3.25</ele></trkpt>
   <trkpt lat="60.214595" lon="25.084343"><ele>5</ele></trkpt>
   <trkpt lat="60.215066" lon="25.084258"><ele>6.5</ele></trkpt>
   <trkpt lat="60.215572" lon="25.084124"><ele>8.25</ele></trkpt>
   <trkpt lat="60.215993" lon="25.083983"><ele>10.5</ele></trkpt>
   <trkpt lat="60.216382" lon="25.083816"><ele>12.25</ele></trkpt>
   <trkpt lat="60.216774" lon="25.083625"><ele>11.25</ele></trkpt>
   <trkpt lat="60.217146" lon="25.083413"><ele>10.5</ele></trkpt>
   <trkpt lat="60.217293" lon="25.083328"><ele>10.25</ele></trkpt>
   <trkpt lat="60.218771" lon="25.082368"><ele>11.25</ele></trkpt>
   <trkpt lat="60.218771" lon="25.082367"><ele>11</ele></trkpt>
  </trkseg>
 </trk>
</gpx>
