<?xml version="1.0" encoding="UTF-8"?>
<!-- track-length = 47 filtered ascend = 0 plain-ascend = 0 cost=94 energy=0.0kwh time=4s -->
<gpx 
 xmlns="http://www.topografix.com/GPX/1/1" 
 xmlns:xsi="http://www.w3.org/2001/XMLSchema-instance" 
 xsi:schemaLocation="http://www.topografix.com/GPX/1/1 http://www.topografix.com/GPX/1/1/gpx.xsd" 
 version="1.1" 
 creator="BRouter-Web 99.71.0">
 <trk>
  <name>Kontula (Gleis Südost) - Üst Kontula Nordost Weiche G7</name>
  <link href="https://brouter.damsy.net/latest/#map=18/60.23633/25.08570/standard&amp;lonlats=25.084173,60.236053;25.084911,60.236267&amp;profile=rail">
   <text>BRouter-Web</text>
  </link>
  <trkseg>
   <trkpt lat="60.236052" lon="25.084172"/>
   <trkpt lat="60.236264" lon="25.084912"/>
  </trkseg>
 </trk>
</gpx>
