<?xml version="1.0" encoding="UTF-8"?>
<!-- track-length = 825 filtered ascend = 12 plain-ascend = 13 cost=1650 energy=0.0kwh time=1m 6s -->
<gpx 
 xmlns="http://www.topografix.com/GPX/1/1" 
 xmlns:xsi="http://www.w3.org/2001/XMLSchema-instance" 
 xsi:schemaLocation="http://www.topografix.com/GPX/1/1 http://www.topografix.com/GPX/1/1/gpx.xsd" 
 version="1.1" 
 creator="BRouter-Web 99.71.0">
 <trk>
  <name>Üst Itäkeskus M2-Nord Nord Weiche G10 - Myllypuro (Gleis Nordost)</name>
  <link href="https://brouter.damsy.net/latest/#map=19/60.22508/25.07622/standard&amp;lonlats=25.082307,60.218865;25.075504,60.225375&amp;profile=rail">
   <text>BRouter-Web</text>
  </link>
  <trkseg>
   <trkpt lat="60.218864" lon="25.082306"><ele>11</ele></trkpt>
   <trkpt lat="60.218867" lon="25.082305"><ele>11</ele></trkpt>
   <trkpt lat="60.220277" lon="25.081379"><ele>11</ele></trkpt>
   <trkpt lat="60.220561" lon="25.081166"><ele>11.75</ele></trkpt>
   <trkpt lat="60.220765" lon="25.080991"><ele>11.5</ele></trkpt>
   <trkpt lat="60.22096" lon="25.080805"><ele>11.75</ele></trkpt>
   <trkpt lat="60.221152" lon="25.080604"><ele>12.5</ele></trkpt>
   <trkpt lat="60.221339" lon="25.080387"><ele>13</ele></trkpt>
   <trkpt lat="60.221599" lon="25.080051"><ele>14.5</ele></trkpt>
   <trkpt lat="60.221784" lon="25.079783"><ele>16.5</ele></trkpt>
   <trkpt lat="60.222093" lon="25.079283"><ele>17.5</ele></trkpt>
   <trkpt lat="60.222544" lon="25.078521"><ele>18.5</ele></trkpt>
   <trkpt lat="60.222991" lon="25.077841"><ele>19.25</ele></trkpt>
   <trkpt lat="60.223336" lon="25.077373"><ele>20</ele></trkpt>
   <trkpt lat="60.223528" lon="25.077152"><ele>20.25</ele></trkpt>
   <trkpt lat="60.223689" lon="25.076983"><ele>20.5</ele></trkpt>
   <trkpt lat="60.223987" lon="25.076704"><ele>21.25</ele></trkpt>
   <trkpt lat="60.225377" lon="25.075531"><ele>23.5</ele></trkpt>
   <trkpt lat="60.22538" lon="25.075528"><ele>23.75</ele></trkpt>
  </trkseg>
 </trk>
</gpx>