<?xml version="1.0" encoding="UTF-8"?>
<!-- track-length = 14 filtered ascend = 0 plain-ascend = 0 cost=28 energy=0.0kwh time=1s -->
<gpx 
 xmlns="http://www.topografix.com/GPX/1/1" 
 xmlns:xsi="http://www.w3.org/2001/XMLSchema-instance" 
 xsi:schemaLocation="http://www.topografix.com/GPX/1/1 http://www.topografix.com/GPX/1/1/gpx.xsd" 
 version="1.1" 
 creator="BRouter-Web 99.71.0">
 <trk>
  <name>Üst Kontula Südwest Weiche G1 - Üst Kontula Südwest Weiche G2</name>
  <link href="https://brouter.damsy.net/latest/#map=20/60.23299/25.07820/standard&amp;lonlats=25.077972,60.23286;25.07808,60.232974&amp;profile=rail">
   <text>BRouter-Web</text>
  </link>
  <trkseg>
   <trkpt lat="60.232859" lon="25.077972"><ele>30.5</ele></trkpt>
   <trkpt lat="60.232972" lon="25.078081"><ele>30.25</ele></trkpt>
  </trkseg>
 </trk>
</gpx>
