<?xml version="1.0" encoding="UTF-8"?>
<!-- track-length = 52 filtered ascend = 0 plain-ascend = 0 cost=104 energy=0.0kwh time=4s -->
<gpx 
 xmlns="http://www.topografix.com/GPX/1/1" 
 xmlns:xsi="http://www.w3.org/2001/XMLSchema-instance" 
 xsi:schemaLocation="http://www.topografix.com/GPX/1/1 http://www.topografix.com/GPX/1/1/gpx.xsd" 
 version="1.1" 
 creator="BRouter-Web 0.18.1">
 <trk>
  <name>Huutokonttori (Steig West-Süd) -  Abzweig Tyynenmerenkatu Weiche Südost</name>
  <trkseg>
   <trkpt lat="60.160207" lon="24.92085"><ele>4</ele></trkpt>
   <trkpt lat="60.160212" lon="24.920959"><ele>4</ele></trkpt>
   <trkpt lat="60.160214" lon="24.920999"><ele>4</ele></trkpt>
   <trkpt lat="60.160227" lon="24.921278"><ele>4</ele></trkpt>
   <trkpt lat="60.16023" lon="24.92135"><ele>4</ele></trkpt>
   <trkpt lat="60.160242" lon="24.921497"><ele>3.75</ele></trkpt>
   <trkpt lat="60.160268" lon="24.921625"><ele>3.75</ele></trkpt>
   <trkpt lat="60.160306" lon="24.921727"><ele>3.5</ele></trkpt>
   <trkpt lat="60.160303" lon="24.92172"><ele>3.75</ele></trkpt>
  </trkseg>
 </trk>
</gpx>