<?xml version="1.0" encoding="UTF-8"?>
<!-- track-length = 334 filtered ascend = 1 plain-ascend = 1 cost=668 energy=0.0kwh time=27s -->
<gpx 
 xmlns="http://www.topografix.com/GPX/1/1" 
 xmlns:xsi="http://www.w3.org/2001/XMLSchema-instance" 
 xsi:schemaLocation="http://www.topografix.com/GPX/1/1 http://www.topografix.com/GPX/1/1/gpx.xsd" 
 version="1.1" 
 creator="BRouter-Web 0.18.1">
 <trk>
  <name>Kreuz Am Brill Weiche 157 - Am Wall (Steig Südost)</name>
  <trkseg>
   <trkpt lat="53.078734" lon="8.800692"><ele>3</ele></trkpt>
   <trkpt lat="53.078736" lon="8.800695"><ele>3</ele></trkpt>
   <trkpt lat="53.078851" lon="8.800884"><ele>3</ele></trkpt>
   <trkpt lat="53.078878" lon="8.800929"><ele>3.25</ele></trkpt>
   <trkpt lat="53.078888" lon="8.800944"><ele>3.25</ele></trkpt>
   <trkpt lat="53.0789" lon="8.800964"><ele>3.25</ele></trkpt>
   <trkpt lat="53.07894" lon="8.801035"><ele>3.75</ele></trkpt>
   <trkpt lat="53.079575" lon="8.802343"><ele>4</ele></trkpt>
   <trkpt lat="53.079835" lon="8.802852"><ele>4</ele></trkpt>
   <trkpt lat="53.079991" lon="8.803135"><ele>4</ele></trkpt>
   <trkpt lat="53.080031" lon="8.803211"><ele>3.75</ele></trkpt>
   <trkpt lat="53.080115" lon="8.803365"><ele>4</ele></trkpt>
   <trkpt lat="53.080163" lon="8.803453"><ele>4</ele></trkpt>
   <trkpt lat="53.08028" lon="8.803681"><ele>4</ele></trkpt>
   <trkpt lat="53.080358" lon="8.803812"><ele>4</ele></trkpt>
   <trkpt lat="53.080536" lon="8.804146"><ele>4</ele></trkpt>
   <trkpt lat="53.080683" lon="8.804434"><ele>4</ele></trkpt>
  </trkseg>
 </trk>
</gpx>