<?xml version="1.0" encoding="UTF-8"?>
<!-- track-length = 296 filtered ascend = 0 plain-ascend = -1 cost=592 energy=0.0kwh time=24s -->
<gpx 
 xmlns="http://www.topografix.com/GPX/1/1" 
 xmlns:xsi="http://www.w3.org/2001/XMLSchema-instance" 
 xsi:schemaLocation="http://www.topografix.com/GPX/1/1 http://www.topografix.com/GPX/1/1/gpx.xsd" 
 version="1.1" 
 creator="BRouter-Web 0.18.1">
 <trk>
  <name>Dreieck Hauptstraße Weiche 670 - Rhinstraße/Gärtnerstraße (Steig Südwest)</name>
  <trkseg>
   <trkpt lat="52.54824" lon="13.508511"><ele>56</ele></trkpt>
   <trkpt lat="52.548071" lon="13.508541"><ele>56</ele></trkpt>
   <trkpt lat="52.547845" lon="13.508602"><ele>56</ele></trkpt>
   <trkpt lat="52.547639" lon="13.508687"><ele>56</ele></trkpt>
   <trkpt lat="52.547324" lon="13.508856"><ele>56</ele></trkpt>
   <trkpt lat="52.546535" lon="13.509332"><ele>55</ele></trkpt>
   <trkpt lat="52.546473" lon="13.509369"><ele>55</ele></trkpt>
   <trkpt lat="52.546436" lon="13.509391"><ele>55</ele></trkpt>
   <trkpt lat="52.546355" lon="13.50944"><ele>55</ele></trkpt>
   <trkpt lat="52.546318" lon="13.509461"><ele>54.75</ele></trkpt>
   <trkpt lat="52.546239" lon="13.509509"><ele>55</ele></trkpt>
   <trkpt lat="52.545716" lon="13.509823"><ele>54.5</ele></trkpt>
   <trkpt lat="52.545712" lon="13.509825"><ele>54</ele></trkpt>
  </trkseg>
 </trk>
</gpx>