<?xml version="1.0" encoding="UTF-8"?>
<!-- track-length = 827 filtered ascend = 7 plain-ascend = 4 cost=1654 energy=0.0kwh time=1m 6s -->
<gpx 
 xmlns="http://www.topografix.com/GPX/1/1" 
 xmlns:xsi="http://www.w3.org/2001/XMLSchema-instance" 
 xsi:schemaLocation="http://www.topografix.com/GPX/1/1 http://www.topografix.com/GPX/1/1/gpx.xsd" 
 version="1.1" 
 creator="BRouter-Web 0.18.1">
 <trk>
  <name>Rhinstraße/Gärtnerstraße (Steig Südwest) - Rhinstraße/Plauener Straße (Steig Südwest)</name>
  <trkseg>
   <trkpt lat="52.545712" lon="13.509825"><ele>54.25</ele></trkpt>
   <trkpt lat="52.545616" lon="13.509883"><ele>54</ele></trkpt>
   <trkpt lat="52.545414" lon="13.510004"><ele>54</ele></trkpt>
   <trkpt lat="52.544663" lon="13.510461"><ele>55</ele></trkpt>
   <trkpt lat="52.543917" lon="13.510974"><ele>58.25</ele></trkpt>
   <trkpt lat="52.542768" lon="13.511821"><ele>60.5</ele></trkpt>
   <trkpt lat="52.542649" lon="13.511905"><ele>62</ele></trkpt>
   <trkpt lat="52.540329" lon="13.513595"><ele>60</ele></trkpt>
   <trkpt lat="52.540197" lon="13.513705"><ele>60</ele></trkpt>
   <trkpt lat="52.539704" lon="13.514062"><ele>60</ele></trkpt>
   <trkpt lat="52.539629" lon="13.514119"><ele>60</ele></trkpt>
   <trkpt lat="52.539513" lon="13.514209"><ele>59.75</ele></trkpt>
   <trkpt lat="52.539419" lon="13.514281"><ele>59.5</ele></trkpt>
   <trkpt lat="52.539004" lon="13.51461"><ele>59</ele></trkpt>
   <trkpt lat="52.53888" lon="13.514701"><ele>58</ele></trkpt>
  </trkseg>
 </trk>
</gpx>