<?xml version="1.0" encoding="UTF-8"?>
<!-- track-length = 108 filtered ascend = 1 plain-ascend = 2 cost=216 energy=0.0kwh time=9s -->
<gpx 
 xmlns="http://www.topografix.com/GPX/1/1" 
 xmlns:xsi="http://www.w3.org/2001/XMLSchema-instance" 
 xsi:schemaLocation="http://www.topografix.com/GPX/1/1 http://www.topografix.com/GPX/1/1/gpx.xsd" 
 version="1.1" 
 creator="BRouter-Web 0.18.1">
 <trk>
  <name>Abzweig Samoankuja Weiche Südost - Kanariankatu (Steig Ost)</name>
  <trkseg>
   <trkpt lat="60.152541" lon="24.910605"><ele>3</ele></trkpt>
   <trkpt lat="60.152542" lon="24.910604"><ele>3</ele></trkpt>
   <trkpt lat="60.152607" lon="24.910537"><ele>3</ele></trkpt>
   <trkpt lat="60.152723" lon="24.910428"><ele>3</ele></trkpt>
   <trkpt lat="60.152936" lon="24.910258"><ele>3</ele></trkpt>
   <trkpt lat="60.153286" lon="24.910039"><ele>3</ele></trkpt>
   <trkpt lat="60.153445" lon="24.909967"><ele>4.5</ele></trkpt>
  </trkseg>
 </trk>
</gpx>