<?xml version="1.0" encoding="UTF-8"?>
<!-- track-length = 51 filtered ascend = 1 plain-ascend = 1 cost=104 energy=0.0kwh time=4s -->
<gpx 
 xmlns="http://www.topografix.com/GPX/1/1" 
 xmlns:xsi="http://www.w3.org/2001/XMLSchema-instance" 
 xsi:schemaLocation="http://www.topografix.com/GPX/1/1 http://www.topografix.com/GPX/1/1/gpx.xsd" 
 version="1.1" 
 creator="BRouter-Web 0.18.1">
 <trk>
  <name>Abzweig Kanariankatu Weiche Südwest - Abzweig Kanariankatu Weiche Nord</name>
  <trkseg>
   <trkpt lat="60.15374" lon="24.909213"><ele>3</ele></trkpt>
   <trkpt lat="60.153741" lon="24.909217"><ele>3.25</ele></trkpt>
   <trkpt lat="60.153836" lon="24.909546"><ele>3.75</ele></trkpt>
   <trkpt lat="60.153856" lon="24.909602"><ele>3.75</ele></trkpt>
   <trkpt lat="60.153897" lon="24.909683"><ele>4</ele></trkpt>
   <trkpt lat="60.153919" lon="24.909714"><ele>4</ele></trkpt>
   <trkpt lat="60.153948" lon="24.909737"><ele>4</ele></trkpt>
   <trkpt lat="60.154067" lon="24.909778"><ele>4</ele></trkpt>
  </trkseg>
 </trk>
</gpx>