<?xml version="1.0" encoding="UTF-8"?>
<!-- track-length = 458 filtered ascend = 0 plain-ascend = 0 cost=916 energy=0.0kwh time=37s -->
<gpx 
 xmlns="http://www.topografix.com/GPX/1/1" 
 xmlns:xsi="http://www.w3.org/2001/XMLSchema-instance" 
 xsi:schemaLocation="http://www.topografix.com/GPX/1/1 http://www.topografix.com/GPX/1/1/gpx.xsd" 
 version="1.1" 
 creator="BRouter-Web 99.71.0">
 <trk>
  <name>Düsseldorf Abzweig Schleife Polizeipräsidium Weiche 332 - Düsseldorf Stadttor (Steig 1)</name>
  <link href="https://brouter.damsy.net/latest/#map=17/51.21541/6.76583/standard&amp;lonlats=6.766827,51.218219;6.763699,51.214749&amp;nogos=6.781752,51.218852,6&amp;profile=rail">
   <text>BRouter-Web</text>
  </link>
  <trkseg>
   <trkpt lat="51.218215" lon="6.766833"><ele>36.75</ele></trkpt>
   <trkpt lat="51.218137" lon="6.766751"><ele>36.75</ele></trkpt>
   <trkpt lat="51.218063" lon="6.766678"><ele>37</ele></trkpt>
   <trkpt lat="51.217989" lon="6.766619"><ele>37</ele></trkpt>
   <trkpt lat="51.217965" lon="6.766599"><ele>37</ele></trkpt>
   <trkpt lat="51.217879" lon="6.766541"><ele>37</ele></trkpt>
   <trkpt lat="51.21768" lon="6.76639"><ele>37</ele></trkpt>
   <trkpt lat="51.217514" lon="6.766225"><ele>37</ele></trkpt>
   <trkpt lat="51.21656" lon="6.765182"><ele>37</ele></trkpt>
   <trkpt lat="51.216425" lon="6.765014"><ele>37</ele></trkpt>
   <trkpt lat="51.216353" lon="6.764912"><ele>36.75</ele></trkpt>
   <trkpt lat="51.216289" lon="6.764819"><ele>36.75</ele></trkpt>
   <trkpt lat="51.216186" lon="6.764638"><ele>37</ele></trkpt>
   <trkpt lat="51.216019" lon="6.764335"><ele>36.75</ele></trkpt>
   <trkpt lat="51.21589" lon="6.764137"><ele>37</ele></trkpt>
   <trkpt lat="51.215762" lon="6.763973"><ele>36.5</ele></trkpt>
   <trkpt lat="51.215647" lon="6.763861"><ele>36.25</ele></trkpt>
   <trkpt lat="51.215573" lon="6.763796"><ele>36.25</ele></trkpt>
   <trkpt lat="51.215469" lon="6.763737"><ele>36.25</ele></trkpt>
   <trkpt lat="51.21538" lon="6.763713"><ele>36</ele></trkpt>
   <trkpt lat="51.215354" lon="6.76371"><ele>36</ele></trkpt>
   <trkpt lat="51.215263" lon="6.7637"><ele>36</ele></trkpt>
   <trkpt lat="51.215066" lon="6.763687"><ele>36</ele></trkpt>
   <trkpt lat="51.214862" lon="6.763688"><ele>36</ele></trkpt>
   <trkpt lat="51.214748" lon="6.763695"><ele>36.5</ele></trkpt>
  </trkseg>
 </trk>
</gpx>