<?xml version="1.0" encoding="UTF-8"?>
<!-- track-length = 338 filtered ascend = 2 plain-ascend = 1 cost=676 energy=0.0kwh time=27s -->
<gpx 
 xmlns="http://www.topografix.com/GPX/1/1" 
 xmlns:xsi="http://www.w3.org/2001/XMLSchema-instance" 
 xsi:schemaLocation="http://www.topografix.com/GPX/1/1 http://www.topografix.com/GPX/1/1/gpx.xsd" 
 version="1.1" 
 creator="BRouter-Web 99.71.0">
 <trk>
  <name>Düsseldorf Stadttor (Steig 1) - Düsseldorf Kreuz Bilker Kirche Weiche 336</name>
  <link href="https://brouter.damsy.net/latest/#map=19/51.21182/6.76414/standard&amp;lonlats=6.763695,51.214748;6.76328,51.21176&amp;nogos=6.781752,51.218852,6&amp;profile=rail">
   <text>BRouter-Web</text>
  </link>
  <trkseg>
   <trkpt lat="51.214748" lon="6.763695"><ele>36</ele></trkpt>
   <trkpt lat="51.214612" lon="6.763705"><ele>36.5</ele></trkpt>
   <trkpt lat="51.214424" lon="6.763717"><ele>37</ele></trkpt>
   <trkpt lat="51.214231" lon="6.763717"><ele>37</ele></trkpt>
   <trkpt lat="51.213894" lon="6.763686"><ele>37</ele></trkpt>
   <trkpt lat="51.213639" lon="6.763647"><ele>37</ele></trkpt>
   <trkpt lat="51.213438" lon="6.763628"><ele>37</ele></trkpt>
   <trkpt lat="51.213013" lon="6.763618"><ele>37</ele></trkpt>
   <trkpt lat="51.212648" lon="6.763629"><ele>38</ele></trkpt>
   <trkpt lat="51.212382" lon="6.763642"><ele>38</ele></trkpt>
   <trkpt lat="51.212317" lon="6.763637"><ele>38</ele></trkpt>
   <trkpt lat="51.212246" lon="6.763624"><ele>38</ele></trkpt>
   <trkpt lat="51.212181" lon="6.763602"><ele>37.75</ele></trkpt>
   <trkpt lat="51.212121" lon="6.76357"><ele>37.75</ele></trkpt>
   <trkpt lat="51.211996" lon="6.763478"><ele>37.5</ele></trkpt>
   <trkpt lat="51.211844" lon="6.763351"><ele>37</ele></trkpt>
   <trkpt lat="51.211763" lon="6.763283"><ele>37</ele></trkpt>
   <trkpt lat="51.211759" lon="6.763279"><ele>37</ele></trkpt>
  </trkseg>
 </trk>
</gpx>