<?xml version="1.0" encoding="UTF-8"?>
<!-- track-length = 22 filtered ascend = 0 plain-ascend = 0 cost=44 energy=0.0kwh time=2s -->
<gpx 
 xmlns="http://www.topografix.com/GPX/1/1" 
 xmlns:xsi="http://www.w3.org/2001/XMLSchema-instance" 
 xsi:schemaLocation="http://www.topografix.com/GPX/1/1 http://www.topografix.com/GPX/1/1/gpx.xsd" 
 version="1.1" 
 creator="BRouter-Web 99.71.0">
 <trk>
  <name>Poznań Główny (Steig West-Südwest) - Dreieck Poznań Główny Weiche Nordwest-Süd</name>
  <link href="https://brouter.damsy.net/latest/#map=18/52.40289/16.91764/standard&amp;lonlats=16.915675,52.402846;16.915979,52.402782&amp;profile=rail">
   <text>BRouter-Web</text>
  </link>
  <trkseg>
   <trkpt lat="52.402842" lon="16.915673"><ele>77.25</ele></trkpt>
   <trkpt lat="52.402779" lon="16.915977"><ele>77</ele></trkpt>
  </trkseg>
 </trk>
</gpx>