<?xml version="1.0" encoding="UTF-8"?>
<!-- track-length = 58 filtered ascend = 0 plain-ascend = 0 cost=116 energy=0.0kwh time=5s -->
<gpx 
 xmlns="http://www.topografix.com/GPX/1/1" 
 xmlns:xsi="http://www.w3.org/2001/XMLSchema-instance" 
 xsi:schemaLocation="http://www.topografix.com/GPX/1/1 http://www.topografix.com/GPX/1/1/gpx.xsd" 
 version="1.1" 
 creator="BRouter-Web 0.18.1">
 <trk>
  <name>Dreieck Výtoň Weiche Süd-Ost - Dreieck Výtoň Weiche Nord-Ost</name>
  <trkseg>
   <trkpt lat="50.067194" lon="14.415143"><ele>192</ele></trkpt>
   <trkpt lat="50.067198" lon="14.415143"><ele>192</ele></trkpt>
   <trkpt lat="50.067373" lon="14.415121"><ele>192</ele></trkpt>
   <trkpt lat="50.06743" lon="14.415109"><ele>192</ele></trkpt>
   <trkpt lat="50.067473" lon="14.415101"><ele>192</ele></trkpt>
   <trkpt lat="50.067532" lon="14.415089"><ele>191.75</ele></trkpt>
   <trkpt lat="50.067692" lon="14.41505"><ele>191.75</ele></trkpt>
   <trkpt lat="50.067694" lon="14.415049"><ele>191.75</ele></trkpt>
  </trkseg>
 </trk>
</gpx>