<?xml version="1.0" encoding="UTF-8"?>
<!-- track-length = 431 filtered ascend = 0 plain-ascend = -3 cost=862 energy=0.0kwh time=34s -->
<gpx 
 xmlns="http://www.topografix.com/GPX/1/1" 
 xmlns:xsi="http://www.w3.org/2001/XMLSchema-instance" 
 xsi:schemaLocation="http://www.topografix.com/GPX/1/1 http://www.topografix.com/GPX/1/1/gpx.xsd" 
 version="1.1" 
 creator="BRouter-Web 0.18.1">
 <trk>
  <name>Detvianska (Steig B) - Záhumenice (Steig B)</name>
  <trkseg>
   <trkpt lat="48.21119" lon="17.154818"><ele>150</ele></trkpt>
   <trkpt lat="48.211198" lon="17.154827"><ele>150</ele></trkpt>
   <trkpt lat="48.211358" lon="17.155027"><ele>150</ele></trkpt>
   <trkpt lat="48.211406" lon="17.155088"><ele>150</ele></trkpt>
   <trkpt lat="48.211462" lon="17.155154"><ele>150.25</ele></trkpt>
   <trkpt lat="48.211529" lon="17.155237"><ele>150.5</ele></trkpt>
   <trkpt lat="48.211564" lon="17.155284"><ele>150.5</ele></trkpt>
   <trkpt lat="48.21159" lon="17.155336"><ele>150.5</ele></trkpt>
   <trkpt lat="48.211609" lon="17.155392"><ele>150.25</ele></trkpt>
   <trkpt lat="48.211628" lon="17.155501"><ele>150</ele></trkpt>
   <trkpt lat="48.211626" lon="17.155607"><ele>150</ele></trkpt>
   <trkpt lat="48.211616" lon="17.15567"><ele>150</ele></trkpt>
   <trkpt lat="48.211555" lon="17.155875"><ele>150</ele></trkpt>
   <trkpt lat="48.211398" lon="17.156431"><ele>149</ele></trkpt>
   <trkpt lat="48.211317" lon="17.156806"><ele>148</ele></trkpt>
   <trkpt lat="48.21132" lon="17.156803"><ele>148.25</ele></trkpt>
   <trkpt lat="48.211297" lon="17.156982"><ele>147.5</ele></trkpt>
   <trkpt lat="48.21129" lon="17.157174"><ele>147.5</ele></trkpt>
   <trkpt lat="48.211294" lon="17.157372"><ele>147.5</ele></trkpt>
   <trkpt lat="48.211306" lon="17.157505"><ele>147.5</ele></trkpt>
   <trkpt lat="48.211347" lon="17.157768"><ele>147</ele></trkpt>
   <trkpt lat="48.211412" lon="17.157997"><ele>147</ele></trkpt>
   <trkpt lat="48.211473" lon="17.158152"><ele>147</ele></trkpt>
   <trkpt lat="48.211535" lon="17.158281"><ele>147</ele></trkpt>
   <trkpt lat="48.211595" lon="17.158392"><ele>147</ele></trkpt>
   <trkpt lat="48.211757" lon="17.158613"><ele>147</ele></trkpt>
   <trkpt lat="48.211944" lon="17.158851"><ele>147</ele></trkpt>
   <trkpt lat="48.211979" lon="17.158898"><ele>147</ele></trkpt>
   <trkpt lat="48.212059" lon="17.158991"><ele>147</ele></trkpt>
   <trkpt lat="48.212434" lon="17.15944"><ele>147</ele></trkpt>
   <trkpt lat="48.212481" lon="17.159498"><ele>146.25</ele></trkpt>
  </trkseg>
 </trk>
</gpx>