<?xml version="1.0" encoding="UTF-8"?>
<!-- track-length = 109 filtered ascend = 0 plain-ascend = 0 cost=218 energy=0.0kwh time=9s -->
<gpx 
 xmlns="http://www.topografix.com/GPX/1/1" 
 xmlns:xsi="http://www.w3.org/2001/XMLSchema-instance" 
 xsi:schemaLocation="http://www.topografix.com/GPX/1/1 http://www.topografix.com/GPX/1/1/gpx.xsd" 
 version="1.1" 
 creator="BRouter-Web 0.18.1">
 <trk>
  <name>Dreieck Depo Krasňany Weiche Nordost-Ost - Depo Krasňany (Steig B)</name>
  <trkseg>
   <trkpt lat="48.18802" lon="17.135329"><ele>139</ele></trkpt>
   <trkpt lat="48.188021" lon="17.135331"><ele>139</ele></trkpt>
   <trkpt lat="48.188222" lon="17.135496"><ele>139</ele></trkpt>
   <trkpt lat="48.188437" lon="17.135703"><ele>139</ele></trkpt>
   <trkpt lat="48.188571" lon="17.135864"><ele>139</ele></trkpt>
   <trkpt lat="48.188807" lon="17.136178"><ele>139.25</ele></trkpt>
  </trkseg>
 </trk>
</gpx>