<?xml version="1.0" encoding="UTF-8"?>
<!-- track-length = 638 filtered ascend = 2 plain-ascend = 2 cost=1276 energy=0.0kwh time=51s -->
<gpx 
 xmlns="http://www.topografix.com/GPX/1/1" 
 xmlns:xsi="http://www.w3.org/2001/XMLSchema-instance" 
 xsi:schemaLocation="http://www.topografix.com/GPX/1/1 http://www.topografix.com/GPX/1/1/gpx.xsd" 
 version="1.1" 
 creator="BRouter-Web 0.18.1">
 <trk>
  <name>Malokrasňanská (Steig B) - Pekná cesta (Steig B)</name>
  <trkseg>
   <trkpt lat="48.191052" lon="17.13881"><ele>138.75</ele></trkpt>
   <trkpt lat="48.191071" lon="17.138832"><ele>139</ele></trkpt>
   <trkpt lat="48.191131" lon="17.138899"><ele>139</ele></trkpt>
   <trkpt lat="48.191218" lon="17.138997"><ele>139</ele></trkpt>
   <trkpt lat="48.194391" lon="17.14256"><ele>140</ele></trkpt>
   <trkpt lat="48.194543" lon="17.142713"><ele>140.75</ele></trkpt>
   <trkpt lat="48.195046" lon="17.143191"><ele>140.5</ele></trkpt>
   <trkpt lat="48.195139" lon="17.143281"><ele>140.75</ele></trkpt>
   <trkpt lat="48.195258" lon="17.143391"><ele>140.75</ele></trkpt>
   <trkpt lat="48.195717" lon="17.143824"><ele>141</ele></trkpt>
  </trkseg>
 </trk>
</gpx>