<?xml version="1.0" encoding="UTF-8"?>
<!-- track-length = 532 filtered ascend = 0 plain-ascend = -1 cost=1064 energy=0.0kwh time=43s -->
<gpx 
 xmlns="http://www.topografix.com/GPX/1/1" 
 xmlns:xsi="http://www.w3.org/2001/XMLSchema-instance" 
 xsi:schemaLocation="http://www.topografix.com/GPX/1/1 http://www.topografix.com/GPX/1/1/gpx.xsd" 
 version="1.1" 
 creator="BRouter-Web 0.18.1">
 <trk>
  <name>Pekná cesta (Steig B) - Černockého (Steig B)</name>
  <trkseg>
   <trkpt lat="48.195717" lon="17.143824"><ele>140.75</ele></trkpt>
   <trkpt lat="48.195736" lon="17.143841"><ele>141</ele></trkpt>
   <trkpt lat="48.196429" lon="17.144501"><ele>141</ele></trkpt>
   <trkpt lat="48.199279" lon="17.1472"><ele>140</ele></trkpt>
   <trkpt lat="48.199714" lon="17.147611"><ele>139</ele></trkpt>
   <trkpt lat="48.199769" lon="17.147658"><ele>139</ele></trkpt>
  </trkseg>
 </trk>
</gpx>