<?xml version="1.0" encoding="UTF-8"?>
<!-- track-length = 374 filtered ascend = 0 plain-ascend = 0 cost=748 energy=0.0kwh time=30s -->
<gpx 
 xmlns="http://www.topografix.com/GPX/1/1" 
 xmlns:xsi="http://www.w3.org/2001/XMLSchema-instance" 
 xsi:schemaLocation="http://www.topografix.com/GPX/1/1 http://www.topografix.com/GPX/1/1/gpx.xsd" 
 version="1.1" 
 creator="BRouter-Web 0.18.1">
 <trk>
  <name>Černockého (Steig B) - Hečkova (Steig B)</name>
  <trkseg>
   <trkpt lat="48.199769" lon="17.147658"><ele>139</ele></trkpt>
   <trkpt lat="48.199799" lon="17.147683"><ele>139</ele></trkpt>
   <trkpt lat="48.199835" lon="17.147708"><ele>139</ele></trkpt>
   <trkpt lat="48.200023" lon="17.147825"><ele>139</ele></trkpt>
   <trkpt lat="48.202902" lon="17.149458"><ele>138.75</ele></trkpt>
   <trkpt lat="48.202905" lon="17.14946"><ele>138.75</ele></trkpt>
  </trkseg>
 </trk>
</gpx>