<?xml version="1.0" encoding="UTF-8"?>
<!-- track-length = 262 filtered ascend = 0 plain-ascend = -4 cost=524 energy=0.0kwh time=21s -->
<gpx 
 xmlns="http://www.topografix.com/GPX/1/1" 
 xmlns:xsi="http://www.w3.org/2001/XMLSchema-instance" 
 xsi:schemaLocation="http://www.topografix.com/GPX/1/1 http://www.topografix.com/GPX/1/1/gpx.xsd" 
 version="1.1" 
 creator="BRouter-Web 0.18.1">
 <trk>
  <name>Kimmontie (Steig West) - Koskelantie (Steig West)</name>
  <trkseg>
   <trkpt lat="60.210433" lon="24.944515"><ele>20.25</ele></trkpt>
   <trkpt lat="60.210263" lon="24.944588"><ele>20</ele></trkpt>
   <trkpt lat="60.209828" lon="24.944778"><ele>19.25</ele></trkpt>
   <trkpt lat="60.209802" lon="24.94479"><ele>19.25</ele></trkpt>
   <trkpt lat="60.209717" lon="24.944827"><ele>18.75</ele></trkpt>
   <trkpt lat="60.209651" lon="24.944855"><ele>18.5</ele></trkpt>
   <trkpt lat="60.20887" lon="24.945195"><ele>16</ele></trkpt>
   <trkpt lat="60.208849" lon="24.945204"><ele>16</ele></trkpt>
   <trkpt lat="60.208737" lon="24.945252"><ele>16</ele></trkpt>
   <trkpt lat="60.208496" lon="24.945356"><ele>16</ele></trkpt>
   <trkpt lat="60.208416" lon="24.94539"><ele>16</ele></trkpt>
   <trkpt lat="60.208379" lon="24.945407"><ele>16</ele></trkpt>
   <trkpt lat="60.208161" lon="24.945493"><ele>16</ele></trkpt>
   <trkpt lat="60.208137" lon="24.945498"><ele>15.75</ele></trkpt>
  </trkseg>
 </trk>
</gpx>
