<?xml version="1.0" encoding="UTF-8"?>
<!-- track-length = 64 filtered ascend = 1 plain-ascend = 1 cost=128 energy=0.0kwh time=5s -->
<gpx 
 xmlns="http://www.topografix.com/GPX/1/1" 
 xmlns:xsi="http://www.w3.org/2001/XMLSchema-instance" 
 xsi:schemaLocation="http://www.topografix.com/GPX/1/1 http://www.topografix.com/GPX/1/1/gpx.xsd" 
 version="1.1" 
 creator="BRouter-Web 0.18.1">
 <trk>
  <name>Velodromi (Steig Nord-West) - Abzweig Velodromi Weiche Südost-West</name>
  <trkseg>
   <trkpt lat="60.200919" lon="24.94485"><ele>11</ele></trkpt>
   <trkpt lat="60.200857" lon="24.944839"><ele>11.25</ele></trkpt>
   <trkpt lat="60.200823" lon="24.944838"><ele>11.25</ele></trkpt>
   <trkpt lat="60.200746" lon="24.944835"><ele>11.5</ele></trkpt>
   <trkpt lat="60.200717" lon="24.944839"><ele>11.5</ele></trkpt>
   <trkpt lat="60.200688" lon="24.944846"><ele>11.5</ele></trkpt>
   <trkpt lat="60.200533" lon="24.944876"><ele>12</ele></trkpt>
   <trkpt lat="60.200492" lon="24.944888"><ele>12</ele></trkpt>
   <trkpt lat="60.200444" lon="24.944902"><ele>12</ele></trkpt>
   <trkpt lat="60.200355" lon="24.94494"><ele>12</ele></trkpt>
   <trkpt lat="60.200352" lon="24.944941"><ele>12</ele></trkpt>
  </trkseg>
 </trk>
</gpx>