<?xml version="1.0" encoding="UTF-8"?>
<!-- track-length = 7 filtered ascend = 0 plain-ascend = 0 cost=14 energy=0.0kwh time=1s -->
<gpx 
 xmlns="http://www.topografix.com/GPX/1/1" 
 xmlns:xsi="http://www.w3.org/2001/XMLSchema-instance" 
 xsi:schemaLocation="http://www.topografix.com/GPX/1/1 http://www.topografix.com/GPX/1/1/gpx.xsd" 
 version="1.1" 
 creator="BRouter-Web 0.18.1">
 <trk>
  <name>Foro Buonaparte Via Ricasoli (Steig Ost) - Dreieck Foro Buonaparte Weiche Ost-Nord</name>
  <trkseg>
   <trkpt lat="45.46759" lon="9.17983"><ele>121</ele></trkpt>
   <trkpt lat="45.467591" lon="9.179755"><ele>121.25</ele></trkpt>
   <trkpt lat="45.467591" lon="9.179754"><ele>121.25</ele></trkpt>
  </trkseg>
 </trk>
</gpx>