<?xml version="1.0" encoding="UTF-8"?>
<!-- track-length = 65 filtered ascend = 1 plain-ascend = 1 cost=130 energy=0.0kwh time=5s -->
<gpx 
 xmlns="http://www.topografix.com/GPX/1/1" 
 xmlns:xsi="http://www.w3.org/2001/XMLSchema-instance" 
 xsi:schemaLocation="http://www.topografix.com/GPX/1/1 http://www.topografix.com/GPX/1/1/gpx.xsd" 
 version="1.1" 
 creator="BRouter-Web 0.18.1">
 <trk>
  <name>Kauppatori (Steig West-Nord) - Abzweig Kauppatori Weiche West-Innengleis-nach-Nordost-Nordost</name>
  <trkseg>
   <trkpt lat="60.167479" lon="24.952019"><ele>2</ele></trkpt>
   <trkpt lat="60.167492" lon="24.952054"><ele>2</ele></trkpt>
   <trkpt lat="60.167551" lon="24.952132"><ele>2</ele></trkpt>
   <trkpt lat="60.167591" lon="24.952158"><ele>2.25</ele></trkpt>
   <trkpt lat="60.167689" lon="24.952189"><ele>2.5</ele></trkpt>
   <trkpt lat="60.167707" lon="24.952194"><ele>2.5</ele></trkpt>
   <trkpt lat="60.167768" lon="24.952231"><ele>2.75</ele></trkpt>
   <trkpt lat="60.167795" lon="24.952268"><ele>3</ele></trkpt>
   <trkpt lat="60.16782" lon="24.952319"><ele>3</ele></trkpt>
   <trkpt lat="60.167843" lon="24.952395"><ele>2.75</ele></trkpt>
   <trkpt lat="60.167854" lon="24.952464"><ele>3</ele></trkpt>
   <trkpt lat="60.167865" lon="24.952677"><ele>3</ele></trkpt>
   <trkpt lat="60.167864" lon="24.95267"><ele>3</ele></trkpt>
  </trkseg>
 </trk>
</gpx>