<?xml version="1.0" encoding="UTF-8"?>
<!-- track-length = 378 filtered ascend = 1 plain-ascend = 1 cost=756 energy=0.0kwh time=30s -->
<gpx 
 xmlns="http://www.topografix.com/GPX/1/1" 
 xmlns:xsi="http://www.w3.org/2001/XMLSchema-instance" 
 xsi:schemaLocation="http://www.topografix.com/GPX/1/1 http://www.topografix.com/GPX/1/1/gpx.xsd" 
 version="1.1" 
 creator="BRouter-Web 0.18.1">
 <trk>
  <name>Abzweig Degnerstraße Weiche 98 - Oberseestraße (Steig Südost)</name>
  <trkseg>
   <trkpt lat="52.544797" lon="13.49385"><ele>56</ele></trkpt>
   <trkpt lat="52.544798" lon="13.493852"><ele>56</ele></trkpt>
   <trkpt lat="52.545266" lon="13.494753"><ele>56</ele></trkpt>
   <trkpt lat="52.545368" lon="13.494948"><ele>56</ele></trkpt>
   <trkpt lat="52.545453" lon="13.495112"><ele>56</ele></trkpt>
   <trkpt lat="52.546205" lon="13.496555"><ele>56.5</ele></trkpt>
   <trkpt lat="52.546315" lon="13.496767"><ele>57</ele></trkpt>
   <trkpt lat="52.546387" lon="13.496904"><ele>57</ele></trkpt>
   <trkpt lat="52.546617" lon="13.497355"><ele>57</ele></trkpt>
   <trkpt lat="52.546995" lon="13.498084"><ele>57.25</ele></trkpt>
  </trkseg>
 </trk>
</gpx>