<?xml version="1.0" encoding="UTF-8"?>
<!-- track-length = 188 filtered ascend = 0 plain-ascend = 0 cost=378 energy=0.0kwh time=15s -->
<gpx 
 xmlns="http://www.topografix.com/GPX/1/1" 
 xmlns:xsi="http://www.w3.org/2001/XMLSchema-instance" 
 xsi:schemaLocation="http://www.topografix.com/GPX/1/1 http://www.topografix.com/GPX/1/1/gpx.xsd" 
 version="1.1" 
 creator="BRouter-Web 99.71.0">
 <trk>
  <name>Divadlo Na Fidlovačce (Steig Südwest) - Kreuz Otakarova Weiche Südwest-nach-Südost-Südwest</name>
  <link href="https://brouter.damsy.net/latest/#map=19/50.06545/14.44044/standard&amp;lonlats=14.437104,50.064671;14.439503,50.065213&amp;profile=rail">
   <text>BRouter-Web</text>
  </link>
  <trkseg>
   <trkpt lat="50.064671" lon="14.437104"><ele>197</ele></trkpt>
   <trkpt lat="50.064671" lon="14.437112"><ele>197.25</ele></trkpt>
   <trkpt lat="50.064658" lon="14.437223"><ele>197</ele></trkpt>
   <trkpt lat="50.064627" lon="14.437523"><ele>196.5</ele></trkpt>
   <trkpt lat="50.064626" lon="14.437625"><ele>196.25</ele></trkpt>
   <trkpt lat="50.064639" lon="14.437768"><ele>195.75</ele></trkpt>
   <trkpt lat="50.06467" lon="14.437901"><ele>195.75</ele></trkpt>
   <trkpt lat="50.06521" lon="14.439504"><ele>197</ele></trkpt>
  </trkseg>
 </trk>
</gpx>