<?xml version="1.0" encoding="UTF-8"?>
<!-- track-length = 367 filtered ascend = 1 plain-ascend = 1 cost=734 energy=0.0kwh time=29s -->
<gpx 
 xmlns="http://www.topografix.com/GPX/1/1" 
 xmlns:xsi="http://www.w3.org/2001/XMLSchema-instance" 
 xsi:schemaLocation="http://www.topografix.com/GPX/1/1 http://www.topografix.com/GPX/1/1/gpx.xsd" 
 version="1.1" 
 creator="BRouter-Web 99.71.0">
 <trk>
  <name>Dreieck Albertov Weiche Südost-West - Ostrčilovo náměstí (Steig Südwest)</name>
  <link href="https://brouter.damsy.net/latest/#map=19/50.06489/14.42518/standard&amp;lonlats=14.421198,50.067635;14.424366,50.065119&amp;profile=rail">
   <text>BRouter-Web</text>
  </link>
  <trkseg>
   <trkpt lat="50.067634" lon="14.421197"><ele>194</ele></trkpt>
   <trkpt lat="50.067633" lon="14.421198"><ele>194</ele></trkpt>
   <trkpt lat="50.067396" lon="14.421341"><ele>194</ele></trkpt>
   <trkpt lat="50.067295" lon="14.421405"><ele>194</ele></trkpt>
   <trkpt lat="50.067066" lon="14.421558"><ele>194.25</ele></trkpt>
   <trkpt lat="50.067005" lon="14.421605"><ele>194.25</ele></trkpt>
   <trkpt lat="50.06696" lon="14.421643"><ele>194</ele></trkpt>
   <trkpt lat="50.0669" lon="14.421699"><ele>194.25</ele></trkpt>
   <trkpt lat="50.066836" lon="14.42176"><ele>194.5</ele></trkpt>
   <trkpt lat="50.0668" lon="14.421796"><ele>194.5</ele></trkpt>
   <trkpt lat="50.066763" lon="14.421838"><ele>194.5</ele></trkpt>
   <trkpt lat="50.066713" lon="14.421895"><ele>194.25</ele></trkpt>
   <trkpt lat="50.066676" lon="14.421942"><ele>194</ele></trkpt>
   <trkpt lat="50.066538" lon="14.422127"><ele>194.5</ele></trkpt>
   <trkpt lat="50.065668" lon="14.423326"><ele>195</ele></trkpt>
   <trkpt lat="50.065594" lon="14.423444"><ele>194.75</ele></trkpt>
   <trkpt lat="50.065491" lon="14.423631"><ele>195</ele></trkpt>
   <trkpt lat="50.065126" lon="14.424366"><ele>195</ele></trkpt>
   <trkpt lat="50.065123" lon="14.424371"><ele>195</ele></trkpt>
  </trkseg>
 </trk>
</gpx>