<?xml version="1.0" encoding="UTF-8"?>
<!-- track-length = 391 filtered ascend = 0 plain-ascend = 0 cost=391 energy=0.0kwh time=31s -->
<gpx 
 xmlns="http://www.topografix.com/GPX/1/1" 
 xmlns:xsi="http://www.w3.org/2001/XMLSchema-instance" 
 xsi:schemaLocation="http://www.topografix.com/GPX/1/1 http://www.topografix.com/GPX/1/1/gpx.xsd" 
 version="1.1" 
 creator="BRouter-Web 99.71.0">
 <trk>
  <name>1100 Lübeck Hbf Weiche 119 - Lübeck Hgbf Weiche 401</name>
  <link href="https://brouter.damsy.net/latest/#map=19/53.86280/10.65874/standard&amp;lonlats=10.660545,53.863733;10.656337,53.861373&amp;profile=rail">
   <text>BRouter-Web</text>
  </link>
  <trkseg>
   <trkpt lat="53.863732" lon="10.660544"><ele>7</ele></trkpt>
   <trkpt lat="53.863694" lon="10.660436"><ele>7</ele></trkpt>
   <trkpt lat="53.863681" lon="10.660397"><ele>7</ele></trkpt>
   <trkpt lat="53.863103" lon="10.658738"><ele>6.75</ele></trkpt>
   <trkpt lat="53.863023" lon="10.658534"><ele>7</ele></trkpt>
   <trkpt lat="53.862936" lon="10.658335"><ele>7</ele></trkpt>
   <trkpt lat="53.862789" lon="10.658029"><ele>7</ele></trkpt>
   <trkpt lat="53.862708" lon="10.657877"><ele>7</ele></trkpt>
   <trkpt lat="53.862453" lon="10.657458"><ele>7</ele></trkpt>
   <trkpt lat="53.862278" lon="10.657212"><ele>7</ele></trkpt>
   <trkpt lat="53.862167" lon="10.657071"><ele>7</ele></trkpt>
   <trkpt lat="53.861953" lon="10.656831"><ele>7</ele></trkpt>
   <trkpt lat="53.861833" lon="10.656713"><ele>7</ele></trkpt>
   <trkpt lat="53.86171" lon="10.656602"><ele>7</ele></trkpt>
   <trkpt lat="53.861486" lon="10.656425"><ele>7</ele></trkpt>
   <trkpt lat="53.861371" lon="10.656344"><ele>7</ele></trkpt>
  </trkseg>
 </trk>
</gpx>