<?xml version="1.0" encoding="UTF-8"?>
<!-- track-length = 17 filtered ascend = 0 plain-ascend = 0 cost=18 energy=0.0kwh time=1s -->
<gpx 
 xmlns="http://www.topografix.com/GPX/1/1" 
 xmlns:xsi="http://www.w3.org/2001/XMLSchema-instance" 
 xsi:schemaLocation="http://www.topografix.com/GPX/1/1 http://www.topografix.com/GPX/1/1/gpx.xsd" 
 version="1.1" 
 creator="BRouter-Web 99.71.0">
 <trk>
  <name>1100 Lübeck Hgbf Weiche 403 - Lübeck Hgbf Weiche 404</name>
  <link href="https://brouter.damsy.net/latest/#map=19/53.86078/10.65646/standard&amp;lonlats=10.656011,53.86077;10.65592,53.86063&amp;profile=rail">
   <text>BRouter-Web</text>
  </link>
  <trkseg>
   <trkpt lat="53.860768" lon="10.656018"><ele>7.25</ele></trkpt>
   <trkpt lat="53.860628" lon="10.655925"><ele>7.25</ele></trkpt>
  </trkseg>
 </trk>
</gpx>