<?xml version="1.0" encoding="UTF-8"?>
<!-- track-length = 70 filtered ascend = 0 plain-ascend = 0 cost=70 energy=0.0kwh time=6s -->
<gpx 
 xmlns="http://www.topografix.com/GPX/1/1" 
 xmlns:xsi="http://www.w3.org/2001/XMLSchema-instance" 
 xsi:schemaLocation="http://www.topografix.com/GPX/1/1 http://www.topografix.com/GPX/1/1/gpx.xsd" 
 version="1.1" 
 creator="BRouter-Web 99.71.0">
 <trk>
  <name>1100 Lübeck Hgbf Weiche 401 - Lübeck Hgbf Weiche 403</name>
  <link href="https://brouter.damsy.net/latest/#map=19/53.86103/10.65643/standard&amp;lonlats=10.656344,53.861371;10.656011,53.86077&amp;profile=rail">
   <text>BRouter-Web</text>
  </link>
  <trkseg>
   <trkpt lat="53.861371" lon="10.656344"><ele>7</ele></trkpt>
   <trkpt lat="53.861181" lon="10.656235"><ele>6.75</ele></trkpt>
   <trkpt lat="53.860923" lon="10.656111"><ele>7</ele></trkpt>
   <trkpt lat="53.860768" lon="10.656018"><ele>7.25</ele></trkpt>
  </trkseg>
 </trk>
</gpx>