<?xml version="1.0" encoding="UTF-8"?>
<!-- track-length = 57 filtered ascend = 0 plain-ascend = 0 cost=114 energy=0.0kwh time=5s -->
<gpx 
 xmlns="http://www.topografix.com/GPX/1/1" 
 xmlns:xsi="http://www.w3.org/2001/XMLSchema-instance" 
 xsi:schemaLocation="http://www.topografix.com/GPX/1/1 http://www.topografix.com/GPX/1/1/gpx.xsd" 
 version="1.1" 
 creator="BRouter-Web 0.18.1">
 <trk>
  <name>Dreieck Sörnäinen Weiche Nordost-Südost - Sörnäinen (Steig Nordost)</name>
  <trkseg>
   <trkpt lat="60.187713" lon="24.962386"><ele>19</ele></trkpt>
   <trkpt lat="60.187799" lon="24.962732"><ele>19</ele></trkpt>
   <trkpt lat="60.187858" lon="24.962918"><ele>19</ele></trkpt>
   <trkpt lat="60.187941" lon="24.963121"><ele>18.75</ele></trkpt>
   <trkpt lat="60.187981" lon="24.963202"><ele>18.75</ele></trkpt>
   <trkpt lat="60.187998" lon="24.963232"><ele>19</ele></trkpt>
  </trkseg>
 </trk>
</gpx>