<?xml version="1.0" encoding="UTF-8"?>
<!-- track-length = 69 filtered ascend = 0 plain-ascend = 0 cost=138 energy=0.0kwh time=6s -->
<gpx 
 xmlns="http://www.topografix.com/GPX/1/1" 
 xmlns:xsi="http://www.w3.org/2001/XMLSchema-instance" 
 xsi:schemaLocation="http://www.topografix.com/GPX/1/1 http://www.topografix.com/GPX/1/1/gpx.xsd" 
 version="1.1" 
 creator="BRouter-Web 0.18.1">
 <trk>
  <name>Dreieck Sörnäinen Weiche West-Süd - Dreieck Sörnäinen Weiche Nordost-Südost</name>
  <trkseg>
   <trkpt lat="60.187626" lon="24.961195"><ele>20</ele></trkpt>
   <trkpt lat="60.187627" lon="24.961198"><ele>20</ele></trkpt>
   <trkpt lat="60.187638" lon="24.961442"><ele>20</ele></trkpt>
   <trkpt lat="60.187642" lon="24.961538"><ele>20</ele></trkpt>
   <trkpt lat="60.187646" lon="24.961619"><ele>20</ele></trkpt>
   <trkpt lat="60.187658" lon="24.961919"><ele>19.25</ele></trkpt>
   <trkpt lat="60.187664" lon="24.962027"><ele>19.25</ele></trkpt>
   <trkpt lat="60.187669" lon="24.962081"><ele>19.25</ele></trkpt>
   <trkpt lat="60.187691" lon="24.962268"><ele>19.25</ele></trkpt>
   <trkpt lat="60.187713" lon="24.962386"><ele>19</ele></trkpt>
  </trkseg>
 </trk>
</gpx>