<?xml version="1.0" encoding="UTF-8"?>
<!-- track-length = 36 filtered ascend = 0 plain-ascend = 1 cost=72 energy=0.0kwh time=3s -->
<gpx 
 xmlns="http://www.topografix.com/GPX/1/1" 
 xmlns:xsi="http://www.w3.org/2001/XMLSchema-instance" 
 xsi:schemaLocation="http://www.topografix.com/GPX/1/1 http://www.topografix.com/GPX/1/1/gpx.xsd" 
 version="1.1" 
 creator="BRouter-Web 0.18.1">
 <trk>
  <name>Dreieck Suur Rannavärav Weiche Nordost-Nordwest - Dreieck Suur Rannavärav Weiche Nordwest-Nordost</name>
  <trkseg>
   <trkpt lat="59.4432" lon="24.751511"><ele>6.75</ele></trkpt>
   <trkpt lat="59.443169" lon="24.751419"><ele>6.75</ele></trkpt>
   <trkpt lat="59.443143" lon="24.751316"><ele>7</ele></trkpt>
   <trkpt lat="59.443135" lon="24.751166"><ele>7</ele></trkpt>
   <trkpt lat="59.443139" lon="24.751107"><ele>7</ele></trkpt>
   <trkpt lat="59.443173" lon="24.750949"><ele>7.25</ele></trkpt>
   <trkpt lat="59.443178" lon="24.750934"><ele>7.25</ele></trkpt>
  </trkseg>
 </trk>
</gpx>