<?xml version="1.0" encoding="UTF-8"?>
<!-- track-length = 447 filtered ascend = 1 plain-ascend = 2 cost=894 energy=0.0kwh time=36s -->
<gpx 
 xmlns="http://www.topografix.com/GPX/1/1" 
 xmlns:xsi="http://www.w3.org/2001/XMLSchema-instance" 
 xsi:schemaLocation="http://www.topografix.com/GPX/1/1 http://www.topografix.com/GPX/1/1/gpx.xsd" 
 version="1.1" 
 creator="BRouter-Web 0.18.1">
 <trk>
  <name>Põhja puiestee (Steig Nordwest) - Balti jaam (Steig Nord)</name>
  <trkseg>
   <trkpt lat="59.443469" lon="24.743747"><ele>14</ele></trkpt>
   <trkpt lat="59.443415" lon="24.743696"><ele>14</ele></trkpt>
   <trkpt lat="59.443081" lon="24.743386"><ele>14.75</ele></trkpt>
   <trkpt lat="59.442896" lon="24.74319"><ele>14</ele></trkpt>
   <trkpt lat="59.442772" lon="24.743026"><ele>14</ele></trkpt>
   <trkpt lat="59.442602" lon="24.742774"><ele>13.75</ele></trkpt>
   <trkpt lat="59.442579" lon="24.742743"><ele>14</ele></trkpt>
   <trkpt lat="59.442535" lon="24.742671"><ele>14</ele></trkpt>
   <trkpt lat="59.442408" lon="24.742452"><ele>14</ele></trkpt>
   <trkpt lat="59.442087" lon="24.741843"><ele>14</ele></trkpt>
   <trkpt lat="59.441909" lon="24.741463"><ele>14</ele></trkpt>
   <trkpt lat="59.441833" lon="24.741264"><ele>14</ele></trkpt>
   <trkpt lat="59.441704" lon="24.740886"><ele>14</ele></trkpt>
   <trkpt lat="59.441487" lon="24.740146"><ele>15</ele></trkpt>
   <trkpt lat="59.441151" lon="24.738959"><ele>15</ele></trkpt>
   <trkpt lat="59.441127" lon="24.738831"><ele>15</ele></trkpt>
   <trkpt lat="59.441105" lon="24.738565"><ele>15</ele></trkpt>
   <trkpt lat="59.441091" lon="24.738164"><ele>15.5</ele></trkpt>
   <trkpt lat="59.441079" lon="24.737862"><ele>15.75</ele></trkpt>
  </trkseg>
 </trk>
</gpx>