<?xml version="1.0" encoding="UTF-8"?>
<!-- track-length = 396 filtered ascend = 5 plain-ascend = 5 cost=792 energy=0.0kwh time=32s -->
<gpx 
 xmlns="http://www.topografix.com/GPX/1/1" 
 xmlns:xsi="http://www.w3.org/2001/XMLSchema-instance" 
 xsi:schemaLocation="http://www.topografix.com/GPX/1/1 http://www.topografix.com/GPX/1/1/gpx.xsd" 
 version="1.1" 
 creator="BRouter-Web 0.18.1">
 <trk>
  <name>Suur Rannavärav (Steig Nordost) - Põhja puiestee (Steig Nordwest)</name>
  <trkseg>
   <trkpt lat="59.443473" lon="24.749827"><ele>8.75</ele></trkpt>
   <trkpt lat="59.4435" lon="24.749701"><ele>9</ele></trkpt>
   <trkpt lat="59.443525" lon="24.749579"><ele>9</ele></trkpt>
   <trkpt lat="59.44358" lon="24.749326"><ele>9</ele></trkpt>
   <trkpt lat="59.443648" lon="24.748975"><ele>8.25</ele></trkpt>
   <trkpt lat="59.443706" lon="24.748618"><ele>8.25</ele></trkpt>
   <trkpt lat="59.443756" lon="24.748247"><ele>9</ele></trkpt>
   <trkpt lat="59.443799" lon="24.74787"><ele>9</ele></trkpt>
   <trkpt lat="59.444103" lon="24.745226"><ele>14</ele></trkpt>
   <trkpt lat="59.444115" lon="24.745103"><ele>14</ele></trkpt>
   <trkpt lat="59.444121" lon="24.744898"><ele>14</ele></trkpt>
   <trkpt lat="59.444117" lon="24.744796"><ele>14</ele></trkpt>
   <trkpt lat="59.444099" lon="24.744658"><ele>14</ele></trkpt>
   <trkpt lat="59.44408" lon="24.744561"><ele>14</ele></trkpt>
   <trkpt lat="59.444038" lon="24.744409"><ele>14</ele></trkpt>
   <trkpt lat="59.443996" lon="24.744313"><ele>14</ele></trkpt>
   <trkpt lat="59.443951" lon="24.744237"><ele>14</ele></trkpt>
   <trkpt lat="59.443879" lon="24.744139"><ele>14</ele></trkpt>
   <trkpt lat="59.443771" lon="24.744029"><ele>14</ele></trkpt>
   <trkpt lat="59.443595" lon="24.743867"><ele>14</ele></trkpt>
   <trkpt lat="59.443468" lon="24.743746"><ele>14</ele></trkpt>
  </trkseg>
 </trk>
</gpx>