<?xml version="1.0" encoding="UTF-8"?>
<!-- track-length = 112 filtered ascend = 0 plain-ascend = 0 cost=224 energy=0.0kwh time=9s -->
<gpx 
 xmlns="http://www.topografix.com/GPX/1/1" 
 xmlns:xsi="http://www.w3.org/2001/XMLSchema-instance" 
 xsi:schemaLocation="http://www.topografix.com/GPX/1/1 http://www.topografix.com/GPX/1/1/gpx.xsd" 
 version="1.1" 
 creator="BRouter-Web 0.18.1">
 <trk>
  <name>Ausekļa iela (Steig Nordost) - Abzweig Wendeschleife Ausekļa iela Weiche Ost</name>
  <trkseg>
   <trkpt lat="56.957398" lon="24.100896"><ele>3.5</ele></trkpt>
   <trkpt lat="56.957401" lon="24.100894"><ele>3.75</ele></trkpt>
   <trkpt lat="56.957484" lon="24.100816"><ele>3.75</ele></trkpt>
   <trkpt lat="56.957657" lon="24.100659"><ele>3.5</ele></trkpt>
   <trkpt lat="56.957716" lon="24.100604"><ele>3.75</ele></trkpt>
   <trkpt lat="56.957773" lon="24.100549"><ele>3.75</ele></trkpt>
   <trkpt lat="56.958102" lon="24.100245"><ele>3.75</ele></trkpt>
   <trkpt lat="56.958299" lon="24.100076"><ele>3</ele></trkpt>
  </trkseg>
 </trk>
</gpx>