<?xml version="1.0" encoding="UTF-8"?>
<!-- track-length = 50 filtered ascend = 0 plain-ascend = 1 cost=102 energy=0.0kwh time=4s -->
<gpx 
 xmlns="http://www.topografix.com/GPX/1/1" 
 xmlns:xsi="http://www.w3.org/2001/XMLSchema-instance" 
 xsi:schemaLocation="http://www.topografix.com/GPX/1/1 http://www.topografix.com/GPX/1/1/gpx.xsd" 
 version="1.1" 
 creator="BRouter-Web 0.18.1">
 <trk>
  <name>Dreieck Aspazijas bulvāris/Krišjāņa Barona iela Weiche Südost-Nordost - Dreieck Aspazijas bulvāris/Krišjāņa Barona iela Weiche Nordwest-Nordost</name>
  <trkseg>
   <trkpt lat="56.94778" lon="24.114554"><ele>4</ele></trkpt>
   <trkpt lat="56.947862" lon="24.114507"><ele>4</ele></trkpt>
   <trkpt lat="56.947894" lon="24.114489"><ele>4</ele></trkpt>
   <trkpt lat="56.948003" lon="24.11441"><ele>4</ele></trkpt>
   <trkpt lat="56.948089" lon="24.11435"><ele>4.25</ele></trkpt>
   <trkpt lat="56.948202" lon="24.114282"><ele>4.75</ele></trkpt>
  </trkseg>
 </trk>
</gpx>