<?xml version="1.0" encoding="UTF-8"?>
<!-- track-length = 830 filtered ascend = 0 plain-ascend = -2 cost=1660 energy=0.0kwh time=1m 6s -->
<gpx 
 xmlns="http://www.topografix.com/GPX/1/1" 
 xmlns:xsi="http://www.w3.org/2001/XMLSchema-instance" 
 xsi:schemaLocation="http://www.topografix.com/GPX/1/1 http://www.topografix.com/GPX/1/1/gpx.xsd" 
 version="1.1" 
 creator="BRouter-Web 0.18.1">
 <trk>
  <name>Nacionālā opera (Steig Nordost) - Nacionālais teātris (Steig Nordost)</name>
  <trkseg>
   <trkpt lat="56.94889" lon="24.113847"><ele>5.75</ele></trkpt>
   <trkpt lat="56.948908" lon="24.113836"><ele>6</ele></trkpt>
   <trkpt lat="56.948924" lon="24.113826"><ele>6</ele></trkpt>
   <trkpt lat="56.948983" lon="24.11379"><ele>6</ele></trkpt>
   <trkpt lat="56.949169" lon="24.113613"><ele>6</ele></trkpt>
   <trkpt lat="56.949297" lon="24.113436"><ele>5.5</ele></trkpt>
   <trkpt lat="56.949573" lon="24.11303"><ele>5</ele></trkpt>
   <trkpt lat="56.94968" lon="24.112866"><ele>5</ele></trkpt>
   <trkpt lat="56.950299" lon="24.111916"><ele>5</ele></trkpt>
   <trkpt lat="56.950451" lon="24.111704"><ele>5</ele></trkpt>
   <trkpt lat="56.950633" lon="24.111442"><ele>4.75</ele></trkpt>
   <trkpt lat="56.951356" lon="24.110344"><ele>6</ele></trkpt>
   <trkpt lat="56.951575" lon="24.109985"><ele>6.5</ele></trkpt>
   <trkpt lat="56.951782" lon="24.109602"><ele>6</ele></trkpt>
   <trkpt lat="56.951826" lon="24.109506"><ele>5.5</ele></trkpt>
   <trkpt lat="56.95192" lon="24.109257"><ele>5</ele></trkpt>
   <trkpt lat="56.951975" lon="24.109055"><ele>4.75</ele></trkpt>
   <trkpt lat="56.95201" lon="24.10885"><ele>4.25</ele></trkpt>
   <trkpt lat="56.952027" lon="24.108697"><ele>4</ele></trkpt>
   <trkpt lat="56.952039" lon="24.108342"><ele>3.75</ele></trkpt>
   <trkpt lat="56.952055" lon="24.10807"><ele>3.75</ele></trkpt>
   <trkpt lat="56.952087" lon="24.10777"><ele>4.25</ele></trkpt>
   <trkpt lat="56.952167" lon="24.107378"><ele>4.5</ele></trkpt>
   <trkpt lat="56.95224" lon="24.107137"><ele>4.75</ele></trkpt>
   <trkpt lat="56.952275" lon="24.107041"><ele>4.5</ele></trkpt>
   <trkpt lat="56.952327" lon="24.106921"><ele>4.5</ele></trkpt>
   <trkpt lat="56.952456" lon="24.10668"><ele>4.75</ele></trkpt>
   <trkpt lat="56.952576" lon="24.106497"><ele>4.5</ele></trkpt>
   <trkpt lat="56.953221" lon="24.105713"><ele>4</ele></trkpt>
   <trkpt lat="56.953251" lon="24.105628"><ele>4</ele></trkpt>
   <trkpt lat="56.953266" lon="24.105552"><ele>4</ele></trkpt>
   <trkpt lat="56.953268" lon="24.10547"><ele>4</ele></trkpt>
   <trkpt lat="56.953266" lon="24.105371"><ele>4</ele></trkpt>
   <trkpt lat="56.953237" lon="24.104864"><ele>3.25</ele></trkpt>
   <trkpt lat="56.953262" lon="24.104706"><ele>3</ele></trkpt>
   <trkpt lat="56.953302" lon="24.104618"><ele>3</ele></trkpt>
   <trkpt lat="56.953636" lon="24.104301"><ele>3</ele></trkpt>
  </trkseg>
 </trk>
</gpx>