<?xml version="1.0" encoding="UTF-8"?>
<!-- track-length = 467 filtered ascend = 0 plain-ascend = 1 cost=934 energy=0.0kwh time=37s -->
<gpx 
 xmlns="http://www.topografix.com/GPX/1/1" 
 xmlns:xsi="http://www.w3.org/2001/XMLSchema-instance" 
 xsi:schemaLocation="http://www.topografix.com/GPX/1/1 http://www.topografix.com/GPX/1/1/gpx.xsd" 
 version="1.1" 
 creator="BRouter-Web 0.18.1">
 <trk>
  <name>Nacionālais teātris (Steig Nordost) - Ausekļa iela (Steig Nordost)</name>
  <trkseg>
   <trkpt lat="56.953636" lon="24.104301"><ele>3</ele></trkpt>
   <trkpt lat="56.953642" lon="24.104296"><ele>3</ele></trkpt>
   <trkpt lat="56.954628" lon="24.103383"><ele>3</ele></trkpt>
   <trkpt lat="56.955163" lon="24.102909"><ele>3</ele></trkpt>
   <trkpt lat="56.955772" lon="24.102369"><ele>3</ele></trkpt>
   <trkpt lat="56.957398" lon="24.100896"><ele>3.75</ele></trkpt>
  </trkseg>
 </trk>
</gpx>