<?xml version="1.0" encoding="UTF-8"?>
<!-- track-length = 123 filtered ascend = 1 plain-ascend = 0 cost=246 energy=0.0kwh time=10s -->
<gpx 
 xmlns="http://www.topografix.com/GPX/1/1" 
 xmlns:xsi="http://www.w3.org/2001/XMLSchema-instance" 
 xsi:schemaLocation="http://www.topografix.com/GPX/1/1 http://www.topografix.com/GPX/1/1/gpx.xsd" 
 version="1.1" 
 creator="BRouter-Web 0.18.1">
 <trk>
  <name>Katajanokka Merisotilaantori (Ausstieg) - Katajanokka Merisotilaantori Weiche Nordost</name>
  <trkseg>
   <trkpt lat="60.167633" lon="24.975542"><ele>5</ele></trkpt>
   <trkpt lat="60.16764" lon="24.97557"><ele>5.25</ele></trkpt>
   <trkpt lat="60.167669" lon="24.975654"><ele>5.25</ele></trkpt>
   <trkpt lat="60.167704" lon="24.975719"><ele>5.25</ele></trkpt>
   <trkpt lat="60.167728" lon="24.975749"><ele>5</ele></trkpt>
   <trkpt lat="60.167774" lon="24.97578"><ele>5</ele></trkpt>
   <trkpt lat="60.167826" lon="24.975793"><ele>5</ele></trkpt>
   <trkpt lat="60.167871" lon="24.975785"><ele>5</ele></trkpt>
   <trkpt lat="60.167918" lon="24.975754"><ele>5</ele></trkpt>
   <trkpt lat="60.167957" lon="24.975705"><ele>5</ele></trkpt>
   <trkpt lat="60.167994" lon="24.975629"><ele>5</ele></trkpt>
   <trkpt lat="60.168009" lon="24.975581"><ele>5</ele></trkpt>
   <trkpt lat="60.168021" lon="24.975529"><ele>5</ele></trkpt>
   <trkpt lat="60.168031" lon="24.975422"><ele>5</ele></trkpt>
   <trkpt lat="60.168027" lon="24.975316"><ele>5</ele></trkpt>
   <trkpt lat="60.168009" lon="24.975206"><ele>5.5</ele></trkpt>
   <trkpt lat="60.167936" lon="24.974947"><ele>6.5</ele></trkpt>
   <trkpt lat="60.167907" lon="24.974891"><ele>6.5</ele></trkpt>
   <trkpt lat="60.167872" lon="24.974847"><ele>6.25</ele></trkpt>
   <trkpt lat="60.16781" lon="24.97481"><ele>5.5</ele></trkpt>
   <trkpt lat="60.167653" lon="24.974811"><ele>5</ele></trkpt>
  </trkseg>
 </trk>
</gpx>