<?xml version="1.0" encoding="UTF-8"?>
<!-- track-length = 77 filtered ascend = 1 plain-ascend = 1 cost=154 energy=0.0kwh time=6s -->
<gpx 
 xmlns="http://www.topografix.com/GPX/1/1" 
 xmlns:xsi="http://www.w3.org/2001/XMLSchema-instance" 
 xsi:schemaLocation="http://www.topografix.com/GPX/1/1 http://www.topografix.com/GPX/1/1/gpx.xsd" 
 version="1.1" 
 creator="BRouter-Web 0.18.1">
 <trk>
  <name>Katajanokka Merisotilaantori Weiche Nordost - Katajanokka Merisotilaantori (Einstieg)</name>
  <trkseg>
   <trkpt lat="60.167653" lon="24.974811"><ele>5</ele></trkpt>
   <trkpt lat="60.167652" lon="24.974812"><ele>5</ele></trkpt>
   <trkpt lat="60.167625" lon="24.974806"><ele>5</ele></trkpt>
   <trkpt lat="60.16759" lon="24.974794"><ele>5</ele></trkpt>
   <trkpt lat="60.167558" lon="24.974778"><ele>5</ele></trkpt>
   <trkpt lat="60.167502" lon="24.974721"><ele>5</ele></trkpt>
   <trkpt lat="60.167478" lon="24.974674"><ele>5</ele></trkpt>
   <trkpt lat="60.167436" lon="24.974551"><ele>5</ele></trkpt>
   <trkpt lat="60.167427" lon="24.974519"><ele>5</ele></trkpt>
   <trkpt lat="60.167319" lon="24.974104"><ele>5.25</ele></trkpt>
   <trkpt lat="60.167241" lon="24.973815"><ele>6</ele></trkpt>
  </trkseg>
 </trk>
</gpx>