<?xml version="1.0" encoding="UTF-8"?>
<!-- track-length = 150 filtered ascend = 0 plain-ascend = 0 cost=300 energy=0.0kwh time=12s -->
<gpx 
 xmlns="http://www.topografix.com/GPX/1/1" 
 xmlns:xsi="http://www.w3.org/2001/XMLSchema-instance" 
 xsi:schemaLocation="http://www.topografix.com/GPX/1/1 http://www.topografix.com/GPX/1/1/gpx.xsd" 
 version="1.1" 
 creator="BRouter-Web 0.18.1">
 <trk>
  <name>Vyökatu (Steig Nordost) - Abzweig Linnankatu Weiche Nordost</name>
  <trkseg>
   <trkpt lat="60.166152" lon="24.968984"><ele>4</ele></trkpt>
   <trkpt lat="60.166171" lon="24.96877"><ele>4.25</ele></trkpt>
   <trkpt lat="60.166178" lon="24.968691"><ele>4.25</ele></trkpt>
   <trkpt lat="60.16621" lon="24.96833"><ele>4.5</ele></trkpt>
   <trkpt lat="60.166222" lon="24.968193"><ele>4.5</ele></trkpt>
   <trkpt lat="60.166237" lon="24.968003"><ele>4.25</ele></trkpt>
   <trkpt lat="60.166239" lon="24.967972"><ele>4.25</ele></trkpt>
   <trkpt lat="60.166254" lon="24.967713"><ele>4.5</ele></trkpt>
   <trkpt lat="60.166244" lon="24.96686"><ele>3</ele></trkpt>
   <trkpt lat="60.166243" lon="24.9668"><ele>3</ele></trkpt>
   <trkpt lat="60.166244" lon="24.966551"><ele>3</ele></trkpt>
   <trkpt lat="60.166262" lon="24.966411"><ele>3</ele></trkpt>
   <trkpt lat="60.166284" lon="24.966321"><ele>3</ele></trkpt>
   <trkpt lat="60.166284" lon="24.966318"><ele>3</ele></trkpt>
  </trkseg>
 </trk>
</gpx>