<?xml version="1.0" encoding="UTF-8"?>
<!-- track-length = 46 filtered ascend = 0 plain-ascend = 0 cost=92 energy=0.0kwh time=4s -->
<gpx 
 xmlns="http://www.topografix.com/GPX/1/1" 
 xmlns:xsi="http://www.w3.org/2001/XMLSchema-instance" 
 xsi:schemaLocation="http://www.topografix.com/GPX/1/1 http://www.topografix.com/GPX/1/1/gpx.xsd" 
 version="1.1" 
 creator="BRouter-Web 0.18.1">
 <trk>
  <name>Abzweig Kanariankatu Weiche Süd - Kanariankatu (Steig West)</name>
  <trkseg>
   <trkpt lat="60.153565" lon="24.909851"><ele>3.75</ele></trkpt>
   <trkpt lat="60.153278" lon="24.909981"><ele>3</ele></trkpt>
   <trkpt lat="60.15317" lon="24.910042"><ele>3</ele></trkpt>
  </trkseg>
 </trk>
</gpx>