<?xml version="1.0" encoding="UTF-8"?>
<!-- track-length = 301 filtered ascend = 0 plain-ascend = 0 cost=602 energy=0.0kwh time=24s -->
<gpx 
 xmlns="http://www.topografix.com/GPX/1/1" 
 xmlns:xsi="http://www.w3.org/2001/XMLSchema-instance" 
 xsi:schemaLocation="http://www.topografix.com/GPX/1/1 http://www.topografix.com/GPX/1/1/gpx.xsd" 
 version="1.1" 
 creator="BRouter-Web 0.18.1">
 <trk>
  <name>Otto Dix (Steig Nordwest) - Friedrich-Neumann-Platz (Steig Nordost)</name>
  <trkseg>
   <trkpt lat="50.882518" lon="12.071294"><ele>190.75</ele></trkpt>
   <trkpt lat="50.882501" lon="12.07118"><ele>190.75</ele></trkpt>
   <trkpt lat="50.882463" lon="12.070899"><ele>191</ele></trkpt>
   <trkpt lat="50.882464" lon="12.070746"><ele>191</ele></trkpt>
   <trkpt lat="50.882479" lon="12.070632"><ele>191</ele></trkpt>
   <trkpt lat="50.882514" lon="12.0705"><ele>191</ele></trkpt>
   <trkpt lat="50.882564" lon="12.070379"><ele>191</ele></trkpt>
   <trkpt lat="50.882643" lon="12.070259"><ele>191</ele></trkpt>
   <trkpt lat="50.882684" lon="12.070217"><ele>191</ele></trkpt>
   <trkpt lat="50.882764" lon="12.070159"><ele>191</ele></trkpt>
   <trkpt lat="50.882971" lon="12.070075"><ele>190.25</ele></trkpt>
   <trkpt lat="50.883193" lon="12.069975"><ele>190</ele></trkpt>
   <trkpt lat="50.883382" lon="12.06986"><ele>190</ele></trkpt>
   <trkpt lat="50.883512" lon="12.069763"><ele>190</ele></trkpt>
   <trkpt lat="50.883697" lon="12.069604"><ele>190</ele></trkpt>
   <trkpt lat="50.883859" lon="12.069457"><ele>190</ele></trkpt>
   <trkpt lat="50.884437" lon="12.06896"><ele>190</ele></trkpt>
   <trkpt lat="50.884442" lon="12.068954"><ele>189.75</ele></trkpt>
  </trkseg>
 </trk>
</gpx>