<?xml version="1.0" encoding="UTF-8"?>
<!-- track-length = 234 filtered ascend = 3 plain-ascend = 3 cost=468 energy=0.0kwh time=19s -->
<gpx 
 xmlns="http://www.topografix.com/GPX/1/1" 
 xmlns:xsi="http://www.w3.org/2001/XMLSchema-instance" 
 xsi:schemaLocation="http://www.topografix.com/GPX/1/1 http://www.topografix.com/GPX/1/1/gpx.xsd" 
 version="1.1" 
 creator="BRouter-Web 0.18.1">
 <trk>
  <name>Abzweig Gonsiori Weiche West - Paberi (Steig Südwest)</name>
  <trkseg>
   <trkpt lat="59.435089" lon="24.760357"><ele>4</ele></trkpt>
   <trkpt lat="59.435061" lon="24.76036"><ele>4</ele></trkpt>
   <trkpt lat="59.434984" lon="24.760364"><ele>4</ele></trkpt>
   <trkpt lat="59.434851" lon="24.760361"><ele>4.5</ele></trkpt>
   <trkpt lat="59.434784" lon="24.760383"><ele>4.75</ele></trkpt>
   <trkpt lat="59.434709" lon="24.760431"><ele>5</ele></trkpt>
   <trkpt lat="59.434618" lon="24.76052"><ele>5</ele></trkpt>
   <trkpt lat="59.434486" lon="24.760724"><ele>5</ele></trkpt>
   <trkpt lat="59.434347" lon="24.760961"><ele>4.5</ele></trkpt>
   <trkpt lat="59.434201" lon="24.761209"><ele>4.75</ele></trkpt>
   <trkpt lat="59.434159" lon="24.76128"><ele>5</ele></trkpt>
   <trkpt lat="59.433936" lon="24.76166"><ele>5.75</ele></trkpt>
   <trkpt lat="59.433715" lon="24.762015"><ele>6</ele></trkpt>
   <trkpt lat="59.433643" lon="24.76213"><ele>6</ele></trkpt>
   <trkpt lat="59.433398" lon="24.762539"><ele>7</ele></trkpt>
  </trkseg>
 </trk>
</gpx>