<?xml version="1.0" encoding="UTF-8"?>
<!-- track-length = 446 filtered ascend = 2 plain-ascend = 2 cost=892 energy=0.0kwh time=36s -->
<gpx 
 xmlns="http://www.topografix.com/GPX/1/1" 
 xmlns:xsi="http://www.w3.org/2001/XMLSchema-instance" 
 xsi:schemaLocation="http://www.topografix.com/GPX/1/1 http://www.topografix.com/GPX/1/1/gpx.xsd" 
 version="1.1" 
 creator="BRouter-Web 0.18.1">
 <trk>
  <name>Fürstenrieder Straße (Steig Süd-West) - Laimer Platz (Steig West)</name>
  <trkseg>
   <trkpt lat="48.138965" lon="11.503061"><ele>528.75</ele></trkpt>
   <trkpt lat="48.138911" lon="11.503059"><ele>529</ele></trkpt>
   <trkpt lat="48.138729" lon="11.503038"><ele>528.75</ele></trkpt>
   <trkpt lat="48.135544" lon="11.502939"><ele>530</ele></trkpt>
   <trkpt lat="48.135413" lon="11.502934"><ele>530</ele></trkpt>
   <trkpt lat="48.135272" lon="11.502929"><ele>530</ele></trkpt>
   <trkpt lat="48.134964" lon="11.502919"><ele>530</ele></trkpt>
   <trkpt lat="48.134957" lon="11.502918"><ele>531</ele></trkpt>
  </trkseg>
 </trk>
</gpx>