<?xml version="1.0" encoding="UTF-8"?>
<!-- track-length = 48 filtered ascend = 0 plain-ascend = 0 cost=96 energy=0.0kwh time=4s -->
<gpx 
 xmlns="http://www.topografix.com/GPX/1/1" 
 xmlns:xsi="http://www.w3.org/2001/XMLSchema-instance" 
 xsi:schemaLocation="http://www.topografix.com/GPX/1/1 http://www.topografix.com/GPX/1/1/gpx.xsd" 
 version="1.1" 
 creator="BRouter-Web 0.18.1">
 <trk>
  <name>Kreuz Fürstenrieder Straße Weiche 181 - Kreuz Fürstenrieder Straße Weiche 180</name>
  <trkseg>
   <trkpt lat="48.139685" lon="11.502702"><ele>528</ele></trkpt>
   <trkpt lat="48.139685" lon="11.502707"><ele>528</ele></trkpt>
   <trkpt lat="48.139668" lon="11.502835"><ele>528</ele></trkpt>
   <trkpt lat="48.139633" lon="11.502927"><ele>528</ele></trkpt>
   <trkpt lat="48.139623" lon="11.502945"><ele>528</ele></trkpt>
   <trkpt lat="48.139585" lon="11.503001"><ele>528</ele></trkpt>
   <trkpt lat="48.139566" lon="11.503017"><ele>528</ele></trkpt>
   <trkpt lat="48.139557" lon="11.503023"><ele>528</ele></trkpt>
   <trkpt lat="48.139516" lon="11.503052"><ele>528</ele></trkpt>
   <trkpt lat="48.13947" lon="11.50307"><ele>528</ele></trkpt>
   <trkpt lat="48.13941" lon="11.503079"><ele>528</ele></trkpt>
   <trkpt lat="48.139408" lon="11.503078"><ele>528.25</ele></trkpt>
  </trkseg>
 </trk>
</gpx>