<?xml version="1.0" encoding="UTF-8"?>
<!-- track-length = 321 filtered ascend = 1 plain-ascend = 1 cost=642 energy=0.0kwh time=26s -->
<gpx 
 xmlns="http://www.topografix.com/GPX/1/1" 
 xmlns:xsi="http://www.w3.org/2001/XMLSchema-instance" 
 xsi:schemaLocation="http://www.topografix.com/GPX/1/1 http://www.topografix.com/GPX/1/1/gpx.xsd" 
 version="1.1" 
 creator="BRouter-Web 0.18.1">
 <trk>
  <name>Töölön halli (Steig Südwest) - Abzweig Sibeliuksenkatu Weiche West</name>
  <trkseg>
   <trkpt lat="60.185388" lon="24.921749"><ele>6</ele></trkpt>
   <trkpt lat="60.185354" lon="24.921796"><ele>6</ele></trkpt>
   <trkpt lat="60.185326" lon="24.921838"><ele>6</ele></trkpt>
   <trkpt lat="60.185286" lon="24.921899"><ele>6</ele></trkpt>
   <trkpt lat="60.185254" lon="24.921948"><ele>6</ele></trkpt>
   <trkpt lat="60.185231" lon="24.921984"><ele>6</ele></trkpt>
   <trkpt lat="60.184133" lon="24.923658"><ele>6.5</ele></trkpt>
   <trkpt lat="60.184002" lon="24.923856"><ele>6</ele></trkpt>
   <trkpt lat="60.18392" lon="24.923979"><ele>6</ele></trkpt>
   <trkpt lat="60.183864" lon="24.924063"><ele>6</ele></trkpt>
   <trkpt lat="60.183825" lon="24.924127"><ele>6</ele></trkpt>
   <trkpt lat="60.183797" lon="24.924167"><ele>6.25</ele></trkpt>
   <trkpt lat="60.183218" lon="24.925046"><ele>7</ele></trkpt>
   <trkpt lat="60.183106" lon="24.925217"><ele>7</ele></trkpt>
   <trkpt lat="60.183103" lon="24.925221"><ele>7.25</ele></trkpt>
  </trkseg>
 </trk>
</gpx>