<?xml version="1.0" encoding="UTF-8"?>
<!-- track-length = 371 filtered ascend = 3 plain-ascend = -3 cost=742 energy=0.0kwh time=30s -->
<gpx 
 xmlns="http://www.topografix.com/GPX/1/1" 
 xmlns:xsi="http://www.w3.org/2001/XMLSchema-instance" 
 xsi:schemaLocation="http://www.topografix.com/GPX/1/1 http://www.topografix.com/GPX/1/1/gpx.xsd" 
 version="1.1" 
 creator="BRouter-Web 99.71.0">
 <trk>
  <name>Konrad-Adenauer-Brücke Stadtgrenze - Dreieck Berliner Platz Weiche 111</name>
  <link href="https://brouter.damsy.net/latest/#map=18/49.48005/8.45260/standard&amp;lonlats=8.456204,49.481068;8.451792,49.479368&amp;profile=rail">
   <text>BRouter-Web</text>
  </link>
  <trkseg>
   <trkpt lat="49.481067" lon="8.456203"><ele>99.25</ele></trkpt>
   <trkpt lat="49.481007" lon="8.456075"><ele>99.25</ele></trkpt>
   <trkpt lat="49.480341" lon="8.454649"><ele>99.25</ele></trkpt>
   <trkpt lat="49.480137" lon="8.45407"><ele>99.25</ele></trkpt>
   <trkpt lat="49.48003" lon="8.45375"><ele>102.75</ele></trkpt>
   <trkpt lat="49.47978" lon="8.452979"><ele>99.75</ele></trkpt>
   <trkpt lat="49.479642" lon="8.45257"><ele>98.25</ele></trkpt>
   <trkpt lat="49.479387" lon="8.451853"><ele>96.25</ele></trkpt>
   <trkpt lat="49.479368" lon="8.45179"><ele>95.75</ele></trkpt>
  </trkseg>
 </trk>
</gpx>