<?xml version="1.0" encoding="UTF-8"?>
<!-- track-length = 384 filtered ascend = 0 plain-ascend = 0 cost=768 energy=0.0kwh time=31s -->
<gpx 
 xmlns="http://www.topografix.com/GPX/1/1" 
 xmlns:xsi="http://www.w3.org/2001/XMLSchema-instance" 
 xsi:schemaLocation="http://www.topografix.com/GPX/1/1 http://www.topografix.com/GPX/1/1/gpx.xsd" 
 version="1.1" 
 creator="BRouter-Web 0.18.1">
 <trk>
  <name>Am Lokschuppen (Steig Süd) - Barthstraße (Steig Süd)</name>
  <trkseg>
   <trkpt lat="48.140655" lon="11.524946"><ele>524.75</ele></trkpt>
   <trkpt lat="48.140599" lon="11.525655"><ele>524</ele></trkpt>
   <trkpt lat="48.140479" lon="11.52698"><ele>521.25</ele></trkpt>
   <trkpt lat="48.140395" lon="11.528192"><ele>521</ele></trkpt>
   <trkpt lat="48.140294" lon="11.529943"><ele>525</ele></trkpt>
   <trkpt lat="48.140285" lon="11.530079"><ele>525</ele></trkpt>
  </trkseg>
 </trk>
</gpx>