<?xml version="1.0" encoding="UTF-8"?>
<!-- track-length = 371 filtered ascend = 0 plain-ascend = 0 cost=742 energy=0.0kwh time=30s -->
<gpx 
 xmlns="http://www.topografix.com/GPX/1/1" 
 xmlns:xsi="http://www.w3.org/2001/XMLSchema-instance" 
 xsi:schemaLocation="http://www.topografix.com/GPX/1/1 http://www.topografix.com/GPX/1/1/gpx.xsd" 
 version="1.1" 
 creator="BRouter-Web 0.18.1">
 <trk>
  <name>Dreieck Siglstraße Weiche 22 - Lautensackstraße (Steig Ost)</name>
  <trkseg>
   <trkpt lat="48.139043" lon="11.514146"><ele>527.5</ele></trkpt>
   <trkpt lat="48.139051" lon="11.515388"><ele>527</ele></trkpt>
   <trkpt lat="48.138998" lon="11.517595"><ele>527</ele></trkpt>
   <trkpt lat="48.138996" lon="11.517678"><ele>527</ele></trkpt>
   <trkpt lat="48.139005" lon="11.517822"><ele>527</ele></trkpt>
   <trkpt lat="48.139033" lon="11.517937"><ele>527</ele></trkpt>
   <trkpt lat="48.139074" lon="11.518011"><ele>527</ele></trkpt>
   <trkpt lat="48.13911" lon="11.518052"><ele>527</ele></trkpt>
   <trkpt lat="48.139147" lon="11.518084"><ele>527</ele></trkpt>
   <trkpt lat="48.13918" lon="11.518095"><ele>527</ele></trkpt>
   <trkpt lat="48.139659" lon="11.518258"><ele>527</ele></trkpt>
   <trkpt lat="48.139773" lon="11.5183"><ele>527</ele></trkpt>
  </trkseg>
 </trk>
</gpx>