<?xml version="1.0" encoding="UTF-8"?>
<!-- track-length = 60 filtered ascend = 0 plain-ascend = 0 cost=120 energy=0.0kwh time=5s -->
<gpx 
 xmlns="http://www.topografix.com/GPX/1/1" 
 xmlns:xsi="http://www.w3.org/2001/XMLSchema-instance" 
 xsi:schemaLocation="http://www.topografix.com/GPX/1/1 http://www.topografix.com/GPX/1/1/gpx.xsd" 
 version="1.1" 
 creator="BRouter-Web 0.18.1">
 <trk>
  <name>Dreieck Siglstraße Weiche 19 - Dreieck Siglstraße Weiche 22</name>
  <trkseg>
   <trkpt lat="48.139055" lon="11.513366"><ele>527</ele></trkpt>
   <trkpt lat="48.139055" lon="11.51337"><ele>527.25</ele></trkpt>
   <trkpt lat="48.139054" lon="11.513385"><ele>527.25</ele></trkpt>
   <trkpt lat="48.139045" lon="11.513595"><ele>527</ele></trkpt>
   <trkpt lat="48.139043" lon="11.513669"><ele>527</ele></trkpt>
   <trkpt lat="48.139041" lon="11.513828"><ele>527.25</ele></trkpt>
   <trkpt lat="48.139041" lon="11.513931"><ele>527.5</ele></trkpt>
   <trkpt lat="48.139043" lon="11.514058"><ele>527.75</ele></trkpt>
   <trkpt lat="48.139043" lon="11.514143"><ele>527.75</ele></trkpt>
   <trkpt lat="48.139043" lon="11.514146"><ele>527</ele></trkpt>
  </trkseg>
 </trk>
</gpx>