<?xml version="1.0" encoding="UTF-8"?>
<!-- track-length = 49 filtered ascend = 4 plain-ascend = 2 cost=100 energy=0.0kwh time=4s -->
<gpx 
 xmlns="http://www.topografix.com/GPX/1/1" 
 xmlns:xsi="http://www.w3.org/2001/XMLSchema-instance" 
 xsi:schemaLocation="http://www.topografix.com/GPX/1/1 http://www.topografix.com/GPX/1/1/gpx.xsd" 
 version="1.1" 
 creator="BRouter-Web 0.18.1">
 <trk>
  <name>Dreieck Lihovar Weiche Ost-Nord - Dreieck Lihovar Weiche Nord-Ost</name>
  <trkseg>
   <trkpt lat="50.050269" lon="14.409957"><ele>195.5</ele></trkpt>
   <trkpt lat="50.05027" lon="14.409892"><ele>196.75</ele></trkpt>
   <trkpt lat="50.050271" lon="14.40979"><ele>198.75</ele></trkpt>
   <trkpt lat="50.050293" lon="14.409673"><ele>199.75</ele></trkpt>
   <trkpt lat="50.050343" lon="14.409563"><ele>199.75</ele></trkpt>
   <trkpt lat="50.050383" lon="14.409513"><ele>199.75</ele></trkpt>
   <trkpt lat="50.050407" lon="14.409494"><ele>199.5</ele></trkpt>
   <trkpt lat="50.05047" lon="14.40945"><ele>199.5</ele></trkpt>
   <trkpt lat="50.050473" lon="14.409448"><ele>197.5</ele></trkpt>
  </trkseg>
 </trk>
</gpx>