<?xml version="1.0" encoding="UTF-8"?>
<!-- track-length = 14 filtered ascend = 0 plain-ascend = 0 cost=14 energy=0.0kwh time=1s -->
<gpx 
 xmlns="http://www.topografix.com/GPX/1/1" 
 xmlns:xsi="http://www.w3.org/2001/XMLSchema-instance" 
 xsi:schemaLocation="http://www.topografix.com/GPX/1/1 http://www.topografix.com/GPX/1/1/gpx.xsd" 
 version="1.1" 
 creator="BRouter-Web 99.71.0">
 <trk>
  <name>Braunsfeld Aachener Straße/Gürtel (Steig 2) - Braunsfeld Kreuz Aachener Straße/Gürtel Weiche Ost-nach-Nord-Ost</name>
  <link href="https://brouter.damsy.net/latest/#map=18/50.93699/6.90760/standard&amp;lonlats=6.909418,50.936985;6.909227,50.936992&amp;nogos=6.781752,51.218852,6&amp;profile=rail">
   <text>BRouter-Web</text>
  </link>
  <trkseg>
   <trkpt lat="50.936985" lon="6.909418"><ele>48.5</ele></trkpt>
   <trkpt lat="50.936986" lon="6.909415"><ele>48.75</ele></trkpt>
   <trkpt lat="50.93699" lon="6.909226"><ele>48.75</ele></trkpt>
  </trkseg>
 </trk>
</gpx>
