<?xml version="1.0" encoding="UTF-8"?>
<!-- track-length = 27 filtered ascend = 0 plain-ascend = 0 cost=27 energy=0.0kwh time=2s -->
<gpx 
 xmlns="http://www.topografix.com/GPX/1/1" 
 xmlns:xsi="http://www.w3.org/2001/XMLSchema-instance" 
 xsi:schemaLocation="http://www.topografix.com/GPX/1/1 http://www.topografix.com/GPX/1/1/gpx.xsd" 
 version="1.1" 
 creator="BRouter-Web 99.71.0">
 <trk>
  <name>Braunsfeld Kreuz Aachener Straße/Gürtel Weiche Ost-nach-Nord-Ost - Braunsfeld Kreuz Aachener Straße/Gürtel Weiche Ost-nach-Süd-Ost</name>
  <link href="https://brouter.damsy.net/latest/#map=18/50.93689/6.91058/standard&amp;lonlats=6.909226,50.93699;6.908861,50.937004&amp;nogos=6.781752,51.218852,6&amp;profile=rail">
   <text>BRouter-Web</text>
  </link>
  <trkseg>
   <trkpt lat="50.93699" lon="6.909226"><ele>48.75</ele></trkpt>
   <trkpt lat="50.936991" lon="6.909225"><ele>48.75</ele></trkpt>
   <trkpt lat="50.936993" lon="6.909103"><ele>48.75</ele></trkpt>
   <trkpt lat="50.936998" lon="6.908971"><ele>48.75</ele></trkpt>
   <trkpt lat="50.937002" lon="6.90886"><ele>49</ele></trkpt>
  </trkseg>
 </trk>
</gpx>