<?xml version="1.0" encoding="UTF-8"?>
<!-- track-length = 475 filtered ascend = 0 plain-ascend = 1 cost=475 energy=0.0kwh time=38s -->
<gpx 
 xmlns="http://www.topografix.com/GPX/1/1" 
 xmlns:xsi="http://www.w3.org/2001/XMLSchema-instance" 
 xsi:schemaLocation="http://www.topografix.com/GPX/1/1 http://www.topografix.com/GPX/1/1/gpx.xsd" 
 version="1.1" 
 creator="BRouter-Web 99.71.0">
 <trk>
  <name>Lindenthal Melaten (Steig Nord) - Braunsfeld Aachener Straße/Gürtel (Steig 2)</name>
  <link href="https://brouter.damsy.net/latest/#map=19/50.93677/6.91007/standard&amp;lonlats=6.91618,50.936783;6.909419,50.936988&amp;nogos=6.781752,51.218852,6&amp;profile=rail">
   <text>BRouter-Web</text>
  </link>
  <trkseg>
   <trkpt lat="50.936782" lon="6.916179"><ele>48</ele></trkpt>
   <trkpt lat="50.936788" lon="6.916041"><ele>48</ele></trkpt>
   <trkpt lat="50.936825" lon="6.914656"><ele>48</ele></trkpt>
   <trkpt lat="50.93688" lon="6.912895"><ele>48</ele></trkpt>
   <trkpt lat="50.936883" lon="6.912806"><ele>48</ele></trkpt>
   <trkpt lat="50.936888" lon="6.91269"><ele>47.75</ele></trkpt>
   <trkpt lat="50.936889" lon="6.912635"><ele>47.75</ele></trkpt>
   <trkpt lat="50.936985" lon="6.909418"><ele>48.75</ele></trkpt>
  </trkseg>
 </trk>
</gpx>