<?xml version="1.0" encoding="UTF-8"?>
<!-- track-length = 4258 filtered ascend = 11 plain-ascend = -44 cost=4258 energy=0.0kwh time=5m 41s -->
<gpx 
 xmlns="http://www.topografix.com/GPX/1/1" 
 xmlns:xsi="http://www.w3.org/2001/XMLSchema-instance" 
 xsi:schemaLocation="http://www.topografix.com/GPX/1/1 http://www.topografix.com/GPX/1/1/gpx.xsd" 
 version="1.1" 
 creator="BRouter-Web 0.18.1">
 <trk>
  <name>84000 Milotice nad Opavou Weiche 1 - Zátor</name>
  <trkseg>
   <trkpt lat="50.018337" lon="17.559928"><ele>445.75</ele></trkpt>
   <trkpt lat="50.01834" lon="17.559928"><ele>446</ele></trkpt>
   <trkpt lat="50.018586" lon="17.55988"><ele>445.75</ele></trkpt>
   <trkpt lat="50.01876" lon="17.559851"><ele>445</ele></trkpt>
   <trkpt lat="50.01889" lon="17.559843"><ele>444.5</ele></trkpt>
   <trkpt lat="50.019092" lon="17.55984"><ele>443.5</ele></trkpt>
   <trkpt lat="50.019241" lon="17.559855"><ele>443</ele></trkpt>
   <trkpt lat="50.019399" lon="17.559886"><ele>442.5</ele></trkpt>
   <trkpt lat="50.019534" lon="17.559927"><ele>442.5</ele></trkpt>
   <trkpt lat="50.019659" lon="17.559973"><ele>443.25</ele></trkpt>
   <trkpt lat="50.019908" lon="17.560095"><ele>444.25</ele></trkpt>
   <trkpt lat="50.020143" lon="17.560252"><ele>444.5</ele></trkpt>
   <trkpt lat="50.020396" lon="17.560463"><ele>444.25</ele></trkpt>
   <trkpt lat="50.02125" lon="17.561306"><ele>442</ele></trkpt>
   <trkpt lat="50.021391" lon="17.561429"><ele>441.25</ele></trkpt>
   <trkpt lat="50.021523" lon="17.561535"><ele>440.75</ele></trkpt>
   <trkpt lat="50.02176" lon="17.561691"><ele>439.5</ele></trkpt>
   <trkpt lat="50.022008" lon="17.561807"><ele>437</ele></trkpt>
   <trkpt lat="50.022075" lon="17.561832"><ele>437</ele></trkpt>
   <trkpt lat="50.02223" lon="17.561877"><ele>437.75</ele></trkpt>
   <trkpt lat="50.022388" lon="17.561909"><ele>438.75</ele></trkpt>
   <trkpt lat="50.022513" lon="17.561921"><ele>439.25</ele></trkpt>
   <trkpt lat="50.022761" lon="17.561916"><ele>439.25</ele></trkpt>
   <trkpt lat="50.023005" lon="17.561882"><ele>441.25</ele></trkpt>
   <trkpt lat="50.023272" lon="17.561801"><ele>443.75</ele></trkpt>
   <trkpt lat="50.02343" lon="17.561741"><ele>443</ele></trkpt>
   <trkpt lat="50.024341" lon="17.561367"><ele>437</ele></trkpt>
   <trkpt lat="50.024815" lon="17.561196"><ele>436.25</ele></trkpt>
   <trkpt lat="50.025023" lon="17.561135"><ele>436.25</ele></trkpt>
   <trkpt lat="50.025269" lon="17.561098"><ele>435.5</ele></trkpt>
   <trkpt lat="50.025591" lon="17.561088"><ele>435</ele></trkpt>
   <trkpt lat="50.025837" lon="17.561098"><ele>434.5</ele></trkpt>
   <trkpt lat="50.026298" lon="17.561166"><ele>434.75</ele></trkpt>
   <trkpt lat="50.027241" lon="17.561341"><ele>433.5</ele></trkpt>
   <trkpt lat="50.027892" lon="17.561475"><ele>434.75</ele></trkpt>
   <trkpt lat="50.028048" lon="17.561526"><ele>435</ele></trkpt>
   <trkpt lat="50.028584" lon="17.561752"><ele>433.5</ele></trkpt>
   <trkpt lat="50.029105" lon="17.562002"><ele>431.5</ele></trkpt>
   <trkpt lat="50.029316" lon="17.562093"><ele>431</ele></trkpt>
   <trkpt lat="50.029608" lon="17.56226"><ele>431.5</ele></trkpt>
   <trkpt lat="50.029965" lon="17.562479"><ele>431</ele></trkpt>
   <trkpt lat="50.03059" lon="17.562916"><ele>431</ele></trkpt>
   <trkpt lat="50.031036" lon="17.563247"><ele>429.25</ele></trkpt>
   <trkpt lat="50.031194" lon="17.563399"><ele>429</ele></trkpt>
   <trkpt lat="50.031614" lon="17.563839"><ele>428.75</ele></trkpt>
   <trkpt lat="50.032059" lon="17.564329"><ele>430.25</ele></trkpt>
   <trkpt lat="50.032211" lon="17.564531"><ele>429.75</ele></trkpt>
   <trkpt lat="50.0324" lon="17.564802"><ele>429.75</ele></trkpt>
   <trkpt lat="50.032564" lon="17.565071"><ele>429</ele></trkpt>
   <trkpt lat="50.032802" lon="17.565582"><ele>428.5</ele></trkpt>
   <trkpt lat="50.032915" lon="17.565866"><ele>429.25</ele></trkpt>
   <trkpt lat="50.033012" lon="17.566138"><ele>428.5</ele></trkpt>
   <trkpt lat="50.033102" lon="17.566439"><ele>426.75</ele></trkpt>
   <trkpt lat="50.033167" lon="17.566696"><ele>426.5</ele></trkpt>
   <trkpt lat="50.033223" lon="17.566936"><ele>426</ele></trkpt>
   <trkpt lat="50.033277" lon="17.567239"><ele>426.25</ele></trkpt>
   <trkpt lat="50.033322" lon="17.567539"><ele>425.25</ele></trkpt>
   <trkpt lat="50.033348" lon="17.567823"><ele>425.5</ele></trkpt>
   <trkpt lat="50.033377" lon="17.568215"><ele>424.75</ele></trkpt>
   <trkpt lat="50.033653" lon="17.573068"><ele>420</ele></trkpt>
   <trkpt lat="50.033675" lon="17.573379"><ele>419.75</ele></trkpt>
   <trkpt lat="50.033703" lon="17.573673"><ele>419</ele></trkpt>
   <trkpt lat="50.033726" lon="17.573861"><ele>418</ele></trkpt>
   <trkpt lat="50.033759" lon="17.574059"><ele>416.75</ele></trkpt>
   <trkpt lat="50.033778" lon="17.574184"><ele>416.5</ele></trkpt>
   <trkpt lat="50.033818" lon="17.574401"><ele>418.75</ele></trkpt>
   <trkpt lat="50.033893" lon="17.574721"><ele>419.75</ele></trkpt>
   <trkpt lat="50.034015" lon="17.575133"><ele>417.75</ele></trkpt>
   <trkpt lat="50.034095" lon="17.575368"><ele>418</ele></trkpt>
   <trkpt lat="50.034179" lon="17.57559"><ele>418.75</ele></trkpt>
   <trkpt lat="50.03438" lon="17.576037"><ele>418.25</ele></trkpt>
   <trkpt lat="50.034598" lon="17.576437"><ele>419.25</ele></trkpt>
   <trkpt lat="50.034848" lon="17.576804"><ele>419.75</ele></trkpt>
   <trkpt lat="50.035008" lon="17.577005"><ele>419</ele></trkpt>
   <trkpt lat="50.0352" lon="17.577217"><ele>418.75</ele></trkpt>
   <trkpt lat="50.036397" lon="17.578373"><ele>417.75</ele></trkpt>
   <trkpt lat="50.036737" lon="17.578715"><ele>418.25</ele></trkpt>
   <trkpt lat="50.03699" lon="17.579024"><ele>418.5</ele></trkpt>
   <trkpt lat="50.037122" lon="17.579202"><ele>420</ele></trkpt>
   <trkpt lat="50.037232" lon="17.579385"><ele>417.25</ele></trkpt>
   <trkpt lat="50.037379" lon="17.579656"><ele>418.5</ele></trkpt>
   <trkpt lat="50.037595" lon="17.580124"><ele>415.5</ele></trkpt>
   <trkpt lat="50.037762" lon="17.580577"><ele>413.75</ele></trkpt>
   <trkpt lat="50.037823" lon="17.580764"><ele>411.75</ele></trkpt>
   <trkpt lat="50.037875" lon="17.58095"><ele>410</ele></trkpt>
   <trkpt lat="50.037901" lon="17.581048"><ele>409.25</ele></trkpt>
   <trkpt lat="50.037962" lon="17.581303"><ele>410.25</ele></trkpt>
   <trkpt lat="50.038018" lon="17.581585"><ele>412.25</ele></trkpt>
   <trkpt lat="50.038058" lon="17.581844"><ele>412.25</ele></trkpt>
   <trkpt lat="50.038091" lon="17.582117"><ele>411.25</ele></trkpt>
   <trkpt lat="50.038115" lon="17.582379"><ele>410.5</ele></trkpt>
   <trkpt lat="50.03813" lon="17.582638"><ele>410.5</ele></trkpt>
   <trkpt lat="50.038138" lon="17.582918"><ele>411.25</ele></trkpt>
   <trkpt lat="50.038136" lon="17.583274"><ele>412.5</ele></trkpt>
   <trkpt lat="50.038096" lon="17.584134"><ele>413.5</ele></trkpt>
   <trkpt lat="50.037865" lon="17.588562"><ele>409.25</ele></trkpt>
   <trkpt lat="50.037724" lon="17.591119"><ele>404.5</ele></trkpt>
   <trkpt lat="50.03772" lon="17.5912"><ele>404.25</ele></trkpt>
   <trkpt lat="50.037664" lon="17.592297"><ele>398.25</ele></trkpt>
   <trkpt lat="50.037663" lon="17.592674"><ele>395</ele></trkpt>
   <trkpt lat="50.037688" lon="17.593081"><ele>392.75</ele></trkpt>
   <trkpt lat="50.03773" lon="17.593426"><ele>403.5</ele></trkpt>
   <trkpt lat="50.037787" lon="17.593737"><ele>405.25</ele></trkpt>
   <trkpt lat="50.037848" lon="17.593996"><ele>406</ele></trkpt>
   <trkpt lat="50.037923" lon="17.594265"><ele>407.25</ele></trkpt>
   <trkpt lat="50.038038" lon="17.59459"><ele>406.25</ele></trkpt>
   <trkpt lat="50.038152" lon="17.594854"><ele>407.25</ele></trkpt>
   <trkpt lat="50.038256" lon="17.595066"><ele>407</ele></trkpt>
   <trkpt lat="50.038417" lon="17.595334"><ele>406.5</ele></trkpt>
   <trkpt lat="50.03853" lon="17.595496"><ele>406.5</ele></trkpt>
   <trkpt lat="50.038659" lon="17.595662"><ele>406.25</ele></trkpt>
   <trkpt lat="50.038836" lon="17.595863"><ele>405</ele></trkpt>
   <trkpt lat="50.03901" lon="17.596012"><ele>404.75</ele></trkpt>
   <trkpt lat="50.039178" lon="17.596145"><ele>403</ele></trkpt>
   <trkpt lat="50.039483" lon="17.596324"><ele>401.25</ele></trkpt>
   <trkpt lat="50.03952" lon="17.59634"><ele>401</ele></trkpt>
  </trkseg>
 </trk>
</gpx>