<?xml version="1.0" encoding="UTF-8"?>
<!-- track-length = 195 filtered ascend = 0 plain-ascend = 0 cost=195 energy=0.0kwh time=16s -->
<gpx 
 xmlns="http://www.topografix.com/GPX/1/1" 
 xmlns:xsi="http://www.w3.org/2001/XMLSchema-instance" 
 xsi:schemaLocation="http://www.topografix.com/GPX/1/1 http://www.topografix.com/GPX/1/1/gpx.xsd" 
 version="1.1" 
 creator="BRouter-Web 0.18.1">
 <trk>
  <name>84000 Krnov (Gleis 3) - Krnov Weiche 53</name>
  <trkseg>
   <trkpt lat="50.089398" lon="17.683287"><ele>323</ele></trkpt>
   <trkpt lat="50.089092" lon="17.683287"><ele>323</ele></trkpt>
   <trkpt lat="50.088974" lon="17.683286"><ele>323</ele></trkpt>
   <trkpt lat="50.088303" lon="17.683281"><ele>323</ele></trkpt>
   <trkpt lat="50.087655" lon="17.683281"><ele>323</ele></trkpt>
   <trkpt lat="50.08765" lon="17.68328"><ele>323</ele></trkpt>
  </trkseg>
 </trk>
</gpx>