<?xml version="1.0" encoding="UTF-8"?>
<!-- track-length = 6548 filtered ascend = 3 plain-ascend = -60 cost=6549 energy=0.1kwh time=8m 44s -->
<gpx 
 xmlns="http://www.topografix.com/GPX/1/1" 
 xmlns:xsi="http://www.w3.org/2001/XMLSchema-instance" 
 xsi:schemaLocation="http://www.topografix.com/GPX/1/1 http://www.topografix.com/GPX/1/1/gpx.xsd" 
 version="1.1" 
 creator="BRouter-Web 0.18.1">
 <trk>
  <name>84000 Brantice Weiche 1 - Krnov Weiche 65</name>
  <trkseg>
   <trkpt lat="50.053402" lon="17.61478"><ele>385.5</ele></trkpt>
   <trkpt lat="50.053665" lon="17.615417"><ele>385.25</ele></trkpt>
   <trkpt lat="50.053755" lon="17.615655"><ele>384.5</ele></trkpt>
   <trkpt lat="50.053848" lon="17.615985"><ele>384.75</ele></trkpt>
   <trkpt lat="50.053919" lon="17.616286"><ele>384.5</ele></trkpt>
   <trkpt lat="50.053957" lon="17.616507"><ele>384.5</ele></trkpt>
   <trkpt lat="50.053993" lon="17.616779"><ele>384.75</ele></trkpt>
   <trkpt lat="50.054018" lon="17.617131"><ele>385.25</ele></trkpt>
   <trkpt lat="50.054024" lon="17.617375"><ele>385.5</ele></trkpt>
   <trkpt lat="50.054026" lon="17.617477"><ele>385.5</ele></trkpt>
   <trkpt lat="50.054002" lon="17.617947"><ele>385.25</ele></trkpt>
   <trkpt lat="50.053967" lon="17.618226"><ele>385</ele></trkpt>
   <trkpt lat="50.053926" lon="17.618482"><ele>384.5</ele></trkpt>
   <trkpt lat="50.053862" lon="17.618772"><ele>384.25</ele></trkpt>
   <trkpt lat="50.053724" lon="17.619236"><ele>386.25</ele></trkpt>
   <trkpt lat="50.05332" lon="17.620361"><ele>383</ele></trkpt>
   <trkpt lat="50.053214" lon="17.620697"><ele>383</ele></trkpt>
   <trkpt lat="50.053144" lon="17.621011"><ele>382</ele></trkpt>
   <trkpt lat="50.053088" lon="17.621332"><ele>380.25</ele></trkpt>
   <trkpt lat="50.053053" lon="17.621644"><ele>380.75</ele></trkpt>
   <trkpt lat="50.053033" lon="17.621945"><ele>379.5</ele></trkpt>
   <trkpt lat="50.053025" lon="17.622279"><ele>379</ele></trkpt>
   <trkpt lat="50.05304" lon="17.622631"><ele>378.5</ele></trkpt>
   <trkpt lat="50.053065" lon="17.622904"><ele>378</ele></trkpt>
   <trkpt lat="50.053101" lon="17.62318"><ele>375</ele></trkpt>
   <trkpt lat="50.053128" lon="17.623331"><ele>372.5</ele></trkpt>
   <trkpt lat="50.053161" lon="17.623508"><ele>372</ele></trkpt>
   <trkpt lat="50.053219" lon="17.623744"><ele>373.75</ele></trkpt>
   <trkpt lat="50.053291" lon="17.623988"><ele>377.5</ele></trkpt>
   <trkpt lat="50.053377" lon="17.624241"><ele>378.5</ele></trkpt>
   <trkpt lat="50.053474" lon="17.624483"><ele>378</ele></trkpt>
   <trkpt lat="50.053612" lon="17.624761"><ele>377.75</ele></trkpt>
   <trkpt lat="50.053725" lon="17.624959"><ele>376.25</ele></trkpt>
   <trkpt lat="50.053845" lon="17.625144"><ele>376.25</ele></trkpt>
   <trkpt lat="50.053992" lon="17.625343"><ele>376.25</ele></trkpt>
   <trkpt lat="50.054146" lon="17.625528"><ele>377.25</ele></trkpt>
   <trkpt lat="50.054284" lon="17.625668"><ele>376.75</ele></trkpt>
   <trkpt lat="50.054468" lon="17.625824"><ele>377.75</ele></trkpt>
   <trkpt lat="50.054576" lon="17.625901"><ele>378</ele></trkpt>
   <trkpt lat="50.054705" lon="17.625985"><ele>378.5</ele></trkpt>
   <trkpt lat="50.054903" lon="17.626088"><ele>378.25</ele></trkpt>
   <trkpt lat="50.055059" lon="17.626149"><ele>378.75</ele></trkpt>
   <trkpt lat="50.055251" lon="17.626206"><ele>380</ele></trkpt>
   <trkpt lat="50.056281" lon="17.626422"><ele>379</ele></trkpt>
   <trkpt lat="50.056482" lon="17.626478"><ele>380</ele></trkpt>
   <trkpt lat="50.056714" lon="17.626559"><ele>379.5</ele></trkpt>
   <trkpt lat="50.05692" lon="17.626658"><ele>377.25</ele></trkpt>
   <trkpt lat="50.057091" lon="17.626761"><ele>378.75</ele></trkpt>
   <trkpt lat="50.057234" lon="17.626863"><ele>378.75</ele></trkpt>
   <trkpt lat="50.057366" lon="17.626966"><ele>378.5</ele></trkpt>
   <trkpt lat="50.0575" lon="17.627087"><ele>378.5</ele></trkpt>
   <trkpt lat="50.057627" lon="17.627225"><ele>378</ele></trkpt>
   <trkpt lat="50.057753" lon="17.627378"><ele>377.25</ele></trkpt>
   <trkpt lat="50.058006" lon="17.627785"><ele>375.5</ele></trkpt>
   <trkpt lat="50.05812" lon="17.628006"><ele>373.75</ele></trkpt>
   <trkpt lat="50.058243" lon="17.628289"><ele>373.5</ele></trkpt>
   <trkpt lat="50.058334" lon="17.628537"><ele>373</ele></trkpt>
   <trkpt lat="50.058401" lon="17.628752"><ele>371.5</ele></trkpt>
   <trkpt lat="50.058783" lon="17.63014"><ele>370</ele></trkpt>
   <trkpt lat="50.05882" lon="17.630279"><ele>371.75</ele></trkpt>
   <trkpt lat="50.059091" lon="17.631276"><ele>372.5</ele></trkpt>
   <trkpt lat="50.059174" lon="17.631544"><ele>373</ele></trkpt>
   <trkpt lat="50.05935" lon="17.632043"><ele>373</ele></trkpt>
   <trkpt lat="50.059451" lon="17.632284"><ele>372.25</ele></trkpt>
   <trkpt lat="50.059564" lon="17.632527"><ele>372.25</ele></trkpt>
   <trkpt lat="50.059676" lon="17.632746"><ele>371.5</ele></trkpt>
   <trkpt lat="50.059976" lon="17.63329"><ele>369.75</ele></trkpt>
   <trkpt lat="50.062091" lon="17.63702"><ele>365.75</ele></trkpt>
   <trkpt lat="50.063974" lon="17.640349"><ele>363.25</ele></trkpt>
   <trkpt lat="50.06419" lon="17.640778"><ele>363.5</ele></trkpt>
   <trkpt lat="50.064415" lon="17.641278"><ele>362.75</ele></trkpt>
   <trkpt lat="50.065786" lon="17.644788"><ele>360.25</ele></trkpt>
   <trkpt lat="50.066581" lon="17.646822"><ele>354.25</ele></trkpt>
   <trkpt lat="50.066621" lon="17.646923"><ele>355.25</ele></trkpt>
   <trkpt lat="50.067111" lon="17.648178"><ele>355.5</ele></trkpt>
   <trkpt lat="50.067131" lon="17.648231"><ele>355.75</ele></trkpt>
   <trkpt lat="50.067555" lon="17.649319"><ele>355.25</ele></trkpt>
   <trkpt lat="50.069199" lon="17.653527"><ele>352.25</ele></trkpt>
   <trkpt lat="50.069447" lon="17.654153"><ele>351.75</ele></trkpt>
   <trkpt lat="50.069693" lon="17.654712"><ele>351</ele></trkpt>
   <trkpt lat="50.069728" lon="17.654782"><ele>351</ele></trkpt>
   <trkpt lat="50.069988" lon="17.655277"><ele>351</ele></trkpt>
   <trkpt lat="50.070124" lon="17.655514"><ele>351.75</ele></trkpt>
   <trkpt lat="50.070429" lon="17.656006"><ele>350.75</ele></trkpt>
   <trkpt lat="50.071067" lon="17.656915"><ele>349.25</ele></trkpt>
   <trkpt lat="50.073027" lon="17.659665"><ele>345.25</ele></trkpt>
   <trkpt lat="50.073101" lon="17.659764"><ele>345</ele></trkpt>
   <trkpt lat="50.073305" lon="17.660077"><ele>345.5</ele></trkpt>
   <trkpt lat="50.073455" lon="17.660333"><ele>347.25</ele></trkpt>
   <trkpt lat="50.073576" lon="17.660561"><ele>346.5</ele></trkpt>
   <trkpt lat="50.073698" lon="17.660823"><ele>347.75</ele></trkpt>
   <trkpt lat="50.073797" lon="17.66106"><ele>347.75</ele></trkpt>
   <trkpt lat="50.073886" lon="17.661298"><ele>346</ele></trkpt>
   <trkpt lat="50.074698" lon="17.663788"><ele>342.25</ele></trkpt>
   <trkpt lat="50.077391" lon="17.672112"><ele>336.25</ele></trkpt>
   <trkpt lat="50.078449" lon="17.675378"><ele>331</ele></trkpt>
   <trkpt lat="50.078482" lon="17.675481"><ele>330.75</ele></trkpt>
   <trkpt lat="50.079152" lon="17.677549"><ele>330.75</ele></trkpt>
   <trkpt lat="50.079176" lon="17.677622"><ele>330.75</ele></trkpt>
   <trkpt lat="50.07925" lon="17.677852"><ele>330</ele></trkpt>
   <trkpt lat="50.07929" lon="17.677976"><ele>329.25</ele></trkpt>
   <trkpt lat="50.079808" lon="17.679569"><ele>328</ele></trkpt>
   <trkpt lat="50.079943" lon="17.679948"><ele>328.25</ele></trkpt>
   <trkpt lat="50.080082" lon="17.68028"><ele>326.5</ele></trkpt>
   <trkpt lat="50.08021" lon="17.680561"><ele>327.5</ele></trkpt>
   <trkpt lat="50.080354" lon="17.680835"><ele>326.25</ele></trkpt>
   <trkpt lat="50.080504" lon="17.681096"><ele>326.5</ele></trkpt>
   <trkpt lat="50.080679" lon="17.681366"><ele>325</ele></trkpt>
   <trkpt lat="50.080845" lon="17.681604"><ele>326.25</ele></trkpt>
   <trkpt lat="50.081037" lon="17.681844"><ele>325.5</ele></trkpt>
   <trkpt lat="50.081212" lon="17.682043"><ele>325.25</ele></trkpt>
   <trkpt lat="50.081378" lon="17.682216"><ele>324.75</ele></trkpt>
   <trkpt lat="50.081491" lon="17.682321"><ele>324.25</ele></trkpt>
   <trkpt lat="50.081723" lon="17.682515"><ele>325.5</ele></trkpt>
   <trkpt lat="50.081888" lon="17.682641"><ele>324.75</ele></trkpt>
   <trkpt lat="50.082224" lon="17.682858"><ele>325</ele></trkpt>
   <trkpt lat="50.082444" lon="17.68297"><ele>324.5</ele></trkpt>
   <trkpt lat="50.082658" lon="17.683061"><ele>324.75</ele></trkpt>
   <trkpt lat="50.082907" lon="17.683148"><ele>323.5</ele></trkpt>
   <trkpt lat="50.08306" lon="17.683188"><ele>323.25</ele></trkpt>
   <trkpt lat="50.083364" lon="17.683246"><ele>324.25</ele></trkpt>
   <trkpt lat="50.083591" lon="17.683268"><ele>324.75</ele></trkpt>
   <trkpt lat="50.084587" lon="17.683271"><ele>321.75</ele></trkpt>
   <trkpt lat="50.084921" lon="17.683272"><ele>322</ele></trkpt>
   <trkpt lat="50.085304" lon="17.683274"><ele>324</ele></trkpt>
   <trkpt lat="50.0858" lon="17.683275"><ele>324.25</ele></trkpt>
  </trkseg>
 </trk>
</gpx>