<?xml version="1.0" encoding="UTF-8"?>
<!-- track-length = 66 filtered ascend = 0 plain-ascend = 1 cost=132 energy=0.0kwh time=5s -->
<gpx 
 xmlns="http://www.topografix.com/GPX/1/1" 
 xmlns:xsi="http://www.w3.org/2001/XMLSchema-instance" 
 xsi:schemaLocation="http://www.topografix.com/GPX/1/1 http://www.topografix.com/GPX/1/1/gpx.xsd" 
 version="1.1" 
 creator="BRouter-Web 0.18.1">
 <trk>
  <name>Dreieck 11. novembra krastmala/13. janvāra iela Weiche Nordwest-Südwest - Dreieck 11. novembra krastmala/13. janvāra iela Weiche Südost-Südwest</name>
  <trkseg>
   <trkpt lat="56.94439" lon="24.109119"><ele>4.5</ele></trkpt>
   <trkpt lat="56.944389" lon="24.109123"><ele>4.75</ele></trkpt>
   <trkpt lat="56.94423" lon="24.109594"><ele>4</ele></trkpt>
   <trkpt lat="56.944188" lon="24.109692"><ele>3.75</ele></trkpt>
   <trkpt lat="56.944067" lon="24.109984"><ele>3.75</ele></trkpt>
   <trkpt lat="56.944066" lon="24.109985"><ele>4.25</ele></trkpt>
  </trkseg>
 </trk>
</gpx>