<?xml version="1.0" encoding="UTF-8"?>
<!-- track-length = 163 filtered ascend = 0 plain-ascend = 1 cost=326 energy=0.0kwh time=13s -->
<gpx 
 xmlns="http://www.topografix.com/GPX/1/1" 
 xmlns:xsi="http://www.w3.org/2001/XMLSchema-instance" 
 xsi:schemaLocation="http://www.topografix.com/GPX/1/1 http://www.topografix.com/GPX/1/1/gpx.xsd" 
 version="1.1" 
 creator="BRouter-Web 0.18.1">
 <trk>
  <name>Dreieck Foro Buonaparte Weiche West-Nord - Abzweig Cadorna FN Weiche Nord</name>
  <trkseg>
   <trkpt lat="45.467648" lon="9.179121"><ele>121.5</ele></trkpt>
   <trkpt lat="45.467714" lon="9.17879"><ele>121.75</ele></trkpt>
   <trkpt lat="45.467733" lon="9.178713"><ele>121.75</ele></trkpt>
   <trkpt lat="45.467871" lon="9.178298"><ele>122</ele></trkpt>
   <trkpt lat="45.467915" lon="9.178178"><ele>122</ele></trkpt>
   <trkpt lat="45.468017" lon="9.177881"><ele>122</ele></trkpt>
   <trkpt lat="45.468047" lon="9.177738"><ele>122</ele></trkpt>
   <trkpt lat="45.468061" lon="9.177579"><ele>122</ele></trkpt>
   <trkpt lat="45.468047" lon="9.177172"><ele>122</ele></trkpt>
  </trkseg>
 </trk>
</gpx>