<?xml version="1.0" encoding="UTF-8"?>
<!-- track-length = 49 filtered ascend = 0 plain-ascend = 0 cost=98 energy=0.0kwh time=4s -->
<gpx 
 xmlns="http://www.topografix.com/GPX/1/1" 
 xmlns:xsi="http://www.w3.org/2001/XMLSchema-instance" 
 xsi:schemaLocation="http://www.topografix.com/GPX/1/1 http://www.topografix.com/GPX/1/1/gpx.xsd" 
 version="1.1" 
 creator="BRouter-Web 99.71.0">
 <trk>
  <name>Dreieck Agneten-/Hohepforte-/Sieverstorstraße Weiche 451 - Dreieck Agneten-/Hohepforte-/Sieverstorstraße Weiche 453</name>
  <link href="https://brouter.damsy.net/latest/#map=18/52.14691/11.64676/standard&amp;lonlats=11.645324,52.147121;11.645933,52.146968&amp;profile=rail">
   <text>BRouter-Web</text>
  </link>
  <trkseg>
   <trkpt lat="52.147121" lon="11.645324"><ele>48</ele></trkpt>
   <trkpt lat="52.147121" lon="11.645328"><ele>48</ele></trkpt>
   <trkpt lat="52.147116" lon="11.645408"><ele>48</ele></trkpt>
   <trkpt lat="52.147108" lon="11.645561"><ele>48</ele></trkpt>
   <trkpt lat="52.147093" lon="11.645687"><ele>48</ele></trkpt>
   <trkpt lat="52.147071" lon="11.64577"><ele>48</ele></trkpt>
   <trkpt lat="52.147" lon="11.645898"><ele>48</ele></trkpt>
   <trkpt lat="52.146967" lon="11.645933"><ele>48.25</ele></trkpt>
  </trkseg>
 </trk>
</gpx>