<?xml version="1.0" encoding="UTF-8"?>
<!-- track-length = 378 filtered ascend = 2 plain-ascend = 2 cost=756 energy=0.0kwh time=30s -->
<gpx 
 xmlns="http://www.topografix.com/GPX/1/1" 
 xmlns:xsi="http://www.w3.org/2001/XMLSchema-instance" 
 xsi:schemaLocation="http://www.topografix.com/GPX/1/1 http://www.topografix.com/GPX/1/1/gpx.xsd" 
 version="1.1" 
 creator="BRouter-Web 0.18.1">
 <trk>
  <name>Otto Dix (Steig Südost) - Hauptbahnhof/Theater (Steig Südwest)</name>
  <trkseg>
   <trkpt lat="50.882564" lon="12.071786"><ele>190.75</ele></trkpt>
   <trkpt lat="50.88258" lon="12.071888"><ele>191</ele></trkpt>
   <trkpt lat="50.882591" lon="12.071959"><ele>191</ele></trkpt>
   <trkpt lat="50.882741" lon="12.072941"><ele>191</ele></trkpt>
   <trkpt lat="50.882828" lon="12.073508"><ele>191</ele></trkpt>
   <trkpt lat="50.882841" lon="12.073627"><ele>191</ele></trkpt>
   <trkpt lat="50.882858" lon="12.073834"><ele>191</ele></trkpt>
   <trkpt lat="50.882864" lon="12.073988"><ele>191.25</ele></trkpt>
   <trkpt lat="50.882863" lon="12.074263"><ele>191.25</ele></trkpt>
   <trkpt lat="50.882835" lon="12.074612"><ele>191</ele></trkpt>
   <trkpt lat="50.882794" lon="12.074899"><ele>191</ele></trkpt>
   <trkpt lat="50.882751" lon="12.075165"><ele>191</ele></trkpt>
   <trkpt lat="50.882666" lon="12.075678"><ele>190.5</ele></trkpt>
   <trkpt lat="50.882603" lon="12.075977"><ele>191.5</ele></trkpt>
   <trkpt lat="50.882563" lon="12.076148"><ele>192.25</ele></trkpt>
   <trkpt lat="50.882421" lon="12.076714"><ele>191.5</ele></trkpt>
   <trkpt lat="50.882353" lon="12.076981"><ele>192.75</ele></trkpt>
  </trkseg>
 </trk>
</gpx>