<?xml version="1.0" encoding="UTF-8"?>
<!-- track-length = 322 filtered ascend = 0 plain-ascend = 1 cost=644 energy=0.0kwh time=26s -->
<gpx 
 xmlns="http://www.topografix.com/GPX/1/1" 
 xmlns:xsi="http://www.w3.org/2001/XMLSchema-instance" 
 xsi:schemaLocation="http://www.topografix.com/GPX/1/1 http://www.topografix.com/GPX/1/1/gpx.xsd" 
 version="1.1" 
 creator="BRouter-Web 0.18.1">
 <trk>
  <name>Untermhaus (Einstieg) - Ernststraße (Steig West)</name>
  <trkseg>
   <trkpt lat="50.89044" lon="12.069123"><ele>189.25</ele></trkpt>
   <trkpt lat="50.89041" lon="12.069125"><ele>189.5</ele></trkpt>
   <trkpt lat="50.890327" lon="12.069139"><ele>189.75</ele></trkpt>
   <trkpt lat="50.890217" lon="12.069159"><ele>189.75</ele></trkpt>
   <trkpt lat="50.890075" lon="12.069201"><ele>189.25</ele></trkpt>
   <trkpt lat="50.890025" lon="12.069208"><ele>189</ele></trkpt>
   <trkpt lat="50.889886" lon="12.069228"><ele>189</ele></trkpt>
   <trkpt lat="50.889134" lon="12.069276"><ele>189.25</ele></trkpt>
   <trkpt lat="50.888556" lon="12.069321"><ele>189.5</ele></trkpt>
   <trkpt lat="50.888008" lon="12.069377"><ele>190</ele></trkpt>
   <trkpt lat="50.887676" lon="12.069403"><ele>190</ele></trkpt>
   <trkpt lat="50.88755" lon="12.069414"><ele>190</ele></trkpt>
  </trkseg>
 </trk>
</gpx>