<?xml version="1.0" encoding="UTF-8"?>
<!-- track-length = 42 filtered ascend = 0 plain-ascend = 0 cost=86 energy=0.0kwh time=3s -->
<gpx 
 xmlns="http://www.topografix.com/GPX/1/1" 
 xmlns:xsi="http://www.w3.org/2001/XMLSchema-instance" 
 xsi:schemaLocation="http://www.topografix.com/GPX/1/1 http://www.topografix.com/GPX/1/1/gpx.xsd" 
 version="1.1" 
 creator="BRouter-Web 0.18.1">
 <trk>
  <name>Dreieck Lastādijas iela Weiche Nordwest-Südwest - Dreieck Lastādijas iela Weiche Nordost-Südost</name>
  <trkseg>
   <trkpt lat="56.943381" lon="24.112074"><ele>4.25</ele></trkpt>
   <trkpt lat="56.943378" lon="24.112081"><ele>4.25</ele></trkpt>
   <trkpt lat="56.943344" lon="24.112201"><ele>4.75</ele></trkpt>
   <trkpt lat="56.943338" lon="24.112231"><ele>4.75</ele></trkpt>
   <trkpt lat="56.943327" lon="24.112318"><ele>5</ele></trkpt>
   <trkpt lat="56.943325" lon="24.112441"><ele>5</ele></trkpt>
   <trkpt lat="56.943342" lon="24.112538"><ele>4.75</ele></trkpt>
   <trkpt lat="56.943356" lon="24.112593"><ele>4.75</ele></trkpt>
   <trkpt lat="56.943362" lon="24.112614"><ele>4.75</ele></trkpt>
   <trkpt lat="56.943416" lon="24.112707"><ele>4</ele></trkpt>
  </trkseg>
 </trk>
</gpx>