<?xml version="1.0" encoding="UTF-8"?>
<!-- track-length = 212 filtered ascend = 0 plain-ascend = 0 cost=424 energy=0.0kwh time=17s -->
<gpx 
 xmlns="http://www.topografix.com/GPX/1/1" 
 xmlns:xsi="http://www.w3.org/2001/XMLSchema-instance" 
 xsi:schemaLocation="http://www.topografix.com/GPX/1/1 http://www.topografix.com/GPX/1/1/gpx.xsd" 
 version="1.1" 
 creator="BRouter-Web 0.18.1">
 <trk>
  <name>Dreieck Lastādijas iela Weiche Nordost-Südost - Autoosta</name>
  <trkseg>
   <trkpt lat="56.943416" lon="24.112707"><ele>4</ele></trkpt>
   <trkpt lat="56.943545" lon="24.112827"><ele>2.75</ele></trkpt>
   <trkpt lat="56.943606" lon="24.112897"><ele>2.75</ele></trkpt>
   <trkpt lat="56.943644" lon="24.112958"><ele>3</ele></trkpt>
   <trkpt lat="56.943694" lon="24.113065"><ele>3</ele></trkpt>
   <trkpt lat="56.943999" lon="24.114058"><ele>3.25</ele></trkpt>
   <trkpt lat="56.944099" lon="24.114359"><ele>3.25</ele></trkpt>
   <trkpt lat="56.944225" lon="24.11473"><ele>3.5</ele></trkpt>
   <trkpt lat="56.944384" lon="24.115135"><ele>3</ele></trkpt>
   <trkpt lat="56.944525" lon="24.115478"><ele>3.5</ele></trkpt>
  </trkseg>
 </trk>
</gpx>