<?xml version="1.0" encoding="UTF-8"?>
<!-- track-length = 57 filtered ascend = 0 plain-ascend = 0 cost=114 energy=0.0kwh time=5s -->
<gpx 
 xmlns="http://www.topografix.com/GPX/1/1" 
 xmlns:xsi="http://www.w3.org/2001/XMLSchema-instance" 
 xsi:schemaLocation="http://www.topografix.com/GPX/1/1 http://www.topografix.com/GPX/1/1/gpx.xsd" 
 version="1.1" 
 creator="BRouter-Web 0.18.1">
 <trk>
  <name>Greco Rovereto Weiche Ost - Greco Rovereto (Steig Nord)</name>
  <trkseg>
   <trkpt lat="45.494953" lon="9.216796"><ele>124.75</ele></trkpt>
   <trkpt lat="45.494907" lon="9.216079"><ele>124.25</ele></trkpt>
   <trkpt lat="45.494906" lon="9.216069"><ele>124.5</ele></trkpt>
  </trkseg>
 </trk>
</gpx>