<?xml version="1.0" encoding="UTF-8"?>
<!-- track-length = 140 filtered ascend = 0 plain-ascend = 1 cost=280 energy=0.0kwh time=11s -->
<gpx 
 xmlns="http://www.topografix.com/GPX/1/1" 
 xmlns:xsi="http://www.w3.org/2001/XMLSchema-instance" 
 xsi:schemaLocation="http://www.topografix.com/GPX/1/1 http://www.topografix.com/GPX/1/1/gpx.xsd" 
 version="1.1" 
 creator="BRouter-Web 0.18.1">
 <trk>
  <name>Kreuz Via Vitruvio Weiche Südost-nach-Nordost-Nordost - Via Settembrini (Steig Südost)</name>
  <trkseg>
   <trkpt lat="45.482534" lon="9.206823"><ele>120.75</ele></trkpt>
   <trkpt lat="45.482537" lon="9.206826"><ele>120.75</ele></trkpt>
   <trkpt lat="45.482857" lon="9.207161"><ele>120.5</ele></trkpt>
   <trkpt lat="45.483252" lon="9.207579"><ele>120.25</ele></trkpt>
   <trkpt lat="45.483521" lon="9.207862"><ele>121</ele></trkpt>
   <trkpt lat="45.48354" lon="9.207881"><ele>121.25</ele></trkpt>
  </trkseg>
 </trk>
</gpx>