<?xml version="1.0" encoding="UTF-8"?>
<!-- track-length = 291 filtered ascend = 1 plain-ascend = 1 cost=582 energy=0.0kwh time=23s -->
<gpx 
 xmlns="http://www.topografix.com/GPX/1/1" 
 xmlns:xsi="http://www.w3.org/2001/XMLSchema-instance" 
 xsi:schemaLocation="http://www.topografix.com/GPX/1/1 http://www.topografix.com/GPX/1/1/gpx.xsd" 
 version="1.1" 
 creator="BRouter-Web 0.18.1">
 <trk>
  <name>Piazza Morbegno (Steig Südost) - Greco Rovereto Weiche Ost</name>
  <trkseg>
   <trkpt lat="45.49256" lon="9.216369"><ele>123.5</ele></trkpt>
   <trkpt lat="45.493136" lon="9.216566"><ele>124</ele></trkpt>
   <trkpt lat="45.493828" lon="9.216804"><ele>124</ele></trkpt>
   <trkpt lat="45.493974" lon="9.216854"><ele>124.25</ele></trkpt>
   <trkpt lat="45.494748" lon="9.217117"><ele>125</ele></trkpt>
   <trkpt lat="45.494822" lon="9.217117"><ele>125</ele></trkpt>
   <trkpt lat="45.494882" lon="9.217082"><ele>125</ele></trkpt>
   <trkpt lat="45.494932" lon="9.217007"><ele>125</ele></trkpt>
   <trkpt lat="45.494957" lon="9.21691"><ele>125</ele></trkpt>
   <trkpt lat="45.494954" lon="9.216798"><ele>125</ele></trkpt>
   <trkpt lat="45.494953" lon="9.216796"><ele>124.25</ele></trkpt>
  </trkseg>
 </trk>
</gpx>
