<?xml version="1.0" encoding="UTF-8"?>
<!-- track-length = 324 filtered ascend = 0 plain-ascend = 1 cost=648 energy=0.0kwh time=26s -->
<gpx 
 xmlns="http://www.topografix.com/GPX/1/1" 
 xmlns:xsi="http://www.w3.org/2001/XMLSchema-instance" 
 xsi:schemaLocation="http://www.topografix.com/GPX/1/1 http://www.topografix.com/GPX/1/1/gpx.xsd" 
 version="1.1" 
 creator="BRouter-Web 0.18.1">
 <trk>
  <name>Elvīras iela (Steig Nordost) - Kandavas iela (Steig Nordost)</name>
  <trkseg>
   <trkpt lat="56.946135" lon="24.048485"><ele>10.25</ele></trkpt>
   <trkpt lat="56.946169" lon="24.048459"><ele>10.25</ele></trkpt>
   <trkpt lat="56.946588" lon="24.048156"><ele>10.5</ele></trkpt>
   <trkpt lat="56.946989" lon="24.047897"><ele>10.25</ele></trkpt>
   <trkpt lat="56.947406" lon="24.047668"><ele>10.25</ele></trkpt>
   <trkpt lat="56.947702" lon="24.047524"><ele>10</ele></trkpt>
   <trkpt lat="56.947967" lon="24.047394"><ele>10</ele></trkpt>
   <trkpt lat="56.948919" lon="24.046915"><ele>10.75</ele></trkpt>
  </trkseg>
 </trk>
</gpx>