<?xml version="1.0" encoding="UTF-8"?>
<!-- track-length = 467 filtered ascend = 4 plain-ascend = 0 cost=934 energy=0.0kwh time=37s -->
<gpx 
 xmlns="http://www.topografix.com/GPX/1/1" 
 xmlns:xsi="http://www.w3.org/2001/XMLSchema-instance" 
 xsi:schemaLocation="http://www.topografix.com/GPX/1/1 http://www.topografix.com/GPX/1/1/gpx.xsd" 
 version="1.1" 
 creator="BRouter-Web 0.18.1">
 <trk>
  <name>Jūrmalas gatve (Steig Ost) - Jaunsaules iela (Steig Ost)</name>
  <trkseg>
   <trkpt lat="56.950948" lon="24.046096"><ele>10</ele></trkpt>
   <trkpt lat="56.950953" lon="24.046095"><ele>10</ele></trkpt>
   <trkpt lat="56.950995" lon="24.04608"><ele>10</ele></trkpt>
   <trkpt lat="56.951178" lon="24.046023"><ele>10</ele></trkpt>
   <trkpt lat="56.951446" lon="24.045965"><ele>12</ele></trkpt>
   <trkpt lat="56.951791" lon="24.045894"><ele>14.5</ele></trkpt>
   <trkpt lat="56.952012" lon="24.045848"><ele>11.25</ele></trkpt>
   <trkpt lat="56.952986" lon="24.045667"><ele>10</ele></trkpt>
   <trkpt lat="56.953248" lon="24.045637"><ele>10</ele></trkpt>
   <trkpt lat="56.953524" lon="24.045621"><ele>10</ele></trkpt>
   <trkpt lat="56.954026" lon="24.0456"><ele>10</ele></trkpt>
   <trkpt lat="56.954809" lon="24.045622"><ele>10</ele></trkpt>
   <trkpt lat="56.955112" lon="24.045622"><ele>10</ele></trkpt>
  </trkseg>
 </trk>
</gpx>
