<?xml version="1.0" encoding="UTF-8"?>
<!-- track-length = 1086 filtered ascend = 19 plain-ascend = 8 cost=2172 energy=0.0kwh time=1m 27s -->
<gpx 
 xmlns="http://www.topografix.com/GPX/1/1" 
 xmlns:xsi="http://www.w3.org/2001/XMLSchema-instance" 
 xsi:schemaLocation="http://www.topografix.com/GPX/1/1 http://www.topografix.com/GPX/1/1/gpx.xsd" 
 version="1.1" 
 creator="BRouter-Web 0.18.1">
 <trk>
  <name>Dreieck Chatam Sófer Weiche Nordost-Ost - Kapucínska (Steig A)</name>
  <trkseg>
   <trkpt lat="48.141807" lon="17.092072"><ele>142.5</ele></trkpt>
   <trkpt lat="48.14181" lon="17.092075"><ele>142.75</ele></trkpt>
   <trkpt lat="48.141855" lon="17.092137"><ele>142.5</ele></trkpt>
   <trkpt lat="48.14189" lon="17.092205"><ele>142</ele></trkpt>
   <trkpt lat="48.141924" lon="17.092322"><ele>142</ele></trkpt>
   <trkpt lat="48.142211" lon="17.093678"><ele>144.75</ele></trkpt>
   <trkpt lat="48.143913" lon="17.101723"><ele>160.25</ele></trkpt>
   <trkpt lat="48.144072" lon="17.102454"><ele>161.5</ele></trkpt>
   <trkpt lat="48.144094" lon="17.102532"><ele>161.75</ele></trkpt>
   <trkpt lat="48.144137" lon="17.102621"><ele>160.5</ele></trkpt>
   <trkpt lat="48.144167" lon="17.102665"><ele>160</ele></trkpt>
   <trkpt lat="48.144222" lon="17.102716"><ele>160.25</ele></trkpt>
   <trkpt lat="48.144433" lon="17.102881"><ele>159</ele></trkpt>
   <trkpt lat="48.144476" lon="17.102939"><ele>158.75</ele></trkpt>
   <trkpt lat="48.144504" lon="17.102997"><ele>158.75</ele></trkpt>
   <trkpt lat="48.144514" lon="17.103033"><ele>158.75</ele></trkpt>
   <trkpt lat="48.144533" lon="17.103117"><ele>158.25</ele></trkpt>
   <trkpt lat="48.14454" lon="17.103233"><ele>158</ele></trkpt>
   <trkpt lat="48.144541" lon="17.103349"><ele>157.25</ele></trkpt>
   <trkpt lat="48.144542" lon="17.103508"><ele>156.25</ele></trkpt>
   <trkpt lat="48.144568" lon="17.103795"><ele>154.25</ele></trkpt>
   <trkpt lat="48.144582" lon="17.103891"><ele>153.75</ele></trkpt>
   <trkpt lat="48.144626" lon="17.104104"><ele>152.5</ele></trkpt>
   <trkpt lat="48.144751" lon="17.104561"><ele>152.5</ele></trkpt>
   <trkpt lat="48.144791" lon="17.104681"><ele>151.25</ele></trkpt>
   <trkpt lat="48.144867" lon="17.104865"><ele>150.25</ele></trkpt>
   <trkpt lat="48.145156" lon="17.105551"><ele>150.25</ele></trkpt>
  </trkseg>
 </trk>
</gpx>
