<?xml version="1.0" encoding="UTF-8"?>
<!-- track-length = 85 filtered ascend = 2 plain-ascend = 3 cost=170 energy=0.0kwh time=7s -->
<gpx 
 xmlns="http://www.topografix.com/GPX/1/1" 
 xmlns:xsi="http://www.w3.org/2001/XMLSchema-instance" 
 xsi:schemaLocation="http://www.topografix.com/GPX/1/1 http://www.topografix.com/GPX/1/1/gpx.xsd" 
 version="1.1" 
 creator="BRouter-Web 0.18.1">
 <trk>
  <name>Dreieck Chatam Sófer Weiche 025 - Dreieck Chatam Sófer Weiche Nordost-Ost</name>
  <trkseg>
   <trkpt lat="48.141701" lon="17.091023"><ele>140</ele></trkpt>
   <trkpt lat="48.141701" lon="17.091025"><ele>140</ele></trkpt>
   <trkpt lat="48.141687" lon="17.091243"><ele>140</ele></trkpt>
   <trkpt lat="48.141655" lon="17.09162"><ele>140.75</ele></trkpt>
   <trkpt lat="48.141666" lon="17.091763"><ele>140.75</ele></trkpt>
   <trkpt lat="48.141685" lon="17.09185"><ele>141.25</ele></trkpt>
   <trkpt lat="48.141731" lon="17.091963"><ele>142.25</ele></trkpt>
   <trkpt lat="48.141748" lon="17.091995"><ele>142.25</ele></trkpt>
   <trkpt lat="48.141807" lon="17.092072"><ele>142.75</ele></trkpt>
  </trkseg>
 </trk>
</gpx>