<?xml version="1.0" encoding="UTF-8"?>
<!-- track-length = 125 filtered ascend = 0 plain-ascend = 1 cost=250 energy=0.0kwh time=10s -->
<gpx 
 xmlns="http://www.topografix.com/GPX/1/1" 
 xmlns:xsi="http://www.w3.org/2001/XMLSchema-instance" 
 xsi:schemaLocation="http://www.topografix.com/GPX/1/1 http://www.topografix.com/GPX/1/1/gpx.xsd" 
 version="1.1" 
 creator="BRouter-Web 0.18.1">
 <trk>
  <name>Kapucínska (Steig A) - Dreieck Hurbanovo námestie Weiche 021</name>
  <trkseg>
   <trkpt lat="48.145155" lon="17.10555"><ele>150.25</ele></trkpt>
   <trkpt lat="48.145159" lon="17.105558"><ele>150.25</ele></trkpt>
   <trkpt lat="48.14526" lon="17.105735"><ele>151</ele></trkpt>
   <trkpt lat="48.145344" lon="17.105856"><ele>150.75</ele></trkpt>
   <trkpt lat="48.145635" lon="17.106209"><ele>150.5</ele></trkpt>
   <trkpt lat="48.145696" lon="17.106287"><ele>150.25</ele></trkpt>
   <trkpt lat="48.145766" lon="17.106428"><ele>150.5</ele></trkpt>
   <trkpt lat="48.145796" lon="17.106535"><ele>150.75</ele></trkpt>
   <trkpt lat="48.145813" lon="17.106675"><ele>150.5</ele></trkpt>
   <trkpt lat="48.145825" lon="17.106793"><ele>150.75</ele></trkpt>
   <trkpt lat="48.145825" lon="17.106795"><ele>150.75</ele></trkpt>
  </trkseg>
 </trk>
</gpx>
