<?xml version="1.0" encoding="UTF-8"?>
<!-- track-length = 249 filtered ascend = 0 plain-ascend = 0 cost=0 energy=0.0kwh time=19.92s -->
<gpx 
 xmlns="http://www.topografix.com/GPX/1/1" 
 xmlns:xsi="http://www.w3.org/2001/XMLSchema-instance" 
 xsi:schemaLocation="http://www.topografix.com/GPX/1/1 http://www.topografix.com/GPX/1/1/gpx.xsd" 
 version="1.1" 
 creator="BRouter-Web 0.18.1">
 <trk>
  <name>Fredrikinkatu (Steig Südost) - Erottaja (Steig Südost)</name>
  <trkseg>
   <trkpt lat="60.164846" lon="24.938567"/>
   <trkpt lat="60.166122" lon="24.942226"/>
  </trkseg>
 </trk>
</gpx>