<?xml version="1.0" encoding="UTF-8"?>
<!-- track-length = 49 filtered ascend = 1 plain-ascend = 1 cost=98 energy=0.0kwh time=4s -->
<gpx 
 xmlns="http://www.topografix.com/GPX/1/1" 
 xmlns:xsi="http://www.w3.org/2001/XMLSchema-instance" 
 xsi:schemaLocation="http://www.topografix.com/GPX/1/1 http://www.topografix.com/GPX/1/1/gpx.xsd" 
 version="1.1" 
 creator="BRouter-Web 0.18.1">
 <trk>
  <name>Kreuz Palackého náměstí Weiche 649.L - Kreuz Palackého náměstí Weiche Nord-nach-Ost-Ost</name>
  <trkseg>
   <trkpt lat="50.073478" lon="14.413934"><ele>196.5</ele></trkpt>
   <trkpt lat="50.073472" lon="14.413935"><ele>196.75</ele></trkpt>
   <trkpt lat="50.073394" lon="14.413956"><ele>197</ele></trkpt>
   <trkpt lat="50.073341" lon="14.413985"><ele>197.25</ele></trkpt>
   <trkpt lat="50.073321" lon="14.413999"><ele>197.25</ele></trkpt>
   <trkpt lat="50.073273" lon="14.414057"><ele>197.5</ele></trkpt>
   <trkpt lat="50.073236" lon="14.414141"><ele>197.75</ele></trkpt>
   <trkpt lat="50.073222" lon="14.414195"><ele>197.75</ele></trkpt>
   <trkpt lat="50.073218" lon="14.414231"><ele>197.75</ele></trkpt>
   <trkpt lat="50.073211" lon="14.4143"><ele>197.5</ele></trkpt>
   <trkpt lat="50.073211" lon="14.41437"><ele>197.5</ele></trkpt>
  </trkseg>
 </trk>
</gpx>