<?xml version="1.0" encoding="UTF-8"?>
<!-- track-length = 516 filtered ascend = 1 plain-ascend = 1 cost=1032 energy=0.0kwh time=41s -->
<gpx 
 xmlns="http://www.topografix.com/GPX/1/1" 
 xmlns:xsi="http://www.w3.org/2001/XMLSchema-instance" 
 xsi:schemaLocation="http://www.topografix.com/GPX/1/1 http://www.topografix.com/GPX/1/1/gpx.xsd" 
 version="1.1" 
 creator="BRouter-Web 0.18.1">
 <trk>
  <name>Barthstraße (Steig Nord) - Am Lokschuppen (Steig Nord)</name>
  <trkseg>
   <trkpt lat="48.140293" lon="11.53035"><ele>525</ele></trkpt>
   <trkpt lat="48.140303" lon="11.530228"><ele>525</ele></trkpt>
   <trkpt lat="48.140359" lon="11.529258"><ele>524.5</ele></trkpt>
   <trkpt lat="48.14043" lon="11.52821"><ele>521.25</ele></trkpt>
   <trkpt lat="48.140453" lon="11.527827"><ele>520.75</ele></trkpt>
   <trkpt lat="48.140716" lon="11.524476"><ele>525.25</ele></trkpt>
   <trkpt lat="48.140733" lon="11.524252"><ele>525</ele></trkpt>
   <trkpt lat="48.140754" lon="11.524001"><ele>525.25</ele></trkpt>
   <trkpt lat="48.140786" lon="11.523601"><ele>526</ele></trkpt>
   <trkpt lat="48.140801" lon="11.523457"><ele>526</ele></trkpt>
  </trkseg>
 </trk>
</gpx>