<?xml version="1.0" encoding="UTF-8"?>
<!-- track-length = 410 filtered ascend = 0 plain-ascend = 0 cost=820 energy=0.0kwh time=33s -->
<gpx 
 xmlns="http://www.topografix.com/GPX/1/1" 
 xmlns:xsi="http://www.w3.org/2001/XMLSchema-instance" 
 xsi:schemaLocation="http://www.topografix.com/GPX/1/1 http://www.topografix.com/GPX/1/1/gpx.xsd" 
 version="1.1" 
 creator="BRouter-Web 0.18.1">
 <trk>
  <name>Holzapfelstraße (Steig Nord) - Schrenkstraße (Steig Nord)</name>
  <trkseg>
   <trkpt lat="48.139313" lon="11.546516"><ele>525</ele></trkpt>
   <trkpt lat="48.13957" lon="11.542198"><ele>525</ele></trkpt>
   <trkpt lat="48.139601" lon="11.541674"><ele>525</ele></trkpt>
   <trkpt lat="48.13961" lon="11.541526"><ele>525</ele></trkpt>
   <trkpt lat="48.139631" lon="11.541166"><ele>525</ele></trkpt>
   <trkpt lat="48.13964" lon="11.54103"><ele>524</ele></trkpt>
  </trkseg>
 </trk>
</gpx>