<?xml version="1.0" encoding="UTF-8"?>
<!-- track-length = 447 filtered ascend = 0 plain-ascend = 0 cost=894 energy=0.0kwh time=36s -->
<gpx 
 xmlns="http://www.topografix.com/GPX/1/1" 
 xmlns:xsi="http://www.w3.org/2001/XMLSchema-instance" 
 xsi:schemaLocation="http://www.topografix.com/GPX/1/1 http://www.topografix.com/GPX/1/1/gpx.xsd" 
 version="1.1" 
 creator="BRouter-Web 0.18.1">
 <trk>
  <name>Schrenkstraße (Steig Nord) - Trappentreustraße (Steig Nord)</name>
  <trkseg>
   <trkpt lat="48.13964" lon="11.54103"><ele>524.75</ele></trkpt>
   <trkpt lat="48.139825" lon="11.538299"><ele>524</ele></trkpt>
   <trkpt lat="48.139828" lon="11.53825"><ele>524</ele></trkpt>
   <trkpt lat="48.139842" lon="11.53805"><ele>524</ele></trkpt>
   <trkpt lat="48.139846" lon="11.537994"><ele>524</ele></trkpt>
   <trkpt lat="48.139915" lon="11.536783"><ele>524</ele></trkpt>
   <trkpt lat="48.139971" lon="11.535504"><ele>524</ele></trkpt>
   <trkpt lat="48.139991" lon="11.535161"><ele>524</ele></trkpt>
   <trkpt lat="48.139996" lon="11.535035"><ele>524</ele></trkpt>
  </trkseg>
 </trk>
</gpx>