<?xml version="1.0" encoding="UTF-8"?>
<!-- track-length = 531 filtered ascend = 3 plain-ascend = 3 cost=1062 energy=0.0kwh time=42s -->
<gpx 
 xmlns="http://www.topografix.com/GPX/1/1" 
 xmlns:xsi="http://www.w3.org/2001/XMLSchema-instance" 
 xsi:schemaLocation="http://www.topografix.com/GPX/1/1 http://www.topografix.com/GPX/1/1/gpx.xsd" 
 version="1.1" 
 creator="BRouter-Web 0.18.1">
 <trk>
  <name>Abzweig Lange Leemstraat Weiche Nordwest - Dreieck Harmonie Weiche Belgiëlei</name>
  <trkseg>
   <trkpt lat="51.205578" lon="4.41773"><ele>7</ele></trkpt>
   <trkpt lat="51.204943" lon="4.416828"><ele>8</ele></trkpt>
   <trkpt lat="51.204887" lon="4.416748"><ele>8</ele></trkpt>
   <trkpt lat="51.204834" lon="4.416673"><ele>8</ele></trkpt>
   <trkpt lat="51.203495" lon="4.414775"><ele>9</ele></trkpt>
   <trkpt lat="51.203432" lon="4.414685"><ele>9</ele></trkpt>
   <trkpt lat="51.20337" lon="4.414597"><ele>8.75</ele></trkpt>
   <trkpt lat="51.202121" lon="4.412822"><ele>10</ele></trkpt>
   <trkpt lat="51.20206" lon="4.412736"><ele>10</ele></trkpt>
   <trkpt lat="51.202014" lon="4.412677"><ele>10</ele></trkpt>
   <trkpt lat="51.202012" lon="4.412675"><ele>10</ele></trkpt>
  </trkseg>
 </trk>
</gpx>