<?xml version="1.0" encoding="UTF-8"?>
<!-- track-length = 483 filtered ascend = 0 plain-ascend = 0 cost=966 energy=0.0kwh time=39s -->
<gpx 
 xmlns="http://www.topografix.com/GPX/1/1" 
 xmlns:xsi="http://www.w3.org/2001/XMLSchema-instance" 
 xsi:schemaLocation="http://www.topografix.com/GPX/1/1 http://www.topografix.com/GPX/1/1/gpx.xsd" 
 version="1.1" 
 creator="BRouter-Web 0.18.1">
 <trk>
  <name>Deurne Dassastraat (Steig Südwest) - Wommelgem Krijgsbaan</name>
  <trkseg>
   <trkpt lat="51.205061" lon="4.476485"><ele>8</ele></trkpt>
   <trkpt lat="51.205057" lon="4.476526"><ele>8</ele></trkpt>
   <trkpt lat="51.205005" lon="4.476784"><ele>8</ele></trkpt>
   <trkpt lat="51.204846" lon="4.477292"><ele>8</ele></trkpt>
   <trkpt lat="51.204509" lon="4.478349"><ele>8</ele></trkpt>
   <trkpt lat="51.204459" lon="4.478545"><ele>8</ele></trkpt>
   <trkpt lat="51.204396" lon="4.47883"><ele>8</ele></trkpt>
   <trkpt lat="51.204327" lon="4.479234"><ele>7.75</ele></trkpt>
   <trkpt lat="51.20428" lon="4.479647"><ele>7.5</ele></trkpt>
   <trkpt lat="51.204121" lon="4.481485"><ele>7</ele></trkpt>
   <trkpt lat="51.204085" lon="4.481672"><ele>7</ele></trkpt>
   <trkpt lat="51.204041" lon="4.481807"><ele>7</ele></trkpt>
   <trkpt lat="51.203985" lon="4.481945"><ele>7</ele></trkpt>
   <trkpt lat="51.203911" lon="4.482126"><ele>6.75</ele></trkpt>
   <trkpt lat="51.20388" lon="4.4822"><ele>7</ele></trkpt>
   <trkpt lat="51.203602" lon="4.482881"><ele>7</ele></trkpt>
  </trkseg>
 </trk>
</gpx>