<?xml version="1.0" encoding="UTF-8"?>
<!-- track-length = 360 filtered ascend = 0 plain-ascend = 0 cost=719 energy=0.0kwh time=29s -->
<gpx 
 xmlns="http://www.topografix.com/GPX/1/1" 
 xmlns:xsi="http://www.w3.org/2001/XMLSchema-instance" 
 xsi:schemaLocation="http://www.topografix.com/GPX/1/1 http://www.topografix.com/GPX/1/1/gpx.xsd" 
 version="1.1" 
 creator="BRouter-Web 0.18.1">
 <trk>
  <name>Kreuz Florent Pauwels Weiche Südwest-nach-Südost-Südost - Deurne Dassastraat (Steig Südwest)</name>
  <trkseg>
   <trkpt lat="51.205692" lon="4.471454"><ele>8.25</ele></trkpt>
   <trkpt lat="51.205692" lon="4.471455"><ele>8.25</ele></trkpt>
   <trkpt lat="51.205573" lon="4.472235"><ele>8</ele></trkpt>
   <trkpt lat="51.205223" lon="4.474923"><ele>8</ele></trkpt>
   <trkpt lat="51.205152" lon="4.475581"><ele>8</ele></trkpt>
   <trkpt lat="51.205132" lon="4.475811"><ele>8.25</ele></trkpt>
   <trkpt lat="51.205061" lon="4.476485"><ele>8</ele></trkpt>
  </trkseg>
 </trk>
</gpx>