<?xml version="1.0" encoding="UTF-8"?>
<!-- track-length = 365 filtered ascend = 0 plain-ascend = -8 cost=730 energy=0.0kwh time=29s -->
<gpx 
 xmlns="http://www.topografix.com/GPX/1/1" 
 xmlns:xsi="http://www.w3.org/2001/XMLSchema-instance" 
 xsi:schemaLocation="http://www.topografix.com/GPX/1/1 http://www.topografix.com/GPX/1/1/gpx.xsd" 
 version="1.1" 
 creator="BRouter-Web 0.18.1">
 <trk>
  <name>Abzweig Palkkatilanportti Weiche Süd - Eläintarha (Steig Nord-West)</name>
  <trkseg>
   <trkpt lat="60.195722" lon="24.929167"><ele>19.25</ele></trkpt>
   <trkpt lat="60.195245" lon="24.929553"><ele>17</ele></trkpt>
   <trkpt lat="60.195081" lon="24.92968"><ele>16.5</ele></trkpt>
   <trkpt lat="60.194976" lon="24.929737"><ele>16</ele></trkpt>
   <trkpt lat="60.194338" lon="24.930037"><ele>15.75</ele></trkpt>
   <trkpt lat="60.194231" lon="24.930079"><ele>15.75</ele></trkpt>
   <trkpt lat="60.194148" lon="24.930092"><ele>15.5</ele></trkpt>
   <trkpt lat="60.193943" lon="24.930087"><ele>15</ele></trkpt>
   <trkpt lat="60.193759" lon="24.930018"><ele>15</ele></trkpt>
   <trkpt lat="60.19366" lon="24.929958"><ele>15.25</ele></trkpt>
   <trkpt lat="60.193587" lon="24.929908"><ele>15</ele></trkpt>
   <trkpt lat="60.1935" lon="24.92983"><ele>14.75</ele></trkpt>
   <trkpt lat="60.192981" lon="24.929288"><ele>12.5</ele></trkpt>
   <trkpt lat="60.192904" lon="24.929236"><ele>12</ele></trkpt>
   <trkpt lat="60.19284" lon="24.929212"><ele>11.5</ele></trkpt>
   <trkpt lat="60.192781" lon="24.929209"><ele>11</ele></trkpt>
   <trkpt lat="60.192623" lon="24.929224"><ele>10</ele></trkpt>
  </trkseg>
 </trk>
</gpx>