<?xml version="1.0" encoding="UTF-8"?>
<!-- track-length = 50 filtered ascend = 3 plain-ascend = 3 cost=100 energy=0.0kwh time=4s -->
<gpx 
 xmlns="http://www.topografix.com/GPX/1/1" 
 xmlns:xsi="http://www.w3.org/2001/XMLSchema-instance" 
 xsi:schemaLocation="http://www.topografix.com/GPX/1/1 http://www.topografix.com/GPX/1/1/gpx.xsd" 
 version="1.1" 
 creator="BRouter-Web 0.18.1">
 <trk>
  <name>Kreuz Lasipalatsi Weiche Nordost-nach-Südost-Nordost - Kreuz Lasipalatsi Weiche Südost-nach-Südwest-Südwest</name>
  <trkseg>
   <trkpt lat="60.170029" lon="24.938807"><ele>6.25</ele></trkpt>
   <trkpt lat="60.170025" lon="24.938793"><ele>6.25</ele></trkpt>
   <trkpt lat="60.169958" lon="24.938611"><ele>7</ele></trkpt>
   <trkpt lat="60.16991" lon="24.93848"><ele>7</ele></trkpt>
   <trkpt lat="60.169893" lon="24.938435"><ele>7</ele></trkpt>
   <trkpt lat="60.169845" lon="24.938301"><ele>7</ele></trkpt>
   <trkpt lat="60.169808" lon="24.938203"><ele>7.25</ele></trkpt>
   <trkpt lat="60.169777" lon="24.938124"><ele>7.5</ele></trkpt>
   <trkpt lat="60.16977" lon="24.938105"><ele>7.5</ele></trkpt>
   <trkpt lat="60.169769" lon="24.938102"><ele>9.5</ele></trkpt>
  </trkseg>
 </trk>
</gpx>