<?xml version="1.0" encoding="UTF-8"?>
<!-- track-length = 44 filtered ascend = 2 plain-ascend = 3 cost=88 energy=0.0kwh time=4s -->
<gpx 
 xmlns="http://www.topografix.com/GPX/1/1" 
 xmlns:xsi="http://www.w3.org/2001/XMLSchema-instance" 
 xsi:schemaLocation="http://www.topografix.com/GPX/1/1 http://www.topografix.com/GPX/1/1/gpx.xsd" 
 version="1.1" 
 creator="BRouter-Web 0.18.1">
 <trk>
  <name>Kreuz Lasipalatsi Weiche Südost-nach-Südwest-Südost - Kreuz Lasipalatsi Weiche Südost-nach-Südwest-Südwest</name>
  <trkseg>
   <trkpt lat="60.169723" lon="24.938758"><ele>6.75</ele></trkpt>
   <trkpt lat="60.169725" lon="24.938756"><ele>6.75</ele></trkpt>
   <trkpt lat="60.169752" lon="24.938705"><ele>6.75</ele></trkpt>
   <trkpt lat="60.16979" lon="24.938626"><ele>6.75</ele></trkpt>
   <trkpt lat="60.169809" lon="24.938563"><ele>7</ele></trkpt>
   <trkpt lat="60.169821" lon="24.938496"><ele>7</ele></trkpt>
   <trkpt lat="60.169827" lon="24.938404"><ele>7</ele></trkpt>
   <trkpt lat="60.169824" lon="24.93834"><ele>7</ele></trkpt>
   <trkpt lat="60.169816" lon="24.938273"><ele>7</ele></trkpt>
   <trkpt lat="60.169803" lon="24.938215"><ele>7.25</ele></trkpt>
   <trkpt lat="60.169776" lon="24.938125"><ele>7.5</ele></trkpt>
   <trkpt lat="60.16977" lon="24.938105"><ele>7.5</ele></trkpt>
   <trkpt lat="60.169768" lon="24.938101"><ele>9.5</ele></trkpt>
  </trkseg>
 </trk>
</gpx>