<?xml version="1.0" encoding="UTF-8"?>
<!-- track-length = 201 filtered ascend = 10 plain-ascend = 11 cost=402 energy=0.0kwh time=16s -->
<gpx 
 xmlns="http://www.topografix.com/GPX/1/1" 
 xmlns:xsi="http://www.w3.org/2001/XMLSchema-instance" 
 xsi:schemaLocation="http://www.topografix.com/GPX/1/1 http://www.topografix.com/GPX/1/1/gpx.xsd" 
 version="1.1" 
 creator="BRouter-Web 0.18.1">
 <trk>
  <name>Kreuz Lasipalatsi Weiche Südost-nach-Südwest-Südwest - Simonkatu (Steig Nordwest)</name>
  <trkseg>
   <trkpt lat="60.169769" lon="24.938102"><ele>7.5</ele></trkpt>
   <trkpt lat="60.169504" lon="24.937385"><ele>9.5</ele></trkpt>
   <trkpt lat="60.169443" lon="24.937222"><ele>10</ele></trkpt>
   <trkpt lat="60.169133" lon="24.936387"><ele>14</ele></trkpt>
   <trkpt lat="60.169073" lon="24.936242"><ele>14.5</ele></trkpt>
   <trkpt lat="60.169021" lon="24.93611"><ele>15</ele></trkpt>
   <trkpt lat="60.168972" lon="24.935975"><ele>15.25</ele></trkpt>
   <trkpt lat="60.168714" lon="24.935275"><ele>18</ele></trkpt>
   <trkpt lat="60.168683" lon="24.935186"><ele>18</ele></trkpt>
  </trkseg>
 </trk>
</gpx>