<?xml version="1.0" encoding="UTF-8"?>
<!-- track-length = 671 filtered ascend = 0 plain-ascend = -2 cost=1342 energy=0.0kwh time=54s -->
<gpx 
 xmlns="http://www.topografix.com/GPX/1/1" 
 xmlns:xsi="http://www.w3.org/2001/XMLSchema-instance" 
 xsi:schemaLocation="http://www.topografix.com/GPX/1/1 http://www.topografix.com/GPX/1/1/gpx.xsd" 
 version="1.1" 
 creator="BRouter-Web 0.18.1">
 <trk>
  <name>Dresdner Straße (Steig 1) - Handelskai (Steig 1)</name>
  <trkseg>
   <trkpt lat="48.237387" lon="16.38057"><ele>167</ele></trkpt>
   <trkpt lat="48.237559" lon="16.380941"><ele>167</ele></trkpt>
   <trkpt lat="48.237789" lon="16.381367"><ele>167</ele></trkpt>
   <trkpt lat="48.237964" lon="16.381635"><ele>167</ele></trkpt>
   <trkpt lat="48.238059" lon="16.381762"><ele>167</ele></trkpt>
   <trkpt lat="48.238155" lon="16.381876"><ele>167</ele></trkpt>
   <trkpt lat="48.238359" lon="16.38209"><ele>167</ele></trkpt>
   <trkpt lat="48.238581" lon="16.382279"><ele>167</ele></trkpt>
   <trkpt lat="48.238801" lon="16.382429"><ele>167</ele></trkpt>
   <trkpt lat="48.239122" lon="16.382591"><ele>167</ele></trkpt>
   <trkpt lat="48.239461" lon="16.382729"><ele>167</ele></trkpt>
   <trkpt lat="48.239744" lon="16.382844"><ele>165.5</ele></trkpt>
   <trkpt lat="48.23996" lon="16.382945"><ele>165.25</ele></trkpt>
   <trkpt lat="48.240051" lon="16.382994"><ele>164.75</ele></trkpt>
   <trkpt lat="48.240226" lon="16.383106"><ele>163</ele></trkpt>
   <trkpt lat="48.240318" lon="16.383173"><ele>163.5</ele></trkpt>
   <trkpt lat="48.240528" lon="16.383351"><ele>166.25</ele></trkpt>
   <trkpt lat="48.240637" lon="16.38346"><ele>165.75</ele></trkpt>
   <trkpt lat="48.24074" lon="16.383572"><ele>166.75</ele></trkpt>
   <trkpt lat="48.240844" lon="16.383699"><ele>166.75</ele></trkpt>
   <trkpt lat="48.240936" lon="16.383825"><ele>164</ele></trkpt>
   <trkpt lat="48.24108" lon="16.384041"/>
   <trkpt lat="48.241207" lon="16.384265"/>
   <trkpt lat="48.241386" lon="16.384639"/>
   <trkpt lat="48.241542" lon="16.385"/>
   <trkpt lat="48.241832" lon="16.385679"/>
   <trkpt lat="48.24195" lon="16.385935"/>
  </trkseg>
 </trk>
</gpx>