<?xml version="1.0" encoding="UTF-8"?>
<!-- track-length = 666 filtered ascend = 0 plain-ascend = 0 cost=1332 energy=0.0kwh time=53s -->
<gpx 
 xmlns="http://www.topografix.com/GPX/1/1" 
 xmlns:xsi="http://www.w3.org/2001/XMLSchema-instance" 
 xsi:schemaLocation="http://www.topografix.com/GPX/1/1 http://www.topografix.com/GPX/1/1/gpx.xsd" 
 version="1.1" 
 creator="BRouter-Web 0.18.1">
 <trk>
  <name>Jägerstraße (Steig 1) - Üst Hellwagstraße Weiche Südwest-Südost</name>
  <trkseg>
   <trkpt lat="48.235176" lon="16.36915"/>
   <trkpt lat="48.235267" lon="16.374129"/>
   <trkpt lat="48.235294" lon="16.374629"/>
   <trkpt lat="48.235321" lon="16.37493"/>
   <trkpt lat="48.23536" lon="16.375238"/>
   <trkpt lat="48.235405" lon="16.37553"/>
   <trkpt lat="48.235457" lon="16.375807"/>
   <trkpt lat="48.23552" lon="16.376096"/>
   <trkpt lat="48.23559" lon="16.376376"/>
   <trkpt lat="48.235669" lon="16.376653"/>
   <trkpt lat="48.235755" lon="16.37692"/>
   <trkpt lat="48.235852" lon="16.377189"/>
   <trkpt lat="48.235955" lon="16.377448"/>
   <trkpt lat="48.236133" lon="16.377849"/>
  </trkseg>
 </trk>
</gpx>