<?xml version="1.0" encoding="UTF-8"?>
<!-- track-length = 47 filtered ascend = 0 plain-ascend = 0 cost=94 energy=0.0kwh time=4s -->
<gpx 
 xmlns="http://www.topografix.com/GPX/1/1" 
 xmlns:xsi="http://www.w3.org/2001/XMLSchema-instance" 
 xsi:schemaLocation="http://www.topografix.com/GPX/1/1 http://www.topografix.com/GPX/1/1/gpx.xsd" 
 version="1.1" 
 creator="BRouter-Web 0.18.1">
 <trk>
  <name>Üst Floridsdorf Südwest Weiche Südwest-Ost - Üst Floridsdorf Südwest Weiche Nordost-Ost</name>
  <trkseg>
   <trkpt lat="48.254735" lon="16.399514"/>
   <trkpt lat="48.254737" lon="16.399516"/>
   <trkpt lat="48.254911" lon="16.399635"/>
   <trkpt lat="48.255104" lon="16.399766"/>
   <trkpt lat="48.255102" lon="16.399763"/>
  </trkseg>
 </trk>
</gpx>