<?xml version="1.0" encoding="UTF-8"?>
<!-- track-length = 294 filtered ascend = 3 plain-ascend = 2 cost=588 energy=0.0kwh time=24s -->
<gpx 
 xmlns="http://www.topografix.com/GPX/1/1" 
 xmlns:xsi="http://www.w3.org/2001/XMLSchema-instance" 
 xsi:schemaLocation="http://www.topografix.com/GPX/1/1 http://www.topografix.com/GPX/1/1/gpx.xsd" 
 version="1.1" 
 creator="BRouter-Web 0.18.1">
 <trk>
  <name>Dreieck Asemapäällikönkatu Weiche Südwest-Nordwest - Abzweig Ratapihantie Weiche West</name>
  <trkseg>
   <trkpt lat="60.198711" lon="24.939464"><ele>26.75</ele></trkpt>
   <trkpt lat="60.198622" lon="24.938699"><ele>28.5</ele></trkpt>
   <trkpt lat="60.198487" lon="24.937543"><ele>30</ele></trkpt>
   <trkpt lat="60.19847" lon="24.9374"><ele>30</ele></trkpt>
   <trkpt lat="60.198335" lon="24.936379"><ele>30</ele></trkpt>
   <trkpt lat="60.198212" lon="24.935358"><ele>30</ele></trkpt>
   <trkpt lat="60.198198" lon="24.93524"><ele>30</ele></trkpt>
   <trkpt lat="60.198183" lon="24.935116"><ele>30</ele></trkpt>
   <trkpt lat="60.198171" lon="24.935"><ele>30</ele></trkpt>
   <trkpt lat="60.198163" lon="24.934891"><ele>30</ele></trkpt>
   <trkpt lat="60.198146" lon="24.93468"><ele>29</ele></trkpt>
   <trkpt lat="60.198142" lon="24.934651"/>
   <trkpt lat="60.198122" lon="24.934492"/>
   <trkpt lat="60.198104" lon="24.934356"/>
   <trkpt lat="60.198103" lon="24.934351"/>
  </trkseg>
 </trk>
</gpx>