<?xml version="1.0" encoding="UTF-8"?>
<!-- track-length = 77 filtered ascend = 1 plain-ascend = 1 cost=154 energy=0.0kwh time=6s -->
<gpx 
 xmlns="http://www.topografix.com/GPX/1/1" 
 xmlns:xsi="http://www.w3.org/2001/XMLSchema-instance" 
 xsi:schemaLocation="http://www.topografix.com/GPX/1/1 http://www.topografix.com/GPX/1/1/gpx.xsd" 
 version="1.1" 
 creator="BRouter-Web 0.18.1">
 <trk>
  <name>Dreieck Vazovova Nordwest Weiche 055 - Dreieck Vazovova Nordwest Weiche Südwest-West</name>
  <trkseg>
   <trkpt lat="48.15447" lon="17.119737"><ele>140</ele></trkpt>
   <trkpt lat="48.154472" lon="17.119734"><ele>140</ele></trkpt>
   <trkpt lat="48.154479" lon="17.119594"><ele>140.5</ele></trkpt>
   <trkpt lat="48.154484" lon="17.119523"><ele>140.75</ele></trkpt>
   <trkpt lat="48.154479" lon="17.119422"><ele>141</ele></trkpt>
   <trkpt lat="48.154459" lon="17.11932"><ele>141</ele></trkpt>
   <trkpt lat="48.154439" lon="17.11927"><ele>141</ele></trkpt>
   <trkpt lat="48.154369" lon="17.119153"><ele>141</ele></trkpt>
   <trkpt lat="48.154331" lon="17.119108"><ele>141</ele></trkpt>
   <trkpt lat="48.154325" lon="17.119101"><ele>141</ele></trkpt>
   <trkpt lat="48.154265" lon="17.11906"><ele>141</ele></trkpt>
   <trkpt lat="48.154141" lon="17.118993"><ele>141</ele></trkpt>
   <trkpt lat="48.154138" lon="17.118992"><ele>141</ele></trkpt>
  </trkseg>
 </trk>
</gpx>