<?xml version="1.0" encoding="UTF-8"?>
<!-- track-length = 7 filtered ascend = 0 plain-ascend = 0 cost=14 energy=0.0kwh time=1s -->
<gpx 
 xmlns="http://www.topografix.com/GPX/1/1" 
 xmlns:xsi="http://www.w3.org/2001/XMLSchema-instance" 
 xsi:schemaLocation="http://www.topografix.com/GPX/1/1 http://www.topografix.com/GPX/1/1/gpx.xsd" 
 version="1.1" 
 creator="BRouter-Web 0.18.1">
 <trk>
  <name>Ammerseestraße (Steig West-Süd) - Kreuz Ammerseestraße Weiche 175</name>
  <trkseg>
   <trkpt lat="48.126104" lon="11.502295"><ele>534.75</ele></trkpt>
   <trkpt lat="48.126105" lon="11.502388"><ele>534.75</ele></trkpt>
  </trkseg>
 </trk>
</gpx>