<?xml version="1.0" encoding="UTF-8"?>
<!-- track-length = 40 filtered ascend = 0 plain-ascend = 0 cost=80 energy=0.0kwh time=3s -->
<gpx 
 xmlns="http://www.topografix.com/GPX/1/1" 
 xmlns:xsi="http://www.w3.org/2001/XMLSchema-instance" 
 xsi:schemaLocation="http://www.topografix.com/GPX/1/1 http://www.topografix.com/GPX/1/1/gpx.xsd" 
 version="1.1" 
 creator="BRouter-Web 0.18.1">
 <trk>
  <name>Dreieck Knöllgasse Weiche 10-06/01 - Dreieck Knöllgasse Weiche Südost-Südwest</name>
  <trkseg>
   <trkpt lat="48.177566" lon="16.358199"><ele>210.75</ele></trkpt>
   <trkpt lat="48.177512" lon="16.358168"><ele>210.75</ele></trkpt>
   <trkpt lat="48.177481" lon="16.358161"><ele>211</ele></trkpt>
   <trkpt lat="48.177455" lon="16.358161"><ele>211</ele></trkpt>
   <trkpt lat="48.177409" lon="16.358168"><ele>211</ele></trkpt>
   <trkpt lat="48.177356" lon="16.358196"><ele>211</ele></trkpt>
   <trkpt lat="48.177314" lon="16.358244"><ele>211</ele></trkpt>
   <trkpt lat="48.177304" lon="16.358256"><ele>211</ele></trkpt>
   <trkpt lat="48.177256" lon="16.35835"><ele>211</ele></trkpt>
   <trkpt lat="48.177253" lon="16.358354"><ele>211</ele></trkpt>
  </trkseg>
 </trk>
</gpx>