<?xml version="1.0" encoding="UTF-8"?>
<!-- track-length = 361 filtered ascend = 0 plain-ascend = 0 cost=722 energy=0.0kwh time=29s -->
<gpx 
 xmlns="http://www.topografix.com/GPX/1/1" 
 xmlns:xsi="http://www.w3.org/2001/XMLSchema-instance" 
 xsi:schemaLocation="http://www.topografix.com/GPX/1/1 http://www.topografix.com/GPX/1/1/gpx.xsd" 
 version="1.1" 
 creator="BRouter-Web 0.18.1">
 <trk>
  <name>Neilreichgasse (Steig Süd) - Abzweig Quellenstraße/Leebgasse Weiche Ost</name>
  <trkseg>
   <trkpt lat="48.17617" lon="16.365355"><ele>210.75</ele></trkpt>
   <trkpt lat="48.17616" lon="16.365488"><ele>210.75</ele></trkpt>
   <trkpt lat="48.176152" lon="16.365609"><ele>210.75</ele></trkpt>
   <trkpt lat="48.176144" lon="16.365731"><ele>210.75</ele></trkpt>
   <trkpt lat="48.176057" lon="16.367027"><ele>211</ele></trkpt>
   <trkpt lat="48.175983" lon="16.368075"><ele>211</ele></trkpt>
   <trkpt lat="48.175912" lon="16.369108"><ele>210.75</ele></trkpt>
   <trkpt lat="48.175859" lon="16.369886"><ele>210.75</ele></trkpt>
   <trkpt lat="48.175839" lon="16.370178"><ele>210.75</ele></trkpt>
   <trkpt lat="48.175838" lon="16.370182"><ele>210.75</ele></trkpt>
  </trkseg>
 </trk>
</gpx>