<?xml version="1.0" encoding="UTF-8"?>
<!-- track-length = 72 filtered ascend = 0 plain-ascend = 0 cost=144 energy=0.0kwh time=6s -->
<gpx 
 xmlns="http://www.topografix.com/GPX/1/1" 
 xmlns:xsi="http://www.w3.org/2001/XMLSchema-instance" 
 xsi:schemaLocation="http://www.topografix.com/GPX/1/1 http://www.topografix.com/GPX/1/1/gpx.xsd" 
 version="1.1" 
 creator="BRouter-Web 0.18.1">
 <trk>
  <name>Dreieck Ylioppilastalo Weiche Südost-Südwest - Ylioppilastalo (Steig Südost-Südwest)</name>
  <trkseg>
   <trkpt lat="60.168222" lon="24.940949"><ele>7.25</ele></trkpt>
   <trkpt lat="60.167707" lon="24.941722"><ele>7.5</ele></trkpt>
  </trkseg>
 </trk>
</gpx>