<?xml version="1.0" encoding="UTF-8"?>
<!-- track-length = 80 filtered ascend = 0 plain-ascend = 1 cost=160 energy=0.0kwh time=6s -->
<gpx 
 xmlns="http://www.topografix.com/GPX/1/1" 
 xmlns:xsi="http://www.w3.org/2001/XMLSchema-instance" 
 xsi:schemaLocation="http://www.topografix.com/GPX/1/1 http://www.topografix.com/GPX/1/1/gpx.xsd" 
 version="1.1" 
 creator="BRouter-Web 0.18.1">
 <trk>
  <name>P+R Olympiade (Steig Südwest) - P+R Olympiade Weiche Nordost</name>
  <trkseg>
   <trkpt lat="51.183938" lon="4.392207"><ele>11.5</ele></trkpt>
   <trkpt lat="51.183925" lon="4.392276"><ele>11.75</ele></trkpt>
   <trkpt lat="51.183909" lon="4.392353"><ele>11.75</ele></trkpt>
   <trkpt lat="51.183885" lon="4.392452"><ele>11.75</ele></trkpt>
   <trkpt lat="51.183865" lon="4.392501"><ele>12</ele></trkpt>
   <trkpt lat="51.183839" lon="4.392549"><ele>12</ele></trkpt>
   <trkpt lat="51.183794" lon="4.392609"><ele>12</ele></trkpt>
   <trkpt lat="51.183728" lon="4.392658"><ele>12</ele></trkpt>
   <trkpt lat="51.183651" lon="4.392677"><ele>12</ele></trkpt>
   <trkpt lat="51.183609" lon="4.392673"><ele>12</ele></trkpt>
   <trkpt lat="51.183569" lon="4.392658"><ele>12</ele></trkpt>
   <trkpt lat="51.183509" lon="4.392615"><ele>12</ele></trkpt>
   <trkpt lat="51.183427" lon="4.392503"><ele>12</ele></trkpt>
   <trkpt lat="51.183425" lon="4.392501"><ele>12</ele></trkpt>
  </trkseg>
 </trk>
</gpx>