<?xml version="1.0" encoding="UTF-8"?>
<!-- track-length = 138 filtered ascend = 2 plain-ascend = 3 cost=276 energy=0.0kwh time=11s -->
<gpx 
 xmlns="http://www.topografix.com/GPX/1/1" 
 xmlns:xsi="http://www.w3.org/2001/XMLSchema-instance" 
 xsi:schemaLocation="http://www.topografix.com/GPX/1/1 http://www.topografix.com/GPX/1/1/gpx.xsd" 
 version="1.1" 
 creator="BRouter-Web 0.18.1">
 <trk>
  <name>Abzweig Erottaja Weiche Südwest - Erottaja (Steig Nordwest)</name>
  <trkseg>
   <trkpt lat="60.167125" lon="24.942598"><ele>8.25</ele></trkpt>
   <trkpt lat="60.167122" lon="24.942603"><ele>8.25</ele></trkpt>
   <trkpt lat="60.166944" lon="24.942869"><ele>9</ele></trkpt>
   <trkpt lat="60.166739" lon="24.943176"><ele>9.5</ele></trkpt>
   <trkpt lat="60.16669" lon="24.943232"><ele>9.75</ele></trkpt>
   <trkpt lat="60.166646" lon="24.943264"><ele>10</ele></trkpt>
   <trkpt lat="60.166602" lon="24.943265"><ele>10</ele></trkpt>
   <trkpt lat="60.166539" lon="24.943232"><ele>10</ele></trkpt>
   <trkpt lat="60.166495" lon="24.943178"><ele>10</ele></trkpt>
   <trkpt lat="60.166466" lon="24.943113"><ele>10</ele></trkpt>
   <trkpt lat="60.16644" lon="24.943052"><ele>10</ele></trkpt>
   <trkpt lat="60.166319" lon="24.942706"><ele>10.25</ele></trkpt>
   <trkpt lat="60.166209" lon="24.942386"><ele>11</ele></trkpt>
  </trkseg>
 </trk>
</gpx>