<?xml version="1.0" encoding="UTF-8"?>
<!-- track-length = 236 filtered ascend = 5 plain-ascend = 4 cost=472 energy=0.0kwh time=19s -->
<gpx 
 xmlns="http://www.topografix.com/GPX/1/1" 
 xmlns:xsi="http://www.w3.org/2001/XMLSchema-instance" 
 xsi:schemaLocation="http://www.topografix.com/GPX/1/1 http://www.topografix.com/GPX/1/1/gpx.xsd" 
 version="1.1" 
 creator="BRouter-Web 0.18.1">
 <trk>
  <name>Schifflände Weiche 50 - Universitätsspital (Steig Nordost)</name>
  <trkseg>
   <trkpt lat="47.560258" lon="7.587521"><ele>252.5</ele></trkpt>
   <trkpt lat="47.56026" lon="7.58752"><ele>252.75</ele></trkpt>
   <trkpt lat="47.560454" lon="7.58737"><ele>252.5</ele></trkpt>
   <trkpt lat="47.560578" lon="7.587296"><ele>252.75</ele></trkpt>
   <trkpt lat="47.560672" lon="7.587229"><ele>253.25</ele></trkpt>
   <trkpt lat="47.560715" lon="7.587194"><ele>253.5</ele></trkpt>
   <trkpt lat="47.560865" lon="7.587026"><ele>254.5</ele></trkpt>
   <trkpt lat="47.56099" lon="7.586849"><ele>255.5</ele></trkpt>
   <trkpt lat="47.561215" lon="7.586511"><ele>256</ele></trkpt>
   <trkpt lat="47.561292" lon="7.586406"><ele>256.75</ele></trkpt>
   <trkpt lat="47.561362" lon="7.586326"><ele>257</ele></trkpt>
   <trkpt lat="47.561485" lon="7.586204"><ele>257.25</ele></trkpt>
   <trkpt lat="47.561557" lon="7.586146"><ele>257.5</ele></trkpt>
   <trkpt lat="47.561715" lon="7.586016"><ele>257.25</ele></trkpt>
   <trkpt lat="47.561982" lon="7.585765"><ele>256.75</ele></trkpt>
   <trkpt lat="47.561988" lon="7.585758"><ele>256.25</ele></trkpt>
  </trkseg>
 </trk>
</gpx>