<?xml version="1.0" encoding="UTF-8"?>
<!-- track-length = 91 filtered ascend = 1 plain-ascend = 1 cost=91 energy=0.0kwh time=7s -->
<gpx 
 xmlns="http://www.topografix.com/GPX/1/1" 
 xmlns:xsi="http://www.w3.org/2001/XMLSchema-instance" 
 xsi:schemaLocation="http://www.topografix.com/GPX/1/1 http://www.topografix.com/GPX/1/1/gpx.xsd" 
 version="1.1" 
 creator="BRouter-Web 0.18.1">
 <trk>
  <name>Dreieck Hervannan kampus Weiche Nordwest-Ost - Hervannan kampus (Steig A)</name>
  <trkseg>
   <trkpt lat="61.446394" lon="23.854117"><ele>146</ele></trkpt>
   <trkpt lat="61.446483" lon="23.854006"><ele>146.25</ele></trkpt>
   <trkpt lat="61.446692" lon="23.853751"><ele>147</ele></trkpt>
   <trkpt lat="61.446813" lon="23.853602"><ele>147</ele></trkpt>
   <trkpt lat="61.447084" lon="23.853268"><ele>147.5</ele></trkpt>
   <trkpt lat="61.447089" lon="23.853261"><ele>147.25</ele></trkpt>
  </trkseg>
 </trk>
</gpx>