<?xml version="1.0" encoding="UTF-8"?>
<!-- track-length = 429 filtered ascend = 0 plain-ascend = -4 cost=429 energy=0.0kwh time=34s -->
<gpx 
 xmlns="http://www.topografix.com/GPX/1/1" 
 xmlns:xsi="http://www.w3.org/2001/XMLSchema-instance" 
 xsi:schemaLocation="http://www.topografix.com/GPX/1/1 http://www.topografix.com/GPX/1/1/gpx.xsd" 
 version="1.1" 
 creator="BRouter-Web 0.18.1">
 <trk>
  <name>Hervannan kampus (Steig A) - Hervantakeskus (Steig A)</name>
  <trkseg>
   <trkpt lat="61.447089" lon="23.853261"><ele>147.25</ele></trkpt>
   <trkpt lat="61.447155" lon="23.853181"><ele>147.25</ele></trkpt>
   <trkpt lat="61.447205" lon="23.853119"><ele>147.25</ele></trkpt>
   <trkpt lat="61.447515" lon="23.852762"><ele>147</ele></trkpt>
   <trkpt lat="61.447662" lon="23.85259"><ele>147.25</ele></trkpt>
   <trkpt lat="61.447749" lon="23.852494"><ele>147</ele></trkpt>
   <trkpt lat="61.44796" lon="23.852252"><ele>146.25</ele></trkpt>
   <trkpt lat="61.448048" lon="23.852152"><ele>146</ele></trkpt>
   <trkpt lat="61.448378" lon="23.85179"><ele>144.75</ele></trkpt>
   <trkpt lat="61.448777" lon="23.851352"><ele>144</ele></trkpt>
   <trkpt lat="61.449296" lon="23.85083"><ele>143</ele></trkpt>
   <trkpt lat="61.449524" lon="23.850598"><ele>143</ele></trkpt>
   <trkpt lat="61.449607" lon="23.850525"><ele>142.75</ele></trkpt>
   <trkpt lat="61.449791" lon="23.850396"><ele>142.25</ele></trkpt>
   <trkpt lat="61.44992" lon="23.850285"><ele>142</ele></trkpt>
   <trkpt lat="61.450121" lon="23.850087"><ele>142</ele></trkpt>
   <trkpt lat="61.450476" lon="23.849732"><ele>142</ele></trkpt>
   <trkpt lat="61.450523" lon="23.849683"><ele>142</ele></trkpt>
  </trkseg>
 </trk>
</gpx>