<?xml version="1.0" encoding="UTF-8"?>
<!-- track-length = 452 filtered ascend = 11 plain-ascend = 11 cost=452 energy=0.0kwh time=36s -->
<gpx 
 xmlns="http://www.topografix.com/GPX/1/1" 
 xmlns:xsi="http://www.w3.org/2001/XMLSchema-instance" 
 xsi:schemaLocation="http://www.topografix.com/GPX/1/1 http://www.topografix.com/GPX/1/1/gpx.xsd" 
 version="1.1" 
 creator="BRouter-Web 0.18.1">
 <trk>
  <name>Kalevanrinne (Steig A) - Uintikeskus (Steig A)</name>
  <trkseg>
   <trkpt lat="61.494674" lon="23.811714"><ele>96.5</ele></trkpt>
   <trkpt lat="61.494692" lon="23.811627"><ele>97</ele></trkpt>
   <trkpt lat="61.495231" lon="23.809066"><ele>99.25</ele></trkpt>
   <trkpt lat="61.495289" lon="23.808789"><ele>100</ele></trkpt>
   <trkpt lat="61.495338" lon="23.808555"><ele>100</ele></trkpt>
   <trkpt lat="61.496043" lon="23.80518"><ele>105.75</ele></trkpt>
   <trkpt lat="61.496291" lon="23.804"><ele>107.5</ele></trkpt>
   <trkpt lat="61.496301" lon="23.803949"><ele>107.75</ele></trkpt>
  </trkseg>
 </trk>
</gpx>