<?xml version="1.0" encoding="UTF-8"?>
<!-- track-length = 1989 filtered ascend = 10 plain-ascend = 0 cost=1989 energy=0.0kwh time=2m 39s -->
<gpx 
 xmlns="http://www.topografix.com/GPX/1/1" 
 xmlns:xsi="http://www.w3.org/2001/XMLSchema-instance" 
 xsi:schemaLocation="http://www.topografix.com/GPX/1/1 http://www.topografix.com/GPX/1/1/gpx.xsd" 
 version="1.1" 
 creator="BRouter-Web 0.18.1">
 <trk>
  <name>Turtola (Steig A) - Hakametsä (Steig A)</name>
  <trkseg>
   <trkpt lat="61.477972" lon="23.832252"><ele>91.75</ele></trkpt>
   <trkpt lat="61.478034" lon="23.832176"><ele>92.75</ele></trkpt>
   <trkpt lat="61.478131" lon="23.832058"><ele>93.75</ele></trkpt>
   <trkpt lat="61.478384" lon="23.831777"><ele>92.25</ele></trkpt>
   <trkpt lat="61.478651" lon="23.831514"><ele>89.75</ele></trkpt>
   <trkpt lat="61.479192" lon="23.830944"><ele>88.25</ele></trkpt>
   <trkpt lat="61.479426" lon="23.830668"><ele>87.25</ele></trkpt>
   <trkpt lat="61.479695" lon="23.83031"><ele>85.25</ele></trkpt>
   <trkpt lat="61.479884" lon="23.830082"><ele>85</ele></trkpt>
   <trkpt lat="61.480141" lon="23.829829"><ele>83.75</ele></trkpt>
   <trkpt lat="61.480365" lon="23.829647"><ele>82.75</ele></trkpt>
   <trkpt lat="61.480505" lon="23.829533"><ele>81.75</ele></trkpt>
   <trkpt lat="61.480608" lon="23.829446"><ele>81</ele></trkpt>
   <trkpt lat="61.481236" lon="23.828933"><ele>80.25</ele></trkpt>
   <trkpt lat="61.481936" lon="23.828423"><ele>79.75</ele></trkpt>
   <trkpt lat="61.482767" lon="23.827892"><ele>79.5</ele></trkpt>
   <trkpt lat="61.483687" lon="23.827407"><ele>80</ele></trkpt>
   <trkpt lat="61.483804" lon="23.827349"><ele>79.75</ele></trkpt>
   <trkpt lat="61.484759" lon="23.826865"><ele>81</ele></trkpt>
   <trkpt lat="61.485744" lon="23.826338"><ele>81.5</ele></trkpt>
   <trkpt lat="61.488972" lon="23.824591"><ele>86.75</ele></trkpt>
   <trkpt lat="61.48904" lon="23.824548"><ele>86.75</ele></trkpt>
   <trkpt lat="61.489128" lon="23.824474"><ele>86.25</ele></trkpt>
   <trkpt lat="61.489195" lon="23.824357"><ele>86.75</ele></trkpt>
   <trkpt lat="61.489233" lon="23.824249"><ele>87.5</ele></trkpt>
   <trkpt lat="61.489263" lon="23.824127"><ele>88</ele></trkpt>
   <trkpt lat="61.489284" lon="23.823923"><ele>88.5</ele></trkpt>
   <trkpt lat="61.489276" lon="23.823453"><ele>90.25</ele></trkpt>
   <trkpt lat="61.489259" lon="23.822992"><ele>89.5</ele></trkpt>
   <trkpt lat="61.48924" lon="23.822431"><ele>89</ele></trkpt>
   <trkpt lat="61.48924" lon="23.822141"><ele>89</ele></trkpt>
   <trkpt lat="61.489252" lon="23.821799"><ele>89.75</ele></trkpt>
   <trkpt lat="61.489294" lon="23.821358"><ele>90.75</ele></trkpt>
   <trkpt lat="61.489318" lon="23.821168"><ele>90.75</ele></trkpt>
   <trkpt lat="61.489354" lon="23.820975"><ele>90.75</ele></trkpt>
   <trkpt lat="61.489379" lon="23.820854"><ele>90.75</ele></trkpt>
   <trkpt lat="61.489472" lon="23.820489"><ele>88.25</ele></trkpt>
   <trkpt lat="61.489561" lon="23.820207"><ele>89</ele></trkpt>
   <trkpt lat="61.48971" lon="23.819859"><ele>89</ele></trkpt>
   <trkpt lat="61.489793" lon="23.819693"><ele>89</ele></trkpt>
   <trkpt lat="61.489888" lon="23.819526"><ele>89</ele></trkpt>
   <trkpt lat="61.489985" lon="23.819394"><ele>89</ele></trkpt>
   <trkpt lat="61.490318" lon="23.81899"><ele>91</ele></trkpt>
   <trkpt lat="61.490849" lon="23.818395"><ele>89.75</ele></trkpt>
   <trkpt lat="61.491022" lon="23.818234"><ele>90</ele></trkpt>
   <trkpt lat="61.491297" lon="23.818031"><ele>90</ele></trkpt>
   <trkpt lat="61.492222" lon="23.817478"><ele>92</ele></trkpt>
   <trkpt lat="61.492285" lon="23.81745"><ele>92.25</ele></trkpt>
   <trkpt lat="61.492355" lon="23.817446"><ele>92.5</ele></trkpt>
   <trkpt lat="61.492449" lon="23.81747"><ele>92.75</ele></trkpt>
   <trkpt lat="61.492508" lon="23.817516"><ele>92.75</ele></trkpt>
   <trkpt lat="61.493004" lon="23.817972"><ele>92</ele></trkpt>
  </trkseg>
 </trk>
</gpx>