<?xml version="1.0" encoding="UTF-8"?>
<!-- track-length = 474 filtered ascend = 2 plain-ascend = 1 cost=474 energy=0.0kwh time=38s -->
<gpx 
 xmlns="http://www.topografix.com/GPX/1/1" 
 xmlns:xsi="http://www.w3.org/2001/XMLSchema-instance" 
 xsi:schemaLocation="http://www.topografix.com/GPX/1/1 http://www.topografix.com/GPX/1/1/gpx.xsd" 
 version="1.1" 
 creator="BRouter-Web 0.18.1">
 <trk>
  <name>Uintikeskus (Steig A) - Kaleva (Steig A)</name>
  <trkseg>
   <trkpt lat="61.496301" lon="23.803949"><ele>107.5</ele></trkpt>
   <trkpt lat="61.496329" lon="23.803819"><ele>107.75</ele></trkpt>
   <trkpt lat="61.496379" lon="23.803573"><ele>108</ele></trkpt>
   <trkpt lat="61.496421" lon="23.803334"><ele>107.75</ele></trkpt>
   <trkpt lat="61.496954" lon="23.800034"><ele>110</ele></trkpt>
   <trkpt lat="61.497425" lon="23.79707"><ele>109</ele></trkpt>
   <trkpt lat="61.497465" lon="23.79684"><ele>109</ele></trkpt>
   <trkpt lat="61.497511" lon="23.796563"><ele>109</ele></trkpt>
   <trkpt lat="61.497665" lon="23.795591"><ele>108.25</ele></trkpt>
   <trkpt lat="61.497668" lon="23.795572"><ele>108</ele></trkpt>
  </trkseg>
 </trk>
</gpx>