<?xml version="1.0" encoding="UTF-8"?>
<!-- track-length = 173 filtered ascend = 0 plain-ascend = 0 cost=173 energy=0.0kwh time=14s -->
<gpx 
 xmlns="http://www.topografix.com/GPX/1/1" 
 xmlns:xsi="http://www.w3.org/2001/XMLSchema-instance" 
 xsi:schemaLocation="http://www.topografix.com/GPX/1/1 http://www.topografix.com/GPX/1/1/gpx.xsd" 
 version="1.1" 
 creator="BRouter-Web 0.18.1">
 <trk>
  <name>Üst Turtola Weiche Nordwest - Turtola (Steig A)</name>
  <trkseg>
   <trkpt lat="61.476673" lon="23.833992"><ele>93.25</ele></trkpt>
   <trkpt lat="61.476929" lon="23.833653"><ele>92.25</ele></trkpt>
   <trkpt lat="61.477313" lon="23.833076"><ele>92.5</ele></trkpt>
   <trkpt lat="61.477511" lon="23.832822"><ele>92</ele></trkpt>
   <trkpt lat="61.477965" lon="23.832262"><ele>91.75</ele></trkpt>
   <trkpt lat="61.477972" lon="23.832252"><ele>92.75</ele></trkpt>
  </trkseg>
 </trk>
</gpx>