<?xml version="1.0" encoding="UTF-8"?>
<!-- track-length = 58 filtered ascend = 0 plain-ascend = 0 cost=116 energy=0.0kwh time=5s -->
<gpx 
 xmlns="http://www.topografix.com/GPX/1/1" 
 xmlns:xsi="http://www.w3.org/2001/XMLSchema-instance" 
 xsi:schemaLocation="http://www.topografix.com/GPX/1/1 http://www.topografix.com/GPX/1/1/gpx.xsd" 
 version="1.1" 
 creator="BRouter-Web 0.18.1">
 <trk>
  <name>Kreuz Landsberger Allee/Petersburger Straße Weiche 57 - Kreuz Landsberger Allee/Petersburger Straße Weiche 710</name>
  <trkseg>
   <trkpt lat="52.526507" lon="13.448037"><ele>51.5</ele></trkpt>
   <trkpt lat="52.526508" lon="13.448042"><ele>51.5</ele></trkpt>
   <trkpt lat="52.526471" lon="13.447906"><ele>51.5</ele></trkpt>
   <trkpt lat="52.526447" lon="13.447824"><ele>51.75</ele></trkpt>
   <trkpt lat="52.526443" lon="13.447806"><ele>51.75</ele></trkpt>
   <trkpt lat="52.526404" lon="13.447673"><ele>51.75</ele></trkpt>
   <trkpt lat="52.526391" lon="13.44763"><ele>51.75</ele></trkpt>
   <trkpt lat="52.526347" lon="13.44749"><ele>51.75</ele></trkpt>
   <trkpt lat="52.526344" lon="13.447482"><ele>51.75</ele></trkpt>
   <trkpt lat="52.526313" lon="13.447376"><ele>51.25</ele></trkpt>
   <trkpt lat="52.526291" lon="13.447303"><ele>51</ele></trkpt>
   <trkpt lat="52.526289" lon="13.447296"><ele>51</ele></trkpt>
  </trkseg>
 </trk>
</gpx>