<?xml version="1.0" encoding="UTF-8"?>
<!-- track-length = 120 filtered ascend = 0 plain-ascend = 0 cost=240 energy=0.0kwh time=10s -->
<gpx 
 xmlns="http://www.topografix.com/GPX/1/1" 
 xmlns:xsi="http://www.w3.org/2001/XMLSchema-instance" 
 xsi:schemaLocation="http://www.topografix.com/GPX/1/1 http://www.topografix.com/GPX/1/1/gpx.xsd" 
 version="1.1" 
 creator="BRouter-Web 0.18.1">
 <trk>
  <name>Kreuz Landsberger Allee/Petersburger Straße Weiche 606 - Landsberger Allee/Petersburger Straße (Steig Südwest-Nordwest)</name>
  <trkseg>
   <trkpt lat="52.526242" lon="13.447147"><ele>50.75</ele></trkpt>
   <trkpt lat="52.526135" lon="13.446798"><ele>50.75</ele></trkpt>
   <trkpt lat="52.525799" lon="13.445708"><ele>51</ele></trkpt>
   <trkpt lat="52.525759" lon="13.445581"><ele>51</ele></trkpt>
  </trkseg>
 </trk>
</gpx>