<?xml version="1.0" encoding="UTF-8"?>
<!-- track-length = 63 filtered ascend = 0 plain-ascend = 0 cost=126 energy=0.0kwh time=5s -->
<gpx 
 xmlns="http://www.topografix.com/GPX/1/1" 
 xmlns:xsi="http://www.w3.org/2001/XMLSchema-instance" 
 xsi:schemaLocation="http://www.topografix.com/GPX/1/1 http://www.topografix.com/GPX/1/1/gpx.xsd" 
 version="1.1" 
 creator="BRouter-Web 0.18.1">
 <trk>
  <name>Kreuz Lasipalatsi Weiche Nordost-nach-Nordwest-Nordwest - Lasipalatsi (Steig Nordost)</name>
  <trkseg>
   <trkpt lat="60.170106" lon="24.938181"><ele>7</ele></trkpt>
   <trkpt lat="60.170561" lon="24.937499"><ele>7.25</ele></trkpt>
  </trkseg>
 </trk>
</gpx>