<?xml version="1.0" encoding="UTF-8"?>
<!-- track-length = 54 filtered ascend = 0 plain-ascend = 1 cost=108 energy=0.0kwh time=4s -->
<gpx 
 xmlns="http://www.topografix.com/GPX/1/1" 
 xmlns:xsi="http://www.w3.org/2001/XMLSchema-instance" 
 xsi:schemaLocation="http://www.topografix.com/GPX/1/1 http://www.topografix.com/GPX/1/1/gpx.xsd" 
 version="1.1" 
 creator="BRouter-Web 0.18.1">
 <trk>
  <name>Kreuz Lasipalatsi Weiche Südost-nach-Südwest-Südost - Kreuz Lasipalatsi Weiche Nordost-nach-Nordwest-Nordwest</name>
  <trkseg>
   <trkpt lat="60.169723" lon="24.938758"><ele>6.75</ele></trkpt>
   <trkpt lat="60.169725" lon="24.938756"><ele>6.75</ele></trkpt>
   <trkpt lat="60.169754" lon="24.93871"><ele>6.75</ele></trkpt>
   <trkpt lat="60.169821" lon="24.938611"><ele>7</ele></trkpt>
   <trkpt lat="60.169841" lon="24.938581"><ele>7</ele></trkpt>
   <trkpt lat="60.169879" lon="24.938525"><ele>7</ele></trkpt>
   <trkpt lat="60.169888" lon="24.938512"><ele>7</ele></trkpt>
   <trkpt lat="60.16991" lon="24.93848"><ele>7</ele></trkpt>
   <trkpt lat="60.169916" lon="24.93847"><ele>7</ele></trkpt>
   <trkpt lat="60.169928" lon="24.938452"><ele>7</ele></trkpt>
   <trkpt lat="60.169973" lon="24.938386"><ele>7</ele></trkpt>
   <trkpt lat="60.169987" lon="24.938364"><ele>7</ele></trkpt>
   <trkpt lat="60.170066" lon="24.938243"><ele>6.75</ele></trkpt>
   <trkpt lat="60.170104" lon="24.938185"><ele>7</ele></trkpt>
   <trkpt lat="60.170106" lon="24.938181"><ele>7.25</ele></trkpt>
  </trkseg>
 </trk>
</gpx>