<?xml version="1.0" encoding="UTF-8"?>
<!-- track-length = 2835 filtered ascend = 17 plain-ascend = 17 cost=2835 energy=0.0kwh time=3m 47s -->
<gpx 
 xmlns="http://www.topografix.com/GPX/1/1" 
 xmlns:xsi="http://www.w3.org/2001/XMLSchema-instance" 
 xsi:schemaLocation="http://www.topografix.com/GPX/1/1 http://www.topografix.com/GPX/1/1/gpx.xsd" 
 version="1.1" 
 creator="BRouter-Web 0.18.1">
 <trk>
  <name>84300 Kunov Weiche 3 - Skrbovice</name>
  <trkseg>
   <trkpt lat="50.03773" lon="17.515657"><ele>409</ele></trkpt>
   <trkpt lat="50.03785" lon="17.515582"><ele>409</ele></trkpt>
   <trkpt lat="50.037924" lon="17.515528"><ele>409</ele></trkpt>
   <trkpt lat="50.038819" lon="17.514861"><ele>410</ele></trkpt>
   <trkpt lat="50.039403" lon="17.514412"><ele>410</ele></trkpt>
   <trkpt lat="50.039604" lon="17.51424"><ele>410.25</ele></trkpt>
   <trkpt lat="50.039765" lon="17.514087"><ele>411.25</ele></trkpt>
   <trkpt lat="50.040021" lon="17.513807"><ele>412</ele></trkpt>
   <trkpt lat="50.040046" lon="17.513778"><ele>412.25</ele></trkpt>
   <trkpt lat="50.040362" lon="17.513367"><ele>413.5</ele></trkpt>
   <trkpt lat="50.040576" lon="17.513043"><ele>414</ele></trkpt>
   <trkpt lat="50.040687" lon="17.512854"><ele>414.5</ele></trkpt>
   <trkpt lat="50.040907" lon="17.512434"><ele>414.25</ele></trkpt>
   <trkpt lat="50.040996" lon="17.512234"><ele>414.75</ele></trkpt>
   <trkpt lat="50.041058" lon="17.512093"><ele>414.25</ele></trkpt>
   <trkpt lat="50.04119" lon="17.511713"><ele>414.75</ele></trkpt>
   <trkpt lat="50.041201" lon="17.511675"><ele>414.75</ele></trkpt>
   <trkpt lat="50.041249" lon="17.511494"><ele>415.5</ele></trkpt>
   <trkpt lat="50.041336" lon="17.511083"><ele>415.25</ele></trkpt>
   <trkpt lat="50.041751" lon="17.508485"><ele>420.5</ele></trkpt>
   <trkpt lat="50.041991" lon="17.507088"><ele>417.75</ele></trkpt>
   <trkpt lat="50.042002" lon="17.507032"><ele>418.5</ele></trkpt>
   <trkpt lat="50.042101" lon="17.506594"><ele>421</ele></trkpt>
   <trkpt lat="50.042257" lon="17.505952"><ele>418.5</ele></trkpt>
   <trkpt lat="50.04235" lon="17.505606"><ele>420.25</ele></trkpt>
   <trkpt lat="50.04284" lon="17.504066"><ele>419.25</ele></trkpt>
   <trkpt lat="50.042852" lon="17.504024"><ele>419.5</ele></trkpt>
   <trkpt lat="50.042927" lon="17.503779"><ele>419.25</ele></trkpt>
   <trkpt lat="50.042968" lon="17.503625"><ele>418.5</ele></trkpt>
   <trkpt lat="50.043001" lon="17.503468"><ele>418.5</ele></trkpt>
   <trkpt lat="50.043278" lon="17.501932"><ele>419.5</ele></trkpt>
   <trkpt lat="50.043332" lon="17.5017"><ele>419.5</ele></trkpt>
   <trkpt lat="50.043374" lon="17.501551"><ele>421</ele></trkpt>
   <trkpt lat="50.043438" lon="17.501372"><ele>421.25</ele></trkpt>
   <trkpt lat="50.043502" lon="17.501215"><ele>420.5</ele></trkpt>
   <trkpt lat="50.043591" lon="17.501031"><ele>419.5</ele></trkpt>
   <trkpt lat="50.043609" lon="17.500999"><ele>419.5</ele></trkpt>
   <trkpt lat="50.043772" lon="17.500731"><ele>421</ele></trkpt>
   <trkpt lat="50.044962" lon="17.498859"><ele>418</ele></trkpt>
   <trkpt lat="50.044989" lon="17.498816"><ele>418</ele></trkpt>
   <trkpt lat="50.045337" lon="17.498265"><ele>418.25</ele></trkpt>
   <trkpt lat="50.045499" lon="17.497979"><ele>418.75</ele></trkpt>
   <trkpt lat="50.045585" lon="17.4978"><ele>418.75</ele></trkpt>
   <trkpt lat="50.045715" lon="17.497493"><ele>419.25</ele></trkpt>
   <trkpt lat="50.045867" lon="17.497046"><ele>418.75</ele></trkpt>
   <trkpt lat="50.045889" lon="17.496977"><ele>418.75</ele></trkpt>
   <trkpt lat="50.04667" lon="17.494595"><ele>419.5</ele></trkpt>
   <trkpt lat="50.04672" lon="17.49446"><ele>419</ele></trkpt>
   <trkpt lat="50.046863" lon="17.494126"><ele>420</ele></trkpt>
   <trkpt lat="50.047012" lon="17.493824"><ele>420</ele></trkpt>
   <trkpt lat="50.047185" lon="17.49353"><ele>420.25</ele></trkpt>
   <trkpt lat="50.048425" lon="17.491661"><ele>421</ele></trkpt>
   <trkpt lat="50.050174" lon="17.48903"><ele>423.5</ele></trkpt>
   <trkpt lat="50.050355" lon="17.488721"><ele>423</ele></trkpt>
   <trkpt lat="50.050473" lon="17.488477"><ele>423.75</ele></trkpt>
   <trkpt lat="50.050595" lon="17.488188"><ele>423.25</ele></trkpt>
   <trkpt lat="50.050612" lon="17.488144"><ele>423</ele></trkpt>
   <trkpt lat="50.051868" lon="17.484887"><ele>426.5</ele></trkpt>
   <trkpt lat="50.051984" lon="17.484609"><ele>426.5</ele></trkpt>
   <trkpt lat="50.052092" lon="17.484367"><ele>426</ele></trkpt>
  </trkseg>
 </trk>
</gpx>