<?xml version="1.0" encoding="UTF-8"?>
<!-- track-length = 1765 filtered ascend = 0 plain-ascend = -8 cost=1765 energy=0.0kwh time=2m 21s -->
<gpx 
 xmlns="http://www.topografix.com/GPX/1/1" 
 xmlns:xsi="http://www.w3.org/2001/XMLSchema-instance" 
 xsi:schemaLocation="http://www.topografix.com/GPX/1/1 http://www.topografix.com/GPX/1/1/gpx.xsd" 
 version="1.1" 
 creator="BRouter-Web 0.18.1">
 <trk>
  <name>84300 Široká Niva Weiche 1 - Skrbovice</name>
  <trkseg>
   <trkpt lat="50.06557" lon="17.474561"><ele>435</ele></trkpt>
   <trkpt lat="50.065348" lon="17.474807"><ele>434.75</ele></trkpt>
   <trkpt lat="50.065181" lon="17.474964"><ele>435</ele></trkpt>
   <trkpt lat="50.06498" lon="17.47511"><ele>434.25</ele></trkpt>
   <trkpt lat="50.064805" lon="17.47521"><ele>434</ele></trkpt>
   <trkpt lat="50.064706" lon="17.475253"><ele>433.75</ele></trkpt>
   <trkpt lat="50.064506" lon="17.475319"><ele>434</ele></trkpt>
   <trkpt lat="50.064283" lon="17.47536"><ele>433.5</ele></trkpt>
   <trkpt lat="50.063972" lon="17.475359"><ele>433.75</ele></trkpt>
   <trkpt lat="50.063677" lon="17.475292"><ele>433.75</ele></trkpt>
   <trkpt lat="50.063506" lon="17.475234"><ele>433.5</ele></trkpt>
   <trkpt lat="50.063164" lon="17.475096"><ele>432.75</ele></trkpt>
   <trkpt lat="50.063115" lon="17.475075"><ele>432.75</ele></trkpt>
   <trkpt lat="50.062897" lon="17.474992"><ele>433</ele></trkpt>
   <trkpt lat="50.062768" lon="17.474952"><ele>432.75</ele></trkpt>
   <trkpt lat="50.062719" lon="17.474941"><ele>432.75</ele></trkpt>
   <trkpt lat="50.062563" lon="17.474925"><ele>432.5</ele></trkpt>
   <trkpt lat="50.062414" lon="17.474936"><ele>432.5</ele></trkpt>
   <trkpt lat="50.062252" lon="17.474981"><ele>432.5</ele></trkpt>
   <trkpt lat="50.062175" lon="17.475012"><ele>432.25</ele></trkpt>
   <trkpt lat="50.062013" lon="17.475105"><ele>432.25</ele></trkpt>
   <trkpt lat="50.06186" lon="17.47523"><ele>432</ele></trkpt>
   <trkpt lat="50.061762" lon="17.475332"><ele>432</ele></trkpt>
   <trkpt lat="50.061283" lon="17.475867"><ele>431.5</ele></trkpt>
   <trkpt lat="50.061137" lon="17.475997"><ele>431.5</ele></trkpt>
   <trkpt lat="50.060986" lon="17.476098"><ele>431.25</ele></trkpt>
   <trkpt lat="50.060819" lon="17.47617"><ele>431.25</ele></trkpt>
   <trkpt lat="50.060737" lon="17.47619"><ele>431</ele></trkpt>
   <trkpt lat="50.060648" lon="17.476207"><ele>431</ele></trkpt>
   <trkpt lat="50.06042" lon="17.476207"><ele>431</ele></trkpt>
   <trkpt lat="50.060227" lon="17.476156"><ele>431.25</ele></trkpt>
   <trkpt lat="50.059648" lon="17.475895"><ele>431.75</ele></trkpt>
   <trkpt lat="50.059569" lon="17.475866"><ele>431.75</ele></trkpt>
   <trkpt lat="50.059405" lon="17.475833"><ele>432</ele></trkpt>
   <trkpt lat="50.059333" lon="17.47583"><ele>432</ele></trkpt>
   <trkpt lat="50.059194" lon="17.475837"><ele>432</ele></trkpt>
   <trkpt lat="50.059096" lon="17.475856"><ele>432.25</ele></trkpt>
   <trkpt lat="50.058917" lon="17.475921"><ele>432.25</ele></trkpt>
   <trkpt lat="50.058824" lon="17.475974"><ele>432.5</ele></trkpt>
   <trkpt lat="50.058665" lon="17.476083"><ele>432.5</ele></trkpt>
   <trkpt lat="50.058594" lon="17.476148"><ele>432.5</ele></trkpt>
   <trkpt lat="50.058488" lon="17.476264"><ele>432.75</ele></trkpt>
   <trkpt lat="50.058362" lon="17.476435"><ele>432.75</ele></trkpt>
   <trkpt lat="50.058244" lon="17.476646"><ele>433</ele></trkpt>
   <trkpt lat="50.058135" lon="17.476891"><ele>433.25</ele></trkpt>
   <trkpt lat="50.057955" lon="17.477353"><ele>433.25</ele></trkpt>
   <trkpt lat="50.057875" lon="17.477536"><ele>434.5</ele></trkpt>
   <trkpt lat="50.057767" lon="17.477751"><ele>431</ele></trkpt>
   <trkpt lat="50.057664" lon="17.477925"><ele>430.5</ele></trkpt>
   <trkpt lat="50.057538" lon="17.478101"><ele>428.75</ele></trkpt>
   <trkpt lat="50.057369" lon="17.478318"><ele>429</ele></trkpt>
   <trkpt lat="50.05628" lon="17.479667"><ele>428</ele></trkpt>
   <trkpt lat="50.055016" lon="17.481235"><ele>429</ele></trkpt>
   <trkpt lat="50.054847" lon="17.481441"><ele>430.5</ele></trkpt>
   <trkpt lat="50.054705" lon="17.481599"><ele>429.75</ele></trkpt>
   <trkpt lat="50.05459" lon="17.481713"><ele>428.75</ele></trkpt>
   <trkpt lat="50.054381" lon="17.481888"><ele>428</ele></trkpt>
   <trkpt lat="50.053589" lon="17.482452"><ele>427</ele></trkpt>
   <trkpt lat="50.053535" lon="17.482494"><ele>427.25</ele></trkpt>
   <trkpt lat="50.053398" lon="17.4826"><ele>428.5</ele></trkpt>
   <trkpt lat="50.053193" lon="17.48279"><ele>428.75</ele></trkpt>
   <trkpt lat="50.053021" lon="17.48297"><ele>428.75</ele></trkpt>
   <trkpt lat="50.052823" lon="17.483196"><ele>428.75</ele></trkpt>
   <trkpt lat="50.052649" lon="17.483423"><ele>428.25</ele></trkpt>
   <trkpt lat="50.052404" lon="17.483792"><ele>426.25</ele></trkpt>
   <trkpt lat="50.052291" lon="17.483986"><ele>426</ele></trkpt>
   <trkpt lat="50.052206" lon="17.484151"><ele>426.75</ele></trkpt>
   <trkpt lat="50.052096" lon="17.48436"><ele>426</ele></trkpt>
   <trkpt lat="50.052092" lon="17.484367"><ele>426.5</ele></trkpt>
  </trkseg>
 </trk>
</gpx>