<?xml version="1.0" encoding="UTF-8"?>
<!-- track-length = 1902 filtered ascend = 0 plain-ascend = 0 cost=1902 energy=0.0kwh time=2m 32s -->
<gpx 
 xmlns="http://www.topografix.com/GPX/1/1" 
 xmlns:xsi="http://www.w3.org/2001/XMLSchema-instance" 
 xsi:schemaLocation="http://www.topografix.com/GPX/1/1 http://www.topografix.com/GPX/1/1/gpx.xsd" 
 version="1.1" 
 creator="BRouter-Web 0.18.1">
 <trk>
  <name>84300 Pocheň - Široká Niva Weiche 4</name>
  <trkseg>
   <trkpt lat="50.074983" lon="17.448274"><ele>438.25</ele></trkpt>
   <trkpt lat="50.074894" lon="17.448435"><ele>438.25</ele></trkpt>
   <trkpt lat="50.074817" lon="17.448605"><ele>438.25</ele></trkpt>
   <trkpt lat="50.074777" lon="17.448712"><ele>438.25</ele></trkpt>
   <trkpt lat="50.07471" lon="17.448926"><ele>438.25</ele></trkpt>
   <trkpt lat="50.074656" lon="17.449161"><ele>438.25</ele></trkpt>
   <trkpt lat="50.074632" lon="17.449292"><ele>438.25</ele></trkpt>
   <trkpt lat="50.074605" lon="17.449558"><ele>438.25</ele></trkpt>
   <trkpt lat="50.074573" lon="17.450302"><ele>438.25</ele></trkpt>
   <trkpt lat="50.074537" lon="17.450693"><ele>438.25</ele></trkpt>
   <trkpt lat="50.074517" lon="17.450845"><ele>438.25</ele></trkpt>
   <trkpt lat="50.07446" lon="17.451148"><ele>438.25</ele></trkpt>
   <trkpt lat="50.074387" lon="17.451421"><ele>438.25</ele></trkpt>
   <trkpt lat="50.074346" lon="17.451546"><ele>438.25</ele></trkpt>
   <trkpt lat="50.074148" lon="17.452072"><ele>438.25</ele></trkpt>
   <trkpt lat="50.072792" lon="17.455634"><ele>438.25</ele></trkpt>
   <trkpt lat="50.072582" lon="17.456127"><ele>438.25</ele></trkpt>
   <trkpt lat="50.072353" lon="17.456695"><ele>438.25</ele></trkpt>
   <trkpt lat="50.072304" lon="17.45685"><ele>438.25</ele></trkpt>
   <trkpt lat="50.072262" lon="17.457019"><ele>438.25</ele></trkpt>
   <trkpt lat="50.072208" lon="17.457376"><ele>438.25</ele></trkpt>
   <trkpt lat="50.072193" lon="17.457553"><ele>438.25</ele></trkpt>
   <trkpt lat="50.072194" lon="17.458137"><ele>438.25</ele></trkpt>
   <trkpt lat="50.072265" lon="17.461213"><ele>438.25</ele></trkpt>
   <trkpt lat="50.072268" lon="17.461542"><ele>438.25</ele></trkpt>
   <trkpt lat="50.072261" lon="17.461747"><ele>438.25</ele></trkpt>
   <trkpt lat="50.072244" lon="17.461978"><ele>438.25</ele></trkpt>
   <trkpt lat="50.072196" lon="17.462342"><ele>438.25</ele></trkpt>
   <trkpt lat="50.072148" lon="17.462582"><ele>438.25</ele></trkpt>
   <trkpt lat="50.07208" lon="17.462868"><ele>438.25</ele></trkpt>
   <trkpt lat="50.071929" lon="17.463299"><ele>438.25</ele></trkpt>
   <trkpt lat="50.070952" lon="17.465615"><ele>438.25</ele></trkpt>
   <trkpt lat="50.069261" lon="17.469616"><ele>437.75</ele></trkpt>
   <trkpt lat="50.068917" lon="17.470438"><ele>437.5</ele></trkpt>
   <trkpt lat="50.068785" lon="17.470722"><ele>437.5</ele></trkpt>
   <trkpt lat="50.068657" lon="17.47097"><ele>437.5</ele></trkpt>
   <trkpt lat="50.068544" lon="17.471159"><ele>437.5</ele></trkpt>
   <trkpt lat="50.06835" lon="17.471429"><ele>437.5</ele></trkpt>
   <trkpt lat="50.068115" lon="17.471704"><ele>437.25</ele></trkpt>
  </trkseg>
 </trk>
</gpx>