<?xml version="1.0" encoding="UTF-8"?>
<!-- track-length = 140 filtered ascend = 0 plain-ascend = 0 cost=140 energy=0.0kwh time=11s -->
<gpx 
 xmlns="http://www.topografix.com/GPX/1/1" 
 xmlns:xsi="http://www.w3.org/2001/XMLSchema-instance" 
 xsi:schemaLocation="http://www.topografix.com/GPX/1/1 http://www.topografix.com/GPX/1/1/gpx.xsd" 
 version="1.1" 
 creator="BRouter-Web 0.18.1">
 <trk>
  <name>84300 Široká Niva (Gleis 3) - Široká Niva Weiche 1</name>
  <trkseg>
   <trkpt lat="50.066573" lon="17.473407"><ele>435.75</ele></trkpt>
   <trkpt lat="50.065571" lon="17.474561"><ele>435.25</ele></trkpt>
   <trkpt lat="50.06557" lon="17.474561"><ele>434.75</ele></trkpt>
  </trkseg>
 </trk>
</gpx>