<?xml version="1.0" encoding="UTF-8"?>
<!-- track-length = 521 filtered ascend = 0 plain-ascend = -6 cost=521 energy=0.0kwh time=42s -->
<gpx 
 xmlns="http://www.topografix.com/GPX/1/1" 
 xmlns:xsi="http://www.w3.org/2001/XMLSchema-instance" 
 xsi:schemaLocation="http://www.topografix.com/GPX/1/1 http://www.topografix.com/GPX/1/1/gpx.xsd" 
 version="1.1" 
 creator="BRouter-Web 0.18.1">
 <trk>
  <name>84300 Vrbno pod Pradědem Weiche 1 - Vrbno pod Pradědem zastávka</name>
  <trkseg>
   <trkpt lat="50.115699" lon="17.391506"><ele>518</ele></trkpt>
   <trkpt lat="50.115699" lon="17.391508"><ele>518</ele></trkpt>
   <trkpt lat="50.115619" lon="17.391838"><ele>517.75</ele></trkpt>
   <trkpt lat="50.115569" lon="17.392145"><ele>517.75</ele></trkpt>
   <trkpt lat="50.115546" lon="17.392352"><ele>517.75</ele></trkpt>
   <trkpt lat="50.115253" lon="17.39543"><ele>514</ele></trkpt>
   <trkpt lat="50.115205" lon="17.395894"><ele>513.5</ele></trkpt>
   <trkpt lat="50.115154" lon="17.396238"><ele>513</ele></trkpt>
   <trkpt lat="50.115118" lon="17.396405"><ele>512.75</ele></trkpt>
   <trkpt lat="50.115071" lon="17.396579"><ele>512.75</ele></trkpt>
   <trkpt lat="50.11501" lon="17.396761"><ele>512.75</ele></trkpt>
   <trkpt lat="50.114946" lon="17.396923"><ele>513</ele></trkpt>
   <trkpt lat="50.114839" lon="17.397129"><ele>512.5</ele></trkpt>
   <trkpt lat="50.114556" lon="17.397631"><ele>512.5</ele></trkpt>
   <trkpt lat="50.114443" lon="17.397813"><ele>511.75</ele></trkpt>
   <trkpt lat="50.114346" lon="17.397964"><ele>511.5</ele></trkpt>
   <trkpt lat="50.114216" lon="17.398179"><ele>511.5</ele></trkpt>
  </trkseg>
 </trk>
</gpx>