<?xml version="1.0" encoding="UTF-8"?>
<!-- track-length = 4167 filtered ascend = 0 plain-ascend = -36 cost=4167 energy=0.0kwh time=5m 33s -->
<gpx 
 xmlns="http://www.topografix.com/GPX/1/1" 
 xmlns:xsi="http://www.w3.org/2001/XMLSchema-instance" 
 xsi:schemaLocation="http://www.topografix.com/GPX/1/1 http://www.topografix.com/GPX/1/1/gpx.xsd" 
 version="1.1" 
 creator="BRouter-Web 0.18.1">
 <trk>
  <name>84300 Karlovice Weiche 1 - Pocheň</name>
  <trkseg>
   <trkpt lat="50.104194" lon="17.439821"><ele>490</ele></trkpt>
   <trkpt lat="50.104194" lon="17.439822"><ele>490</ele></trkpt>
   <trkpt lat="50.104058" lon="17.439929"><ele>490.25</ele></trkpt>
   <trkpt lat="50.103918" lon="17.440057"><ele>489.5</ele></trkpt>
   <trkpt lat="50.103744" lon="17.440227"><ele>489.25</ele></trkpt>
   <trkpt lat="50.103615" lon="17.440367"><ele>489.75</ele></trkpt>
   <trkpt lat="50.103498" lon="17.440547"><ele>490</ele></trkpt>
   <trkpt lat="50.103418" lon="17.440687"><ele>489.75</ele></trkpt>
   <trkpt lat="50.103346" lon="17.440831"><ele>489.75</ele></trkpt>
   <trkpt lat="50.103261" lon="17.44103"><ele>489</ele></trkpt>
   <trkpt lat="50.103062" lon="17.441527"><ele>489.25</ele></trkpt>
   <trkpt lat="50.10298" lon="17.44172"><ele>488.75</ele></trkpt>
   <trkpt lat="50.102904" lon="17.441875"><ele>488.75</ele></trkpt>
   <trkpt lat="50.102786" lon="17.442091"><ele>488.5</ele></trkpt>
   <trkpt lat="50.10257" lon="17.442416"><ele>487.75</ele></trkpt>
   <trkpt lat="50.102194" lon="17.44292"><ele>488.25</ele></trkpt>
   <trkpt lat="50.101937" lon="17.443206"><ele>487.25</ele></trkpt>
   <trkpt lat="50.101598" lon="17.443544"><ele>486.75</ele></trkpt>
   <trkpt lat="50.101202" lon="17.444001"><ele>485.75</ele></trkpt>
   <trkpt lat="50.101074" lon="17.444169"><ele>486</ele></trkpt>
   <trkpt lat="50.100925" lon="17.444397"><ele>485.5</ele></trkpt>
   <trkpt lat="50.100733" lon="17.44466"><ele>486</ele></trkpt>
   <trkpt lat="50.100611" lon="17.444794"><ele>486.25</ele></trkpt>
   <trkpt lat="50.100437" lon="17.444965"><ele>485.25</ele></trkpt>
   <trkpt lat="50.100252" lon="17.445113"><ele>484.75</ele></trkpt>
   <trkpt lat="50.100021" lon="17.445245"><ele>483.25</ele></trkpt>
   <trkpt lat="50.099708" lon="17.445454"><ele>484.25</ele></trkpt>
   <trkpt lat="50.099407" lon="17.445696"><ele>483.5</ele></trkpt>
   <trkpt lat="50.099265" lon="17.445843"><ele>483</ele></trkpt>
   <trkpt lat="50.098817" lon="17.446343"><ele>482.25</ele></trkpt>
   <trkpt lat="50.097419" lon="17.447927"><ele>479.25</ele></trkpt>
   <trkpt lat="50.09731" lon="17.448031"><ele>479</ele></trkpt>
   <trkpt lat="50.097222" lon="17.448103"><ele>478.75</ele></trkpt>
   <trkpt lat="50.097092" lon="17.448201"><ele>479</ele></trkpt>
   <trkpt lat="50.096968" lon="17.448268"><ele>479.5</ele></trkpt>
   <trkpt lat="50.096853" lon="17.448317"><ele>478.75</ele></trkpt>
   <trkpt lat="50.096727" lon="17.448358"><ele>478</ele></trkpt>
   <trkpt lat="50.096599" lon="17.448388"><ele>477.5</ele></trkpt>
   <trkpt lat="50.096144" lon="17.448466"><ele>477</ele></trkpt>
   <trkpt lat="50.095947" lon="17.448515"><ele>476.5</ele></trkpt>
   <trkpt lat="50.095727" lon="17.448601"><ele>476.75</ele></trkpt>
   <trkpt lat="50.095457" lon="17.448732"><ele>477</ele></trkpt>
   <trkpt lat="50.095287" lon="17.448794"><ele>477.75</ele></trkpt>
   <trkpt lat="50.095115" lon="17.448833"><ele>477.5</ele></trkpt>
   <trkpt lat="50.094958" lon="17.448847"><ele>477</ele></trkpt>
   <trkpt lat="50.094733" lon="17.448812"><ele>475.25</ele></trkpt>
   <trkpt lat="50.094626" lon="17.448775"><ele>474.5</ele></trkpt>
   <trkpt lat="50.094315" lon="17.448612"><ele>474</ele></trkpt>
   <trkpt lat="50.093904" lon="17.448382"><ele>474</ele></trkpt>
   <trkpt lat="50.092985" lon="17.447862"><ele>472.5</ele></trkpt>
   <trkpt lat="50.092311" lon="17.447466"><ele>470.75</ele></trkpt>
   <trkpt lat="50.090435" lon="17.446229"><ele>467.5</ele></trkpt>
   <trkpt lat="50.090129" lon="17.446058"><ele>466.5</ele></trkpt>
   <trkpt lat="50.089825" lon="17.445938"><ele>465.5</ele></trkpt>
   <trkpt lat="50.088672" lon="17.445601"><ele>464</ele></trkpt>
   <trkpt lat="50.088257" lon="17.445469"><ele>464.25</ele></trkpt>
   <trkpt lat="50.088135" lon="17.445407"><ele>463.25</ele></trkpt>
   <trkpt lat="50.08801" lon="17.445333"><ele>462.5</ele></trkpt>
   <trkpt lat="50.087858" lon="17.445228"><ele>463</ele></trkpt>
   <trkpt lat="50.086445" lon="17.444128"><ele>461.75</ele></trkpt>
   <trkpt lat="50.086209" lon="17.443904"><ele>461</ele></trkpt>
   <trkpt lat="50.086105" lon="17.443785"><ele>460.5</ele></trkpt>
   <trkpt lat="50.085923" lon="17.44355"><ele>460.75</ele></trkpt>
   <trkpt lat="50.085769" lon="17.443309"><ele>461.25</ele></trkpt>
   <trkpt lat="50.08569" lon="17.44317"><ele>461.25</ele></trkpt>
   <trkpt lat="50.085481" lon="17.442742"><ele>460.5</ele></trkpt>
   <trkpt lat="50.084669" lon="17.440968"><ele>459.5</ele></trkpt>
   <trkpt lat="50.084521" lon="17.440679"><ele>459.25</ele></trkpt>
   <trkpt lat="50.084419" lon="17.44049"><ele>459</ele></trkpt>
   <trkpt lat="50.084314" lon="17.440313"><ele>459</ele></trkpt>
   <trkpt lat="50.084119" lon="17.440017"><ele>458.75</ele></trkpt>
   <trkpt lat="50.083962" lon="17.439803"><ele>458.75</ele></trkpt>
   <trkpt lat="50.083697" lon="17.439486"><ele>459</ele></trkpt>
   <trkpt lat="50.083427" lon="17.439211"><ele>458.75</ele></trkpt>
   <trkpt lat="50.083294" lon="17.439089"><ele>458.75</ele></trkpt>
   <trkpt lat="50.083128" lon="17.438952"><ele>458.25</ele></trkpt>
   <trkpt lat="50.082967" lon="17.438833"><ele>458.25</ele></trkpt>
   <trkpt lat="50.08188" lon="17.438109"><ele>456.75</ele></trkpt>
   <trkpt lat="50.08152" lon="17.437858"><ele>458.25</ele></trkpt>
   <trkpt lat="50.081322" lon="17.437741"><ele>457.25</ele></trkpt>
   <trkpt lat="50.081147" lon="17.437663"><ele>458</ele></trkpt>
   <trkpt lat="50.080989" lon="17.437604"><ele>458</ele></trkpt>
   <trkpt lat="50.080762" lon="17.437566"><ele>456.75</ele></trkpt>
   <trkpt lat="50.080626" lon="17.437557"><ele>456.25</ele></trkpt>
   <trkpt lat="50.080411" lon="17.437573"><ele>454.75</ele></trkpt>
   <trkpt lat="50.080195" lon="17.437616"><ele>454</ele></trkpt>
   <trkpt lat="50.079205" lon="17.437916"><ele>453.75</ele></trkpt>
   <trkpt lat="50.079131" lon="17.437943"><ele>453.75</ele></trkpt>
   <trkpt lat="50.079019" lon="17.437999"><ele>453.75</ele></trkpt>
   <trkpt lat="50.078825" lon="17.438128"><ele>453.75</ele></trkpt>
   <trkpt lat="50.078739" lon="17.438199"><ele>453.75</ele></trkpt>
   <trkpt lat="50.078582" lon="17.43836"><ele>453.75</ele></trkpt>
   <trkpt lat="50.07838" lon="17.438604"><ele>453.75</ele></trkpt>
   <trkpt lat="50.078161" lon="17.438897"><ele>453.75</ele></trkpt>
   <trkpt lat="50.077948" lon="17.439209"><ele>453.75</ele></trkpt>
   <trkpt lat="50.077889" lon="17.439297"><ele>453.75</ele></trkpt>
   <trkpt lat="50.077714" lon="17.439586"><ele>453.75</ele></trkpt>
   <trkpt lat="50.076445" lon="17.44207"><ele>453.5</ele></trkpt>
   <trkpt lat="50.076343" lon="17.442284"><ele>453.5</ele></trkpt>
   <trkpt lat="50.076253" lon="17.442498"><ele>453.5</ele></trkpt>
   <trkpt lat="50.076188" lon="17.442678"><ele>453.5</ele></trkpt>
   <trkpt lat="50.07613" lon="17.442866"><ele>453.5</ele></trkpt>
   <trkpt lat="50.076086" lon="17.443061"><ele>453.5</ele></trkpt>
   <trkpt lat="50.076025" lon="17.443397"><ele>453.5</ele></trkpt>
   <trkpt lat="50.076004" lon="17.443627"><ele>453.5</ele></trkpt>
   <trkpt lat="50.075993" lon="17.44383"><ele>453.5</ele></trkpt>
   <trkpt lat="50.075992" lon="17.444149"><ele>453.5</ele></trkpt>
   <trkpt lat="50.076012" lon="17.444719"><ele>453.5</ele></trkpt>
   <trkpt lat="50.076017" lon="17.444975"><ele>453.5</ele></trkpt>
   <trkpt lat="50.076014" lon="17.445205"><ele>453.5</ele></trkpt>
   <trkpt lat="50.075987" lon="17.445679"><ele>453.5</ele></trkpt>
   <trkpt lat="50.075943" lon="17.44615"><ele>453.5</ele></trkpt>
   <trkpt lat="50.07591" lon="17.446415"><ele>453.5</ele></trkpt>
   <trkpt lat="50.075886" lon="17.44654"><ele>453.5</ele></trkpt>
   <trkpt lat="50.07586" lon="17.446656"><ele>453.5</ele></trkpt>
   <trkpt lat="50.075792" lon="17.446863"><ele>453.5</ele></trkpt>
   <trkpt lat="50.075737" lon="17.447003"><ele>453.5</ele></trkpt>
   <trkpt lat="50.075584" lon="17.447352"><ele>453.5</ele></trkpt>
   <trkpt lat="50.075531" lon="17.447456"><ele>453.5</ele></trkpt>
   <trkpt lat="50.075439" lon="17.447611"><ele>453.5</ele></trkpt>
   <trkpt lat="50.075091" lon="17.448109"><ele>453.5</ele></trkpt>
   <trkpt lat="50.074988" lon="17.448266"/>
   <trkpt lat="50.074983" lon="17.448274"/>
  </trkseg>
 </trk>
</gpx>