<?xml version="1.0" encoding="UTF-8"?>
<!-- track-length = 30 filtered ascend = 1 plain-ascend = 1 cost=30 energy=0.0kwh time=2s -->
<gpx 
 xmlns="http://www.topografix.com/GPX/1/1" 
 xmlns:xsi="http://www.w3.org/2001/XMLSchema-instance" 
 xsi:schemaLocation="http://www.topografix.com/GPX/1/1 http://www.topografix.com/GPX/1/1/gpx.xsd" 
 version="1.1" 
 creator="BRouter-Web 0.18.1">
 <trk>
  <name>84300 Kunov Weiche 1 - Kunov Weiche 2</name>
  <trkseg>
   <trkpt lat="50.035551" lon="17.517359"><ele>408.25</ele></trkpt>
   <trkpt lat="50.035555" lon="17.517356"><ele>408.5</ele></trkpt>
   <trkpt lat="50.035778" lon="17.517146"><ele>409.25</ele></trkpt>
  </trkseg>
 </trk>
</gpx>