<?xml version="1.0" encoding="UTF-8"?>
<!-- track-length = 6 filtered ascend = 0 plain-ascend = 0 cost=6 energy=0.0kwh time= -->
<gpx 
 xmlns="http://www.topografix.com/GPX/1/1" 
 xmlns:xsi="http://www.w3.org/2001/XMLSchema-instance" 
 xsi:schemaLocation="http://www.topografix.com/GPX/1/1 http://www.topografix.com/GPX/1/1/gpx.xsd" 
 version="1.1" 
 creator="BRouter-Web 0.18.1">
 <trk>
  <name>84300 Milotice nad Opavou Weiche 16 - Milotice nad Opavou Weiche 17</name>
  <trkseg>
   <trkpt lat="50.013627" lon="17.555812"><ele>446</ele></trkpt>
   <trkpt lat="50.013595" lon="17.555739"><ele>446</ele></trkpt>
  </trkseg>
 </trk>
</gpx>