<?xml version="1.0" encoding="UTF-8"?>
<!-- track-length = 132 filtered ascend = 1 plain-ascend = 1 cost=132 energy=0.0kwh time=11s -->
<gpx 
 xmlns="http://www.topografix.com/GPX/1/1" 
 xmlns:xsi="http://www.w3.org/2001/XMLSchema-instance" 
 xsi:schemaLocation="http://www.topografix.com/GPX/1/1 http://www.topografix.com/GPX/1/1/gpx.xsd" 
 version="1.1" 
 creator="BRouter-Web 0.18.1">
 <trk>
  <name>84300 Karlovice Weiche 3 - Karlovice Weiche 4</name>
  <trkseg>
   <trkpt lat="50.105816" lon="17.438581"><ele>490</ele></trkpt>
   <trkpt lat="50.105942" lon="17.438483"><ele>490</ele></trkpt>
   <trkpt lat="50.106119" lon="17.438307"><ele>490</ele></trkpt>
   <trkpt lat="50.106229" lon="17.438165"><ele>490.5</ele></trkpt>
   <trkpt lat="50.106308" lon="17.438042"><ele>490.5</ele></trkpt>
   <trkpt lat="50.10637" lon="17.43793"><ele>490.5</ele></trkpt>
   <trkpt lat="50.106646" lon="17.43732"><ele>491.5</ele></trkpt>
   <trkpt lat="50.106646" lon="17.437317"><ele>491.25</ele></trkpt>
  </trkseg>
 </trk>
</gpx>