<?xml version="1.0" encoding="UTF-8"?>
<!-- track-length = 436 filtered ascend = 0 plain-ascend = 0 cost=872 energy=0.0kwh time=35s -->
<gpx 
 xmlns="http://www.topografix.com/GPX/1/1" 
 xmlns:xsi="http://www.w3.org/2001/XMLSchema-instance" 
 xsi:schemaLocation="http://www.topografix.com/GPX/1/1 http://www.topografix.com/GPX/1/1/gpx.xsd" 
 version="1.1" 
 creator="BRouter-Web 0.18.1">
 <trk>
  <name>Lohensteinstraße (Steig Süd) - Abzweig Wendeschleife Willibaldplatz Weiche 16</name>
  <trkseg>
   <trkpt lat="48.141599" lon="11.48224"><ele>528.75</ele></trkpt>
   <trkpt lat="48.141539" lon="11.48431"><ele>528</ele></trkpt>
   <trkpt lat="48.141515" lon="11.484801"><ele>528</ele></trkpt>
   <trkpt lat="48.141498" lon="11.485047"><ele>528</ele></trkpt>
   <trkpt lat="48.141471" lon="11.485291"><ele>528.25</ele></trkpt>
   <trkpt lat="48.141348" lon="11.486156"><ele>528</ele></trkpt>
   <trkpt lat="48.141015" lon="11.488014"><ele>528</ele></trkpt>
  </trkseg>
 </trk>
</gpx>