<?xml version="1.0" encoding="UTF-8"?>
<!-- track-length = 46 filtered ascend = 0 plain-ascend = 0 cost=92 energy=0.0kwh time=4s -->
<gpx 
 xmlns="http://www.topografix.com/GPX/1/1" 
 xmlns:xsi="http://www.w3.org/2001/XMLSchema-instance" 
 xsi:schemaLocation="http://www.topografix.com/GPX/1/1 http://www.topografix.com/GPX/1/1/gpx.xsd" 
 version="1.1" 
 creator="BRouter-Web 0.18.1">
 <trk>
  <name>Pasing Bahnhof (Gleis 1) - Pasing Bahnhof Weiche 67</name>
  <trkseg>
   <trkpt lat="48.148836" lon="11.461031"><ele>526.75</ele></trkpt>
   <trkpt lat="48.14886" lon="11.460946"><ele>527</ele></trkpt>
   <trkpt lat="48.148867" lon="11.460899"><ele>527</ele></trkpt>
   <trkpt lat="48.148867" lon="11.460846"><ele>527</ele></trkpt>
   <trkpt lat="48.148858" lon="11.460783"><ele>527</ele></trkpt>
   <trkpt lat="48.148843" lon="11.460738"><ele>527</ele></trkpt>
   <trkpt lat="48.148818" lon="11.460693"><ele>527</ele></trkpt>
   <trkpt lat="48.148783" lon="11.460657"><ele>527</ele></trkpt>
   <trkpt lat="48.148777" lon="11.460653"><ele>527</ele></trkpt>
   <trkpt lat="48.148758" lon="11.460638"><ele>527</ele></trkpt>
   <trkpt lat="48.148698" lon="11.460603"><ele>527</ele></trkpt>
   <trkpt lat="48.148682" lon="11.460594"><ele>526.75</ele></trkpt>
   <trkpt lat="48.148678" lon="11.460592"><ele>527</ele></trkpt>
  </trkseg>
 </trk>
</gpx>