<?xml version="1.0" encoding="UTF-8"?>
<!-- track-length = 283 filtered ascend = 0 plain-ascend = 0 cost=566 energy=0.0kwh time=23s -->
<gpx 
 xmlns="http://www.topografix.com/GPX/1/1" 
 xmlns:xsi="http://www.w3.org/2001/XMLSchema-instance" 
 xsi:schemaLocation="http://www.topografix.com/GPX/1/1 http://www.topografix.com/GPX/1/1/gpx.xsd" 
 version="1.1" 
 creator="BRouter-Web 0.18.1">
 <trk>
  <name>Pasing Bahnhof Weiche 67 - Rathaus Pasing (Steig West)</name>
  <trkseg>
   <trkpt lat="48.148678" lon="11.460592"><ele>526.75</ele></trkpt>
   <trkpt lat="48.14808" lon="11.46028"><ele>527</ele></trkpt>
   <trkpt lat="48.148013" lon="11.460246"><ele>526.75</ele></trkpt>
   <trkpt lat="48.147953" lon="11.460219"><ele>526.75</ele></trkpt>
   <trkpt lat="48.147453" lon="11.459988"><ele>527</ele></trkpt>
   <trkpt lat="48.146947" lon="11.45976"><ele>527</ele></trkpt>
   <trkpt lat="48.146848" lon="11.459733"><ele>527</ele></trkpt>
   <trkpt lat="48.146801" lon="11.459744"><ele>527</ele></trkpt>
   <trkpt lat="48.146769" lon="11.459764"><ele>527</ele></trkpt>
   <trkpt lat="48.14673" lon="11.459807"><ele>527</ele></trkpt>
   <trkpt lat="48.146706" lon="11.45985"><ele>527</ele></trkpt>
   <trkpt lat="48.146677" lon="11.459939"><ele>527</ele></trkpt>
   <trkpt lat="48.146664" lon="11.460017"><ele>527</ele></trkpt>
   <trkpt lat="48.146635" lon="11.460284"><ele>527</ele></trkpt>
   <trkpt lat="48.146625" lon="11.460436"><ele>527</ele></trkpt>
   <trkpt lat="48.146619" lon="11.460548"><ele>527</ele></trkpt>
  </trkseg>
 </trk>
</gpx>