<?xml version="1.0" encoding="UTF-8"?>
<!-- track-length = 34 filtered ascend = 0 plain-ascend = 0 cost=68 energy=0.0kwh time=3s -->
<gpx 
 xmlns="http://www.topografix.com/GPX/1/1" 
 xmlns:xsi="http://www.w3.org/2001/XMLSchema-instance" 
 xsi:schemaLocation="http://www.topografix.com/GPX/1/1 http://www.topografix.com/GPX/1/1/gpx.xsd" 
 version="1.1" 
 creator="BRouter-Web 0.18.1">
 <trk>
  <name>Rathaus Pasing (Steig West) - Abzweig Wendeschleife Pasing Weiche 64</name>
  <trkseg>
   <trkpt lat="48.146619" lon="11.460548"><ele>527</ele></trkpt>
   <trkpt lat="48.146613" lon="11.460697"><ele>527</ele></trkpt>
   <trkpt lat="48.146613" lon="11.461003"><ele>527</ele></trkpt>
  </trkseg>
 </trk>
</gpx>