<?xml version="1.0" encoding="UTF-8"?>
<!-- track-length = 12 filtered ascend = 0 plain-ascend = 0 cost=24 energy=0.0kwh time=1s -->
<gpx 
 xmlns="http://www.topografix.com/GPX/1/1" 
 xmlns:xsi="http://www.w3.org/2001/XMLSchema-instance" 
 xsi:schemaLocation="http://www.topografix.com/GPX/1/1 http://www.topografix.com/GPX/1/1/gpx.xsd" 
 version="1.1" 
 creator="BRouter-Web 0.18.1">
 <trk>
  <name>Homme Fer (Steig West-Süd) - Abzweig Homme de Fer Weiche MARC B1</name>
  <trkseg>
   <trkpt lat="48.584276" lon="7.743832"><ele>141</ele></trkpt>
   <trkpt lat="48.584295" lon="7.743989"><ele>141</ele></trkpt>
  </trkseg>
 </trk>
</gpx>