<?xml version="1.0" encoding="UTF-8"?>
<!-- track-length = 33 filtered ascend = 0 plain-ascend = 0 cost=66 energy=0.0kwh time=3s -->
<gpx 
 xmlns="http://www.topografix.com/GPX/1/1" 
 xmlns:xsi="http://www.w3.org/2001/XMLSchema-instance" 
 xsi:schemaLocation="http://www.topografix.com/GPX/1/1 http://www.topografix.com/GPX/1/1/gpx.xsd" 
 version="1.1" 
 creator="BRouter-Web 0.18.1">
 <trk>
  <name>Abzweig Leopoldplaats/Mechelsesteenweg Weiche EW 60 - Abzweig Leopoldplaats/Mechelsesteenweg Weiche Ost</name>
  <trkseg>
   <trkpt lat="51.212384" lon="4.407224"><ele>7</ele></trkpt>
   <trkpt lat="51.212385" lon="4.407221"><ele>7</ele></trkpt>
   <trkpt lat="51.212367" lon="4.407353"><ele>7</ele></trkpt>
   <trkpt lat="51.212364" lon="4.407434"><ele>7</ele></trkpt>
   <trkpt lat="51.212356" lon="4.407593"><ele>7</ele></trkpt>
   <trkpt lat="51.212343" lon="4.407681"><ele>7</ele></trkpt>
  </trkseg>
 </trk>
</gpx>