<?xml version="1.0" encoding="UTF-8"?>
<!-- track-length = 115 filtered ascend = 0 plain-ascend = 0 cost=230 energy=0.0kwh time=9s -->
<gpx 
 xmlns="http://www.topografix.com/GPX/1/1" 
 xmlns:xsi="http://www.w3.org/2001/XMLSchema-instance" 
 xsi:schemaLocation="http://www.topografix.com/GPX/1/1 http://www.topografix.com/GPX/1/1/gpx.xsd" 
 version="1.1" 
 creator="BRouter-Web 0.18.1">
 <trk>
  <name>Abzweig Schleife Leopoldplaats Weiche 112E034 - Abzweig Leopoldplaats/Mechelsesteenweg Weiche EW 60</name>
  <trkseg>
   <trkpt lat="51.212368" lon="4.407707"><ele>7</ele></trkpt>
   <trkpt lat="51.212368" lon="4.407708"><ele>7</ele></trkpt>
   <trkpt lat="51.212405" lon="4.407593"><ele>7</ele></trkpt>
   <trkpt lat="51.212432" lon="4.407542"><ele>7</ele></trkpt>
   <trkpt lat="51.212455" lon="4.407516"><ele>7</ele></trkpt>
   <trkpt lat="51.212496" lon="4.407486"><ele>7</ele></trkpt>
   <trkpt lat="51.212627" lon="4.407447"><ele>7</ele></trkpt>
   <trkpt lat="51.21265" lon="4.407429"><ele>7</ele></trkpt>
   <trkpt lat="51.212685" lon="4.407379"><ele>7</ele></trkpt>
   <trkpt lat="51.212695" lon="4.40736"><ele>7</ele></trkpt>
   <trkpt lat="51.212716" lon="4.40729"><ele>7</ele></trkpt>
   <trkpt lat="51.212721" lon="4.407244"><ele>7</ele></trkpt>
   <trkpt lat="51.212722" lon="4.407237"><ele>7</ele></trkpt>
   <trkpt lat="51.212723" lon="4.407187"><ele>7</ele></trkpt>
   <trkpt lat="51.212704" lon="4.407092"><ele>7</ele></trkpt>
   <trkpt lat="51.212686" lon="4.40705"><ele>7</ele></trkpt>
   <trkpt lat="51.212641" lon="4.406996"><ele>7</ele></trkpt>
   <trkpt lat="51.21259" lon="4.406969"><ele>7</ele></trkpt>
   <trkpt lat="51.212536" lon="4.406972"><ele>7</ele></trkpt>
   <trkpt lat="51.212495" lon="4.40699"><ele>7</ele></trkpt>
   <trkpt lat="51.212449" lon="4.407045"><ele>7</ele></trkpt>
   <trkpt lat="51.212431" lon="4.407079"><ele>7</ele></trkpt>
   <trkpt lat="51.212385" lon="4.407221"><ele>7</ele></trkpt>
   <trkpt lat="51.212384" lon="4.407224"><ele>7</ele></trkpt>
  </trkseg>
 </trk>
</gpx>