<?xml version="1.0" encoding="UTF-8"?>
<!-- track-length = 46 filtered ascend = 0 plain-ascend = 1 cost=92 energy=0.0kwh time=4s -->
<gpx 
 xmlns="http://www.topografix.com/GPX/1/1" 
 xmlns:xsi="http://www.w3.org/2001/XMLSchema-instance" 
 xsi:schemaLocation="http://www.topografix.com/GPX/1/1 http://www.topografix.com/GPX/1/1/gpx.xsd" 
 version="1.1" 
 creator="BRouter-Web 0.18.1">
 <trk>
  <name>Abzweig Ruusulankatu/Sibeliuksenkatu Weiche Nordwest - Abzweig Ruusulankatu/Sibeliuksenkatu Weiche Südost</name>
  <trkseg>
   <trkpt lat="60.182981" lon="24.923154"><ele>6.75</ele></trkpt>
   <trkpt lat="60.182979" lon="24.923158"><ele>7</ele></trkpt>
   <trkpt lat="60.182879" lon="24.923304"><ele>7</ele></trkpt>
   <trkpt lat="60.182869" lon="24.923317"><ele>7</ele></trkpt>
   <trkpt lat="60.182813" lon="24.923399"><ele>7</ele></trkpt>
   <trkpt lat="60.182807" lon="24.923408"><ele>7</ele></trkpt>
   <trkpt lat="60.182751" lon="24.923489"><ele>7</ele></trkpt>
   <trkpt lat="60.182663" lon="24.923615"><ele>7.25</ele></trkpt>
   <trkpt lat="60.182662" lon="24.923615"><ele>7.5</ele></trkpt>
  </trkseg>
 </trk>
</gpx>