<?xml version="1.0" encoding="UTF-8"?>
<!-- track-length = 28 filtered ascend = 0 plain-ascend = 0 cost=29 energy=0.0kwh time=2s -->
<gpx 
 xmlns="http://www.topografix.com/GPX/1/1" 
 xmlns:xsi="http://www.w3.org/2001/XMLSchema-instance" 
 xsi:schemaLocation="http://www.topografix.com/GPX/1/1 http://www.topografix.com/GPX/1/1/gpx.xsd" 
 version="1.1" 
 creator="BRouter-Web 99.71.0">
 <trk>
  <name>Braunsfeld Kreuz Aachener Straße/Gürtel Weiche Ost-nach-Süd-Süd - Braunsfeld Kreuz Aachener Straße/Gürtel Weiche West-nach-Süd-Süd</name>
  <link href="https://brouter.damsy.net/latest/#map=19/50.93655/6.90864/standard&amp;lonlats=6.908443,50.936785;6.90836,50.93655&amp;nogos=6.781752,51.218852,6&amp;profile=rail">
   <text>BRouter-Web</text>
  </link>
  <trkseg>
   <trkpt lat="50.936784" lon="6.908442"><ele>48.75</ele></trkpt>
   <trkpt lat="50.936782" lon="6.908442"><ele>49</ele></trkpt>
   <trkpt lat="50.936729" lon="6.908426"><ele>49</ele></trkpt>
   <trkpt lat="50.936698" lon="6.908416"><ele>49</ele></trkpt>
   <trkpt lat="50.936549" lon="6.908365"><ele>49</ele></trkpt>
  </trkseg>
 </trk>
</gpx>