<?xml version="1.0" encoding="UTF-8"?>
<!-- track-length = 19 filtered ascend = 0 plain-ascend = 0 cost=19 energy=0.0kwh time=2s -->
<gpx 
 xmlns="http://www.topografix.com/GPX/1/1" 
 xmlns:xsi="http://www.w3.org/2001/XMLSchema-instance" 
 xsi:schemaLocation="http://www.topografix.com/GPX/1/1 http://www.topografix.com/GPX/1/1/gpx.xsd" 
 version="1.1" 
 creator="BRouter-Web 99.71.0">
 <trk>
  <name>Lindenthal Dürener Straße/Gürtel (Steig 2) - Lindenthal Abzweig Dürener Straße/Gürtel Weiche West</name>
  <link href="https://brouter.damsy.net/latest/#map=19/50.92814/6.90843/standard&amp;lonlats=6.908657,50.928243;6.908709,50.928079&amp;nogos=6.781752,51.218852,6&amp;profile=rail">
   <text>BRouter-Web</text>
  </link>
  <trkseg>
   <trkpt lat="50.928243" lon="6.908657"><ele>49.75</ele></trkpt>
   <trkpt lat="50.928079" lon="6.90871"><ele>50</ele></trkpt>
  </trkseg>
 </trk>
</gpx>