<?xml version="1.0" encoding="UTF-8"?>
<!-- track-length = 310 filtered ascend = 1 plain-ascend = -3 cost=620 energy=0.0kwh time=25s -->
<gpx 
 xmlns="http://www.topografix.com/GPX/1/1" 
 xmlns:xsi="http://www.w3.org/2001/XMLSchema-instance" 
 xsi:schemaLocation="http://www.topografix.com/GPX/1/1 http://www.topografix.com/GPX/1/1/gpx.xsd" 
 version="1.1" 
 creator="BRouter-Web 0.18.1">
 <trk>
  <name>Abzweig Nordenskiöldinkatu/Reijolankatu Weiche Süd - Auroran sairaala (Steig Südost)</name>
  <trkseg>
   <trkpt lat="60.190014" lon="24.921208"><ele>10.75</ele></trkpt>
   <trkpt lat="60.190016" lon="24.921212"><ele>11</ele></trkpt>
   <trkpt lat="60.19042" lon="24.922049"><ele>12</ele></trkpt>
   <trkpt lat="60.190577" lon="24.922407"><ele>11</ele></trkpt>
   <trkpt lat="60.190728" lon="24.922779"><ele>9.25</ele></trkpt>
   <trkpt lat="60.190957" lon="24.923384"><ele>7.25</ele></trkpt>
   <trkpt lat="60.191059" lon="24.923687"><ele>6.75</ele></trkpt>
   <trkpt lat="60.191261" lon="24.924347"><ele>6.25</ele></trkpt>
   <trkpt lat="60.191278" lon="24.924412"><ele>6.5</ele></trkpt>
   <trkpt lat="60.191329" lon="24.92461"><ele>6.75</ele></trkpt>
   <trkpt lat="60.191383" lon="24.924821"><ele>7</ele></trkpt>
   <trkpt lat="60.191396" lon="24.924872"><ele>7</ele></trkpt>
   <trkpt lat="60.191536" lon="24.925434"><ele>7</ele></trkpt>
   <trkpt lat="60.191608" lon="24.925743"><ele>7</ele></trkpt>
  </trkseg>
 </trk>
</gpx>