<?xml version="1.0" encoding="UTF-8"?>
<!-- track-length = 188 filtered ascend = 2 plain-ascend = 2 cost=376 energy=0.0kwh time=15s -->
<gpx 
 xmlns="http://www.topografix.com/GPX/1/1" 
 xmlns:xsi="http://www.w3.org/2001/XMLSchema-instance" 
 xsi:schemaLocation="http://www.topografix.com/GPX/1/1 http://www.topografix.com/GPX/1/1/gpx.xsd" 
 version="1.1" 
 creator="BRouter-Web 0.18.1">
 <trk>
  <name>Auroran sairaala (Steig Südost) - Abzweig Eläintarha Weiche Süd</name>
  <trkseg>
   <trkpt lat="60.191608" lon="24.925745"><ele>7</ele></trkpt>
   <trkpt lat="60.191648" lon="24.925914"><ele>7</ele></trkpt>
   <trkpt lat="60.191789" lon="24.926527"><ele>7.25</ele></trkpt>
   <trkpt lat="60.192052" lon="24.927788"><ele>8</ele></trkpt>
   <trkpt lat="60.192191" lon="24.928507"><ele>8.75</ele></trkpt>
   <trkpt lat="60.192259" lon="24.928862"><ele>9.25</ele></trkpt>
  </trkseg>
 </trk>
</gpx>