<?xml version="1.0" encoding="UTF-8"?>
<!-- track-length = 356 filtered ascend = 3 plain-ascend = 1 cost=712 energy=0.0kwh time=28s -->
<gpx 
 xmlns="http://www.topografix.com/GPX/1/1" 
 xmlns:xsi="http://www.w3.org/2001/XMLSchema-instance" 
 xsi:schemaLocation="http://www.topografix.com/GPX/1/1 http://www.topografix.com/GPX/1/1/gpx.xsd" 
 version="1.1" 
 creator="BRouter-Web 99.71.0">
 <trk>
  <name>Náměstí Svobody (Steig Südwest) - Zelný trh (Steig Südwest)</name>
  <link href="https://brouter.damsy.net/latest/#map=17/49.19323/16.61257/standard&amp;lonlats=16.608001,49.195688;16.610109,49.192829">
   <text>BRouter-Web</text>
  </link>
  <trkseg>
   <trkpt lat="49.195689" lon="16.608012"><ele>215.25</ele></trkpt>
   <trkpt lat="49.195528" lon="16.608076"><ele>215</ele></trkpt>
   <trkpt lat="49.195492" lon="16.608091"><ele>215</ele></trkpt>
   <trkpt lat="49.195136" lon="16.608241"><ele>215</ele></trkpt>
   <trkpt lat="49.194809" lon="16.608402"><ele>215.5</ele></trkpt>
   <trkpt lat="49.194469" lon="16.608587"><ele>216.75</ele></trkpt>
   <trkpt lat="49.194272" lon="16.608737"><ele>217.5</ele></trkpt>
   <trkpt lat="49.194224" lon="16.608773"><ele>217.75</ele></trkpt>
   <trkpt lat="49.193949" lon="16.609027"><ele>218.25</ele></trkpt>
   <trkpt lat="49.193881" lon="16.609093"><ele>218.25</ele></trkpt>
   <trkpt lat="49.193431" lon="16.609522"><ele>218.25</ele></trkpt>
   <trkpt lat="49.193008" lon="16.609935"><ele>217</ele></trkpt>
   <trkpt lat="49.192834" lon="16.610109"><ele>216.5</ele></trkpt>
   <trkpt lat="49.19283" lon="16.610112"><ele>216.25</ele></trkpt>
  </trkseg>
 </trk>
</gpx>