<?xml version="1.0" encoding="UTF-8"?>
<!-- track-length = 722 filtered ascend = 0 plain-ascend = -11 cost=1444 energy=0.0kwh time=58s -->
<gpx 
 xmlns="http://www.topografix.com/GPX/1/1" 
 xmlns:xsi="http://www.w3.org/2001/XMLSchema-instance" 
 xsi:schemaLocation="http://www.topografix.com/GPX/1/1 http://www.topografix.com/GPX/1/1/gpx.xsd" 
 version="1.1" 
 creator="BRouter-Web 0.18.1">
 <trk>
  <name>LTH (Steig B) - Universitetssjukhuset (Steig B)</name>
  <trkseg>
   <trkpt lat="55.712707" lon="13.207113"><ele>69.75</ele></trkpt>
   <trkpt lat="55.712741" lon="13.206948"><ele>70</ele></trkpt>
   <trkpt lat="55.712904" lon="13.206146"><ele>69</ele></trkpt>
   <trkpt lat="55.712964" lon="13.205741"><ele>69</ele></trkpt>
   <trkpt lat="55.712999" lon="13.205456"><ele>69</ele></trkpt>
   <trkpt lat="55.713008" lon="13.205312"><ele>69</ele></trkpt>
   <trkpt lat="55.713027" lon="13.204995"><ele>69</ele></trkpt>
   <trkpt lat="55.713065" lon="13.204299"><ele>68.75</ele></trkpt>
   <trkpt lat="55.713105" lon="13.20383"><ele>67.75</ele></trkpt>
   <trkpt lat="55.71317" lon="13.203213"><ele>66.75</ele></trkpt>
   <trkpt lat="55.713249" lon="13.202381"><ele>65.75</ele></trkpt>
   <trkpt lat="55.713257" lon="13.20229"><ele>65.5</ele></trkpt>
   <trkpt lat="55.713302" lon="13.201909"><ele>64.75</ele></trkpt>
   <trkpt lat="55.713319" lon="13.201815"><ele>64.5</ele></trkpt>
   <trkpt lat="55.713343" lon="13.201684"><ele>64</ele></trkpt>
   <trkpt lat="55.71336" lon="13.201609"><ele>64</ele></trkpt>
   <trkpt lat="55.7134" lon="13.201435"><ele>64</ele></trkpt>
   <trkpt lat="55.713453" lon="13.201272"><ele>64</ele></trkpt>
   <trkpt lat="55.713637" lon="13.20084"><ele>63.75</ele></trkpt>
   <trkpt lat="55.713735" lon="13.200574"><ele>62.5</ele></trkpt>
   <trkpt lat="55.713766" lon="13.200474"><ele>62.25</ele></trkpt>
   <trkpt lat="55.713811" lon="13.200301"><ele>62.25</ele></trkpt>
   <trkpt lat="55.713866" lon="13.199994"><ele>61</ele></trkpt>
   <trkpt lat="55.713897" lon="13.19975"><ele>60.75</ele></trkpt>
   <trkpt lat="55.713916" lon="13.199492"><ele>60</ele></trkpt>
   <trkpt lat="55.713916" lon="13.199221"><ele>60</ele></trkpt>
   <trkpt lat="55.713905" lon="13.198983"><ele>60</ele></trkpt>
   <trkpt lat="55.713881" lon="13.198753"><ele>59.25</ele></trkpt>
   <trkpt lat="55.713846" lon="13.198524"><ele>59</ele></trkpt>
   <trkpt lat="55.713801" lon="13.198308"><ele>59</ele></trkpt>
   <trkpt lat="55.713723" lon="13.198035"><ele>59</ele></trkpt>
   <trkpt lat="55.713703" lon="13.197977"><ele>58.75</ele></trkpt>
   <trkpt lat="55.713666" lon="13.197882"><ele>59</ele></trkpt>
   <trkpt lat="55.713618" lon="13.197792"><ele>59</ele></trkpt>
   <trkpt lat="55.713565" lon="13.197695"><ele>59</ele></trkpt>
   <trkpt lat="55.713478" lon="13.197554"><ele>59.25</ele></trkpt>
   <trkpt lat="55.713459" lon="13.197524"><ele>59.5</ele></trkpt>
   <trkpt lat="55.713125" lon="13.196994"><ele>58.25</ele></trkpt>
   <trkpt lat="55.712916" lon="13.196664"><ele>57.75</ele></trkpt>
  </trkseg>
 </trk>
</gpx>
