<?xml version="1.0" encoding="UTF-8"?>
<!-- track-length = 690 filtered ascend = 3 plain-ascend = 0 cost=1380 energy=0.0kwh time=55s -->
<gpx 
 xmlns="http://www.topografix.com/GPX/1/1" 
 xmlns:xsi="http://www.w3.org/2001/XMLSchema-instance" 
 xsi:schemaLocation="http://www.topografix.com/GPX/1/1 http://www.topografix.com/GPX/1/1/gpx.xsd" 
 version="1.1" 
 creator="BRouter-Web 0.18.1">
 <trk>
  <name>Telefonplan (Steig B) - Ideontorget (Steig B)</name>
  <trkseg>
   <trkpt lat="55.715685" lon="13.225004"><ele>75.75</ele></trkpt>
   <trkpt lat="55.715672" lon="13.224669"><ele>75.5</ele></trkpt>
   <trkpt lat="55.715669" lon="13.224595"><ele>75.5</ele></trkpt>
   <trkpt lat="55.715664" lon="13.224434"><ele>76</ele></trkpt>
   <trkpt lat="55.715655" lon="13.224198"><ele>76</ele></trkpt>
   <trkpt lat="55.715652" lon="13.224104"><ele>76</ele></trkpt>
   <trkpt lat="55.715618" lon="13.22312"><ele>76.75</ele></trkpt>
   <trkpt lat="55.715615" lon="13.223025"><ele>77</ele></trkpt>
   <trkpt lat="55.715597" lon="13.222318"><ele>77</ele></trkpt>
   <trkpt lat="55.715592" lon="13.221171"><ele>78</ele></trkpt>
   <trkpt lat="55.715672" lon="13.21777"><ele>79</ele></trkpt>
   <trkpt lat="55.715674" lon="13.21753"><ele>79</ele></trkpt>
   <trkpt lat="55.715674" lon="13.217446"><ele>79</ele></trkpt>
   <trkpt lat="55.715678" lon="13.217145"><ele>79</ele></trkpt>
   <trkpt lat="55.715682" lon="13.216868"><ele>79</ele></trkpt>
   <trkpt lat="55.715682" lon="13.216746"><ele>79</ele></trkpt>
   <trkpt lat="55.715672" lon="13.216035"><ele>78.5</ele></trkpt>
   <trkpt lat="55.715648" lon="13.215471"><ele>78</ele></trkpt>
   <trkpt lat="55.715611" lon="13.21487"><ele>77</ele></trkpt>
   <trkpt lat="55.715608" lon="13.214814"><ele>77</ele></trkpt>
   <trkpt lat="55.715571" lon="13.214081"><ele>76</ele></trkpt>
   <trkpt lat="55.715569" lon="13.214042"><ele>74.75</ele></trkpt>
  </trkseg>
 </trk>
</gpx>
