<?xml version="1.0" encoding="UTF-8"?>
<!-- track-length = 809 filtered ascend = 0 plain-ascend = -13 cost=1618 energy=0.0kwh time=1m 5s -->
<gpx 
 xmlns="http://www.topografix.com/GPX/1/1" 
 xmlns:xsi="http://www.w3.org/2001/XMLSchema-instance" 
 xsi:schemaLocation="http://www.topografix.com/GPX/1/1 http://www.topografix.com/GPX/1/1/gpx.xsd" 
 version="1.1" 
 creator="BRouter-Web 0.18.1">
 <trk>
  <name>Universitetssjukhuset (Steig B) - Üst Lund C Weiche Nordost-Nordwest</name>
  <trkseg>
   <trkpt lat="55.712915" lon="13.196663"><ele>57.75</ele></trkpt>
   <trkpt lat="55.712769" lon="13.196433"><ele>57.75</ele></trkpt>
   <trkpt lat="55.712733" lon="13.196373"><ele>57.75</ele></trkpt>
   <trkpt lat="55.712638" lon="13.196198"><ele>57.25</ele></trkpt>
   <trkpt lat="55.71258" lon="13.196056"><ele>57</ele></trkpt>
   <trkpt lat="55.712405" lon="13.195511"><ele>56.25</ele></trkpt>
   <trkpt lat="55.712359" lon="13.195387"><ele>56</ele></trkpt>
   <trkpt lat="55.712268" lon="13.1952"><ele>56</ele></trkpt>
   <trkpt lat="55.711998" lon="13.194745"><ele>56</ele></trkpt>
   <trkpt lat="55.711973" lon="13.194703"><ele>55.75</ele></trkpt>
   <trkpt lat="55.71195" lon="13.194664"><ele>55.75</ele></trkpt>
   <trkpt lat="55.711638" lon="13.194138"><ele>55</ele></trkpt>
   <trkpt lat="55.711492" lon="13.193919"><ele>55</ele></trkpt>
   <trkpt lat="55.711362" lon="13.193752"><ele>54.5</ele></trkpt>
   <trkpt lat="55.711119" lon="13.19349"><ele>54.5</ele></trkpt>
   <trkpt lat="55.71101" lon="13.193393"><ele>54</ele></trkpt>
   <trkpt lat="55.710969" lon="13.19336"><ele>54</ele></trkpt>
   <trkpt lat="55.710947" lon="13.193344"><ele>54</ele></trkpt>
   <trkpt lat="55.71044" lon="13.192986"><ele>53</ele></trkpt>
   <trkpt lat="55.710287" lon="13.192909"><ele>52.75</ele></trkpt>
   <trkpt lat="55.710205" lon="13.192885"><ele>52.75</ele></trkpt>
   <trkpt lat="55.710169" lon="13.192874"><ele>52.5</ele></trkpt>
   <trkpt lat="55.710131" lon="13.192873"><ele>52.5</ele></trkpt>
   <trkpt lat="55.709966" lon="13.192884"><ele>52.25</ele></trkpt>
   <trkpt lat="55.709581" lon="13.192935"><ele>52.25</ele></trkpt>
   <trkpt lat="55.709454" lon="13.192949"><ele>52</ele></trkpt>
   <trkpt lat="55.709385" lon="13.192925"><ele>51.75</ele></trkpt>
   <trkpt lat="55.70933" lon="13.192895"><ele>51.5</ele></trkpt>
   <trkpt lat="55.709253" lon="13.19281"><ele>51.25</ele></trkpt>
   <trkpt lat="55.709207" lon="13.192743"><ele>51</ele></trkpt>
   <trkpt lat="55.70914" lon="13.192605"><ele>50.25</ele></trkpt>
   <trkpt lat="55.709117" lon="13.192552"><ele>50</ele></trkpt>
   <trkpt lat="55.708935" lon="13.192148"><ele>49</ele></trkpt>
   <trkpt lat="55.708855" lon="13.19198"><ele>49</ele></trkpt>
   <trkpt lat="55.708372" lon="13.190894"><ele>47</ele></trkpt>
   <trkpt lat="55.707697" lon="13.189387"><ele>44.5</ele></trkpt>
   <trkpt lat="55.707611" lon="13.189194"><ele>44</ele></trkpt>
   <trkpt lat="55.707598" lon="13.189166"><ele>44</ele></trkpt>
   <trkpt lat="55.707538" lon="13.189036"><ele>44</ele></trkpt>
   <trkpt lat="55.707531" lon="13.189021"><ele>44</ele></trkpt>
   <trkpt lat="55.70753" lon="13.189019"><ele>43.75</ele></trkpt>
  </trkseg>
 </trk>
</gpx>
