<?xml version="1.0" encoding="UTF-8"?>
<!-- track-length = 782 filtered ascend = 1 plain-ascend = 1 cost=1564 energy=0.0kwh time=1m 3s -->
<gpx 
 xmlns="http://www.topografix.com/GPX/1/1" 
 xmlns:xsi="http://www.w3.org/2001/XMLSchema-instance" 
 xsi:schemaLocation="http://www.topografix.com/GPX/1/1 http://www.topografix.com/GPX/1/1/gpx.xsd" 
 version="1.1" 
 creator="BRouter-Web 0.18.1">
 <trk>
  <name>Üst ESS Weiche Südwest-Nordwest - MAX IV (Steig D)</name>
  <trkseg>
   <trkpt lat="55.73041" lon="13.242579"><ele>77.75</ele></trkpt>
   <trkpt lat="55.730393" lon="13.242541"><ele>77.75</ele></trkpt>
   <trkpt lat="55.730319" lon="13.242372"><ele>78</ele></trkpt>
   <trkpt lat="55.730249" lon="13.242252"><ele>77.75</ele></trkpt>
   <trkpt lat="55.730149" lon="13.242135"><ele>78</ele></trkpt>
   <trkpt lat="55.730059" lon="13.242054"><ele>78</ele></trkpt>
   <trkpt lat="55.73" lon="13.242021"><ele>77.75</ele></trkpt>
   <trkpt lat="55.729904" lon="13.241989"><ele>77.75</ele></trkpt>
   <trkpt lat="55.729827" lon="13.24198"><ele>77.75</ele></trkpt>
   <trkpt lat="55.729302" lon="13.242034"><ele>77</ele></trkpt>
   <trkpt lat="55.729265" lon="13.242038"><ele>77</ele></trkpt>
   <trkpt lat="55.729169" lon="13.242042"><ele>77</ele></trkpt>
   <trkpt lat="55.728916" lon="13.242016"><ele>76</ele></trkpt>
   <trkpt lat="55.728843" lon="13.241999"><ele>75.75</ele></trkpt>
   <trkpt lat="55.728809" lon="13.241988"><ele>75.75</ele></trkpt>
   <trkpt lat="55.728617" lon="13.241914"><ele>76</ele></trkpt>
   <trkpt lat="55.728439" lon="13.241815"><ele>75.25</ele></trkpt>
   <trkpt lat="55.72829" lon="13.241712"><ele>74.75</ele></trkpt>
   <trkpt lat="55.728109" lon="13.24155"><ele>75</ele></trkpt>
   <trkpt lat="55.727968" lon="13.241394"><ele>74.5</ele></trkpt>
   <trkpt lat="55.727797" lon="13.24117"><ele>74.75</ele></trkpt>
   <trkpt lat="55.727645" lon="13.240911"><ele>74.5</ele></trkpt>
   <trkpt lat="55.727508" lon="13.240654"><ele>74.5</ele></trkpt>
   <trkpt lat="55.726015" lon="13.237727"><ele>75</ele></trkpt>
   <trkpt lat="55.725831" lon="13.237384"><ele>75.25</ele></trkpt>
   <trkpt lat="55.725651" lon="13.237108"><ele>76.25</ele></trkpt>
   <trkpt lat="55.725452" lon="13.236849"><ele>77</ele></trkpt>
   <trkpt lat="55.725425" lon="13.236815"><ele>77</ele></trkpt>
   <trkpt lat="55.725317" lon="13.23668"><ele>77</ele></trkpt>
   <trkpt lat="55.725241" lon="13.236585"><ele>77.25</ele></trkpt>
   <trkpt lat="55.725207" lon="13.236543"><ele>77.5</ele></trkpt>
   <trkpt lat="55.72489" lon="13.236145"><ele>78</ele></trkpt>
   <trkpt lat="55.72482" lon="13.236057"><ele>78.75</ele></trkpt>
  </trkseg>
 </trk>
</gpx>