<?xml version="1.0" encoding="UTF-8"?>
<!-- track-length = 545 filtered ascend = 0 plain-ascend = -2 cost=1090 energy=0.0kwh time=44s -->
<gpx 
 xmlns="http://www.topografix.com/GPX/1/1" 
 xmlns:xsi="http://www.w3.org/2001/XMLSchema-instance" 
 xsi:schemaLocation="http://www.topografix.com/GPX/1/1 http://www.topografix.com/GPX/1/1/gpx.xsd" 
 version="1.1" 
 creator="BRouter-Web 0.18.1">
 <trk>
  <name>Üst Ideontorget Weiche West - LTH (Steig B)</name>
  <trkseg>
   <trkpt lat="55.715505" lon="13.212757"><ele>73</ele></trkpt>
   <trkpt lat="55.715497" lon="13.212595"><ele>73</ele></trkpt>
   <trkpt lat="55.715474" lon="13.21213"><ele>72.75</ele></trkpt>
   <trkpt lat="55.715442" lon="13.21189"><ele>72.25</ele></trkpt>
   <trkpt lat="55.715413" lon="13.211723"><ele>72.5</ele></trkpt>
   <trkpt lat="55.71537" lon="13.211542"><ele>72.25</ele></trkpt>
   <trkpt lat="55.71532" lon="13.211372"><ele>72</ele></trkpt>
   <trkpt lat="55.71525" lon="13.211178"><ele>72</ele></trkpt>
   <trkpt lat="55.715166" lon="13.210997"><ele>72</ele></trkpt>
   <trkpt lat="55.714902" lon="13.210549"><ele>72</ele></trkpt>
   <trkpt lat="55.714748" lon="13.210331"><ele>72</ele></trkpt>
   <trkpt lat="55.714718" lon="13.210289"><ele>72</ele></trkpt>
   <trkpt lat="55.714682" lon="13.210247"><ele>72</ele></trkpt>
   <trkpt lat="55.714428" lon="13.209955"><ele>71.75</ele></trkpt>
   <trkpt lat="55.714267" lon="13.209801"><ele>71.5</ele></trkpt>
   <trkpt lat="55.714091" lon="13.209657"><ele>71</ele></trkpt>
   <trkpt lat="55.713927" lon="13.20954"><ele>71</ele></trkpt>
   <trkpt lat="55.713876" lon="13.209503"><ele>71</ele></trkpt>
   <trkpt lat="55.713838" lon="13.209477"><ele>71</ele></trkpt>
   <trkpt lat="55.712788" lon="13.208749"><ele>69.75</ele></trkpt>
   <trkpt lat="55.712662" lon="13.208637"><ele>69.5</ele></trkpt>
   <trkpt lat="55.712595" lon="13.208531"><ele>69.25</ele></trkpt>
   <trkpt lat="55.712552" lon="13.208415"><ele>69</ele></trkpt>
   <trkpt lat="55.712526" lon="13.208269"><ele>69</ele></trkpt>
   <trkpt lat="55.71252" lon="13.208162"><ele>69</ele></trkpt>
   <trkpt lat="55.712523" lon="13.208057"><ele>69</ele></trkpt>
   <trkpt lat="55.712544" lon="13.207909"><ele>69</ele></trkpt>
   <trkpt lat="55.712557" lon="13.207833"><ele>69</ele></trkpt>
   <trkpt lat="55.712649" lon="13.207401"><ele>69.5</ele></trkpt>
   <trkpt lat="55.712707" lon="13.207113"><ele>70</ele></trkpt>
  </trkseg>
 </trk>
</gpx>
