<?xml version="1.0" encoding="UTF-8"?>
<!-- track-length = 20 filtered ascend = 0 plain-ascend = 0 cost=40 energy=0.0kwh time=2s -->
<gpx 
 xmlns="http://www.topografix.com/GPX/1/1" 
 xmlns:xsi="http://www.w3.org/2001/XMLSchema-instance" 
 xsi:schemaLocation="http://www.topografix.com/GPX/1/1 http://www.topografix.com/GPX/1/1/gpx.xsd" 
 version="1.1" 
 creator="BRouter-Web 0.18.1">
 <trk>
  <name>Üst Lund C Weiche Nordost-Nordwest - Üst Lund C Weiche Südwest-Nordwest</name>
  <trkseg>
   <trkpt lat="55.70753" lon="13.189019"><ele>43.75</ele></trkpt>
   <trkpt lat="55.707525" lon="13.189006"><ele>43.75</ele></trkpt>
   <trkpt lat="55.707486" lon="13.188921"><ele>43.75</ele></trkpt>
   <trkpt lat="55.707461" lon="13.188865"><ele>43.75</ele></trkpt>
   <trkpt lat="55.707424" lon="13.188782"><ele>43.25</ele></trkpt>
   <trkpt lat="55.707422" lon="13.188778"><ele>42.75</ele></trkpt>
  </trkseg>
 </trk>
</gpx>