<?xml version="1.0" encoding="UTF-8"?>
<!-- track-length = 148 filtered ascend = 4 plain-ascend = 5 cost=296 energy=0.0kwh time=12s -->
<gpx 
 xmlns="http://www.topografix.com/GPX/1/1" 
 xmlns:xsi="http://www.w3.org/2001/XMLSchema-instance" 
 xsi:schemaLocation="http://www.topografix.com/GPX/1/1 http://www.topografix.com/GPX/1/1/gpx.xsd" 
 version="1.1" 
 creator="BRouter-Web 99.71.0">
 <trk>
  <name>Dreieck Táborská Weiche Südwest-West - Nuselská radnice (Steig B)</name>
  <link href="https://brouter.damsy.net/latest/#map=19/50.06281/14.44182/standard&amp;lonlats=14.442767,50.063147;14.440843,50.062818&amp;profile=rail">
   <text>BRouter-Web</text>
  </link>
  <trkseg>
   <trkpt lat="50.063145" lon="14.442767"><ele>206.5</ele></trkpt>
   <trkpt lat="50.063076" lon="14.442723"><ele>207</ele></trkpt>
   <trkpt lat="50.063059" lon="14.442711"><ele>207</ele></trkpt>
   <trkpt lat="50.063" lon="14.442641"><ele>207.75</ele></trkpt>
   <trkpt lat="50.062966" lon="14.44257"><ele>208</ele></trkpt>
   <trkpt lat="50.062947" lon="14.442502"><ele>208.25</ele></trkpt>
   <trkpt lat="50.062928" lon="14.442365"><ele>208.5</ele></trkpt>
   <trkpt lat="50.062849" lon="14.441304"><ele>210</ele></trkpt>
   <trkpt lat="50.062813" lon="14.440843"><ele>211</ele></trkpt>
  </trkseg>
 </trk>
</gpx>