<?xml version="1.0" encoding="UTF-8"?>
<!-- track-length = 36 filtered ascend = 1 plain-ascend = 1 cost=74 energy=0.0kwh time=3s -->
<gpx 
 xmlns="http://www.topografix.com/GPX/1/1" 
 xmlns:xsi="http://www.w3.org/2001/XMLSchema-instance" 
 xsi:schemaLocation="http://www.topografix.com/GPX/1/1 http://www.topografix.com/GPX/1/1/gpx.xsd" 
 version="1.1" 
 creator="BRouter-Web 0.18.1">
 <trk>
  <name>Kreuz Bankverein Weiche 98 - Kreuz Bankverein Weiche 95</name>
  <trkseg>
   <trkpt lat="47.553895" lon="7.592254"><ele>268</ele></trkpt>
   <trkpt lat="47.553867" lon="7.592199"><ele>268</ele></trkpt>
   <trkpt lat="47.55383" lon="7.592161"><ele>268</ele></trkpt>
   <trkpt lat="47.553773" lon="7.592141"><ele>268.25</ele></trkpt>
   <trkpt lat="47.553745" lon="7.592141"><ele>268.5</ele></trkpt>
   <trkpt lat="47.553732" lon="7.592142"><ele>268.5</ele></trkpt>
   <trkpt lat="47.553697" lon="7.592157"><ele>268.5</ele></trkpt>
   <trkpt lat="47.553619" lon="7.59222"><ele>268.75</ele></trkpt>
   <trkpt lat="47.553611" lon="7.592227"><ele>269</ele></trkpt>
  </trkseg>
 </trk>
</gpx>