<?xml version="1.0" encoding="UTF-8"?>
<!-- track-length = 276 filtered ascend = 0 plain-ascend = 0 cost=552 energy=0.0kwh time=22s -->
<gpx 
 xmlns="http://www.topografix.com/GPX/1/1" 
 xmlns:xsi="http://www.w3.org/2001/XMLSchema-instance" 
 xsi:schemaLocation="http://www.topografix.com/GPX/1/1 http://www.topografix.com/GPX/1/1/gpx.xsd" 
 version="1.1" 
 creator="BRouter-Web 0.18.1">
 <trk>
  <name>Abzweig Altenhofer Straße Weiche 112 - Sandinostraße (Steig Südost)</name>
  <trkseg>
   <trkpt lat="52.536746" lon="13.475718"><ele>56</ele></trkpt>
   <trkpt lat="52.536747" lon="13.475722"><ele>56</ele></trkpt>
   <trkpt lat="52.53683" lon="13.475985"><ele>56</ele></trkpt>
   <trkpt lat="52.537046" lon="13.476658"><ele>56</ele></trkpt>
   <trkpt lat="52.537111" lon="13.476841"><ele>56</ele></trkpt>
   <trkpt lat="52.537199" lon="13.477089"><ele>56</ele></trkpt>
   <trkpt lat="52.537328" lon="13.477455"><ele>56</ele></trkpt>
   <trkpt lat="52.537424" lon="13.477727"><ele>55.25</ele></trkpt>
   <trkpt lat="52.53754" lon="13.478056"><ele>55</ele></trkpt>
   <trkpt lat="52.537585" lon="13.478183"><ele>55.5</ele></trkpt>
   <trkpt lat="52.537682" lon="13.478456"><ele>56</ele></trkpt>
   <trkpt lat="52.537722" lon="13.478567"><ele>56</ele></trkpt>
   <trkpt lat="52.537966" lon="13.479256"><ele>56</ele></trkpt>
  </trkseg>
 </trk>
</gpx>