<?xml version="1.0" encoding="UTF-8"?>
<!-- track-length = 342 filtered ascend = 1 plain-ascend = 1 cost=684 energy=0.0kwh time=27s -->
<gpx 
 xmlns="http://www.topografix.com/GPX/1/1" 
 xmlns:xsi="http://www.w3.org/2001/XMLSchema-instance" 
 xsi:schemaLocation="http://www.topografix.com/GPX/1/1 http://www.topografix.com/GPX/1/1/gpx.xsd" 
 version="1.1" 
 creator="BRouter-Web 0.18.1">
 <trk>
  <name>Sandinostraße (Steig Südost) - Simon-Bolivar-Straße (Steig Südost)</name>
  <trkseg>
   <trkpt lat="52.537966" lon="13.479256"><ele>56</ele></trkpt>
   <trkpt lat="52.537969" lon="13.479264"><ele>56</ele></trkpt>
   <trkpt lat="52.53803" lon="13.479435"><ele>56</ele></trkpt>
   <trkpt lat="52.538107" lon="13.479653"><ele>56</ele></trkpt>
   <trkpt lat="52.538218" lon="13.479964"><ele>56</ele></trkpt>
   <trkpt lat="52.538235" lon="13.480013"><ele>56</ele></trkpt>
   <trkpt lat="52.538333" lon="13.480288"><ele>56</ele></trkpt>
   <trkpt lat="52.538383" lon="13.480427"><ele>56</ele></trkpt>
   <trkpt lat="52.538478" lon="13.480695"><ele>56.25</ele></trkpt>
   <trkpt lat="52.538573" lon="13.480962"><ele>56</ele></trkpt>
   <trkpt lat="52.538668" lon="13.481226"><ele>56</ele></trkpt>
   <trkpt lat="52.538717" lon="13.481365"><ele>56.25</ele></trkpt>
   <trkpt lat="52.539075" lon="13.482369"><ele>57</ele></trkpt>
   <trkpt lat="52.539217" lon="13.482765"><ele>57</ele></trkpt>
   <trkpt lat="52.53943" lon="13.48337"><ele>57</ele></trkpt>
   <trkpt lat="52.539444" lon="13.483408"><ele>57</ele></trkpt>
   <trkpt lat="52.539516" lon="13.483616"><ele>57.25</ele></trkpt>
  </trkseg>
 </trk>
</gpx>