<?xml version="1.0" encoding="UTF-8"?>
<!-- track-length = 480 filtered ascend = 1 plain-ascend = 1 cost=960 energy=0.0kwh time=38s -->
<gpx 
 xmlns="http://www.topografix.com/GPX/1/1" 
 xmlns:xsi="http://www.w3.org/2001/XMLSchema-instance" 
 xsi:schemaLocation="http://www.topografix.com/GPX/1/1 http://www.topografix.com/GPX/1/1/gpx.xsd" 
 version="1.1" 
 creator="BRouter-Web 0.18.1">
 <trk>
  <name>Simon-Bolivar-Straße (Steig Südost) - Werneuchener Straße (Steig Südost)</name>
  <trkseg>
   <trkpt lat="52.53952" lon="13.483627"><ele>57.25</ele></trkpt>
   <trkpt lat="52.539633" lon="13.483923"><ele>58</ele></trkpt>
   <trkpt lat="52.539693" lon="13.484064"><ele>58</ele></trkpt>
   <trkpt lat="52.539712" lon="13.484105"><ele>58</ele></trkpt>
   <trkpt lat="52.53979" lon="13.484265"><ele>58</ele></trkpt>
   <trkpt lat="52.539935" lon="13.484541"><ele>58</ele></trkpt>
   <trkpt lat="52.540054" lon="13.484769"><ele>58</ele></trkpt>
   <trkpt lat="52.540142" lon="13.484937"><ele>58</ele></trkpt>
   <trkpt lat="52.540233" lon="13.485111"><ele>58</ele></trkpt>
   <trkpt lat="52.540313" lon="13.485263"><ele>58</ele></trkpt>
   <trkpt lat="52.540361" lon="13.485355"><ele>58</ele></trkpt>
   <trkpt lat="52.540644" lon="13.485902"><ele>58</ele></trkpt>
   <trkpt lat="52.540698" lon="13.486006"><ele>58.25</ele></trkpt>
   <trkpt lat="52.54091" lon="13.486415"><ele>58.5</ele></trkpt>
   <trkpt lat="52.54099" lon="13.486569"><ele>58.25</ele></trkpt>
   <trkpt lat="52.541298" lon="13.487156"><ele>58</ele></trkpt>
   <trkpt lat="52.541324" lon="13.487205"><ele>58</ele></trkpt>
   <trkpt lat="52.541664" lon="13.487852"><ele>58.25</ele></trkpt>
   <trkpt lat="52.541738" lon="13.487991"><ele>58.75</ele></trkpt>
   <trkpt lat="52.541798" lon="13.488107"><ele>59</ele></trkpt>
   <trkpt lat="52.54209" lon="13.488675"><ele>58.75</ele></trkpt>
   <trkpt lat="52.542186" lon="13.488859"><ele>58</ele></trkpt>
   <trkpt lat="52.542286" lon="13.48905"><ele>58</ele></trkpt>
  </trkseg>
 </trk>
</gpx>