<?xml version="1.0" encoding="UTF-8"?>
<!-- track-length = 108 filtered ascend = 0 plain-ascend = 0 cost=108 energy=0.0kwh time=9s -->
<gpx 
 xmlns="http://www.topografix.com/GPX/1/1" 
 xmlns:xsi="http://www.w3.org/2001/XMLSchema-instance" 
 xsi:schemaLocation="http://www.topografix.com/GPX/1/1 http://www.topografix.com/GPX/1/1/gpx.xsd" 
 version="1.1" 
 creator="BRouter-Web 0.18.1">
 <trk>
  <name>6577 Rothenburg(Lausitz) Weiche A2 - Rothenburg(Lausitz) Weiche Süd</name>
  <trkseg>
   <trkpt lat="51.331774" lon="14.965861"><ele>164</ele></trkpt>
   <trkpt lat="51.331867" lon="14.965807"><ele>164</ele></trkpt>
   <trkpt lat="51.33204" lon="14.965712"><ele>164</ele></trkpt>
   <trkpt lat="51.332159" lon="14.965658"><ele>164</ele></trkpt>
   <trkpt lat="51.332495" lon="14.965538"><ele>164</ele></trkpt>
   <trkpt lat="51.332707" lon="14.965433"><ele>164</ele></trkpt>
  </trkseg>
 </trk>
</gpx>