<?xml version="1.0" encoding="UTF-8"?>
<!-- track-length = 149 filtered ascend = 0 plain-ascend = -1 cost=149 energy=0.0kwh time=12s -->
<gpx 
 xmlns="http://www.topografix.com/GPX/1/1" 
 xmlns:xsi="http://www.w3.org/2001/XMLSchema-instance" 
 xsi:schemaLocation="http://www.topografix.com/GPX/1/1 http://www.topografix.com/GPX/1/1/gpx.xsd" 
 version="1.1" 
 creator="BRouter-Web 0.18.1">
 <trk>
  <name>221 Juurikorpi Weiche 312 - Juurikorpi Weiche 314</name>
  <trkseg>
   <trkpt lat="60.600145" lon="26.946233"><ele>26.25</ele></trkpt>
   <trkpt lat="60.600147" lon="26.94623"><ele>26.5</ele></trkpt>
   <trkpt lat="60.60112" lon="26.944403"><ele>24.75</ele></trkpt>
   <trkpt lat="60.601123" lon="26.944395"><ele>24.5</ele></trkpt>
  </trkseg>
 </trk>
</gpx>