<?xml version="1.0" encoding="UTF-8"?>
<!-- track-length = 25 filtered ascend = 0 plain-ascend = 0 cost=25 energy=0.0kwh time=2s -->
<gpx 
 xmlns="http://www.topografix.com/GPX/1/1" 
 xmlns:xsi="http://www.w3.org/2001/XMLSchema-instance" 
 xsi:schemaLocation="http://www.topografix.com/GPX/1/1 http://www.topografix.com/GPX/1/1/gpx.xsd" 
 version="1.1" 
 creator="BRouter-Web 0.18.1">
 <trk>
  <name>221 Pitkäkallio Weiche 114 - Pitkäkallio Weiche 113</name>
  <trkseg>
   <trkpt lat="60.765248" lon="26.792878"><ele>46</ele></trkpt>
   <trkpt lat="60.765446" lon="26.792663"><ele>46</ele></trkpt>
  </trkseg>
 </trk>
</gpx>