<?xml version="1.0" encoding="UTF-8"?>
<!-- track-length = 10 filtered ascend = 0 plain-ascend = 1 cost=10 energy=0.0kwh time=1s -->
<gpx 
 xmlns="http://www.topografix.com/GPX/1/1" 
 xmlns:xsi="http://www.w3.org/2001/XMLSchema-instance" 
 xsi:schemaLocation="http://www.topografix.com/GPX/1/1 http://www.topografix.com/GPX/1/1/gpx.xsd" 
 version="1.1" 
 creator="BRouter-Web 0.18.1">
 <trk>
  <name>221 Juurikorpi Weiche 315 - Juurikorpi Weiche 313</name>
  <trkseg>
   <trkpt lat="60.610123" lon="26.926216"><ele>28</ele></trkpt>
   <trkpt lat="60.610124" lon="26.926215"><ele>28.25</ele></trkpt>
   <trkpt lat="60.61018" lon="26.926101"><ele>28.5</ele></trkpt>
  </trkseg>
 </trk>
</gpx>