<?xml version="1.0" encoding="UTF-8"?>
<!-- track-length = 9104 filtered ascend = 10 plain-ascend = 7 cost=9104 energy=0.1kwh time=12m 8s -->
<gpx 
 xmlns="http://www.topografix.com/GPX/1/1" 
 xmlns:xsi="http://www.w3.org/2001/XMLSchema-instance" 
 xsi:schemaLocation="http://www.topografix.com/GPX/1/1 http://www.topografix.com/GPX/1/1/gpx.xsd" 
 version="1.1" 
 creator="BRouter-Web 0.18.1">
 <trk>
  <name>221 Myllykoski (Gleis 1) - Kouvola Weiche 644</name>
  <trkseg>
   <trkpt lat="60.77116" lon="26.786472"><ele>44.75</ele></trkpt>
   <trkpt lat="60.772022" lon="26.785533"><ele>44.5</ele></trkpt>
   <trkpt lat="60.772579" lon="26.784947"><ele>43.25</ele></trkpt>
   <trkpt lat="60.77282" lon="26.784689"><ele>42.5</ele></trkpt>
   <trkpt lat="60.773745" lon="26.783753"><ele>44.75</ele></trkpt>
   <trkpt lat="60.774288" lon="26.783248"><ele>44</ele></trkpt>
   <trkpt lat="60.774834" lon="26.782826"><ele>44</ele></trkpt>
   <trkpt lat="60.775358" lon="26.782491"><ele>42.25</ele></trkpt>
   <trkpt lat="60.775518" lon="26.782398"><ele>41.25</ele></trkpt>
   <trkpt lat="60.776667" lon="26.7818"><ele>41</ele></trkpt>
   <trkpt lat="60.776863" lon="26.781687"><ele>41.5</ele></trkpt>
   <trkpt lat="60.784817" lon="26.77745"><ele>43</ele></trkpt>
   <trkpt lat="60.785829" lon="26.776937"><ele>43.75</ele></trkpt>
   <trkpt lat="60.78927" lon="26.775107"><ele>42.75</ele></trkpt>
   <trkpt lat="60.790479" lon="26.77446"><ele>43.25</ele></trkpt>
   <trkpt lat="60.79165" lon="26.773709"><ele>43.5</ele></trkpt>
   <trkpt lat="60.792673" lon="26.772861"><ele>43.25</ele></trkpt>
   <trkpt lat="60.793391" lon="26.772096"><ele>42.75</ele></trkpt>
   <trkpt lat="60.793612" lon="26.771873"><ele>43.25</ele></trkpt>
   <trkpt lat="60.794769" lon="26.770532"><ele>43.75</ele></trkpt>
   <trkpt lat="60.796538" lon="26.76845"><ele>42.5</ele></trkpt>
   <trkpt lat="60.796714" lon="26.768226"><ele>42.25</ele></trkpt>
   <trkpt lat="60.797415" lon="26.767249"><ele>42.75</ele></trkpt>
   <trkpt lat="60.798139" lon="26.766103"><ele>42.5</ele></trkpt>
   <trkpt lat="60.798948" lon="26.764765"><ele>43.75</ele></trkpt>
   <trkpt lat="60.799016" lon="26.764653"><ele>43.5</ele></trkpt>
   <trkpt lat="60.800222" lon="26.762657"><ele>44.25</ele></trkpt>
   <trkpt lat="60.801108" lon="26.761326"><ele>44.75</ele></trkpt>
   <trkpt lat="60.802021" lon="26.760182"><ele>45.25</ele></trkpt>
   <trkpt lat="60.802796" lon="26.759414"><ele>45.75</ele></trkpt>
   <trkpt lat="60.803597" lon="26.758676"><ele>45.5</ele></trkpt>
   <trkpt lat="60.804169" lon="26.758253"><ele>45.75</ele></trkpt>
   <trkpt lat="60.804759" lon="26.75788"><ele>46</ele></trkpt>
   <trkpt lat="60.805612" lon="26.757442"><ele>46.5</ele></trkpt>
   <trkpt lat="60.806334" lon="26.757172"><ele>46.75</ele></trkpt>
   <trkpt lat="60.806989" lon="26.75701"><ele>46.75</ele></trkpt>
   <trkpt lat="60.807712" lon="26.756881"><ele>46.75</ele></trkpt>
   <trkpt lat="60.808796" lon="26.756776"><ele>44</ele></trkpt>
   <trkpt lat="60.808999" lon="26.756751"><ele>44.5</ele></trkpt>
   <trkpt lat="60.809582" lon="26.756695"><ele>47.75</ele></trkpt>
   <trkpt lat="60.821692" lon="26.755517"><ele>51.5</ele></trkpt>
   <trkpt lat="60.822141" lon="26.755491"><ele>51.5</ele></trkpt>
   <trkpt lat="60.823009" lon="26.755518"><ele>52.5</ele></trkpt>
   <trkpt lat="60.823292" lon="26.755555"><ele>52.75</ele></trkpt>
   <trkpt lat="60.823812" lon="26.755655"><ele>52.75</ele></trkpt>
   <trkpt lat="60.82452" lon="26.755809"><ele>53</ele></trkpt>
   <trkpt lat="60.828241" lon="26.756693"><ele>50.75</ele></trkpt>
   <trkpt lat="60.828416" lon="26.756737"><ele>50.25</ele></trkpt>
   <trkpt lat="60.831348" lon="26.75746"><ele>54.75</ele></trkpt>
   <trkpt lat="60.832198" lon="26.757643"><ele>54.25</ele></trkpt>
   <trkpt lat="60.840275" lon="26.759487"><ele>53.5</ele></trkpt>
   <trkpt lat="60.840591" lon="26.759557"><ele>51.75</ele></trkpt>
   <trkpt lat="60.844225" lon="26.760377"><ele>50.5</ele></trkpt>
   <trkpt lat="60.844512" lon="26.760444"><ele>50</ele></trkpt>
   <trkpt lat="60.844667" lon="26.76048"><ele>50.75</ele></trkpt>
   <trkpt lat="60.849441" lon="26.761552"><ele>52</ele></trkpt>
  </trkseg>
 </trk>
</gpx>