<?xml version="1.0" encoding="UTF-8"?>
<!-- track-length = 1581 filtered ascend = 5 plain-ascend = 4 cost=1581 energy=0.0kwh time=2m 6s -->
<gpx 
 xmlns="http://www.topografix.com/GPX/1/1" 
 xmlns:xsi="http://www.w3.org/2001/XMLSchema-instance" 
 xsi:schemaLocation="http://www.topografix.com/GPX/1/1 http://www.topografix.com/GPX/1/1/gpx.xsd" 
 version="1.1" 
 creator="BRouter-Web 0.18.1">
 <trk>
  <name>221 Inkeroinen (Gleis 1) - Inkeroinen Weiche 211</name>
  <trkseg>
   <trkpt lat="60.696506" lon="26.839813"><ele>30.75</ele></trkpt>
   <trkpt lat="60.696517" lon="26.839795"><ele>31</ele></trkpt>
   <trkpt lat="60.69664" lon="26.839583"><ele>31</ele></trkpt>
   <trkpt lat="60.696975" lon="26.838992"><ele>31</ele></trkpt>
   <trkpt lat="60.70076" lon="26.832397"><ele>31</ele></trkpt>
   <trkpt lat="60.702007" lon="26.830264"><ele>32.75</ele></trkpt>
   <trkpt lat="60.702459" lon="26.829484"><ele>33</ele></trkpt>
   <trkpt lat="60.70303" lon="26.828631"><ele>33.75</ele></trkpt>
   <trkpt lat="60.703508" lon="26.828066"><ele>34.5</ele></trkpt>
   <trkpt lat="60.704051" lon="26.827518"><ele>34.5</ele></trkpt>
   <trkpt lat="60.704467" lon="26.827205"><ele>34.75</ele></trkpt>
   <trkpt lat="60.704874" lon="26.826931"><ele>34.75</ele></trkpt>
   <trkpt lat="60.705288" lon="26.826756"><ele>35.25</ele></trkpt>
   <trkpt lat="60.70582" lon="26.826601"><ele>34.75</ele></trkpt>
   <trkpt lat="60.706378" lon="26.826499"><ele>35.5</ele></trkpt>
   <trkpt lat="60.70693" lon="26.826432"><ele>35.75</ele></trkpt>
   <trkpt lat="60.708477" lon="26.826244"><ele>34.5</ele></trkpt>
   <trkpt lat="60.708477" lon="26.826243"><ele>35</ele></trkpt>
  </trkseg>
 </trk>
</gpx>