<?xml version="1.0" encoding="UTF-8"?>
<!-- track-length = 379 filtered ascend = 0 plain-ascend = -5 cost=758 energy=0.0kwh time=30s -->
<gpx 
 xmlns="http://www.topografix.com/GPX/1/1" 
 xmlns:xsi="http://www.w3.org/2001/XMLSchema-instance" 
 xsi:schemaLocation="http://www.topografix.com/GPX/1/1 http://www.topografix.com/GPX/1/1/gpx.xsd" 
 version="1.1" 
 creator="BRouter-Web 0.18.1">
 <trk>
  <name>Abzweig Fredrikinkatu Weiche Nordwest - Hietalahdentori (Steig Nordwest)</name>
  <trkseg>
   <trkpt lat="60.164434" lon="24.937285"><ele>11</ele></trkpt>
   <trkpt lat="60.164395" lon="24.937171"><ele>11</ele></trkpt>
   <trkpt lat="60.164337" lon="24.937005"><ele>11</ele></trkpt>
   <trkpt lat="60.164289" lon="24.936863"><ele>11</ele></trkpt>
   <trkpt lat="60.164275" lon="24.936825"><ele>11</ele></trkpt>
   <trkpt lat="60.164057" lon="24.936194"><ele>10.5</ele></trkpt>
   <trkpt lat="60.163717" lon="24.935226"><ele>9.75</ele></trkpt>
   <trkpt lat="60.163522" lon="24.934671"><ele>9</ele></trkpt>
   <trkpt lat="60.163506" lon="24.934624"><ele>9</ele></trkpt>
   <trkpt lat="60.163457" lon="24.934484"><ele>9</ele></trkpt>
   <trkpt lat="60.163405" lon="24.934336"><ele>8.5</ele></trkpt>
   <trkpt lat="60.163393" lon="24.934301"><ele>8.5</ele></trkpt>
   <trkpt lat="60.163026" lon="24.933244"><ele>7</ele></trkpt>
   <trkpt lat="60.163015" lon="24.933213"><ele>7</ele></trkpt>
   <trkpt lat="60.162978" lon="24.933104"><ele>7.25</ele></trkpt>
   <trkpt lat="60.162932" lon="24.932973"><ele>7.25</ele></trkpt>
   <trkpt lat="60.16292" lon="24.93294"><ele>7.25</ele></trkpt>
   <trkpt lat="60.162727" lon="24.932382"><ele>6</ele></trkpt>
   <trkpt lat="60.162498" lon="24.931717"><ele>4.75</ele></trkpt>
  </trkseg>
 </trk>
</gpx>