<?xml version="1.0" encoding="UTF-8"?>
<!-- track-length = 40 filtered ascend = 0 plain-ascend = 1 cost=80 energy=0.0kwh time=3s -->
<gpx 
 xmlns="http://www.topografix.com/GPX/1/1" 
 xmlns:xsi="http://www.w3.org/2001/XMLSchema-instance" 
 xsi:schemaLocation="http://www.topografix.com/GPX/1/1 http://www.topografix.com/GPX/1/1/gpx.xsd" 
 version="1.1" 
 creator="BRouter-Web 0.18.1">
 <trk>
  <name>Abzweig Wendeschleife Saukonpaasi Weiche Nordost - Abzweig Länsisatamankatu/Välimerenkatu Weiche West</name>
  <trkseg>
   <trkpt lat="60.157882" lon="24.911776"><ele>3</ele></trkpt>
   <trkpt lat="60.157882" lon="24.911775"><ele>3</ele></trkpt>
   <trkpt lat="60.157845" lon="24.911674"><ele>3</ele></trkpt>
   <trkpt lat="60.157784" lon="24.911575"><ele>3</ele></trkpt>
   <trkpt lat="60.157775" lon="24.911564"><ele>3</ele></trkpt>
   <trkpt lat="60.157729" lon="24.911534"><ele>3</ele></trkpt>
   <trkpt lat="60.157668" lon="24.911524"><ele>3</ele></trkpt>
   <trkpt lat="60.157592" lon="24.911542"><ele>3</ele></trkpt>
   <trkpt lat="60.157591" lon="24.911542"><ele>3.5</ele></trkpt>
  </trkseg>
 </trk>
</gpx>