<?xml version="1.0" encoding="UTF-8"?>
<!-- track-length = 184 filtered ascend = 0 plain-ascend = -1 cost=368 energy=0.0kwh time=15s -->
<gpx 
 xmlns="http://www.topografix.com/GPX/1/1" 
 xmlns:xsi="http://www.w3.org/2001/XMLSchema-instance" 
 xsi:schemaLocation="http://www.topografix.com/GPX/1/1 http://www.topografix.com/GPX/1/1/gpx.xsd" 
 version="1.1" 
 creator="BRouter-Web 0.18.1">
 <trk>
  <name>Välimerenkatu (Steig Nordwest) - Abzweig Wendeschleife Saukonpaasi Weiche Nordost</name>
  <trkseg>
   <trkpt lat="60.158711" lon="24.914632"><ele>4.75</ele></trkpt>
   <trkpt lat="60.158709" lon="24.914623"><ele>5</ele></trkpt>
   <trkpt lat="60.158691" lon="24.914545"><ele>4.75</ele></trkpt>
   <trkpt lat="60.158648" lon="24.914419"><ele>4.75</ele></trkpt>
   <trkpt lat="60.158583" lon="24.914227"><ele>4</ele></trkpt>
   <trkpt lat="60.158577" lon="24.914213"><ele>4</ele></trkpt>
   <trkpt lat="60.158234" lon="24.913014"><ele>3.75</ele></trkpt>
   <trkpt lat="60.158228" lon="24.912991"><ele>3.75</ele></trkpt>
   <trkpt lat="60.158196" lon="24.912876"><ele>3.5</ele></trkpt>
   <trkpt lat="60.158165" lon="24.912765"><ele>3.5</ele></trkpt>
   <trkpt lat="60.158157" lon="24.912736"><ele>3.5</ele></trkpt>
   <trkpt lat="60.157882" lon="24.911776"><ele>3</ele></trkpt>
  </trkseg>
 </trk>
</gpx>