<?xml version="1.0" encoding="UTF-8"?>
<!-- track-length = 41 filtered ascend = 0 plain-ascend = 0 cost=82 energy=0.0kwh time=3s -->
<gpx 
 xmlns="http://www.topografix.com/GPX/1/1" 
 xmlns:xsi="http://www.w3.org/2001/XMLSchema-instance" 
 xsi:schemaLocation="http://www.topografix.com/GPX/1/1 http://www.topografix.com/GPX/1/1/gpx.xsd" 
 version="1.1" 
 creator="BRouter-Web 0.18.1">
 <trk>
  <name>Dreieck Suur Rannavärav Weiche Nordwest-Südwest - Dreieck Suur Rannavärav Weiche Südost-Südwest</name>
  <trkseg>
   <trkpt lat="59.443136" lon="24.750925"><ele>7.25</ele></trkpt>
   <trkpt lat="59.443131" lon="24.75094"><ele>7.25</ele></trkpt>
   <trkpt lat="59.443028" lon="24.751172"><ele>7</ele></trkpt>
   <trkpt lat="59.442968" lon="24.751271"><ele>7</ele></trkpt>
   <trkpt lat="59.442905" lon="24.751347"><ele>7</ele></trkpt>
   <trkpt lat="59.442863" lon="24.751397"><ele>6.75</ele></trkpt>
   <trkpt lat="59.442862" lon="24.751397"><ele>6</ele></trkpt>
  </trkseg>
 </trk>
</gpx>