<?xml version="1.0" encoding="UTF-8"?>
<!-- track-length = 31 filtered ascend = 0 plain-ascend = 0 cost=31 energy=0.0kwh time=2s -->
<gpx 
 xmlns="http://www.topografix.com/GPX/1/1" 
 xmlns:xsi="http://www.w3.org/2001/XMLSchema-instance" 
 xsi:schemaLocation="http://www.topografix.com/GPX/1/1 http://www.topografix.com/GPX/1/1/gpx.xsd" 
 version="1.1" 
 creator="BRouter-Web 99.71.0">
 <trk>
  <name>1100 Bahnhof Lübeck Hafen Weiche 142 - Bahnhof Lübeck Hafen Weiche 143</name>
  <link href="https://brouter.damsy.net/latest/#map=20/53.87369/10.67854/standard&amp;lonlats=10.678023,53.873568;10.678302,53.873782&amp;profile=rail">
   <text>BRouter-Web</text>
  </link>
  <trkseg>
   <trkpt lat="53.873566" lon="10.678025"><ele>5.25</ele></trkpt>
   <trkpt lat="53.873567" lon="10.678027"><ele>5.5</ele></trkpt>
   <trkpt lat="53.87378" lon="10.678303"><ele>5</ele></trkpt>
  </trkseg>
 </trk>
</gpx>