<?xml version="1.0" encoding="UTF-8"?>
<!-- track-length = 119 filtered ascend = 1 plain-ascend = 2 cost=119 energy=0.0kwh time=10s -->
<gpx 
 xmlns="http://www.topografix.com/GPX/1/1" 
 xmlns:xsi="http://www.w3.org/2001/XMLSchema-instance" 
 xsi:schemaLocation="http://www.topografix.com/GPX/1/1 http://www.topografix.com/GPX/1/1/gpx.xsd" 
 version="1.1" 
 creator="BRouter-Web 99.71.0">
 <trk>
  <name>1100 Bahnhof Lübeck Hafen Weiche 140 - Bahnhof Lübeck Hafen Weiche 140a</name>
  <link href="https://brouter.damsy.net/latest/#map=19/53.87355/10.67836/standard&amp;lonlats=10.677007,53.872705;10.678165,53.873514&amp;profile=rail">
   <text>BRouter-Web</text>
  </link>
  <trkseg>
   <trkpt lat="53.872704" lon="10.677006"><ele>3</ele></trkpt>
   <trkpt lat="53.872707" lon="10.67701"><ele>3</ele></trkpt>
   <trkpt lat="53.872871" lon="10.677213"><ele>3.25</ele></trkpt>
   <trkpt lat="53.872995" lon="10.677388"><ele>3.5</ele></trkpt>
   <trkpt lat="53.873515" lon="10.67816"><ele>4.75</ele></trkpt>
  </trkseg>
 </trk>
</gpx>