<?xml version="1.0" encoding="UTF-8"?>
<!-- track-length = 25 filtered ascend = 0 plain-ascend = 0 cost=25 energy=0.0kwh time=2s -->
<gpx 
 xmlns="http://www.topografix.com/GPX/1/1" 
 xmlns:xsi="http://www.w3.org/2001/XMLSchema-instance" 
 xsi:schemaLocation="http://www.topografix.com/GPX/1/1 http://www.topografix.com/GPX/1/1/gpx.xsd" 
 version="1.1" 
 creator="BRouter-Web 99.71.0">
 <trk>
  <name>1100 Bahnhof Lübeck Hafen Weiche 145 - Bahnhof Lübeck Hafen Weiche 146</name>
  <link href="https://brouter.damsy.net/latest/#map=20/53.87432/10.67938/standard&amp;lonlats=10.678785,53.874153;10.67902,53.874334&amp;profile=rail">
   <text>BRouter-Web</text>
  </link>
  <trkseg>
   <trkpt lat="53.874152" lon="10.678786"><ele>5.25</ele></trkpt>
   <trkpt lat="53.874332" lon="10.679022"><ele>4.5</ele></trkpt>
  </trkseg>
 </trk>
</gpx>