<?xml version="1.0" encoding="UTF-8"?>
<!-- track-length = 69 filtered ascend = 0 plain-ascend = 0 cost=69 energy=0.0kwh time=6s -->
<gpx 
 xmlns="http://www.topografix.com/GPX/1/1" 
 xmlns:xsi="http://www.w3.org/2001/XMLSchema-instance" 
 xsi:schemaLocation="http://www.topografix.com/GPX/1/1 http://www.topografix.com/GPX/1/1/gpx.xsd" 
 version="1.1" 
 creator="BRouter-Web 99.71.0">
 <trk>
  <name>1100 Bahnhof Lübeck Hafen Weiche 140 - Bahnhof Lübeck Hafen Weiche 141</name>
  <link href="https://brouter.damsy.net/latest/#map=20/53.87266/10.67747/standard&amp;lonlats=10.677008,53.872707;10.67757,53.87322&amp;profile=rail">
   <text>BRouter-Web</text>
  </link>
  <trkseg>
   <trkpt lat="53.872706" lon="10.677008"><ele>4</ele></trkpt>
   <trkpt lat="53.872707" lon="10.67701"><ele>4</ele></trkpt>
   <trkpt lat="53.873037" lon="10.677352"><ele>4</ele></trkpt>
   <trkpt lat="53.873218" lon="10.677571"><ele>4</ele></trkpt>
  </trkseg>
 </trk>
</gpx>