<?xml version="1.0" encoding="UTF-8"?>
<!-- track-length = 514 filtered ascend = 0 plain-ascend = 0 cost=1028 energy=0.0kwh time=41s -->
<gpx 
 xmlns="http://www.topografix.com/GPX/1/1" 
 xmlns:xsi="http://www.w3.org/2001/XMLSchema-instance" 
 xsi:schemaLocation="http://www.topografix.com/GPX/1/1 http://www.topografix.com/GPX/1/1/gpx.xsd" 
 version="1.1" 
 creator="BRouter-Web 0.18.1">
 <trk>
  <name>Opera (Steig Nordwest) - Abzweig Stadspark/Tunnel Weiche Nordwest</name>
  <trkseg>
   <trkpt lat="51.21846" lon="4.415359"><ele>8</ele></trkpt>
   <trkpt lat="51.218415" lon="4.41534"><ele>8</ele></trkpt>
   <trkpt lat="51.218263" lon="4.415291"><ele>8</ele></trkpt>
   <trkpt lat="51.218052" lon="4.415239"><ele>8</ele></trkpt>
   <trkpt lat="51.217915" lon="4.415194"><ele>8</ele></trkpt>
   <trkpt lat="51.217739" lon="4.415118"><ele>8</ele></trkpt>
   <trkpt lat="51.217576" lon="4.415027"><ele>8</ele></trkpt>
   <trkpt lat="51.215799" lon="4.413909"><ele>8</ele></trkpt>
   <trkpt lat="51.215748" lon="4.413874"><ele>8</ele></trkpt>
   <trkpt lat="51.215675" lon="4.413811"><ele>8</ele></trkpt>
   <trkpt lat="51.215646" lon="4.413782"><ele>8</ele></trkpt>
   <trkpt lat="51.21555" lon="4.413653"><ele>8</ele></trkpt>
   <trkpt lat="51.21553" lon="4.413618"><ele>8</ele></trkpt>
   <trkpt lat="51.215493" lon="4.413555"><ele>8</ele></trkpt>
   <trkpt lat="51.215461" lon="4.413503"><ele>8</ele></trkpt>
   <trkpt lat="51.215435" lon="4.413462"><ele>8</ele></trkpt>
   <trkpt lat="51.215409" lon="4.413425"><ele>8</ele></trkpt>
   <trkpt lat="51.214714" lon="4.412493"><ele>7.75</ele></trkpt>
   <trkpt lat="51.214679" lon="4.412448"><ele>7.75</ele></trkpt>
   <trkpt lat="51.214647" lon="4.412409"><ele>7.5</ele></trkpt>
   <trkpt lat="51.214621" lon="4.41238"><ele>7.5</ele></trkpt>
   <trkpt lat="51.214591" lon="4.412349"><ele>7.5</ele></trkpt>
   <trkpt lat="51.214567" lon="4.412327"><ele>7.25</ele></trkpt>
   <trkpt lat="51.214536" lon="4.412297"><ele>7.25</ele></trkpt>
   <trkpt lat="51.21439" lon="4.412146"><ele>7</ele></trkpt>
   <trkpt lat="51.214387" lon="4.412143"><ele>7</ele></trkpt>
  </trkseg>
 </trk>
</gpx>