<?xml version="1.0" encoding="UTF-8"?>
<!-- track-length = 36 filtered ascend = 0 plain-ascend = 0 cost=72 energy=0.0kwh time=3s -->
<gpx 
 xmlns="http://www.topografix.com/GPX/1/1" 
 xmlns:xsi="http://www.w3.org/2001/XMLSchema-instance" 
 xsi:schemaLocation="http://www.topografix.com/GPX/1/1 http://www.topografix.com/GPX/1/1/gpx.xsd" 
 version="1.1" 
 creator="BRouter-Web 0.18.1">
 <trk>
  <name>Kreuz Senaatintori Weiche Süd-nach-West-Süd - Kreuz Senaatintori Weiche Süd-nach-West-West</name>
  <trkseg>
   <trkpt lat="60.168924" lon="24.95358"><ele>4.75</ele></trkpt>
   <trkpt lat="60.168927" lon="24.953581"><ele>5</ele></trkpt>
   <trkpt lat="60.169015" lon="24.953538"><ele>5</ele></trkpt>
   <trkpt lat="60.169023" lon="24.953531"><ele>5</ele></trkpt>
   <trkpt lat="60.16903" lon="24.953522"><ele>5</ele></trkpt>
   <trkpt lat="60.169064" lon="24.953463"><ele>5</ele></trkpt>
   <trkpt lat="60.169078" lon="24.953417"><ele>5</ele></trkpt>
   <trkpt lat="60.169082" lon="24.953399"><ele>5</ele></trkpt>
   <trkpt lat="60.169094" lon="24.953307"><ele>5</ele></trkpt>
   <trkpt lat="60.169096" lon="24.953278"><ele>5</ele></trkpt>
   <trkpt lat="60.169099" lon="24.953164"><ele>5</ele></trkpt>
   <trkpt lat="60.169098" lon="24.953154"><ele>5</ele></trkpt>
  </trkseg>
 </trk>
</gpx>