<?xml version="1.0" encoding="UTF-8"?>
<!-- track-length = 12 filtered ascend = 0 plain-ascend = 0 cost=24 energy=0.0kwh time=1s -->
<gpx 
 xmlns="http://www.topografix.com/GPX/1/1" 
 xmlns:xsi="http://www.w3.org/2001/XMLSchema-instance" 
 xsi:schemaLocation="http://www.topografix.com/GPX/1/1 http://www.topografix.com/GPX/1/1/gpx.xsd" 
 version="1.1" 
 creator="BRouter-Web 0.18.1">
 <trk>
  <name>Kreuz Senaatintori Weiche Süd-nach-West-West - Kreuz Senaatintori Weiche Nord-nach-West-West</name>
  <trkseg>
   <trkpt lat="60.169098" lon="24.953156"><ele>5</ele></trkpt>
   <trkpt lat="60.169093" lon="24.952964"><ele>5</ele></trkpt>
   <trkpt lat="60.169092" lon="24.952961"><ele>5.25</ele></trkpt>
  </trkseg>
 </trk>
</gpx>