<?xml version="1.0" encoding="UTF-8"?>
<!-- track-length = 90 filtered ascend = 1 plain-ascend = 1 cost=180 energy=0.0kwh time=7s -->
<gpx 
 xmlns="http://www.topografix.com/GPX/1/1" 
 xmlns:xsi="http://www.w3.org/2001/XMLSchema-instance" 
 xsi:schemaLocation="http://www.topografix.com/GPX/1/1 http://www.topografix.com/GPX/1/1/gpx.xsd" 
 version="1.1" 
 creator="BRouter-Web 0.18.1">
 <trk>
  <name>Kreuz Senaatintori Weiche Nord-nach-West-West - Abzweig Unioninkatu Weiche Ost</name>
  <trkseg>
   <trkpt lat="60.169092" lon="24.952959"><ele>5</ele></trkpt>
   <trkpt lat="60.169091" lon="24.95288"><ele>5.25</ele></trkpt>
   <trkpt lat="60.169067" lon="24.951991"><ele>5.5</ele></trkpt>
   <trkpt lat="60.169051" lon="24.951318"><ele>6</ele></trkpt>
  </trkseg>
 </trk>
</gpx>