<?xml version="1.0" encoding="UTF-8"?>
<!-- track-length = 17 filtered ascend = 0 plain-ascend = 0 cost=34 energy=0.0kwh time=1s -->
<gpx 
 xmlns="http://www.topografix.com/GPX/1/1" 
 xmlns:xsi="http://www.w3.org/2001/XMLSchema-instance" 
 xsi:schemaLocation="http://www.topografix.com/GPX/1/1 http://www.topografix.com/GPX/1/1/gpx.xsd" 
 version="1.1" 
 creator="BRouter-Web 99.71.0">
 <trk>
  <name>Gwarna (Steig Nordwest) - Dreieck Gwarna Weiche Nord</name>
  <link href="https://brouter.damsy.net/latest/#map=19/52.40732/16.92156/standard&amp;lonlats=16.921171,52.407457;16.921121,52.407311">
   <text>BRouter-Web</text>
  </link>
  <trkseg>
   <trkpt lat="52.407456" lon="16.92117"><ele>76</ele></trkpt>
   <trkpt lat="52.407312" lon="16.921125"><ele>76</ele></trkpt>
   <trkpt lat="52.40731" lon="16.921123"><ele>76</ele></trkpt>
  </trkseg>
 </trk>
</gpx>