<?xml version="1.0" encoding="UTF-8"?>
<!-- track-length = 51 filtered ascend = 0 plain-ascend = 0 cost=102 energy=0.0kwh time=4s -->
<gpx 
 xmlns="http://www.topografix.com/GPX/1/1" 
 xmlns:xsi="http://www.w3.org/2001/XMLSchema-instance" 
 xsi:schemaLocation="http://www.topografix.com/GPX/1/1 http://www.topografix.com/GPX/1/1/gpx.xsd" 
 version="1.1" 
 creator="BRouter-Web 99.71.0">
 <trk>
  <name>Kreuz 27 Grudnia Weiche Nordost-nach-Nordwest-Nordost - Kreuz 27 Grudnia Weiche Nordwest-nach-Südwest-Südwest</name>
  <link href="https://brouter.damsy.net/latest/#map=19/52.40850/16.92198/standard&amp;lonlats=16.921936,52.408581;16.921461,52.408229">
   <text>BRouter-Web</text>
  </link>
  <trkseg>
   <trkpt lat="52.408578" lon="16.921938"><ele>76</ele></trkpt>
   <trkpt lat="52.408576" lon="16.921934"><ele>76</ele></trkpt>
   <trkpt lat="52.408514" lon="16.921818"><ele>76</ele></trkpt>
   <trkpt lat="52.408498" lon="16.92179"><ele>76</ele></trkpt>
   <trkpt lat="52.408483" lon="16.921765"><ele>76</ele></trkpt>
   <trkpt lat="52.408429" lon="16.921662"><ele>76</ele></trkpt>
   <trkpt lat="52.408378" lon="16.921592"><ele>76</ele></trkpt>
   <trkpt lat="52.408344" lon="16.921562"><ele>75.75</ele></trkpt>
   <trkpt lat="52.408295" lon="16.921518"><ele>76</ele></trkpt>
   <trkpt lat="52.40823" lon="16.921462"><ele>76</ele></trkpt>
   <trkpt lat="52.408228" lon="16.92146"><ele>76</ele></trkpt>
  </trkseg>
 </trk>
</gpx>