<?xml version="1.0" encoding="UTF-8"?>
<!-- track-length = 25 filtered ascend = 0 plain-ascend = 0 cost=50 energy=0.0kwh time=2s -->
<gpx 
 xmlns="http://www.topografix.com/GPX/1/1" 
 xmlns:xsi="http://www.w3.org/2001/XMLSchema-instance" 
 xsi:schemaLocation="http://www.topografix.com/GPX/1/1 http://www.topografix.com/GPX/1/1/gpx.xsd" 
 version="1.1" 
 creator="BRouter-Web 99.71.0">
 <trk>
  <name>Kreuz 27 Grudnia Weiche Nordwest-nach-Südwest-Südwest - Kreuz 27 Grudnia Weiche Ost-nach-Süd-Süd</name>
  <link href="https://brouter.damsy.net/latest/#map=19/52.40795/16.92202/standard&amp;lonlats=16.921461,52.408229;16.921348,52.408025">
   <text>BRouter-Web</text>
  </link>
  <trkseg>
   <trkpt lat="52.408228" lon="16.92146"><ele>76</ele></trkpt>
   <trkpt lat="52.40816" lon="16.921412"><ele>76</ele></trkpt>
   <trkpt lat="52.408102" lon="16.921384"><ele>76</ele></trkpt>
   <trkpt lat="52.408026" lon="16.921354"><ele>76</ele></trkpt>
   <trkpt lat="52.408023" lon="16.921353"><ele>76</ele></trkpt>
  </trkseg>
 </trk>
</gpx>