<?xml version="1.0" encoding="UTF-8"?>
<!-- track-length = 64 filtered ascend = 0 plain-ascend = 0 cost=128 energy=0.0kwh time=5s -->
<gpx 
 xmlns="http://www.topografix.com/GPX/1/1" 
 xmlns:xsi="http://www.w3.org/2001/XMLSchema-instance" 
 xsi:schemaLocation="http://www.topografix.com/GPX/1/1 http://www.topografix.com/GPX/1/1/gpx.xsd" 
 version="1.1" 
 creator="BRouter-Web 99.71.0">
 <trk>
  <name>Kreuz 27 Grudnia Weiche Ost-nach-Süd-Süd - Gwarna (Steig Nordwest)</name>
  <link href="https://brouter.damsy.net/latest/#map=19/52.40768/16.92170/standard&amp;lonlats=16.921348,52.408025;16.921175,52.407458">
   <text>BRouter-Web</text>
  </link>
  <trkseg>
   <trkpt lat="52.408023" lon="16.921353"><ele>76</ele></trkpt>
   <trkpt lat="52.407745" lon="16.921264"><ele>76</ele></trkpt>
   <trkpt lat="52.407584" lon="16.921211"><ele>76</ele></trkpt>
   <trkpt lat="52.407457" lon="16.921171"><ele>76</ele></trkpt>
  </trkseg>
 </trk>
</gpx>