<?xml version="1.0" encoding="UTF-8"?>
<!-- track-length = 57 filtered ascend = 0 plain-ascend = 0 cost=114 energy=0.0kwh time=5s -->
<gpx 
 xmlns="http://www.topografix.com/GPX/1/1" 
 xmlns:xsi="http://www.w3.org/2001/XMLSchema-instance" 
 xsi:schemaLocation="http://www.topografix.com/GPX/1/1 http://www.topografix.com/GPX/1/1/gpx.xsd" 
 version="1.1" 
 creator="BRouter-Web 99.71.0">
 <trk>
  <name>Kreuz 27 Grudnia Weiche Ost-nach-Süd-Ost - Kreuz 27 Grudnia Weiche Ost-nach-Süd-Süd</name>
  <link href="https://brouter.damsy.net/latest/#map=18/52.40808/16.92200/standard&amp;lonlats=16.922003,52.408204;16.921353,52.408023">
   <text>BRouter-Web</text>
  </link>
  <trkseg>
   <trkpt lat="52.408203" lon="16.922002"><ele>76</ele></trkpt>
   <trkpt lat="52.408204" lon="16.922002"><ele>76</ele></trkpt>
   <trkpt lat="52.408216" lon="16.921806"><ele>76</ele></trkpt>
   <trkpt lat="52.408209" lon="16.921626"><ele>76</ele></trkpt>
   <trkpt lat="52.408187" lon="16.921533"><ele>76</ele></trkpt>
   <trkpt lat="52.408156" lon="16.921464"><ele>76</ele></trkpt>
   <trkpt lat="52.40813" lon="16.921428"><ele>76</ele></trkpt>
   <trkpt lat="52.4081" lon="16.921399"><ele>76</ele></trkpt>
   <trkpt lat="52.408026" lon="16.921354"><ele>76</ele></trkpt>
   <trkpt lat="52.408022" lon="16.921352"><ele>76</ele></trkpt>
  </trkseg>
 </trk>
</gpx>