<?xml version="1.0" encoding="UTF-8"?>
<!-- track-length = 48 filtered ascend = 0 plain-ascend = 0 cost=48 energy=0.0kwh time=4s -->
<gpx 
 xmlns="http://www.topografix.com/GPX/1/1" 
 xmlns:xsi="http://www.w3.org/2001/XMLSchema-instance" 
 xsi:schemaLocation="http://www.topografix.com/GPX/1/1 http://www.topografix.com/GPX/1/1/gpx.xsd" 
 version="1.1" 
 creator="BRouter-Web 99.71.0">
 <trk>
  <name>Braunsfeld Kreuz Aachener Straße/Gürtel Weiche West-nach-Nord-West - Braunsfeld Kreuz Aachener Straße/Gürtel Weiche Süd-nach-Ost-Ost</name>
  <link href="https://brouter.damsy.net/latest/#map=19/50.93703/6.90951/standard&amp;lonlats=6.908245,50.937007;6.908884,50.936973&amp;nogos=6.781752,51.218852,6&amp;profile=rail">
   <text>BRouter-Web</text>
  </link>
  <trkseg>
   <trkpt lat="50.937002" lon="6.908244"><ele>49</ele></trkpt>
   <trkpt lat="50.937002" lon="6.908242"><ele>49</ele></trkpt>
   <trkpt lat="50.937" lon="6.908267"><ele>49</ele></trkpt>
   <trkpt lat="50.936986" lon="6.908513"><ele>49</ele></trkpt>
   <trkpt lat="50.936985" lon="6.908558"><ele>49</ele></trkpt>
   <trkpt lat="50.93698" lon="6.908656"><ele>49</ele></trkpt>
   <trkpt lat="50.93698" lon="6.908661"><ele>49</ele></trkpt>
   <trkpt lat="50.936977" lon="6.908721"><ele>49</ele></trkpt>
   <trkpt lat="50.936973" lon="6.908828"><ele>49</ele></trkpt>
   <trkpt lat="50.93697" lon="6.908883"><ele>49</ele></trkpt>
   <trkpt lat="50.936969" lon="6.908883"><ele>48.75</ele></trkpt>
  </trkseg>
 </trk>
</gpx>