<?xml version="1.0" encoding="UTF-8"?>
<!-- track-length = 44 filtered ascend = 0 plain-ascend = 0 cost=44 energy=0.0kwh time=4s -->
<gpx 
 xmlns="http://www.topografix.com/GPX/1/1" 
 xmlns:xsi="http://www.w3.org/2001/XMLSchema-instance" 
 xsi:schemaLocation="http://www.topografix.com/GPX/1/1 http://www.topografix.com/GPX/1/1/gpx.xsd" 
 version="1.1" 
 creator="BRouter-Web 99.71.0">
 <trk>
  <name>Braunsfeld Kreuz Aachener Straße/Gürtel Weiche Süd-nach-Ost-Süd - Braunsfeld Kreuz Aachener Straße/Gürtel Weiche Süd-nach-Ost-Ost</name>
  <link href="https://brouter.damsy.net/latest/#map=20/50.93693/6.90904/standard&amp;lonlats=6.908473,50.93674;6.908883,50.936969&amp;nogos=6.781752,51.218852,6&amp;profile=rail">
   <text>BRouter-Web</text>
  </link>
  <trkseg>
   <trkpt lat="50.936738" lon="6.908473"><ele>49</ele></trkpt>
   <trkpt lat="50.93674" lon="6.908474"><ele>49</ele></trkpt>
   <trkpt lat="50.936851" lon="6.908533"><ele>49</ele></trkpt>
   <trkpt lat="50.936908" lon="6.908604"><ele>49</ele></trkpt>
   <trkpt lat="50.936927" lon="6.90864"><ele>49</ele></trkpt>
   <trkpt lat="50.936953" lon="6.908712"><ele>49</ele></trkpt>
   <trkpt lat="50.936967" lon="6.908789"><ele>49</ele></trkpt>
   <trkpt lat="50.936967" lon="6.90883"><ele>49</ele></trkpt>
   <trkpt lat="50.936969" lon="6.908881"><ele>49</ele></trkpt>
  </trkseg>
 </trk>
</gpx>