<?xml version="1.0" encoding="UTF-8"?>
<!-- track-length = 553 filtered ascend = 0 plain-ascend = 0 cost=553 energy=0.0kwh time=44s -->
<gpx 
 xmlns="http://www.topografix.com/GPX/1/1" 
 xmlns:xsi="http://www.w3.org/2001/XMLSchema-instance" 
 xsi:schemaLocation="http://www.topografix.com/GPX/1/1 http://www.topografix.com/GPX/1/1/gpx.xsd" 
 version="1.1" 
 creator="BRouter-Web 99.71.0">
 <trk>
  <name>Kreuz Aachener Straße/Gürtel Weiche Nord-nach-Ost-Ost - Lindenthal Melaten (Steig Süd)</name>
  <link href="https://brouter.damsy.net/latest/#map=19/50.93666/6.91743/standard&amp;lonlats=6.909216,50.936966;6.917075,50.936734&amp;nogos=6.781752,51.218852,6&amp;profile=rail">
   <text>BRouter-Web</text>
  </link>
  <trkseg>
   <trkpt lat="50.936961" lon="6.909215"><ele>48.5</ele></trkpt>
   <trkpt lat="50.936863" lon="6.91261"><ele>47.75</ele></trkpt>
   <trkpt lat="50.936858" lon="6.912708"><ele>47.75</ele></trkpt>
   <trkpt lat="50.936854" lon="6.912821"><ele>48</ele></trkpt>
   <trkpt lat="50.936852" lon="6.912884"><ele>48</ele></trkpt>
   <trkpt lat="50.936798" lon="6.914633"><ele>48</ele></trkpt>
   <trkpt lat="50.936762" lon="6.915994"><ele>48</ele></trkpt>
   <trkpt lat="50.936747" lon="6.916589"><ele>48</ele></trkpt>
   <trkpt lat="50.936731" lon="6.917074"><ele>48</ele></trkpt>
  </trkseg>
 </trk>
</gpx>