<?xml version="1.0" encoding="UTF-8"?>
<!-- track-length = 506 filtered ascend = 0 plain-ascend = 0 cost=506 energy=0.0kwh time=40s -->
<gpx 
 xmlns="http://www.topografix.com/GPX/1/1" 
 xmlns:xsi="http://www.w3.org/2001/XMLSchema-instance" 
 xsi:schemaLocation="http://www.topografix.com/GPX/1/1 http://www.topografix.com/GPX/1/1/gpx.xsd" 
 version="1.1" 
 creator="BRouter-Web 99.71.0">
 <trk>
  <name>Lindenthal Melaten (Steig Süd) - Lindenthal Universitätsstraße (Steig 1)</name>
  <link href="https://brouter.damsy.net/latest/#map=19/50.93665/6.92437/standard&amp;lonlats=6.917075,50.936734;6.924262,50.936658&amp;nogos=6.781752,51.218852,6&amp;profile=rail">
   <text>BRouter-Web</text>
  </link>
  <trkseg>
   <trkpt lat="50.936731" lon="6.917074"><ele>48</ele></trkpt>
   <trkpt lat="50.936726" lon="6.917227"><ele>48</ele></trkpt>
   <trkpt lat="50.936686" lon="6.918745"><ele>48</ele></trkpt>
   <trkpt lat="50.936668" lon="6.920298"><ele>48</ele></trkpt>
   <trkpt lat="50.936676" lon="6.922087"><ele>48</ele></trkpt>
   <trkpt lat="50.936668" lon="6.923031"><ele>48</ele></trkpt>
   <trkpt lat="50.936665" lon="6.923168"><ele>47.75</ele></trkpt>
   <trkpt lat="50.936663" lon="6.923293"><ele>47.75</ele></trkpt>
   <trkpt lat="50.936658" lon="6.924251"><ele>48</ele></trkpt>
   <trkpt lat="50.936657" lon="6.924261"><ele>48</ele></trkpt>
  </trkseg>
 </trk>
</gpx>