<?xml version="1.0" encoding="UTF-8"?>
<!-- track-length = 525 filtered ascend = 0 plain-ascend = 0 cost=525 energy=0.0kwh time=42s -->
<gpx 
 xmlns="http://www.topografix.com/GPX/1/1" 
 xmlns:xsi="http://www.w3.org/2001/XMLSchema-instance" 
 xsi:schemaLocation="http://www.topografix.com/GPX/1/1 http://www.topografix.com/GPX/1/1/gpx.xsd" 
 version="1.1" 
 creator="BRouter-Web 99.71.0">
 <trk>
  <name>Lindenthal Universitätsstraße (Steig 1) - Abzweig Schleife Innerer Grüngürtel Weiche Süd</name>
  <link href="https://brouter.damsy.net/latest/#map=19/50.93552/6.93148/standard&amp;lonlats=6.924262,50.936658;6.931048,50.935564&amp;nogos=6.781752,51.218852,6&amp;profile=rail">
   <text>BRouter-Web</text>
  </link>
  <trkseg>
   <trkpt lat="50.936657" lon="6.924261"><ele>48</ele></trkpt>
   <trkpt lat="50.936655" lon="6.924416"><ele>48</ele></trkpt>
   <trkpt lat="50.936653" lon="6.924469"><ele>48</ele></trkpt>
   <trkpt lat="50.936651" lon="6.924565"><ele>48</ele></trkpt>
   <trkpt lat="50.936648" lon="6.924805"><ele>48</ele></trkpt>
   <trkpt lat="50.936644" lon="6.924923"><ele>48</ele></trkpt>
   <trkpt lat="50.936644" lon="6.924983"><ele>48</ele></trkpt>
   <trkpt lat="50.936596" lon="6.928583"><ele>48</ele></trkpt>
   <trkpt lat="50.93659" lon="6.928768"><ele>48</ele></trkpt>
   <trkpt lat="50.936563" lon="6.929004"><ele>48</ele></trkpt>
   <trkpt lat="50.936545" lon="6.929101"><ele>48</ele></trkpt>
   <trkpt lat="50.936507" lon="6.929246"><ele>48</ele></trkpt>
   <trkpt lat="50.936432" lon="6.929443"><ele>48</ele></trkpt>
   <trkpt lat="50.936385" lon="6.929533"><ele>48</ele></trkpt>
   <trkpt lat="50.936323" lon="6.92963"><ele>48</ele></trkpt>
   <trkpt lat="50.936151" lon="6.929835"><ele>48</ele></trkpt>
   <trkpt lat="50.935832" lon="6.930168"><ele>48</ele></trkpt>
   <trkpt lat="50.935741" lon="6.93029"><ele>48</ele></trkpt>
   <trkpt lat="50.935686" lon="6.930385"><ele>48</ele></trkpt>
   <trkpt lat="50.93564" lon="6.930486"><ele>48</ele></trkpt>
   <trkpt lat="50.93561" lon="6.930577"><ele>48</ele></trkpt>
   <trkpt lat="50.935579" lon="6.930718"><ele>48</ele></trkpt>
   <trkpt lat="50.935565" lon="6.930865"><ele>48</ele></trkpt>
   <trkpt lat="50.935562" lon="6.931046"><ele>48.75</ele></trkpt>
   <trkpt lat="50.935562" lon="6.931047"><ele>48</ele></trkpt>
  </trkseg>
 </trk>
</gpx>