<?xml version="1.0" encoding="UTF-8"?>
<!-- track-length = 39 filtered ascend = 0 plain-ascend = 0 cost=78 energy=0.0kwh time=3s -->
<gpx 
 xmlns="http://www.topografix.com/GPX/1/1" 
 xmlns:xsi="http://www.w3.org/2001/XMLSchema-instance" 
 xsi:schemaLocation="http://www.topografix.com/GPX/1/1 http://www.topografix.com/GPX/1/1/gpx.xsd" 
 version="1.1" 
 creator="BRouter-Web 0.18.1">
 <trk>
  <name>Dreieck Harmonie Weiche Mechelsesteenweg Nordwest - Abzweig Harmonie Weiche Mitte</name>
  <trkseg>
   <trkpt lat="51.202011" lon="4.412403"><ele>10</ele></trkpt>
   <trkpt lat="51.202009" lon="4.412405"><ele>10</ele></trkpt>
   <trkpt lat="51.201848" lon="4.412509"><ele>10</ele></trkpt>
   <trkpt lat="51.201835" lon="4.412519"><ele>10</ele></trkpt>
   <trkpt lat="51.201754" lon="4.412583"><ele>9.75</ele></trkpt>
   <trkpt lat="51.201737" lon="4.412597"><ele>10</ele></trkpt>
   <trkpt lat="51.201703" lon="4.412621"><ele>10</ele></trkpt>
   <trkpt lat="51.201699" lon="4.412623"><ele>10</ele></trkpt>
  </trkseg>
 </trk>
</gpx>