<?xml version="1.0" encoding="UTF-8"?>
<!-- track-length = 50 filtered ascend = 0 plain-ascend = 1 cost=100 energy=0.0kwh time=4s -->
<gpx 
 xmlns="http://www.topografix.com/GPX/1/1" 
 xmlns:xsi="http://www.w3.org/2001/XMLSchema-instance" 
 xsi:schemaLocation="http://www.topografix.com/GPX/1/1 http://www.topografix.com/GPX/1/1/gpx.xsd" 
 version="1.1" 
 creator="BRouter-Web 0.18.1">
 <trk>
  <name>Opera (Steig Südost) - Kreuz Franklin Rooseveltplaats Weiche Südwest-nach-Südost-Südwest</name>
  <trkseg>
   <trkpt lat="51.218995" lon="4.415729"><ele>8.25</ele></trkpt>
   <trkpt lat="51.219041" lon="4.415764"><ele>8.5</ele></trkpt>
   <trkpt lat="51.219184" lon="4.415873"><ele>8.75</ele></trkpt>
   <trkpt lat="51.219236" lon="4.415904"><ele>8.75</ele></trkpt>
   <trkpt lat="51.219409" lon="4.415978"><ele>8.75</ele></trkpt>
  </trkseg>
 </trk>
</gpx>