<?xml version="1.0" encoding="UTF-8"?>
<!-- track-length = 620 filtered ascend = 0 plain-ascend = 0 cost=1240 energy=0.0kwh time=50s -->
<gpx 
 xmlns="http://www.topografix.com/GPX/1/1" 
 xmlns:xsi="http://www.w3.org/2001/XMLSchema-instance" 
 xsi:schemaLocation="http://www.topografix.com/GPX/1/1 http://www.topografix.com/GPX/1/1/gpx.xsd" 
 version="1.1" 
 creator="BRouter-Web 0.18.1">
 <trk>
  <name>Diamant (Steig West) - Platin (Steig West)</name>
  <trkseg>
   <trkpt lat="51.215864" lon="4.420445"><ele>5</ele></trkpt>
   <trkpt lat="51.21586" lon="4.420445"><ele>5</ele></trkpt>
   <trkpt lat="51.215429" lon="4.420407"><ele>5</ele></trkpt>
   <trkpt lat="51.215023" lon="4.420442"><ele>5</ele></trkpt>
   <trkpt lat="51.212813" lon="4.420981"><ele>5</ele></trkpt>
   <trkpt lat="51.210706" lon="4.421978"><ele>5</ele></trkpt>
   <trkpt lat="51.21044" lon="4.422141"><ele>5</ele></trkpt>
  </trkseg>
 </trk>
</gpx>