<?xml version="1.0" encoding="UTF-8"?>
<!-- track-length = 113 filtered ascend = 0 plain-ascend = 0 cost=226 energy=0.0kwh time=9s -->
<gpx 
 xmlns="http://www.topografix.com/GPX/1/1" 
 xmlns:xsi="http://www.w3.org/2001/XMLSchema-instance" 
 xsi:schemaLocation="http://www.topografix.com/GPX/1/1 http://www.topografix.com/GPX/1/1/gpx.xsd" 
 version="1.1" 
 creator="BRouter-Web 0.18.1">
 <trk>
  <name>Platin (Steig West) - Abzweig Belgiëlei Weiche West</name>
  <trkseg>
   <trkpt lat="51.21044" lon="4.422141"/>
   <trkpt lat="51.209496" lon="4.422721"/>
  </trkseg>
 </trk>
</gpx>