<?xml version="1.0" encoding="UTF-8"?>
<!-- track-length = 167 filtered ascend = 1 plain-ascend = 1 cost=334 energy=0.0kwh time=13s -->
<gpx 
 xmlns="http://www.topografix.com/GPX/1/1" 
 xmlns:xsi="http://www.w3.org/2001/XMLSchema-instance" 
 xsi:schemaLocation="http://www.topografix.com/GPX/1/1 http://www.topografix.com/GPX/1/1/gpx.xsd" 
 version="1.1" 
 creator="BRouter-Web 0.18.1">
 <trk>
  <name>Abzweig Linnankatu Weiche Südwest - Vyökatu (Steig Südwest)</name>
  <trkseg>
   <trkpt lat="60.166261" lon="24.966294"><ele>3</ele></trkpt>
   <trkpt lat="60.166259" lon="24.9663"><ele>3</ele></trkpt>
   <trkpt lat="60.166239" lon="24.966379"><ele>3</ele></trkpt>
   <trkpt lat="60.166222" lon="24.966461"><ele>3</ele></trkpt>
   <trkpt lat="60.166218" lon="24.966519"><ele>3</ele></trkpt>
   <trkpt lat="60.166215" lon="24.966641"><ele>3</ele></trkpt>
   <trkpt lat="60.166216" lon="24.966803"><ele>3</ele></trkpt>
   <trkpt lat="60.166216" lon="24.966853"><ele>3</ele></trkpt>
   <trkpt lat="60.166226" lon="24.967686"><ele>4.25</ele></trkpt>
   <trkpt lat="60.166214" lon="24.967961"><ele>4.25</ele></trkpt>
   <trkpt lat="60.166211" lon="24.967996"><ele>4.25</ele></trkpt>
   <trkpt lat="60.16619" lon="24.968254"><ele>4.25</ele></trkpt>
   <trkpt lat="60.166183" lon="24.968329"><ele>4.5</ele></trkpt>
   <trkpt lat="60.166152" lon="24.968684"><ele>4.25</ele></trkpt>
   <trkpt lat="60.166101" lon="24.96925"><ele>3.75</ele></trkpt>
  </trkseg>
 </trk>
</gpx>
