<?xml version="1.0" encoding="UTF-8"?>
<!-- track-length = 183 filtered ascend = 5 plain-ascend = 2 cost=366 energy=0.0kwh time=15s -->
<gpx 
 xmlns="http://www.topografix.com/GPX/1/1" 
 xmlns:xsi="http://www.w3.org/2001/XMLSchema-instance" 
 xsi:schemaLocation="http://www.topografix.com/GPX/1/1 http://www.topografix.com/GPX/1/1/gpx.xsd" 
 version="1.1" 
 creator="BRouter-Web 0.18.1">
 <trk>
  <name>Vyökatu (Steig Südwest) - Ulkoministeriö (Steig Südost)</name>
  <trkseg>
   <trkpt lat="60.166097" lon="24.969302"><ele>3.75</ele></trkpt>
   <trkpt lat="60.166091" lon="24.969509"><ele>4</ele></trkpt>
   <trkpt lat="60.166093" lon="24.969549"><ele>4.25</ele></trkpt>
   <trkpt lat="60.166094" lon="24.969583"><ele>4.25</ele></trkpt>
   <trkpt lat="60.166114" lon="24.969764"><ele>5</ele></trkpt>
   <trkpt lat="60.166153" lon="24.969939"><ele>5</ele></trkpt>
   <trkpt lat="60.166288" lon="24.970322"><ele>6</ele></trkpt>
   <trkpt lat="60.166301" lon="24.970361"><ele>6.25</ele></trkpt>
   <trkpt lat="60.166313" lon="24.970397"><ele>6.5</ele></trkpt>
   <trkpt lat="60.166384" lon="24.970627"><ele>8</ele></trkpt>
   <trkpt lat="60.166592" lon="24.971429"><ele>8.5</ele></trkpt>
   <trkpt lat="60.166599" lon="24.971458"><ele>8.75</ele></trkpt>
   <trkpt lat="60.166628" lon="24.97157"><ele>8.75</ele></trkpt>
   <trkpt lat="60.166654" lon="24.971672"><ele>8.75</ele></trkpt>
   <trkpt lat="60.166663" lon="24.971705"><ele>8.75</ele></trkpt>
   <trkpt lat="60.166796" lon="24.972231"><ele>6</ele></trkpt>
  </trkseg>
 </trk>
</gpx>