<?xml version="1.0" encoding="UTF-8"?>
<!-- track-length = 351 filtered ascend = 3 plain-ascend = 3 cost=702 energy=0.0kwh time=28s -->
<gpx 
 xmlns="http://www.topografix.com/GPX/1/1" 
 xmlns:xsi="http://www.w3.org/2001/XMLSchema-instance" 
 xsi:schemaLocation="http://www.topografix.com/GPX/1/1 http://www.topografix.com/GPX/1/1/gpx.xsd" 
 version="1.1" 
 creator="BRouter-Web 0.18.1">
 <trk>
  <name>Laajalahden aukio (Steig Nordost) - Tiilimäki (Steig Nordwest)</name>
  <trkseg>
   <trkpt lat="60.198001" lon="24.877118"><ele>4</ele></trkpt>
   <trkpt lat="60.19802" lon="24.877028"><ele>4</ele></trkpt>
   <trkpt lat="60.198084" lon="24.876731"><ele>4</ele></trkpt>
   <trkpt lat="60.19811" lon="24.876542"><ele>3.5</ele></trkpt>
   <trkpt lat="60.198117" lon="24.87644"><ele>3</ele></trkpt>
   <trkpt lat="60.198111" lon="24.876248"><ele>3</ele></trkpt>
   <trkpt lat="60.198079" lon="24.876024"><ele>3.25</ele></trkpt>
   <trkpt lat="60.198056" lon="24.875932"><ele>3.5</ele></trkpt>
   <trkpt lat="60.198019" lon="24.875825"><ele>4</ele></trkpt>
   <trkpt lat="60.19799" lon="24.875752"><ele>4</ele></trkpt>
   <trkpt lat="60.197949" lon="24.875677"><ele>4</ele></trkpt>
   <trkpt lat="60.1979" lon="24.875609"><ele>4</ele></trkpt>
   <trkpt lat="60.19727" lon="24.874898"><ele>4</ele></trkpt>
   <trkpt lat="60.197228" lon="24.87485"><ele>4</ele></trkpt>
   <trkpt lat="60.196269" lon="24.873765"><ele>4.5</ele></trkpt>
   <trkpt lat="60.196228" lon="24.873719"><ele>4.75</ele></trkpt>
   <trkpt lat="60.195902" lon="24.873346"><ele>7</ele></trkpt>
  </trkseg>
 </trk>
</gpx>