<?xml version="1.0" encoding="UTF-8"?>
<!-- track-length = 61 filtered ascend = 0 plain-ascend = 1 cost=122 energy=0.0kwh time=5s -->
<gpx 
 xmlns="http://www.topografix.com/GPX/1/1" 
 xmlns:xsi="http://www.w3.org/2001/XMLSchema-instance" 
 xsi:schemaLocation="http://www.topografix.com/GPX/1/1 http://www.topografix.com/GPX/1/1/gpx.xsd" 
 version="1.1" 
 creator="BRouter-Web 0.18.1">
 <trk>
  <name>Munkkiniemi Saunalahdentie Weiche West - Munkkiniemi Saunalahdentie (Steig Südwest)</name>
  <trkseg>
   <trkpt lat="60.194624" lon="24.871587"><ele>2.25</ele></trkpt>
   <trkpt lat="60.194624" lon="24.871593"><ele>2.25</ele></trkpt>
   <trkpt lat="60.194473" lon="24.872537"><ele>3</ele></trkpt>
   <trkpt lat="60.194458" lon="24.872629"><ele>3</ele></trkpt>
  </trkseg>
 </trk>
</gpx>