<?xml version="1.0" encoding="UTF-8"?>
<!-- track-length = 345 filtered ascend = 0 plain-ascend = 1 cost=690 energy=0.0kwh time=28s -->
<gpx 
 xmlns="http://www.topografix.com/GPX/1/1" 
 xmlns:xsi="http://www.w3.org/2001/XMLSchema-instance" 
 xsi:schemaLocation="http://www.topografix.com/GPX/1/1 http://www.topografix.com/GPX/1/1/gpx.xsd" 
 version="1.1" 
 creator="BRouter-Web 0.18.1">
 <trk>
  <name>Munkkiniemen puistotie (Steig Nordost) - Laajalahden aukio (Steig Nordost)</name>
  <trkseg>
   <trkpt lat="60.196841" lon="24.882888"><ele>3.25</ele></trkpt>
   <trkpt lat="60.197137" lon="24.881427"><ele>4</ele></trkpt>
   <trkpt lat="60.197151" lon="24.881354"><ele>4</ele></trkpt>
   <trkpt lat="60.197165" lon="24.88128"><ele>4</ele></trkpt>
   <trkpt lat="60.197584" lon="24.879215"><ele>4</ele></trkpt>
   <trkpt lat="60.197589" lon="24.879193"><ele>4</ele></trkpt>
   <trkpt lat="60.197607" lon="24.879102"><ele>4</ele></trkpt>
   <trkpt lat="60.197623" lon="24.879015"><ele>4</ele></trkpt>
   <trkpt lat="60.197629" lon="24.878985"><ele>4</ele></trkpt>
   <trkpt lat="60.198001" lon="24.877118"><ele>4</ele></trkpt>
  </trkseg>
 </trk>
</gpx>