<?xml version="1.0" encoding="UTF-8"?>
<!-- track-length = 454 filtered ascend = 29 plain-ascend = 29 cost=908 energy=0.0kwh time=36s -->
<gpx 
 xmlns="http://www.topografix.com/GPX/1/1" 
 xmlns:xsi="http://www.w3.org/2001/XMLSchema-instance" 
 xsi:schemaLocation="http://www.topografix.com/GPX/1/1 http://www.topografix.com/GPX/1/1/gpx.xsd" 
 version="1.1" 
 creator="BRouter-Web 99.71.0">
 <trk>
  <name>U Libušského potoka (Steig B) - Modřanská rokle (Steig B)</name>
  <link href="https://brouter.damsy.net/latest/#map=20/50.00625/14.42924/standard&amp;lonlats=14.423827,50.005723;14.429714,50.00609&amp;profile=rail">
   <text>BRouter-Web</text>
  </link>
  <trkseg>
   <trkpt lat="50.005718" lon="14.423829"><ele>235.5</ele></trkpt>
   <trkpt lat="50.005722" lon="14.423843"><ele>235.75</ele></trkpt>
   <trkpt lat="50.00573" lon="14.423868"><ele>235.75</ele></trkpt>
   <trkpt lat="50.006411" lon="14.4263"><ele>247</ele></trkpt>
   <trkpt lat="50.006469" lon="14.426543"><ele>248</ele></trkpt>
   <trkpt lat="50.006545" lon="14.426988"><ele>250.75</ele></trkpt>
   <trkpt lat="50.006569" lon="14.427193"><ele>251.75</ele></trkpt>
   <trkpt lat="50.006586" lon="14.42744"><ele>253</ele></trkpt>
   <trkpt lat="50.006594" lon="14.427644"><ele>254</ele></trkpt>
   <trkpt lat="50.006591" lon="14.427971"><ele>255.5</ele></trkpt>
   <trkpt lat="50.006584" lon="14.428074"><ele>256</ele></trkpt>
   <trkpt lat="50.006546" lon="14.428358"><ele>257.5</ele></trkpt>
   <trkpt lat="50.006512" lon="14.428526"><ele>258.5</ele></trkpt>
   <trkpt lat="50.006438" lon="14.428781"><ele>260</ele></trkpt>
   <trkpt lat="50.006403" lon="14.428881"><ele>260.75</ele></trkpt>
   <trkpt lat="50.006089" lon="14.429713"><ele>264.75</ele></trkpt>
  </trkseg>
 </trk>
</gpx>