<?xml version="1.0" encoding="UTF-8"?>
<!-- track-length = 72 filtered ascend = 0 plain-ascend = 0 cost=144 energy=0.0kwh time=6s -->
<gpx 
 xmlns="http://www.topografix.com/GPX/1/1" 
 xmlns:xsi="http://www.w3.org/2001/XMLSchema-instance" 
 xsi:schemaLocation="http://www.topografix.com/GPX/1/1 http://www.topografix.com/GPX/1/1/gpx.xsd" 
 version="1.1" 
 creator="BRouter-Web 0.18.1">
 <trk>
  <name>Abzweig Nationale Bank/Bourlastraat Weiche 112M207 - Abzweig Schleife Leopoldplaats Weiche 112E034</name>
  <trkseg>
   <trkpt lat="51.212165" lon="4.408676"><ele>7</ele></trkpt>
   <trkpt lat="51.212368" lon="4.407708"><ele>7</ele></trkpt>
   <trkpt lat="51.212368" lon="4.407707"><ele>7</ele></trkpt>
  </trkseg>
 </trk>
</gpx>