<?xml version="1.0" encoding="UTF-8"?>
<!-- track-length = 657 filtered ascend = 1 plain-ascend = 1 cost=1314 energy=0.0kwh time=53s -->
<gpx 
 xmlns="http://www.topografix.com/GPX/1/1" 
 xmlns:xsi="http://www.w3.org/2001/XMLSchema-instance" 
 xsi:schemaLocation="http://www.topografix.com/GPX/1/1 http://www.topografix.com/GPX/1/1/gpx.xsd" 
 version="1.1" 
 creator="BRouter-Web 0.18.1">
 <trk>
  <name>Bunkkerinaukio (Steig Südost) - Huutokonttori (Steig Ost)</name>
  <trkseg>
   <trkpt lat="60.154394" lon="24.919657"><ele>2.75</ele></trkpt>
   <trkpt lat="60.154472" lon="24.919739"><ele>2.75</ele></trkpt>
   <trkpt lat="60.154506" lon="24.919775"><ele>3</ele></trkpt>
   <trkpt lat="60.155042" lon="24.920353"><ele>3</ele></trkpt>
   <trkpt lat="60.155154" lon="24.920475"><ele>3</ele></trkpt>
   <trkpt lat="60.155172" lon="24.920494"><ele>3</ele></trkpt>
   <trkpt lat="60.155182" lon="24.920504"><ele>3</ele></trkpt>
   <trkpt lat="60.155221" lon="24.920546"><ele>2.75</ele></trkpt>
   <trkpt lat="60.155338" lon="24.920673"><ele>3</ele></trkpt>
   <trkpt lat="60.155371" lon="24.920709"><ele>3</ele></trkpt>
   <trkpt lat="60.155451" lon="24.920795"><ele>3.5</ele></trkpt>
   <trkpt lat="60.155465" lon="24.92081"><ele>3.5</ele></trkpt>
   <trkpt lat="60.156354" lon="24.921773"><ele>3.25</ele></trkpt>
   <trkpt lat="60.156558" lon="24.921983"><ele>3.25</ele></trkpt>
   <trkpt lat="60.156647" lon="24.92202"><ele>3</ele></trkpt>
   <trkpt lat="60.156737" lon="24.922016"><ele>3</ele></trkpt>
   <trkpt lat="60.15677" lon="24.922013"><ele>3</ele></trkpt>
   <trkpt lat="60.157012" lon="24.92197"><ele>3</ele></trkpt>
   <trkpt lat="60.157668" lon="24.92185"><ele>4</ele></trkpt>
   <trkpt lat="60.157731" lon="24.921839"><ele>4</ele></trkpt>
   <trkpt lat="60.158346" lon="24.921726"><ele>4</ele></trkpt>
   <trkpt lat="60.158361" lon="24.921723"><ele>4</ele></trkpt>
   <trkpt lat="60.158426" lon="24.921712"><ele>4</ele></trkpt>
   <trkpt lat="60.15849" lon="24.9217"><ele>4</ele></trkpt>
   <trkpt lat="60.158504" lon="24.921698"><ele>4</ele></trkpt>
   <trkpt lat="60.159104" lon="24.921588"><ele>4</ele></trkpt>
   <trkpt lat="60.159193" lon="24.921572"><ele>3.75</ele></trkpt>
   <trkpt lat="60.159402" lon="24.921535"><ele>3</ele></trkpt>
   <trkpt lat="60.159422" lon="24.921531"><ele>3</ele></trkpt>
   <trkpt lat="60.159758" lon="24.921432"><ele>3</ele></trkpt>
   <trkpt lat="60.159979" lon="24.921389"><ele>4</ele></trkpt>
  </trkseg>
 </trk>
</gpx>