<?xml version="1.0" encoding="UTF-8"?>
<!-- track-length = 191 filtered ascend = 0 plain-ascend = 0 cost=382 energy=0.0kwh time=15s -->
<gpx 
 xmlns="http://www.topografix.com/GPX/1/1" 
 xmlns:xsi="http://www.w3.org/2001/XMLSchema-instance" 
 xsi:schemaLocation="http://www.topografix.com/GPX/1/1 http://www.topografix.com/GPX/1/1/gpx.xsd" 
 version="1.1" 
 creator="BRouter-Web 0.18.1">
 <trk>
  <name>Dreieck Piazza della Repubblica Weiche Südwest-Nordwest - Turati M3 (Steig Nordwest)</name>
  <trkseg>
   <trkpt lat="45.477434" lon="9.19606"><ele>120</ele></trkpt>
   <trkpt lat="45.477353" lon="9.195984"><ele>120</ele></trkpt>
   <trkpt lat="45.477253" lon="9.195891"><ele>120</ele></trkpt>
   <trkpt lat="45.477182" lon="9.195826"><ele>119.75</ele></trkpt>
   <trkpt lat="45.476425" lon="9.195127"><ele>120</ele></trkpt>
   <trkpt lat="45.476258" lon="9.194974"><ele>119.75</ele></trkpt>
   <trkpt lat="45.476007" lon="9.19474"><ele>120.5</ele></trkpt>
   <trkpt lat="45.475979" lon="9.19472"><ele>120.25</ele></trkpt>
  </trkseg>
 </trk>
</gpx>
