<?xml version="1.0" encoding="UTF-8"?>
<!-- track-length = 152 filtered ascend = 0 plain-ascend = 0 cost=304 energy=0.0kwh time=12s -->
<gpx 
 xmlns="http://www.topografix.com/GPX/1/1" 
 xmlns:xsi="http://www.w3.org/2001/XMLSchema-instance" 
 xsi:schemaLocation="http://www.topografix.com/GPX/1/1 http://www.topografix.com/GPX/1/1/gpx.xsd" 
 version="1.1" 
 creator="BRouter-Web 0.18.1">
 <trk>
  <name>Repubblica M3 (Steig Südwest-Nordost) - Dreieck Piazza della Repubblica Weiche Südwest-Nordwest</name>
  <trkseg>
   <trkpt lat="45.478089" lon="9.19744"><ele>120</ele></trkpt>
   <trkpt lat="45.478114" lon="9.197383"><ele>120</ele></trkpt>
   <trkpt lat="45.478175" lon="9.197243"><ele>120.25</ele></trkpt>
   <trkpt lat="45.478189" lon="9.197187"><ele>120.25</ele></trkpt>
   <trkpt lat="45.478197" lon="9.197079"><ele>120.5</ele></trkpt>
   <trkpt lat="45.478191" lon="9.197004"><ele>120.25</ele></trkpt>
   <trkpt lat="45.478187" lon="9.196982"><ele>120.25</ele></trkpt>
   <trkpt lat="45.47816" lon="9.196895"><ele>120.25</ele></trkpt>
   <trkpt lat="45.47812" lon="9.196824"><ele>120</ele></trkpt>
   <trkpt lat="45.47806" lon="9.196759"><ele>120</ele></trkpt>
   <trkpt lat="45.477984" lon="9.196689"><ele>120</ele></trkpt>
   <trkpt lat="45.477963" lon="9.19667"><ele>120</ele></trkpt>
   <trkpt lat="45.477618" lon="9.196352"><ele>120</ele></trkpt>
   <trkpt lat="45.477558" lon="9.196274"><ele>120</ele></trkpt>
   <trkpt lat="45.477507" lon="9.196173"><ele>120</ele></trkpt>
   <trkpt lat="45.477437" lon="9.196062"><ele>120</ele></trkpt>
   <trkpt lat="45.477434" lon="9.19606"><ele>120</ele></trkpt>
  </trkseg>
 </trk>
</gpx>
