<?xml version="1.0" encoding="UTF-8"?>
<!-- track-length = 361 filtered ascend = 1 plain-ascend = 2 cost=722 energy=0.0kwh time=29s -->
<gpx 
 xmlns="http://www.topografix.com/GPX/1/1" 
 xmlns:xsi="http://www.w3.org/2001/XMLSchema-instance" 
 xsi:schemaLocation="http://www.topografix.com/GPX/1/1 http://www.topografix.com/GPX/1/1/gpx.xsd" 
 version="1.1" 
 creator="BRouter-Web 0.18.1">
 <trk>
  <name>Teatro Alla Scala (Steig Nordwest) - Cordusio M1 (Steig Nordost-Nord)</name>
  <trkseg>
   <trkpt lat="45.467573" lon="9.190118"><ele>119.5</ele></trkpt>
   <trkpt lat="45.467504" lon="9.190042"><ele>120</ele></trkpt>
   <trkpt lat="45.46748" lon="9.190017"><ele>120</ele></trkpt>
   <trkpt lat="45.467455" lon="9.189993"><ele>120</ele></trkpt>
   <trkpt lat="45.467355" lon="9.189911"><ele>120.5</ele></trkpt>
   <trkpt lat="45.467315" lon="9.189873"><ele>120.75</ele></trkpt>
   <trkpt lat="45.467134" lon="9.189648"><ele>121</ele></trkpt>
   <trkpt lat="45.467023" lon="9.189504"><ele>121</ele></trkpt>
   <trkpt lat="45.466961" lon="9.189392"><ele>120.75</ele></trkpt>
   <trkpt lat="45.46693" lon="9.189337"><ele>120.5</ele></trkpt>
   <trkpt lat="45.466852" lon="9.189241"><ele>120.5</ele></trkpt>
   <trkpt lat="45.466644" lon="9.189029"><ele>120</ele></trkpt>
   <trkpt lat="45.466528" lon="9.188924"><ele>119.75</ele></trkpt>
   <trkpt lat="45.466507" lon="9.188904"><ele>120</ele></trkpt>
   <trkpt lat="45.466205" lon="9.188633"><ele>118.5</ele></trkpt>
   <trkpt lat="45.465972" lon="9.188428"><ele>119.25</ele></trkpt>
   <trkpt lat="45.465829" lon="9.188317"><ele>120.75</ele></trkpt>
   <trkpt lat="45.465815" lon="9.188306"><ele>120.75</ele></trkpt>
   <trkpt lat="45.465735" lon="9.188242"><ele>120.5</ele></trkpt>
   <trkpt lat="45.4657" lon="9.188202"><ele>120.5</ele></trkpt>
   <trkpt lat="45.465652" lon="9.188102"><ele>120.25</ele></trkpt>
   <trkpt lat="45.465632" lon="9.188016"><ele>120.25</ele></trkpt>
   <trkpt lat="45.465627" lon="9.187922"><ele>120.5</ele></trkpt>
   <trkpt lat="45.465629" lon="9.187122"><ele>121</ele></trkpt>
   <trkpt lat="45.465628" lon="9.186973"><ele>121</ele></trkpt>
   <trkpt lat="45.46563" lon="9.186896"><ele>121</ele></trkpt>
  </trkseg>
 </trk>
</gpx>