<?xml version="1.0" encoding="UTF-8"?>
<!-- track-length = 1606 filtered ascend = 0 plain-ascend = 0 cost=1606 energy=0.0kwh time=2m 8s -->
<gpx 
 xmlns="http://www.topografix.com/GPX/1/1" 
 xmlns:xsi="http://www.w3.org/2001/XMLSchema-instance" 
 xsi:schemaLocation="http://www.topografix.com/GPX/1/1 http://www.topografix.com/GPX/1/1/gpx.xsd" 
 version="1.1" 
 creator="BRouter-Web 0.18.1">
 <trk>
  <name>006 Kouvola Weiche 460 - Kouvola Weiche 072</name>
  <trkseg>
   <trkpt lat="60.868054" lon="26.744919"><ele>72</ele></trkpt>
   <trkpt lat="60.868055" lon="26.744938"><ele>72</ele></trkpt>
   <trkpt lat="60.867975" lon="26.744108"><ele>72</ele></trkpt>
   <trkpt lat="60.867717" lon="26.741445"><ele>71.75</ele></trkpt>
   <trkpt lat="60.867412" lon="26.738235"><ele>71.5</ele></trkpt>
   <trkpt lat="60.867286" lon="26.7371"><ele>72</ele></trkpt>
   <trkpt lat="60.867224" lon="26.736623"><ele>71.75</ele></trkpt>
   <trkpt lat="60.867135" lon="26.735973"><ele>72</ele></trkpt>
   <trkpt lat="60.866675" lon="26.732991"><ele>72</ele></trkpt>
   <trkpt lat="60.866543" lon="26.731974"><ele>71.25</ele></trkpt>
   <trkpt lat="60.866464" lon="26.731285"><ele>71.5</ele></trkpt>
   <trkpt lat="60.866394" lon="26.730616"><ele>72</ele></trkpt>
   <trkpt lat="60.865636" lon="26.722725"><ele>71.25</ele></trkpt>
   <trkpt lat="60.86557" lon="26.721988"><ele>72</ele></trkpt>
   <trkpt lat="60.865519" lon="26.721255"><ele>71.75</ele></trkpt>
   <trkpt lat="60.865484" lon="26.720548"><ele>71.5</ele></trkpt>
   <trkpt lat="60.865466" lon="26.720019"><ele>71.5</ele></trkpt>
   <trkpt lat="60.865452" lon="26.719117"><ele>71.5</ele></trkpt>
   <trkpt lat="60.865455" lon="26.718513"><ele>71.5</ele></trkpt>
   <trkpt lat="60.865491" lon="26.717245"><ele>71.75</ele></trkpt>
   <trkpt lat="60.865501" lon="26.716963"><ele>71.75</ele></trkpt>
   <trkpt lat="60.865535" lon="26.716021"><ele>71.75</ele></trkpt>
   <trkpt lat="60.865535" lon="26.716017"><ele>71.75</ele></trkpt>
  </trkseg>
 </trk>
</gpx>