<?xml version="1.0" encoding="UTF-8"?>
<!-- track-length = 102 filtered ascend = 1 plain-ascend = 1 cost=204 energy=0.0kwh time=8s -->
<gpx 
 xmlns="http://www.topografix.com/GPX/1/1" 
 xmlns:xsi="http://www.w3.org/2001/XMLSchema-instance" 
 xsi:schemaLocation="http://www.topografix.com/GPX/1/1 http://www.topografix.com/GPX/1/1/gpx.xsd" 
 version="1.1" 
 creator="BRouter-Web 0.18.1">
 <trk>
  <name>Abzweig Raxstraße Weiche 10-17a/05 - Raxstraße (Steig Neilreichgasse-Nordwest)</name>
  <trkseg>
   <trkpt lat="48.165955" lon="16.363603"><ele>243.25</ele></trkpt>
   <trkpt lat="48.165952" lon="16.363602"><ele>243.5</ele></trkpt>
   <trkpt lat="48.165861" lon="16.363576"><ele>243.75</ele></trkpt>
   <trkpt lat="48.165748" lon="16.363567"><ele>243.75</ele></trkpt>
   <trkpt lat="48.165635" lon="16.363584"><ele>243.75</ele></trkpt>
   <trkpt lat="48.165463" lon="16.363622"><ele>244.25</ele></trkpt>
   <trkpt lat="48.165355" lon="16.363615"><ele>244.5</ele></trkpt>
   <trkpt lat="48.16525" lon="16.363587"><ele>244.75</ele></trkpt>
   <trkpt lat="48.165061" lon="16.363519"><ele>244.5</ele></trkpt>
  </trkseg>
 </trk>
</gpx>