<?xml version="1.0" encoding="UTF-8"?>
<!-- track-length = 442 filtered ascend = 0 plain-ascend = -22 cost=884 energy=0.0kwh time=35s -->
<gpx 
 xmlns="http://www.topografix.com/GPX/1/1" 
 xmlns:xsi="http://www.w3.org/2001/XMLSchema-instance" 
 xsi:schemaLocation="http://www.topografix.com/GPX/1/1 http://www.topografix.com/GPX/1/1/gpx.xsd" 
 version="1.1" 
 creator="BRouter-Web 0.18.1">
 <trk>
  <name>Sahulkastraße (Steig Nordwest) - Wienerfeldgasse (Steig Nordwest)</name>
  <trkseg>
   <trkpt lat="48.162127" lon="16.362144"><ele>237.25</ele></trkpt>
   <trkpt lat="48.162057" lon="16.362102"><ele>237</ele></trkpt>
   <trkpt lat="48.160986" lon="16.361526"><ele>230.25</ele></trkpt>
   <trkpt lat="48.16059" lon="16.361329"><ele>228</ele></trkpt>
   <trkpt lat="48.160225" lon="16.361163"><ele>225.5</ele></trkpt>
   <trkpt lat="48.159727" lon="16.360942"><ele>223</ele></trkpt>
   <trkpt lat="48.159619" lon="16.360895"><ele>222.5</ele></trkpt>
   <trkpt lat="48.159486" lon="16.360834"><ele>222</ele></trkpt>
   <trkpt lat="48.158416" lon="16.360343"><ele>215.5</ele></trkpt>
   <trkpt lat="48.158338" lon="16.360307"><ele>214.75</ele></trkpt>
  </trkseg>
 </trk>
</gpx>