<?xml version="1.0" encoding="UTF-8"?>
<!-- track-length = 432 filtered ascend = 1 plain-ascend = -3 cost=864 energy=0.0kwh time=35s -->
<gpx 
 xmlns="http://www.topografix.com/GPX/1/1" 
 xmlns:xsi="http://www.w3.org/2001/XMLSchema-instance" 
 xsi:schemaLocation="http://www.topografix.com/GPX/1/1 http://www.topografix.com/GPX/1/1/gpx.xsd" 
 version="1.1" 
 creator="BRouter-Web 0.18.1">
 <trk>
  <name>Kalnciema iela (Steig Nordost) - Abzweig Wendeschleife Zasulauka stacija Weiche Nord</name>
  <trkseg>
   <trkpt lat="56.940475" lon="24.057561"><ele>15</ele></trkpt>
   <trkpt lat="56.940478" lon="24.05756"><ele>15.25</ele></trkpt>
   <trkpt lat="56.940528" lon="24.057533"><ele>16.25</ele></trkpt>
   <trkpt lat="56.940771" lon="24.057398"><ele>12.75</ele></trkpt>
   <trkpt lat="56.941007" lon="24.057264"><ele>11</ele></trkpt>
   <trkpt lat="56.941492" lon="24.05699"><ele>11</ele></trkpt>
   <trkpt lat="56.941969" lon="24.056728"><ele>11</ele></trkpt>
   <trkpt lat="56.942096" lon="24.05662"><ele>11</ele></trkpt>
   <trkpt lat="56.942164" lon="24.056549"><ele>11</ele></trkpt>
   <trkpt lat="56.942195" lon="24.056499"><ele>11</ele></trkpt>
   <trkpt lat="56.942308" lon="24.05633"><ele>11</ele></trkpt>
   <trkpt lat="56.942423" lon="24.056086"><ele>11</ele></trkpt>
   <trkpt lat="56.942723" lon="24.055403"><ele>11</ele></trkpt>
   <trkpt lat="56.942751" lon="24.05526"><ele>11</ele></trkpt>
   <trkpt lat="56.94276" lon="24.055211"><ele>11</ele></trkpt>
   <trkpt lat="56.942761" lon="24.055138"><ele>11</ele></trkpt>
   <trkpt lat="56.942746" lon="24.054964"><ele>11</ele></trkpt>
   <trkpt lat="56.942709" lon="24.054839"><ele>11</ele></trkpt>
   <trkpt lat="56.942632" lon="24.054635"><ele>11</ele></trkpt>
   <trkpt lat="56.94255" lon="24.054416"><ele>11</ele></trkpt>
   <trkpt lat="56.942455" lon="24.054025"><ele>11.25</ele></trkpt>
   <trkpt lat="56.942425" lon="24.053893"><ele>11.5</ele></trkpt>
   <trkpt lat="56.942331" lon="24.053348"><ele>11.25</ele></trkpt>
   <trkpt lat="56.94233" lon="24.053345"><ele>11.25</ele></trkpt>
  </trkseg>
 </trk>
</gpx>
