<?xml version="1.0" encoding="UTF-8"?>
<!-- track-length = 426 filtered ascend = 1 plain-ascend = 1 cost=852 energy=0.0kwh time=34s -->
<gpx 
 xmlns="http://www.topografix.com/GPX/1/1" 
 xmlns:xsi="http://www.w3.org/2001/XMLSchema-instance" 
 xsi:schemaLocation="http://www.topografix.com/GPX/1/1 http://www.topografix.com/GPX/1/1/gpx.xsd" 
 version="1.1" 
 creator="BRouter-Web 0.18.1">
 <trk>
  <name>Āgenskalna tirgus (Steig Nord) - Pārslas iela (Steig Nordost)</name>
  <trkseg>
   <trkpt lat="56.935662" lon="24.070102"><ele>9</ele></trkpt>
   <trkpt lat="56.935663" lon="24.070097"><ele>9</ele></trkpt>
   <trkpt lat="56.935677" lon="24.069904"><ele>9</ele></trkpt>
   <trkpt lat="56.935737" lon="24.069137"><ele>9.5</ele></trkpt>
   <trkpt lat="56.935742" lon="24.068987"><ele>9.5</ele></trkpt>
   <trkpt lat="56.93574" lon="24.068762"><ele>9.5</ele></trkpt>
   <trkpt lat="56.935736" lon="24.068591"><ele>9.5</ele></trkpt>
   <trkpt lat="56.93574" lon="24.068339"><ele>9.5</ele></trkpt>
   <trkpt lat="56.935777" lon="24.067979"><ele>9.75</ele></trkpt>
   <trkpt lat="56.935845" lon="24.067413"><ele>10</ele></trkpt>
   <trkpt lat="56.935908" lon="24.067064"><ele>10</ele></trkpt>
   <trkpt lat="56.935971" lon="24.066764"><ele>10</ele></trkpt>
   <trkpt lat="56.936022" lon="24.066513"><ele>10</ele></trkpt>
   <trkpt lat="56.93611" lon="24.066086"><ele>10</ele></trkpt>
   <trkpt lat="56.93625" lon="24.065411"><ele>10</ele></trkpt>
   <trkpt lat="56.936474" lon="24.064328"><ele>10.25</ele></trkpt>
   <trkpt lat="56.93662" lon="24.063595"><ele>10.75</ele></trkpt>
   <trkpt lat="56.936651" lon="24.063391"><ele>10</ele></trkpt>
   <trkpt lat="56.936651" lon="24.06339"><ele>10</ele></trkpt>
  </trkseg>
 </trk>
</gpx>