<?xml version="1.0" encoding="UTF-8"?>
<!-- track-length = 152 filtered ascend = 0 plain-ascend = 0 cost=304 energy=0.0kwh time=12s -->
<gpx 
 xmlns="http://www.topografix.com/GPX/1/1" 
 xmlns:xsi="http://www.w3.org/2001/XMLSchema-instance" 
 xsi:schemaLocation="http://www.topografix.com/GPX/1/1 http://www.topografix.com/GPX/1/1/gpx.xsd" 
 version="1.1" 
 creator="BRouter-Web 0.18.1">
 <trk>
  <name>Abzweig Hakaniemi Weiche Ost - Hakaniemi (Steig West-Ost)</name>
  <trkseg>
   <trkpt lat="60.178214" lon="24.950135"><ele>3.25</ele></trkpt>
   <trkpt lat="60.178216" lon="24.950138"><ele>3.25</ele></trkpt>
   <trkpt lat="60.178247" lon="24.950161"><ele>3.25</ele></trkpt>
   <trkpt lat="60.178276" lon="24.950185"><ele>3</ele></trkpt>
   <trkpt lat="60.178303" lon="24.950201"><ele>3</ele></trkpt>
   <trkpt lat="60.178318" lon="24.95021"><ele>3</ele></trkpt>
   <trkpt lat="60.178371" lon="24.950226"><ele>3</ele></trkpt>
   <trkpt lat="60.178432" lon="24.950236"><ele>3</ele></trkpt>
   <trkpt lat="60.178549" lon="24.950226"><ele>3</ele></trkpt>
   <trkpt lat="60.179566" lon="24.950114"><ele>3</ele></trkpt>
  </trkseg>
 </trk>
</gpx>