<?xml version="1.0" encoding="UTF-8"?>
<!-- track-length = 64 filtered ascend = 0 plain-ascend = 1 cost=128 energy=0.0kwh time=5s -->
<gpx 
 xmlns="http://www.topografix.com/GPX/1/1" 
 xmlns:xsi="http://www.w3.org/2001/XMLSchema-instance" 
 xsi:schemaLocation="http://www.topografix.com/GPX/1/1 http://www.topografix.com/GPX/1/1/gpx.xsd" 
 version="1.1" 
 creator="BRouter-Web 0.18.1">
 <trk>
  <name>Hakaniemi (Steig West-Ost) - Hakaniemi Bauweiche Nordwest-Ost</name>
  <trkseg>
   <trkpt lat="60.179566" lon="24.950114"><ele>3</ele></trkpt>
   <trkpt lat="60.179596" lon="24.950111"><ele>3</ele></trkpt>
   <trkpt lat="60.179652" lon="24.950096"><ele>3</ele></trkpt>
   <trkpt lat="60.179697" lon="24.950077"><ele>3</ele></trkpt>
   <trkpt lat="60.179776" lon="24.950012"><ele>3</ele></trkpt>
   <trkpt lat="60.179859" lon="24.949938"><ele>3</ele></trkpt>
   <trkpt lat="60.179923" lon="24.949883"><ele>3</ele></trkpt>
   <trkpt lat="60.180006" lon="24.949837"><ele>3</ele></trkpt>
   <trkpt lat="60.180036" lon="24.949826"><ele>3</ele></trkpt>
   <trkpt lat="60.180114" lon="24.949809"><ele>3.75</ele></trkpt>
  </trkseg>
 </trk>
</gpx>