<?xml version="1.0" encoding="UTF-8"?>
<!-- track-length = 121 filtered ascend = 1 plain-ascend = 2 cost=242 energy=0.0kwh time=10s -->
<gpx 
 xmlns="http://www.topografix.com/GPX/1/1" 
 xmlns:xsi="http://www.w3.org/2001/XMLSchema-instance" 
 xsi:schemaLocation="http://www.topografix.com/GPX/1/1 http://www.topografix.com/GPX/1/1/gpx.xsd" 
 version="1.1" 
 creator="BRouter-Web 0.18.1">
 <trk>
  <name>Dreieck Dahlienweg Weiche 27 - Dreieck Dahlienweg Weiche Süd-West</name>
  <trkseg>
   <trkpt lat="51.045359" lon="13.678528"><ele>140.25</ele></trkpt>
   <trkpt lat="51.045373" lon="13.678851"><ele>140</ele></trkpt>
   <trkpt lat="51.045369" lon="13.678984"><ele>140</ele></trkpt>
   <trkpt lat="51.045357" lon="13.679122"><ele>140</ele></trkpt>
   <trkpt lat="51.045337" lon="13.679233"><ele>140</ele></trkpt>
   <trkpt lat="51.045301" lon="13.679345"><ele>140</ele></trkpt>
   <trkpt lat="51.045236" lon="13.679474"><ele>140.25</ele></trkpt>
   <trkpt lat="51.045151" lon="13.679583"><ele>140.5</ele></trkpt>
   <trkpt lat="51.045077" lon="13.679648"><ele>140.75</ele></trkpt>
   <trkpt lat="51.044951" lon="13.679709"><ele>141</ele></trkpt>
   <trkpt lat="51.044835" lon="13.679731"><ele>141.5</ele></trkpt>
   <trkpt lat="51.044833" lon="13.679731"><ele>141.75</ele></trkpt>
  </trkseg>
 </trk>
</gpx>