<?xml version="1.0" encoding="UTF-8"?>
<!-- track-length = 46 filtered ascend = 0 plain-ascend = 0 cost=92 energy=0.0kwh time=4s -->
<gpx 
 xmlns="http://www.topografix.com/GPX/1/1" 
 xmlns:xsi="http://www.w3.org/2001/XMLSchema-instance" 
 xsi:schemaLocation="http://www.topografix.com/GPX/1/1 http://www.topografix.com/GPX/1/1/gpx.xsd" 
 version="1.1" 
 creator="BRouter-Web 0.18.1">
 <trk>
  <name>Dreieck Matzleinsdorfer Platz Weiche 05-05/07 - Dreieck Matzleinsdorfer Platz Weiche Südost-Südwest</name>
  <trkseg>
   <trkpt lat="48.180821" lon="16.359279"/>
   <trkpt lat="48.180838" lon="16.359326"/>
   <trkpt lat="48.180808" lon="16.359261"/>
   <trkpt lat="48.18076" lon="16.359197"/>
   <trkpt lat="48.180732" lon="16.359175"/>
   <trkpt lat="48.180677" lon="16.359151"/>
   <trkpt lat="48.180606" lon="16.359152"/>
   <trkpt lat="48.180522" lon="16.359202"/>
   <trkpt lat="48.180516" lon="16.359206"/>
  </trkseg>
 </trk>
</gpx>