<?xml version="1.0" encoding="UTF-8"?>
<!-- track-length = 1038 filtered ascend = 9 plain-ascend = -7 cost=2078 energy=0.0kwh time=1m 23s -->
<gpx 
 xmlns="http://www.topografix.com/GPX/1/1" 
 xmlns:xsi="http://www.w3.org/2001/XMLSchema-instance" 
 xsi:schemaLocation="http://www.topografix.com/GPX/1/1 http://www.topografix.com/GPX/1/1/gpx.xsd" 
 version="1.1" 
 creator="BRouter-Web 0.18.1">
 <trk>
  <name>Kapucínska (Steig B) - Dreieck Chatam Sófer Weiche 023</name>
  <trkseg>
   <trkpt lat="48.144945" lon="17.104972"><ele>151</ele></trkpt>
   <trkpt lat="48.144891" lon="17.104844"><ele>150.5</ele></trkpt>
   <trkpt lat="48.144814" lon="17.104655"><ele>151.25</ele></trkpt>
   <trkpt lat="48.144779" lon="17.104549"><ele>152.25</ele></trkpt>
   <trkpt lat="48.144652" lon="17.104102"><ele>154.5</ele></trkpt>
   <trkpt lat="48.144604" lon="17.103847"><ele>155.75</ele></trkpt>
   <trkpt lat="48.14458" lon="17.10363"><ele>156.75</ele></trkpt>
   <trkpt lat="48.144573" lon="17.103505"><ele>157.5</ele></trkpt>
   <trkpt lat="48.14457" lon="17.10333"><ele>157.5</ele></trkpt>
   <trkpt lat="48.144569" lon="17.103108"><ele>158.25</ele></trkpt>
   <trkpt lat="48.144545" lon="17.102985"><ele>158.5</ele></trkpt>
   <trkpt lat="48.144511" lon="17.102901"><ele>158.75</ele></trkpt>
   <trkpt lat="48.144447" lon="17.102813"><ele>158.75</ele></trkpt>
   <trkpt lat="48.144245" lon="17.102656"><ele>160</ele></trkpt>
   <trkpt lat="48.144204" lon="17.102618"><ele>159.75</ele></trkpt>
   <trkpt lat="48.144153" lon="17.102547"><ele>159.75</ele></trkpt>
   <trkpt lat="48.144131" lon="17.102511"><ele>160.25</ele></trkpt>
   <trkpt lat="48.144104" lon="17.102437"><ele>160</ele></trkpt>
   <trkpt lat="48.143947" lon="17.101696"><ele>158.75</ele></trkpt>
   <trkpt lat="48.142247" lon="17.093669"><ele>144</ele></trkpt>
   <trkpt lat="48.141957" lon="17.092305"><ele>141.75</ele></trkpt>
   <trkpt lat="48.141935" lon="17.092223"><ele>141.75</ele></trkpt>
   <trkpt lat="48.141912" lon="17.092167"><ele>142.75</ele></trkpt>
   <trkpt lat="48.14189" lon="17.092123"><ele>143</ele></trkpt>
   <trkpt lat="48.141829" lon="17.092033"><ele>143.5</ele></trkpt>
  </trkseg>
 </trk>
</gpx>
