<?xml version="1.0" encoding="UTF-8"?>
<!-- track-length = 52 filtered ascend = 0 plain-ascend = 0 cost=105 energy=0.0kwh time=4s -->
<gpx 
 xmlns="http://www.topografix.com/GPX/1/1" 
 xmlns:xsi="http://www.w3.org/2001/XMLSchema-instance" 
 xsi:schemaLocation="http://www.topografix.com/GPX/1/1 http://www.topografix.com/GPX/1/1/gpx.xsd" 
 version="1.1" 
 creator="BRouter-Web 0.18.1">
 <trk>
  <name>Dreieck Inkognitogata Weiche Ost-Nord - Dreieck Inkognitogata Weiche West-Nord</name>
  <trkseg>
   <trkpt lat="59.915238" lon="10.721559"><ele>23.75</ele></trkpt>
   <trkpt lat="59.915238" lon="10.721556"><ele>23.75</ele></trkpt>
   <trkpt lat="59.915221" lon="10.721241"><ele>23.75</ele></trkpt>
   <trkpt lat="59.915209" lon="10.721002"><ele>23.75</ele></trkpt>
   <trkpt lat="59.915205" lon="10.720951"><ele>23.75</ele></trkpt>
   <trkpt lat="59.915181" lon="10.720651"><ele>23.75</ele></trkpt>
  </trkseg>
 </trk>
</gpx>