<?xml version="1.0" encoding="UTF-8"?>
<!-- track-length = 218 filtered ascend = 9 plain-ascend = 9 cost=438 energy=0.0kwh time=17s -->
<gpx 
 xmlns="http://www.topografix.com/GPX/1/1" 
 xmlns:xsi="http://www.w3.org/2001/XMLSchema-instance" 
 xsi:schemaLocation="http://www.topografix.com/GPX/1/1 http://www.topografix.com/GPX/1/1/gpx.xsd" 
 version="1.1" 
 creator="BRouter-Web 99.71.0">
 <trk>
  <name>Abzweig Wrocławska Weiche Nordost - Abzweig Aleje Marcinkowskiego Weiche Nordost</name>
  <link href="https://brouter.damsy.net/latest/#map=19/52.40689/16.92946/standard&amp;lonlats=16.931167,52.405859;16.928713,52.407056">
   <text>BRouter-Web</text>
  </link>
  <trkseg>
   <trkpt lat="52.405858" lon="16.931166"><ele>61.75</ele></trkpt>
   <trkpt lat="52.405877" lon="16.931123"><ele>61.75</ele></trkpt>
   <trkpt lat="52.406578" lon="16.929458"><ele>68.75</ele></trkpt>
   <trkpt lat="52.406844" lon="16.928828"><ele>71</ele></trkpt>
   <trkpt lat="52.406892" lon="16.928769"><ele>71</ele></trkpt>
   <trkpt lat="52.406937" lon="16.928736"><ele>71</ele></trkpt>
   <trkpt lat="52.406982" lon="16.928719"><ele>70.75</ele></trkpt>
   <trkpt lat="52.407021" lon="16.928713"><ele>70.75</ele></trkpt>
   <trkpt lat="52.407055" lon="16.928717"><ele>70.75</ele></trkpt>
  </trkseg>
 </trk>
</gpx>