<?xml version="1.0" encoding="UTF-8"?>
<!-- track-length = 400 filtered ascend = 0 plain-ascend = 1 cost=800 energy=0.0kwh time=32s -->
<gpx 
 xmlns="http://www.topografix.com/GPX/1/1" 
 xmlns:xsi="http://www.w3.org/2001/XMLSchema-instance" 
 xsi:schemaLocation="http://www.topografix.com/GPX/1/1 http://www.topografix.com/GPX/1/1/gpx.xsd" 
 version="1.1" 
 creator="BRouter-Web 0.18.1">
 <trk>
  <name>Abzweig Wendeschleife Zasulauka stacija Weiche Südost - Kalnciema iela (Steig Südwest)</name>
  <trkseg>
   <trkpt lat="56.941819" lon="24.053807"><ele>11</ele></trkpt>
   <trkpt lat="56.941821" lon="24.05381"><ele>11</ele></trkpt>
   <trkpt lat="56.942475" lon="24.054444"><ele>11</ele></trkpt>
   <trkpt lat="56.942569" lon="24.054551"><ele>11</ele></trkpt>
   <trkpt lat="56.942612" lon="24.054648"><ele>11</ele></trkpt>
   <trkpt lat="56.942662" lon="24.054768"><ele>11</ele></trkpt>
   <trkpt lat="56.942726" lon="24.054952"><ele>11</ele></trkpt>
   <trkpt lat="56.942746" lon="24.055171"><ele>11</ele></trkpt>
   <trkpt lat="56.942737" lon="24.055235"><ele>11</ele></trkpt>
   <trkpt lat="56.942682" lon="24.055431"><ele>11</ele></trkpt>
   <trkpt lat="56.942583" lon="24.055662"><ele>11</ele></trkpt>
   <trkpt lat="56.942287" lon="24.056299"><ele>11</ele></trkpt>
   <trkpt lat="56.942179" lon="24.05646"><ele>11</ele></trkpt>
   <trkpt lat="56.942079" lon="24.05658"><ele>11</ele></trkpt>
   <trkpt lat="56.941986" lon="24.056651"><ele>11</ele></trkpt>
   <trkpt lat="56.941773" lon="24.056782"><ele>11</ele></trkpt>
   <trkpt lat="56.941481" lon="24.056942"><ele>11</ele></trkpt>
   <trkpt lat="56.940997" lon="24.057208"><ele>11</ele></trkpt>
   <trkpt lat="56.940824" lon="24.057303"><ele>11.5</ele></trkpt>
  </trkseg>
 </trk>
</gpx>