<?xml version="1.0" encoding="UTF-8"?>
<!-- track-length = 826 filtered ascend = 0 plain-ascend = -1 cost=1652 energy=0.0kwh time=1m 6s -->
<gpx 
 xmlns="http://www.topografix.com/GPX/1/1" 
 xmlns:xsi="http://www.w3.org/2001/XMLSchema-instance" 
 xsi:schemaLocation="http://www.topografix.com/GPX/1/1 http://www.topografix.com/GPX/1/1/gpx.xsd" 
 version="1.1" 
 creator="BRouter-Web 0.18.1">
 <trk>
  <name>Eduarda Smiļģa iela (Steig Südost) - Aleksandra Grīna bulvāris (Steig Südwest-Südost)</name>
  <trkseg>
   <trkpt lat="56.9366" lon="24.075867"><ele>5.75</ele></trkpt>
   <trkpt lat="56.936602" lon="24.075872"><ele>5.75</ele></trkpt>
   <trkpt lat="56.936626" lon="24.075993"><ele>5.5</ele></trkpt>
   <trkpt lat="56.936675" lon="24.076307"><ele>5</ele></trkpt>
   <trkpt lat="56.936682" lon="24.076363"><ele>5</ele></trkpt>
   <trkpt lat="56.936712" lon="24.076766"><ele>5.25</ele></trkpt>
   <trkpt lat="56.936719" lon="24.077142"><ele>5</ele></trkpt>
   <trkpt lat="56.936713" lon="24.079139"><ele>4.75</ele></trkpt>
   <trkpt lat="56.936727" lon="24.079576"><ele>4.75</ele></trkpt>
   <trkpt lat="56.936749" lon="24.079833"><ele>4.25</ele></trkpt>
   <trkpt lat="56.93676" lon="24.07989"><ele>4.25</ele></trkpt>
   <trkpt lat="56.936803" lon="24.080013"><ele>4</ele></trkpt>
   <trkpt lat="56.936869" lon="24.08014"><ele>4</ele></trkpt>
   <trkpt lat="56.936938" lon="24.080225"><ele>4</ele></trkpt>
   <trkpt lat="56.937005" lon="24.080277"><ele>4</ele></trkpt>
   <trkpt lat="56.937128" lon="24.080308"><ele>4</ele></trkpt>
   <trkpt lat="56.937543" lon="24.080346"><ele>4</ele></trkpt>
   <trkpt lat="56.937876" lon="24.080415"><ele>4</ele></trkpt>
   <trkpt lat="56.938112" lon="24.080485"><ele>4</ele></trkpt>
   <trkpt lat="56.938286" lon="24.080554"><ele>4</ele></trkpt>
   <trkpt lat="56.938501" lon="24.080656"><ele>4.5</ele></trkpt>
   <trkpt lat="56.938728" lon="24.080794"><ele>4.75</ele></trkpt>
   <trkpt lat="56.93888" lon="24.080899"><ele>4.75</ele></trkpt>
   <trkpt lat="56.941366" lon="24.08265"><ele>4</ele></trkpt>
   <trkpt lat="56.941608" lon="24.082823"><ele>4</ele></trkpt>
  </trkseg>
 </trk>
</gpx>