<?xml version="1.0" encoding="UTF-8"?>
<!-- track-length = 455 filtered ascend = 0 plain-ascend = -1 cost=910 energy=0.0kwh time=36s -->
<gpx 
 xmlns="http://www.topografix.com/GPX/1/1" 
 xmlns:xsi="http://www.w3.org/2001/XMLSchema-instance" 
 xsi:schemaLocation="http://www.topografix.com/GPX/1/1 http://www.topografix.com/GPX/1/1/gpx.xsd" 
 version="1.1" 
 creator="BRouter-Web 0.18.1">
 <trk>
  <name>Pārslas iela (Steig Südwest) - Āgenskalna tirgus (Steig Süd)</name>
  <trkseg>
   <trkpt lat="56.936599" lon="24.063571"><ele>10.5</ele></trkpt>
   <trkpt lat="56.936574" lon="24.063733"><ele>10.5</ele></trkpt>
   <trkpt lat="56.9363" lon="24.065075"><ele>10</ele></trkpt>
   <trkpt lat="56.93628" lon="24.065169"><ele>10</ele></trkpt>
   <trkpt lat="56.935926" lon="24.066898"><ele>10</ele></trkpt>
   <trkpt lat="56.935833" lon="24.0674"><ele>9.75</ele></trkpt>
   <trkpt lat="56.935816" lon="24.067532"><ele>9.75</ele></trkpt>
   <trkpt lat="56.935723" lon="24.068352"><ele>9.5</ele></trkpt>
   <trkpt lat="56.935721" lon="24.068588"><ele>9.5</ele></trkpt>
   <trkpt lat="56.935723" lon="24.068656"><ele>9.5</ele></trkpt>
   <trkpt lat="56.935725" lon="24.068755"><ele>9.5</ele></trkpt>
   <trkpt lat="56.935726" lon="24.068998"><ele>9.5</ele></trkpt>
   <trkpt lat="56.9357" lon="24.069386"><ele>9.5</ele></trkpt>
   <trkpt lat="56.935661" lon="24.069885"><ele>9</ele></trkpt>
   <trkpt lat="56.935624" lon="24.07034"><ele>9</ele></trkpt>
   <trkpt lat="56.935587" lon="24.070784"><ele>9</ele></trkpt>
  </trkseg>
 </trk>
</gpx>