<?xml version="1.0" encoding="UTF-8"?>
<!-- track-length = 89 filtered ascend = 0 plain-ascend = 0 cost=178 energy=0.0kwh time=7s -->
<gpx 
 xmlns="http://www.topografix.com/GPX/1/1" 
 xmlns:xsi="http://www.w3.org/2001/XMLSchema-instance" 
 xsi:schemaLocation="http://www.topografix.com/GPX/1/1 http://www.topografix.com/GPX/1/1/gpx.xsd" 
 version="1.1" 
 creator="BRouter-Web 99.71.0">
 <trk>
  <name>Dreieck Zamek Weiche Ost-Nord - Dreieck Zamek Weiche Süd-West</name>
  <link href="https://brouter.damsy.net/latest/#map=18/52.40666/16.91884/standard&amp;lonlats=16.918049,52.407352;16.91716,52.406919">
   <text>BRouter-Web</text>
  </link>
  <trkseg>
   <trkpt lat="52.407352" lon="16.918049"><ele>76.75</ele></trkpt>
   <trkpt lat="52.407353" lon="16.918046"><ele>77</ele></trkpt>
   <trkpt lat="52.407359" lon="16.917926"><ele>77</ele></trkpt>
   <trkpt lat="52.40736" lon="16.917872"><ele>77</ele></trkpt>
   <trkpt lat="52.407356" lon="16.917783"><ele>77</ele></trkpt>
   <trkpt lat="52.407346" lon="16.917712"><ele>77</ele></trkpt>
   <trkpt lat="52.407316" lon="16.917582"><ele>77</ele></trkpt>
   <trkpt lat="52.4073" lon="16.91753"><ele>77</ele></trkpt>
   <trkpt lat="52.407274" lon="16.917465"><ele>77</ele></trkpt>
   <trkpt lat="52.407232" lon="16.917383"><ele>77</ele></trkpt>
   <trkpt lat="52.407172" lon="16.917301"><ele>77</ele></trkpt>
   <trkpt lat="52.407106" lon="16.917238"><ele>77</ele></trkpt>
   <trkpt lat="52.407098" lon="16.917232"><ele>77</ele></trkpt>
   <trkpt lat="52.407085" lon="16.917222"><ele>77</ele></trkpt>
   <trkpt lat="52.407019" lon="16.917184"><ele>77</ele></trkpt>
   <trkpt lat="52.406939" lon="16.917164"><ele>76.75</ele></trkpt>
   <trkpt lat="52.40693" lon="16.917162"><ele>76.75</ele></trkpt>
   <trkpt lat="52.406917" lon="16.91716"><ele>76</ele></trkpt>
  </trkseg>
 </trk>
</gpx>