<?xml version="1.0" encoding="UTF-8"?>
<!-- track-length = 55 filtered ascend = 0 plain-ascend = 0 cost=110 energy=0.0kwh time=4s -->
<gpx 
 xmlns="http://www.topografix.com/GPX/1/1" 
 xmlns:xsi="http://www.w3.org/2001/XMLSchema-instance" 
 xsi:schemaLocation="http://www.topografix.com/GPX/1/1 http://www.topografix.com/GPX/1/1/gpx.xsd" 
 version="1.1" 
 creator="BRouter-Web 99.71.0">
 <trk>
  <name>Poznań Główny (Steig Nord-West) - Dreieck Poznań Główny Weiche Nord-West</name>
  <link href="https://brouter.damsy.net/latest/#map=19/52.40320/16.91632/standard&amp;lonlats=16.916448,52.403565;16.916502,52.403083">
   <text>BRouter-Web</text>
  </link>
  <trkseg>
   <trkpt lat="52.403565" lon="16.916448"><ele>76.25</ele></trkpt>
   <trkpt lat="52.403449" lon="16.916461"><ele>76.5</ele></trkpt>
   <trkpt lat="52.403416" lon="16.916464"><ele>76.5</ele></trkpt>
   <trkpt lat="52.403311" lon="16.916474"><ele>76.5</ele></trkpt>
   <trkpt lat="52.403159" lon="16.916489"><ele>76.5</ele></trkpt>
   <trkpt lat="52.403082" lon="16.916497"><ele>76.5</ele></trkpt>
  </trkseg>
 </trk>
</gpx>