<?xml version="1.0" encoding="UTF-8"?>
<!-- track-length = 45 filtered ascend = 0 plain-ascend = 0 cost=92 energy=0.0kwh time=4s -->
<gpx 
 xmlns="http://www.topografix.com/GPX/1/1" 
 xmlns:xsi="http://www.w3.org/2001/XMLSchema-instance" 
 xsi:schemaLocation="http://www.topografix.com/GPX/1/1 http://www.topografix.com/GPX/1/1/gpx.xsd" 
 version="1.1" 
 creator="BRouter-Web 0.18.1">
 <trk>
  <name>Dreieck Holzmarkt Weiche OOO1 - Dreieck Holzmarkt Weiche 61</name>
  <trkseg>
   <trkpt lat="50.926966" lon="11.586971"><ele>147.75</ele></trkpt>
   <trkpt lat="50.926969" lon="11.586845"><ele>148</ele></trkpt>
   <trkpt lat="50.926989" lon="11.586605"><ele>148</ele></trkpt>
   <trkpt lat="50.927026" lon="11.586353"><ele>148</ele></trkpt>
   <trkpt lat="50.927026" lon="11.586348"><ele>148</ele></trkpt>
  </trkseg>
 </trk>
</gpx>