<?xml version="1.0" encoding="UTF-8"?>
<!-- track-length = 39 filtered ascend = 0 plain-ascend = 0 cost=78 energy=0.0kwh time=3s -->
<gpx 
 xmlns="http://www.topografix.com/GPX/1/1" 
 xmlns:xsi="http://www.w3.org/2001/XMLSchema-instance" 
 xsi:schemaLocation="http://www.topografix.com/GPX/1/1 http://www.topografix.com/GPX/1/1/gpx.xsd" 
 version="1.1" 
 creator="BRouter-Web 99.71.0">
 <trk>
  <name>Dreieck Otakarova/Na Zámecké Weiche Südwest-Süd - Dreieck Otakarova/Na Zámecké Weiche Süd-West</name>
  <link href="https://brouter.damsy.net/latest/#map=18/50.06517/14.44202/standard&amp;lonlats=14.440896,50.065702;14.441303,50.065564&amp;profile=rail">
   <text>BRouter-Web</text>
  </link>
  <trkseg>
   <trkpt lat="50.065701" lon="14.440895"><ele>197</ele></trkpt>
   <trkpt lat="50.065701" lon="14.440893"><ele>197</ele></trkpt>
   <trkpt lat="50.065714" lon="14.440945"><ele>197</ele></trkpt>
   <trkpt lat="50.06572" lon="14.441001"><ele>197</ele></trkpt>
   <trkpt lat="50.065712" lon="14.44111"><ele>197</ele></trkpt>
   <trkpt lat="50.065696" lon="14.441163"><ele>197</ele></trkpt>
   <trkpt lat="50.065654" lon="14.441241"><ele>197</ele></trkpt>
   <trkpt lat="50.065626" lon="14.44127"><ele>197</ele></trkpt>
   <trkpt lat="50.065564" lon="14.441303"><ele>197</ele></trkpt>
  </trkseg>
 </trk>
</gpx>