<?xml version="1.0" encoding="UTF-8"?>
<!-- track-length = 143 filtered ascend = 4 plain-ascend = 4 cost=286 energy=0.0kwh time=12s -->
<gpx 
 xmlns="http://www.topografix.com/GPX/1/1" 
 xmlns:xsi="http://www.w3.org/2001/XMLSchema-instance" 
 xsi:schemaLocation="http://www.topografix.com/GPX/1/1 http://www.topografix.com/GPX/1/1/gpx.xsd" 
 version="1.1" 
 creator="BRouter-Web 99.71.0">
 <trk>
  <name>Abzweig Wendeschleife Nové sady smyčka Weiche 709 - Abzweig Nove sady Weiche 125</name>
  <link href="https://brouter.damsy.net/latest/#map=18/49.19011/16.60990/standard&amp;lonlats=16.607444,49.189123;16.608623,49.189896;16.608814,49.190002&amp;profile=rail">
   <text>BRouter-Web</text>
  </link>
  <trkseg>
   <trkpt lat="49.189122" lon="16.607443"><ele>201.75</ele></trkpt>
   <trkpt lat="49.189123" lon="16.607447"><ele>201.75</ele></trkpt>
   <trkpt lat="49.189125" lon="16.607467"><ele>201.75</ele></trkpt>
   <trkpt lat="49.189131" lon="16.607509"><ele>201.75</ele></trkpt>
   <trkpt lat="49.189137" lon="16.607549"><ele>201.75</ele></trkpt>
   <trkpt lat="49.189173" lon="16.60766"><ele>202</ele></trkpt>
   <trkpt lat="49.189191" lon="16.607705"><ele>202</ele></trkpt>
   <trkpt lat="49.189238" lon="16.607786"><ele>202.25</ele></trkpt>
   <trkpt lat="49.189866" lon="16.608589"><ele>204.5</ele></trkpt>
   <trkpt lat="49.189894" lon="16.608625"><ele>204.75</ele></trkpt>
   <trkpt lat="49.189933" lon="16.608677"><ele>204.75</ele></trkpt>
   <trkpt lat="49.189986" lon="16.608786"><ele>205</ele></trkpt>
   <trkpt lat="49.189998" lon="16.608812"><ele>205</ele></trkpt>
   <trkpt lat="49.189999" lon="16.608815"><ele>205.5</ele></trkpt>
  </trkseg>
 </trk>
</gpx>
