<?xml version="1.0" encoding="UTF-8"?>
<!-- track-length = 1647 filtered ascend = 0 plain-ascend = -8 cost=3294 energy=0.0kwh time=2m 12s -->
<gpx 
 xmlns="http://www.topografix.com/GPX/1/1" 
 xmlns:xsi="http://www.w3.org/2001/XMLSchema-instance" 
 xsi:schemaLocation="http://www.topografix.com/GPX/1/1 http://www.topografix.com/GPX/1/1/gpx.xsd" 
 version="1.1" 
 creator="BRouter-Web 99.71.0">
 <trk>
  <name>Puotila (Gleis Südwest) - Üst Rastila Weiche H1</name>
  <link href="https://brouter.damsy.net/latest/#map=19/60.20616/25.11677/standard&amp;lonlats=25.093522,60.214617;25.116881,60.206144&amp;profile=rail">
   <text>BRouter-Web</text>
  </link>
  <trkseg>
   <trkpt lat="60.214614" lon="25.093521"><ele>15.25</ele></trkpt>
   <trkpt lat="60.214581" lon="25.094002"><ele>15.25</ele></trkpt>
   <trkpt lat="60.214519" lon="25.094998"><ele>15.25</ele></trkpt>
   <trkpt lat="60.214411" lon="25.096085"><ele>15.25</ele></trkpt>
   <trkpt lat="60.214121" lon="25.097312"><ele>15.25</ele></trkpt>
   <trkpt lat="60.213568" lon="25.098571"><ele>15.25</ele></trkpt>
   <trkpt lat="60.212079" lon="25.101497"><ele>15.25</ele></trkpt>
   <trkpt lat="60.211027" lon="25.103083"><ele>15.25</ele></trkpt>
   <trkpt lat="60.210179" lon="25.104266"><ele>15.25</ele></trkpt>
   <trkpt lat="60.209685" lon="25.105152"><ele>15.25</ele></trkpt>
   <trkpt lat="60.209228" lon="25.10597"><ele>4</ele></trkpt>
   <trkpt lat="60.209049" lon="25.106334"><ele>3</ele></trkpt>
   <trkpt lat="60.208801" lon="25.106884"><ele>3.25</ele></trkpt>
   <trkpt lat="60.208549" lon="25.107509"><ele>4</ele></trkpt>
   <trkpt lat="60.208431" lon="25.107841"><ele>4</ele></trkpt>
   <trkpt lat="60.208156" lon="25.108736"><ele>4</ele></trkpt>
   <trkpt lat="60.208023" lon="25.109209"><ele>4</ele></trkpt>
   <trkpt lat="60.20655" lon="25.114887"><ele>5</ele></trkpt>
   <trkpt lat="60.206401" lon="25.115512"><ele>5</ele></trkpt>
   <trkpt lat="60.206316" lon="25.115924"><ele>5</ele></trkpt>
   <trkpt lat="60.206143" lon="25.11687"><ele>5.5</ele></trkpt>
   <trkpt lat="60.206141" lon="25.116879"><ele>6.25</ele></trkpt>
  </trkseg>
 </trk>
</gpx>
