<?xml version="1.0" encoding="UTF-8"?>
<!-- track-length = 961 filtered ascend = 0 plain-ascend = -1 cost=1922 energy=0.0kwh time=1m 17s -->
<gpx 
 xmlns="http://www.topografix.com/GPX/1/1" 
 xmlns:xsi="http://www.w3.org/2001/XMLSchema-instance" 
 xsi:schemaLocation="http://www.topografix.com/GPX/1/1 http://www.topografix.com/GPX/1/1/gpx.xsd" 
 version="1.1" 
 creator="BRouter-Web 99.71.0">
 <trk>
  <name>Rastila (Gleis Südwest) - Üst Vuosaari Weiche H3</name>
  <link href="https://brouter.damsy.net/latest/#map=18/60.20705/25.14217/standard&amp;lonlats=25.122351,60.205167;25.138753,60.206864&amp;profile=rail">
   <text>BRouter-Web</text>
  </link>
  <trkseg>
   <trkpt lat="60.205167" lon="25.122351"><ele>9.75</ele></trkpt>
   <trkpt lat="60.205109" lon="25.122677"><ele>9.75</ele></trkpt>
   <trkpt lat="60.204923" lon="25.123777"><ele>7.5</ele></trkpt>
   <trkpt lat="60.204861" lon="25.12425"><ele>8.5</ele></trkpt>
   <trkpt lat="60.204812" lon="25.124713"><ele>9.25</ele></trkpt>
   <trkpt lat="60.204776" lon="25.125181"><ele>7.75</ele></trkpt>
   <trkpt lat="60.20475" lon="25.125687"><ele>7.25</ele></trkpt>
   <trkpt lat="60.204737" lon="25.126196"><ele>8</ele></trkpt>
   <trkpt lat="60.204737" lon="25.126693"><ele>8</ele></trkpt>
   <trkpt lat="60.204754" lon="25.127187"><ele>8.25</ele></trkpt>
   <trkpt lat="60.204779" lon="25.127619"><ele>8.5</ele></trkpt>
   <trkpt lat="60.204814" lon="25.128055"><ele>8.5</ele></trkpt>
   <trkpt lat="60.204862" lon="25.128491"><ele>9</ele></trkpt>
   <trkpt lat="60.204921" lon="25.128929"><ele>8.5</ele></trkpt>
   <trkpt lat="60.205" lon="25.129405"><ele>8.75</ele></trkpt>
   <trkpt lat="60.205093" lon="25.129877"><ele>9</ele></trkpt>
   <trkpt lat="60.205197" lon="25.13034"><ele>8.75</ele></trkpt>
   <trkpt lat="60.205312" lon="25.130786"><ele>8.25</ele></trkpt>
   <trkpt lat="60.205488" lon="25.131387"><ele>8.5</ele></trkpt>
   <trkpt lat="60.205773" lon="25.132312"><ele>7.75</ele></trkpt>
   <trkpt lat="60.206074" lon="25.133363"><ele>7</ele></trkpt>
   <trkpt lat="60.206235" lon="25.134037"><ele>8.75</ele></trkpt>
   <trkpt lat="60.20638" lon="25.134726"><ele>7</ele></trkpt>
   <trkpt lat="60.206499" lon="25.135374"><ele>10</ele></trkpt>
   <trkpt lat="60.206693" lon="25.136718"><ele>7.25</ele></trkpt>
   <trkpt lat="60.206763" lon="25.137415"><ele>9</ele></trkpt>
   <trkpt lat="60.206859" lon="25.138753"><ele>8</ele></trkpt>
  </trkseg>
 </trk>
</gpx>
