<?xml version="1.0" encoding="UTF-8"?>
<!-- track-length = 100 filtered ascend = 0 plain-ascend = 0 cost=202 energy=0.0kwh time=8s -->
<gpx 
 xmlns="http://www.topografix.com/GPX/1/1" 
 xmlns:xsi="http://www.w3.org/2001/XMLSchema-instance" 
 xsi:schemaLocation="http://www.topografix.com/GPX/1/1 http://www.topografix.com/GPX/1/1/gpx.xsd" 
 version="1.1" 
 creator="BRouter-Web 99.71.0">
 <trk>
  <name>Üst Vuosaari Weiche H3 - Üst Vuosaari Weiche L4</name>
  <link href="https://brouter.damsy.net/latest/#map=17/60.20633/25.14685/standard&amp;lonlats=25.138753,60.206864;25.140462,60.207116&amp;profile=rail">
   <text>BRouter-Web</text>
  </link>
  <trkseg>
   <trkpt lat="60.206859" lon="25.138753"><ele>8</ele></trkpt>
   <trkpt lat="60.20686" lon="25.138762"><ele>8</ele></trkpt>
   <trkpt lat="60.206916" lon="25.139215"><ele>8</ele></trkpt>
   <trkpt lat="60.206958" lon="25.139465"><ele>8</ele></trkpt>
   <trkpt lat="60.207063" lon="25.139999"><ele>8</ele></trkpt>
   <trkpt lat="60.207116" lon="25.140461"><ele>8</ele></trkpt>
  </trkseg>
 </trk>
</gpx>