<?xml version="1.0" encoding="UTF-8"?>
<!-- track-length = 599 filtered ascend = 0 plain-ascend = 0 cost=1198 energy=0.0kwh time=48s -->
<gpx 
 xmlns="http://www.topografix.com/GPX/1/1" 
 xmlns:xsi="http://www.w3.org/2001/XMLSchema-instance" 
 xsi:schemaLocation="http://www.topografix.com/GPX/1/1 http://www.topografix.com/GPX/1/1/gpx.xsd" 
 version="1.1" 
 creator="BRouter-Web 99.71.0">
 <trk>
  <name>Üst Itäkeskus M1-Nordost Weiche Nordost-Südost - Puotila (Gleis Südwest)</name>
  <link href="https://brouter.damsy.net/latest/#map=20/60.21466/25.09337/standard&amp;lonlats=25.084187,60.212667;25.093522,60.214617&amp;profile=rail">
   <text>BRouter-Web</text>
  </link>
  <trkseg>
   <trkpt lat="60.212666" lon="25.084186"/>
   <trkpt lat="60.213093" lon="25.084915"/>
   <trkpt lat="60.213541" lon="25.085742"/>
   <trkpt lat="60.214002" lon="25.08696"/>
   <trkpt lat="60.214417" lon="25.088311"/>
   <trkpt lat="60.21466" lon="25.089384"/>
   <trkpt lat="60.214772" lon="25.090379"/>
   <trkpt lat="60.214778" lon="25.091156"/>
   <trkpt lat="60.214614" lon="25.093521"/>
  </trkseg>
 </trk>
</gpx>
