<?xml version="1.0" encoding="UTF-8"?>
<!-- track-length = 429 filtered ascend = 0 plain-ascend = -1 cost=858 energy=0.0kwh time=34s -->
<gpx 
 xmlns="http://www.topografix.com/GPX/1/1" 
 xmlns:xsi="http://www.w3.org/2001/XMLSchema-instance" 
 xsi:schemaLocation="http://www.topografix.com/GPX/1/1 http://www.topografix.com/GPX/1/1/gpx.xsd" 
 version="1.1" 
 creator="BRouter-Web 0.18.1">
 <trk>
  <name>Säulingstraße (Steig Südost) - Fachnerstraße (Steig Südost)</name>
  <trkseg>
   <trkpt lat="48.127618" lon="11.512531"><ele>534</ele></trkpt>
   <trkpt lat="48.127921" lon="11.513288"><ele>534</ele></trkpt>
   <trkpt lat="48.128311" lon="11.514187"><ele>533</ele></trkpt>
   <trkpt lat="48.128502" lon="11.514594"><ele>533</ele></trkpt>
   <trkpt lat="48.128575" lon="11.51475"><ele>533</ele></trkpt>
   <trkpt lat="48.128703" lon="11.515032"><ele>533</ele></trkpt>
   <trkpt lat="48.128825" lon="11.515279"><ele>533</ele></trkpt>
   <trkpt lat="48.129082" lon="11.515773"><ele>532.25</ele></trkpt>
   <trkpt lat="48.129361" lon="11.516251"><ele>532</ele></trkpt>
   <trkpt lat="48.12963" lon="11.516676"><ele>532</ele></trkpt>
   <trkpt lat="48.129699" lon="11.516786"><ele>532</ele></trkpt>
   <trkpt lat="48.129848" lon="11.517016"><ele>532</ele></trkpt>
   <trkpt lat="48.129916" lon="11.517115"><ele>532</ele></trkpt>
  </trkseg>
 </trk>
</gpx>