<?xml version="1.0" encoding="UTF-8"?>
<!-- track-length = 169 filtered ascend = 0 plain-ascend = 0 cost=340 energy=0.0kwh time=14s -->
<gpx 
 xmlns="http://www.topografix.com/GPX/1/1" 
 xmlns:xsi="http://www.w3.org/2001/XMLSchema-instance" 
 xsi:schemaLocation="http://www.topografix.com/GPX/1/1 http://www.topografix.com/GPX/1/1/gpx.xsd" 
 version="1.1" 
 creator="BRouter-Web 99.71.0">
 <trk>
  <name>Düsseldorf Kreuz Bilker Kirche Weiche 328 - Düsseldorf Völklinger Straße S (Steig 1)</name>
  <link href="https://brouter.damsy.net/latest/#map=20/51.20980/6.76248/standard&amp;lonlats=6.763034,51.211203;6.762151,51.20981&amp;nogos=6.781752,51.218852,6&amp;profile=rail">
   <text>BRouter-Web</text>
  </link>
  <trkseg>
   <trkpt lat="51.211203" lon="6.763034"><ele>37</ele></trkpt>
   <trkpt lat="51.211083" lon="6.763023"><ele>37</ele></trkpt>
   <trkpt lat="51.210911" lon="6.763003"><ele>37</ele></trkpt>
   <trkpt lat="51.210815" lon="6.762967"><ele>37</ele></trkpt>
   <trkpt lat="51.210651" lon="6.762843"><ele>37</ele></trkpt>
   <trkpt lat="51.210272" lon="6.762526"><ele>36</ele></trkpt>
   <trkpt lat="51.210253" lon="6.762511"><ele>36</ele></trkpt>
   <trkpt lat="51.210224" lon="6.762485"><ele>36</ele></trkpt>
   <trkpt lat="51.210193" lon="6.76246"><ele>36</ele></trkpt>
   <trkpt lat="51.209818" lon="6.762157"><ele>36</ele></trkpt>
   <trkpt lat="51.209809" lon="6.76215"><ele>36</ele></trkpt>
  </trkseg>
 </trk>
</gpx>