<?xml version="1.0" encoding="UTF-8"?>
<!-- track-length = 355 filtered ascend = 2 plain-ascend = 1 cost=710 energy=0.0kwh time=28s -->
<gpx 
 xmlns="http://www.topografix.com/GPX/1/1" 
 xmlns:xsi="http://www.w3.org/2001/XMLSchema-instance" 
 xsi:schemaLocation="http://www.topografix.com/GPX/1/1 http://www.topografix.com/GPX/1/1/gpx.xsd" 
 version="1.1" 
 creator="BRouter-Web 99.71.0">
 <trk>
  <name>Düsseldorf Völklinger Straße S (Steig 1) - Düsseldorf Georg-Schulhoff-Platz (Steig 1)</name>
  <link href="https://brouter.damsy.net/latest/#map=20/51.20741/6.75969/standard&amp;lonlats=6.762151,51.20981;6.759277,51.20739&amp;nogos=6.781752,51.218852,6&amp;profile=rail">
   <text>BRouter-Web</text>
  </link>
  <trkseg>
   <trkpt lat="51.209809" lon="6.76215"><ele>36</ele></trkpt>
   <trkpt lat="51.209761" lon="6.762111"><ele>36</ele></trkpt>
   <trkpt lat="51.209512" lon="6.761908"><ele>36</ele></trkpt>
   <trkpt lat="51.209393" lon="6.761809"><ele>36</ele></trkpt>
   <trkpt lat="51.208821" lon="6.76135"><ele>36</ele></trkpt>
   <trkpt lat="51.208563" lon="6.761139"><ele>36</ele></trkpt>
   <trkpt lat="51.208317" lon="6.760938"><ele>36.5</ele></trkpt>
   <trkpt lat="51.208152" lon="6.760804"><ele>37</ele></trkpt>
   <trkpt lat="51.20774" lon="6.760467"><ele>38</ele></trkpt>
   <trkpt lat="51.207675" lon="6.7604"><ele>38</ele></trkpt>
   <trkpt lat="51.207599" lon="6.760286"><ele>38</ele></trkpt>
   <trkpt lat="51.207585" lon="6.76026"><ele>38</ele></trkpt>
   <trkpt lat="51.207573" lon="6.760232"><ele>38</ele></trkpt>
   <trkpt lat="51.207526" lon="6.760084"><ele>38</ele></trkpt>
   <trkpt lat="51.207423" lon="6.759482"><ele>38</ele></trkpt>
   <trkpt lat="51.207388" lon="6.759276"><ele>37</ele></trkpt>
  </trkseg>
 </trk>
</gpx>