<?xml version="1.0" encoding="UTF-8"?>
<!-- track-length = 52 filtered ascend = 0 plain-ascend = 0 cost=104 energy=0.0kwh time=4s -->
<gpx 
 xmlns="http://www.topografix.com/GPX/1/1" 
 xmlns:xsi="http://www.w3.org/2001/XMLSchema-instance" 
 xsi:schemaLocation="http://www.topografix.com/GPX/1/1 http://www.topografix.com/GPX/1/1/gpx.xsd" 
 version="1.1" 
 creator="BRouter-Web 0.18.1">
 <trk>
  <name>Dreieck Okresní soud Weiche 3 - Dreieck Okresní soud Weiche 8</name>
  <trkseg>
   <trkpt lat="49.591751" lon="17.249364"><ele>215</ele></trkpt>
   <trkpt lat="49.591753" lon="17.249368"><ele>215</ele></trkpt>
   <trkpt lat="49.591774" lon="17.249405"><ele>215</ele></trkpt>
   <trkpt lat="49.591814" lon="17.249465"><ele>215</ele></trkpt>
   <trkpt lat="49.591846" lon="17.249497"><ele>215</ele></trkpt>
   <trkpt lat="49.591893" lon="17.249527"><ele>215</ele></trkpt>
   <trkpt lat="49.591934" lon="17.24954"><ele>215</ele></trkpt>
   <trkpt lat="49.591965" lon="17.249547"><ele>215</ele></trkpt>
   <trkpt lat="49.59203" lon="17.249537"><ele>215</ele></trkpt>
   <trkpt lat="49.592087" lon="17.249508"><ele>215</ele></trkpt>
   <trkpt lat="49.59215" lon="17.249444"><ele>215</ele></trkpt>
   <trkpt lat="49.592153" lon="17.249439"><ele>215</ele></trkpt>
  </trkseg>
 </trk>
</gpx>