<?xml version="1.0" encoding="UTF-8"?>
<!-- track-length = 398 filtered ascend = 0 plain-ascend = 0 cost=796 energy=0.0kwh time=32s -->
<gpx 
 xmlns="http://www.topografix.com/GPX/1/1" 
 xmlns:xsi="http://www.w3.org/2001/XMLSchema-instance" 
 xsi:schemaLocation="http://www.topografix.com/GPX/1/1 http://www.topografix.com/GPX/1/1/gpx.xsd" 
 version="1.1" 
 creator="BRouter-Web 0.18.1">
 <trk>
  <name>Dreieck Okresní soud Weiche 8 - Náměstí Hrdinů (Steig A)</name>
  <trkseg>
   <trkpt lat="49.592153" lon="17.249439"><ele>215</ele></trkpt>
   <trkpt lat="49.592155" lon="17.249438"><ele>215</ele></trkpt>
   <trkpt lat="49.592792" lon="17.248625"><ele>215</ele></trkpt>
   <trkpt lat="49.592935" lon="17.248432"><ele>215.25</ele></trkpt>
   <trkpt lat="49.593126" lon="17.248189"><ele>214.75</ele></trkpt>
   <trkpt lat="49.593478" lon="17.247786"><ele>215</ele></trkpt>
   <trkpt lat="49.593654" lon="17.247583"><ele>215</ele></trkpt>
   <trkpt lat="49.593759" lon="17.247493"><ele>215</ele></trkpt>
   <trkpt lat="49.593795" lon="17.247469"><ele>215</ele></trkpt>
   <trkpt lat="49.593872" lon="17.247425"><ele>215</ele></trkpt>
   <trkpt lat="49.593962" lon="17.247389"><ele>215</ele></trkpt>
   <trkpt lat="49.594199" lon="17.247338"><ele>215</ele></trkpt>
   <trkpt lat="49.594389" lon="17.247296"><ele>215</ele></trkpt>
   <trkpt lat="49.59461" lon="17.247264"><ele>215</ele></trkpt>
   <trkpt lat="49.595123" lon="17.24721"><ele>215</ele></trkpt>
   <trkpt lat="49.595194" lon="17.24721"><ele>215</ele></trkpt>
   <trkpt lat="49.595261" lon="17.247223"><ele>215</ele></trkpt>
   <trkpt lat="49.595263" lon="17.247223"><ele>215</ele></trkpt>
  </trkseg>
 </trk>
</gpx>