<?xml version="1.0" encoding="UTF-8"?>
<!-- track-length = 43 filtered ascend = 0 plain-ascend = 0 cost=86 energy=0.0kwh time=3s -->
<gpx 
 xmlns="http://www.topografix.com/GPX/1/1" 
 xmlns:xsi="http://www.w3.org/2001/XMLSchema-instance" 
 xsi:schemaLocation="http://www.topografix.com/GPX/1/1 http://www.topografix.com/GPX/1/1/gpx.xsd" 
 version="1.1" 
 creator="BRouter-Web 0.18.1">
 <trk>
  <name>Harmonie (Steig Südwest) - Dreieck Harmonie Weiche Nordwest-Südwest</name>
  <trkseg>
   <trkpt lat="51.201152" lon="4.413007"><ele>10</ele></trkpt>
   <trkpt lat="51.201114" lon="4.413042"><ele>10</ele></trkpt>
   <trkpt lat="51.201059" lon="4.413074"><ele>10</ele></trkpt>
   <trkpt lat="51.20102" lon="4.413076"><ele>10</ele></trkpt>
   <trkpt lat="51.200958" lon="4.413065"><ele>10</ele></trkpt>
   <trkpt lat="51.200922" lon="4.413043"><ele>10</ele></trkpt>
   <trkpt lat="51.200897" lon="4.413016"><ele>10</ele></trkpt>
   <trkpt lat="51.200825" lon="4.412892"><ele>9.75</ele></trkpt>
   <trkpt lat="51.200824" lon="4.41289"><ele>9.75</ele></trkpt>
  </trkseg>
 </trk>
</gpx>