<?xml version="1.0" encoding="UTF-8"?>
<!-- track-length = 558 filtered ascend = 0 plain-ascend = 0 cost=1116 energy=0.0kwh time=45s -->
<gpx 
 xmlns="http://www.topografix.com/GPX/1/1" 
 xmlns:xsi="http://www.w3.org/2001/XMLSchema-instance" 
 xsi:schemaLocation="http://www.topografix.com/GPX/1/1 http://www.topografix.com/GPX/1/1/gpx.xsd" 
 version="1.1" 
 creator="BRouter-Web 0.18.1">
 <trk>
  <name>Markgravelei (Steig Nordwest) - de Singel (Steig Nordwest)</name>
  <trkseg>
   <trkpt lat="51.197367" lon="4.407005"><ele>10</ele></trkpt>
   <trkpt lat="51.197352" lon="4.406965"><ele>10</ele></trkpt>
   <trkpt lat="51.19728" lon="4.406792"><ele>10</ele></trkpt>
   <trkpt lat="51.197204" lon="4.406638"><ele>10</ele></trkpt>
   <trkpt lat="51.196931" lon="4.406188"><ele>10</ele></trkpt>
   <trkpt lat="51.196868" lon="4.406094"><ele>10</ele></trkpt>
   <trkpt lat="51.194915" lon="4.403314"><ele>9</ele></trkpt>
   <trkpt lat="51.194689" lon="4.403017"><ele>9</ele></trkpt>
   <trkpt lat="51.194524" lon="4.402767"><ele>9</ele></trkpt>
   <trkpt lat="51.194495" lon="4.402722"><ele>9</ele></trkpt>
   <trkpt lat="51.194415" lon="4.402584"><ele>9.5</ele></trkpt>
   <trkpt lat="51.194299" lon="4.402409"><ele>9.75</ele></trkpt>
   <trkpt lat="51.194222" lon="4.402303"><ele>9.75</ele></trkpt>
   <trkpt lat="51.194205" lon="4.402281"><ele>9.75</ele></trkpt>
   <trkpt lat="51.193704" lon="4.401601"><ele>10</ele></trkpt>
  </trkseg>
 </trk>
</gpx>