<?xml version="1.0" encoding="UTF-8"?>
<!-- track-length = 79 filtered ascend = 0 plain-ascend = 0 cost=158 energy=0.0kwh time=6s -->
<gpx 
 xmlns="http://www.topografix.com/GPX/1/1" 
 xmlns:xsi="http://www.w3.org/2001/XMLSchema-instance" 
 xsi:schemaLocation="http://www.topografix.com/GPX/1/1 http://www.topografix.com/GPX/1/1/gpx.xsd" 
 version="1.1" 
 creator="BRouter-Web 0.18.1">
 <trk>
  <name>Olympiade (Steig Nordwest) - Dreieck P+R Olympiade Weiche Nordost-Nord</name>
  <trkseg>
   <trkpt lat="51.185123" lon="4.391668"><ele>11.75</ele></trkpt>
   <trkpt lat="51.185087" lon="4.391643"><ele>11.75</ele></trkpt>
   <trkpt lat="51.185071" lon="4.391632"><ele>11.75</ele></trkpt>
   <trkpt lat="51.184975" lon="4.391551"><ele>11.5</ele></trkpt>
   <trkpt lat="51.184944" lon="4.391515"><ele>11.25</ele></trkpt>
   <trkpt lat="51.184876" lon="4.391408"><ele>11</ele></trkpt>
   <trkpt lat="51.184849" lon="4.391349"><ele>11</ele></trkpt>
   <trkpt lat="51.184788" lon="4.39116"><ele>11</ele></trkpt>
   <trkpt lat="51.184774" lon="4.391115"><ele>11</ele></trkpt>
   <trkpt lat="51.184733" lon="4.390986"><ele>11</ele></trkpt>
   <trkpt lat="51.184684" lon="4.390835"><ele>11</ele></trkpt>
  </trkseg>
 </trk>
</gpx>