<?xml version="1.0" encoding="UTF-8"?>
<!-- track-length = 332 filtered ascend = 0 plain-ascend = 0 cost=664 energy=0.0kwh time=27s -->
<gpx 
 xmlns="http://www.topografix.com/GPX/1/1" 
 xmlns:xsi="http://www.w3.org/2001/XMLSchema-instance" 
 xsi:schemaLocation="http://www.topografix.com/GPX/1/1 http://www.topografix.com/GPX/1/1/gpx.xsd" 
 version="1.1" 
 creator="BRouter-Web 0.18.1">
 <trk>
  <name>Provinciehuis (Steig Nordwest) - Markgravelei (Steig Nordwest)</name>
  <trkseg>
   <trkpt lat="51.198572" lon="4.411121"><ele>10.75</ele></trkpt>
   <trkpt lat="51.198533" lon="4.411077"><ele>10.75</ele></trkpt>
   <trkpt lat="51.19844" lon="4.41097"><ele>10.75</ele></trkpt>
   <trkpt lat="51.198413" lon="4.410939"><ele>10.75</ele></trkpt>
   <trkpt lat="51.198396" lon="4.410901"><ele>10.75</ele></trkpt>
   <trkpt lat="51.198341" lon="4.410831"><ele>10.75</ele></trkpt>
   <trkpt lat="51.198199" lon="4.41065"><ele>11</ele></trkpt>
   <trkpt lat="51.198085" lon="4.410499"><ele>11</ele></trkpt>
   <trkpt lat="51.198033" lon="4.410389"><ele>11</ele></trkpt>
   <trkpt lat="51.198012" lon="4.410332"><ele>11</ele></trkpt>
   <trkpt lat="51.197983" lon="4.410211"><ele>11</ele></trkpt>
   <trkpt lat="51.197747" lon="4.408261"><ele>10</ele></trkpt>
   <trkpt lat="51.197718" lon="4.408073"><ele>10</ele></trkpt>
   <trkpt lat="51.197669" lon="4.407841"><ele>10</ele></trkpt>
   <trkpt lat="51.197649" lon="4.407764"><ele>10</ele></trkpt>
   <trkpt lat="51.197609" lon="4.407649"><ele>10</ele></trkpt>
   <trkpt lat="51.197537" lon="4.407456"><ele>10</ele></trkpt>
   <trkpt lat="51.197523" lon="4.407417"><ele>10</ele></trkpt>
   <trkpt lat="51.197367" lon="4.407005"><ele>10</ele></trkpt>
  </trkseg>
 </trk>
</gpx>