<?xml version="1.0" encoding="UTF-8"?>
<!-- track-length = 67 filtered ascend = 0 plain-ascend = 0 cost=134 energy=0.0kwh time=5s -->
<gpx 
 xmlns="http://www.topografix.com/GPX/1/1" 
 xmlns:xsi="http://www.w3.org/2001/XMLSchema-instance" 
 xsi:schemaLocation="http://www.topografix.com/GPX/1/1 http://www.topografix.com/GPX/1/1/gpx.xsd" 
 version="1.1" 
 creator="BRouter-Web 0.18.1">
 <trk>
  <name>Kreuz Roederplatz Weiche 91 - Kreuz Roederplatz Weiche 700</name>
  <trkseg>
   <trkpt lat="52.526346" lon="13.47979"><ele>49</ele></trkpt>
   <trkpt lat="52.526466" lon="13.479801"><ele>49</ele></trkpt>
   <trkpt lat="52.526506" lon="13.479804"><ele>49</ele></trkpt>
   <trkpt lat="52.526524" lon="13.479805"><ele>49</ele></trkpt>
   <trkpt lat="52.526586" lon="13.479807"><ele>49</ele></trkpt>
   <trkpt lat="52.526642" lon="13.479802"><ele>49</ele></trkpt>
   <trkpt lat="52.526668" lon="13.4798"><ele>49</ele></trkpt>
   <trkpt lat="52.526674" lon="13.479799"><ele>49</ele></trkpt>
   <trkpt lat="52.526722" lon="13.479789"><ele>49</ele></trkpt>
   <trkpt lat="52.526766" lon="13.479781"><ele>49</ele></trkpt>
   <trkpt lat="52.526811" lon="13.479769"><ele>49</ele></trkpt>
   <trkpt lat="52.526893" lon="13.479745"><ele>48.75</ele></trkpt>
   <trkpt lat="52.526944" lon="13.479723"><ele>49</ele></trkpt>
   <trkpt lat="52.526941" lon="13.479723"><ele>49</ele></trkpt>
  </trkseg>
 </trk>
</gpx>