<?xml version="1.0" encoding="UTF-8"?>
<!-- track-length = 9 filtered ascend = 0 plain-ascend = 0 cost=18 energy=0.0kwh time=1s -->
<gpx 
 xmlns="http://www.topografix.com/GPX/1/1" 
 xmlns:xsi="http://www.w3.org/2001/XMLSchema-instance" 
 xsi:schemaLocation="http://www.topografix.com/GPX/1/1 http://www.topografix.com/GPX/1/1/gpx.xsd" 
 version="1.1" 
 creator="BRouter-Web 0.18.1">
 <trk>
  <name>Kreuz Roederplatz Weiche 700 - Kreuz Roederplatz Weiche 589</name>
  <trkseg>
   <trkpt lat="52.526941" lon="13.479723"><ele>49</ele></trkpt>
   <trkpt lat="52.526944" lon="13.479723"><ele>49</ele></trkpt>
   <trkpt lat="52.527005" lon="13.479696"><ele>49</ele></trkpt>
   <trkpt lat="52.527005" lon="13.479695"><ele>49</ele></trkpt>
  </trkseg>
 </trk>
</gpx>