<?xml version="1.0" encoding="UTF-8"?>
<!-- track-length = 51 filtered ascend = 0 plain-ascend = 0 cost=102 energy=0.0kwh time=4s -->
<gpx 
 xmlns="http://www.topografix.com/GPX/1/1" 
 xmlns:xsi="http://www.w3.org/2001/XMLSchema-instance" 
 xsi:schemaLocation="http://www.topografix.com/GPX/1/1 http://www.topografix.com/GPX/1/1/gpx.xsd" 
 version="1.1" 
 creator="BRouter-Web 0.18.1">
 <trk>
  <name>Kreuz Roederplatz Weiche 201 - Kreuz Roederplatz Weiche 700</name>
  <trkseg>
   <trkpt lat="52.526605" lon="13.479381"><ele>49</ele></trkpt>
   <trkpt lat="52.526606" lon="13.479388"><ele>49</ele></trkpt>
   <trkpt lat="52.526621" lon="13.479496"><ele>49</ele></trkpt>
   <trkpt lat="52.526645" lon="13.479566"><ele>49</ele></trkpt>
   <trkpt lat="52.526649" lon="13.479576"><ele>49</ele></trkpt>
   <trkpt lat="52.526697" lon="13.479657"><ele>49</ele></trkpt>
   <trkpt lat="52.526748" lon="13.479706"><ele>49</ele></trkpt>
   <trkpt lat="52.526786" lon="13.479725"><ele>49</ele></trkpt>
   <trkpt lat="52.52685" lon="13.479733"><ele>49</ele></trkpt>
   <trkpt lat="52.52689" lon="13.479734"><ele>49</ele></trkpt>
   <trkpt lat="52.526941" lon="13.479723"><ele>49</ele></trkpt>
  </trkseg>
 </trk>
</gpx>