<?xml version="1.0" encoding="UTF-8"?>
<!-- track-length = 378 filtered ascend = 5 plain-ascend = 5 cost=756 energy=0.0kwh time=30s -->
<gpx 
 xmlns="http://www.topografix.com/GPX/1/1" 
 xmlns:xsi="http://www.w3.org/2001/XMLSchema-instance" 
 xsi:schemaLocation="http://www.topografix.com/GPX/1/1 http://www.topografix.com/GPX/1/1/gpx.xsd" 
 version="1.1" 
 creator="BRouter-Web 0.18.1">
 <trk>
  <name>Landsberger Allee/Weißenseer Weg (Steig Nordost) - Hohenschönhauser Straße (Steig Südost-Nordost)</name>
  <trkseg>
   <trkpt lat="52.532735" lon="13.476432"><ele>51</ele></trkpt>
   <trkpt lat="52.532769" lon="13.476409"><ele>51</ele></trkpt>
   <trkpt lat="52.532838" lon="13.476363"><ele>51</ele></trkpt>
   <trkpt lat="52.532889" lon="13.476329"><ele>51</ele></trkpt>
   <trkpt lat="52.53296" lon="13.476279"><ele>51.25</ele></trkpt>
   <trkpt lat="52.53308" lon="13.476187"><ele>51.75</ele></trkpt>
   <trkpt lat="52.533132" lon="13.476143"><ele>51.75</ele></trkpt>
   <trkpt lat="52.53318" lon="13.476103"><ele>51.75</ele></trkpt>
   <trkpt lat="52.533307" lon="13.475998"><ele>51.75</ele></trkpt>
   <trkpt lat="52.53518" lon="13.474341"><ele>55</ele></trkpt>
   <trkpt lat="52.535329" lon="13.47421"><ele>55</ele></trkpt>
   <trkpt lat="52.535699" lon="13.473882"><ele>56</ele></trkpt>
   <trkpt lat="52.535732" lon="13.473851"><ele>56</ele></trkpt>
  </trkseg>
 </trk>
</gpx>
