<?xml version="1.0" encoding="UTF-8"?>
<!-- track-length = 619 filtered ascend = 2 plain-ascend = 2 cost=1238 energy=0.0kwh time=50s -->
<gpx 
 xmlns="http://www.topografix.com/GPX/1/1" 
 xmlns:xsi="http://www.w3.org/2001/XMLSchema-instance" 
 xsi:schemaLocation="http://www.topografix.com/GPX/1/1 http://www.topografix.com/GPX/1/1/gpx.xsd" 
 version="1.1" 
 creator="BRouter-Web 0.18.1">
 <trk>
  <name>Roederplatz (Steig Nord-Ost) - Landsberger Allee/Weißenseer Weg (Steig Nordost)</name>
  <trkseg>
   <trkpt lat="52.527494" lon="13.479463"><ele>49</ele></trkpt>
   <trkpt lat="52.527746" lon="13.479335"><ele>49</ele></trkpt>
   <trkpt lat="52.528131" lon="13.479123"><ele>49</ele></trkpt>
   <trkpt lat="52.52926" lon="13.478488"><ele>50</ele></trkpt>
   <trkpt lat="52.530775" lon="13.477621"><ele>50</ele></trkpt>
   <trkpt lat="52.530833" lon="13.477588"><ele>50</ele></trkpt>
   <trkpt lat="52.530944" lon="13.477529"><ele>50</ele></trkpt>
   <trkpt lat="52.531816" lon="13.477038"><ele>51</ele></trkpt>
   <trkpt lat="52.532237" lon="13.476779"><ele>51</ele></trkpt>
   <trkpt lat="52.532735" lon="13.476432"><ele>51</ele></trkpt>
  </trkseg>
 </trk>
</gpx>