<?xml version="1.0" encoding="UTF-8"?>
<!-- track-length = 58 filtered ascend = 0 plain-ascend = 0 cost=116 energy=0.0kwh time=5s -->
<gpx 
 xmlns="http://www.topografix.com/GPX/1/1" 
 xmlns:xsi="http://www.w3.org/2001/XMLSchema-instance" 
 xsi:schemaLocation="http://www.topografix.com/GPX/1/1 http://www.topografix.com/GPX/1/1/gpx.xsd" 
 version="1.1" 
 creator="BRouter-Web 0.18.1">
 <trk>
  <name>Abzweig Nationale Bank/Mechelsesteenweg Weiche EW 33 - Abzweig Nationale Bank/Mechelsesteenweg Weiche Ost</name>
  <trkseg>
   <trkpt lat="51.211613" lon="4.407665"><ele>7</ele></trkpt>
   <trkpt lat="51.211611" lon="4.407666"><ele>7</ele></trkpt>
   <trkpt lat="51.211529" lon="4.407713"><ele>7</ele></trkpt>
   <trkpt lat="51.211495" lon="4.40775"><ele>7</ele></trkpt>
   <trkpt lat="51.211466" lon="4.407803"><ele>7</ele></trkpt>
   <trkpt lat="51.211449" lon="4.407847"><ele>7</ele></trkpt>
   <trkpt lat="51.211441" lon="4.407874"><ele>7</ele></trkpt>
   <trkpt lat="51.211432" lon="4.407988"><ele>7</ele></trkpt>
   <trkpt lat="51.211438" lon="4.408053"><ele>7</ele></trkpt>
   <trkpt lat="51.211456" lon="4.408116"><ele>7</ele></trkpt>
   <trkpt lat="51.211524" lon="4.408245"><ele>7</ele></trkpt>
   <trkpt lat="51.211526" lon="4.408247"><ele>7</ele></trkpt>
  </trkseg>
 </trk>
</gpx>