<?xml version="1.0" encoding="UTF-8"?>
<!-- track-length = 12 filtered ascend = 0 plain-ascend = 0 cost=24 energy=0.0kwh time=1s -->
<gpx 
 xmlns="http://www.topografix.com/GPX/1/1" 
 xmlns:xsi="http://www.w3.org/2001/XMLSchema-instance" 
 xsi:schemaLocation="http://www.topografix.com/GPX/1/1 http://www.topografix.com/GPX/1/1/gpx.xsd" 
 version="1.1" 
 creator="BRouter-Web 0.18.1">
 <trk>
  <name>Stadspark (Steig Südost) - Abzweig Stadspark/Tunnel Weiche Südost</name>
  <trkseg>
   <trkpt lat="51.214296" lon="4.412095"><ele>7</ele></trkpt>
   <trkpt lat="51.214329" lon="4.412138"><ele>7</ele></trkpt>
   <trkpt lat="51.214367" lon="4.412191"><ele>7</ele></trkpt>
   <trkpt lat="51.214367" lon="4.412192"><ele>7</ele></trkpt>
  </trkseg>
 </trk>
</gpx>