<?xml version="1.0" encoding="UTF-8"?>
<!-- track-length = 88 filtered ascend = 0 plain-ascend = -2 cost=88 energy=0.0kwh time=7s -->
<gpx 
 xmlns="http://www.topografix.com/GPX/1/1" 
 xmlns:xsi="http://www.w3.org/2001/XMLSchema-instance" 
 xsi:schemaLocation="http://www.topografix.com/GPX/1/1 http://www.topografix.com/GPX/1/1/gpx.xsd" 
 version="1.1" 
 creator="BRouter-Web 0.18.1">
 <trk>
  <name>Dreieck Hiedenranta Weiche Nordost-West - Dreieck Hiedenranta Weiche Südost-Südwest</name>
  <trkseg>
   <trkpt lat="61.514404" lon="23.679722"><ele>108.5</ele></trkpt>
   <trkpt lat="61.514406" lon="23.679726"><ele>108.75</ele></trkpt>
   <trkpt lat="61.514348" lon="23.679652"><ele>108.75</ele></trkpt>
   <trkpt lat="61.514289" lon="23.679598"><ele>108.75</ele></trkpt>
   <trkpt lat="61.514225" lon="23.679562"><ele>108.75</ele></trkpt>
   <trkpt lat="61.514167" lon="23.679552"><ele>108.75</ele></trkpt>
   <trkpt lat="61.51408" lon="23.679576"><ele>108.25</ele></trkpt>
   <trkpt lat="61.514043" lon="23.679606"><ele>108</ele></trkpt>
   <trkpt lat="61.513965" lon="23.679703"><ele>106.75</ele></trkpt>
   <trkpt lat="61.513853" lon="23.679964"><ele>105.75</ele></trkpt>
   <trkpt lat="61.513759" lon="23.680184"><ele>106</ele></trkpt>
  </trkseg>
 </trk>
</gpx>