<?xml version="1.0" encoding="UTF-8"?>
<!-- track-length = 81 filtered ascend = 2 plain-ascend = 2 cost=81 energy=0.0kwh time=6s -->
<gpx 
 xmlns="http://www.topografix.com/GPX/1/1" 
 xmlns:xsi="http://www.w3.org/2001/XMLSchema-instance" 
 xsi:schemaLocation="http://www.topografix.com/GPX/1/1 http://www.topografix.com/GPX/1/1/gpx.xsd" 
 version="1.1" 
 creator="BRouter-Web 0.18.1">
 <trk>
  <name>Dreieck Hiedenranta Weiche Südost-Südwest - Hiedenranta (Neu) (Steig B)</name>
  <trkseg>
   <trkpt lat="61.513759" lon="23.680184"><ele>105.75</ele></trkpt>
   <trkpt lat="61.513759" lon="23.680185"><ele>106</ele></trkpt>
   <trkpt lat="61.51356" lon="23.680663"><ele>107</ele></trkpt>
   <trkpt lat="61.51329" lon="23.681307"><ele>108</ele></trkpt>
  </trkseg>
 </trk>
</gpx>