<?xml version="1.0" encoding="UTF-8"?>
<!-- track-length = 48 filtered ascend = 3 plain-ascend = 4 cost=48 energy=0.0kwh time=4s -->
<gpx 
 xmlns="http://www.topografix.com/GPX/1/1" 
 xmlns:xsi="http://www.w3.org/2001/XMLSchema-instance" 
 xsi:schemaLocation="http://www.topografix.com/GPX/1/1 http://www.topografix.com/GPX/1/1/gpx.xsd" 
 version="1.1" 
 creator="BRouter-Web 0.18.1">
 <trk>
  <name>Hiedenranta (Neu) (Steig B) - Üst Hiedanranta Weiche Südost</name>
  <trkseg>
   <trkpt lat="61.51329" lon="23.681307"><ele>107.25</ele></trkpt>
   <trkpt lat="61.513012" lon="23.681973"><ele>108</ele></trkpt>
   <trkpt lat="61.513012" lon="23.681972"><ele>110.75</ele></trkpt>
  </trkseg>
 </trk>
</gpx>