<?xml version="1.0" encoding="UTF-8"?>
<!-- track-length = 258 filtered ascend = 0 plain-ascend = -2 cost=258 energy=0.0kwh time=21s -->
<gpx 
 xmlns="http://www.topografix.com/GPX/1/1" 
 xmlns:xsi="http://www.w3.org/2001/XMLSchema-instance" 
 xsi:schemaLocation="http://www.topografix.com/GPX/1/1 http://www.topografix.com/GPX/1/1/gpx.xsd" 
 version="1.1" 
 creator="BRouter-Web 0.18.1">
 <trk>
  <name>Keskustori (Steig B) - Dreieck Hämeenkatu Weiche West-Süd</name>
  <trkseg>
   <trkpt lat="61.49763" lon="23.759665"><ele>89</ele></trkpt>
   <trkpt lat="61.497632" lon="23.759685"><ele>89</ele></trkpt>
   <trkpt lat="61.497644" lon="23.759851"><ele>89</ele></trkpt>
   <trkpt lat="61.497649" lon="23.759915"><ele>89</ele></trkpt>
   <trkpt lat="61.497716" lon="23.760828"><ele>89</ele></trkpt>
   <trkpt lat="61.497754" lon="23.761361"><ele>89</ele></trkpt>
   <trkpt lat="61.497775" lon="23.761639"><ele>89</ele></trkpt>
   <trkpt lat="61.497879" lon="23.763063"><ele>87</ele></trkpt>
   <trkpt lat="61.497884" lon="23.763138"><ele>86.75</ele></trkpt>
   <trkpt lat="61.497968" lon="23.764312"><ele>85.75</ele></trkpt>
   <trkpt lat="61.497973" lon="23.764387"><ele>85.75</ele></trkpt>
   <trkpt lat="61.497974" lon="23.764407"><ele>85.75</ele></trkpt>
   <trkpt lat="61.497977" lon="23.764469"><ele>86.25</ele></trkpt>
  </trkseg>
 </trk>
</gpx>