<?xml version="1.0" encoding="UTF-8"?>
<!-- track-length = 274 filtered ascend = 0 plain-ascend = -4 cost=274 energy=0.0kwh time=22s -->
<gpx 
 xmlns="http://www.topografix.com/GPX/1/1" 
 xmlns:xsi="http://www.w3.org/2001/XMLSchema-instance" 
 xsi:schemaLocation="http://www.topografix.com/GPX/1/1 http://www.topografix.com/GPX/1/1/gpx.xsd" 
 version="1.1" 
 creator="BRouter-Web 0.18.1">
 <trk>
  <name>Tuulensuu (Steig B) - Keskustori (Steig B)</name>
  <trkseg>
   <trkpt lat="61.497261" lon="23.754586"><ele>94</ele></trkpt>
   <trkpt lat="61.497274" lon="23.754759"><ele>94</ele></trkpt>
   <trkpt lat="61.49728" lon="23.754851"><ele>94</ele></trkpt>
   <trkpt lat="61.497287" lon="23.754941"><ele>94</ele></trkpt>
   <trkpt lat="61.497455" lon="23.757263"><ele>90</ele></trkpt>
   <trkpt lat="61.497459" lon="23.757317"><ele>90</ele></trkpt>
   <trkpt lat="61.497552" lon="23.75859"><ele>89</ele></trkpt>
   <trkpt lat="61.49763" lon="23.759667"><ele>89</ele></trkpt>
  </trkseg>
 </trk>
</gpx>