<?xml version="1.0" encoding="UTF-8"?>
<!-- track-length = 272 filtered ascend = 0 plain-ascend = -9 cost=272 energy=0.0kwh time=22s -->
<gpx 
 xmlns="http://www.topografix.com/GPX/1/1" 
 xmlns:xsi="http://www.w3.org/2001/XMLSchema-instance" 
 xsi:schemaLocation="http://www.topografix.com/GPX/1/1 http://www.topografix.com/GPX/1/1/gpx.xsd" 
 version="1.1" 
 creator="BRouter-Web 0.18.1">
 <trk>
  <name>Üst Hiedanranta Weiche Südost - Hiedanranta (Steig B)</name>
  <trkseg>
   <trkpt lat="61.513012" lon="23.681972"><ele>108</ele></trkpt>
   <trkpt lat="61.513012" lon="23.681973"><ele>108</ele></trkpt>
   <trkpt lat="61.512682" lon="23.682776"><ele>108.25</ele></trkpt>
   <trkpt lat="61.512524" lon="23.683235"><ele>106</ele></trkpt>
   <trkpt lat="61.512389" lon="23.683728"><ele>103.75</ele></trkpt>
   <trkpt lat="61.512322" lon="23.684046"><ele>102.25</ele></trkpt>
   <trkpt lat="61.512295" lon="23.68418"><ele>101.5</ele></trkpt>
   <trkpt lat="61.512265" lon="23.684351"><ele>101.25</ele></trkpt>
   <trkpt lat="61.512148" lon="23.68508"><ele>100</ele></trkpt>
   <trkpt lat="61.512095" lon="23.685413"><ele>99.5</ele></trkpt>
   <trkpt lat="61.511936" lon="23.686409"><ele>98</ele></trkpt>
   <trkpt lat="61.511926" lon="23.686465"><ele>98</ele></trkpt>
  </trkseg>
 </trk>
</gpx>