<?xml version="1.0" encoding="UTF-8"?>
<!-- track-length = 103 filtered ascend = 0 plain-ascend = -1 cost=103 energy=0.0kwh time=8s -->
<gpx 
 xmlns="http://www.topografix.com/GPX/1/1" 
 xmlns:xsi="http://www.w3.org/2001/XMLSchema-instance" 
 xsi:schemaLocation="http://www.topografix.com/GPX/1/1 http://www.topografix.com/GPX/1/1/gpx.xsd" 
 version="1.1" 
 creator="BRouter-Web 0.18.1">
 <trk>
  <name>Üst Pyynikintori West Weiche Ost - Pyynikintori (Steig B)</name>
  <trkseg>
   <trkpt lat="61.497991" lon="23.740606"><ele>107.75</ele></trkpt>
   <trkpt lat="61.497971" lon="23.740866"><ele>107.75</ele></trkpt>
   <trkpt lat="61.497965" lon="23.740942"><ele>107.5</ele></trkpt>
   <trkpt lat="61.497949" lon="23.741156"><ele>107</ele></trkpt>
   <trkpt lat="61.497933" lon="23.741391"><ele>107</ele></trkpt>
   <trkpt lat="61.497867" lon="23.742391"><ele>106.5</ele></trkpt>
   <trkpt lat="61.497858" lon="23.742503"><ele>106.25</ele></trkpt>
  </trkseg>
 </trk>
</gpx>