<?xml version="1.0" encoding="UTF-8"?>
<!-- track-length = 172 filtered ascend = 0 plain-ascend = 0 cost=344 energy=0.0kwh time=14s -->
<gpx 
 xmlns="http://www.topografix.com/GPX/1/1" 
 xmlns:xsi="http://www.w3.org/2001/XMLSchema-instance" 
 xsi:schemaLocation="http://www.topografix.com/GPX/1/1 http://www.topografix.com/GPX/1/1/gpx.xsd" 
 version="1.1" 
 creator="BRouter-Web 0.18.1">
 <trk>
  <name>Üst Wismarsche Straße Weiche 1-26 - Marienplatz (Steig C)</name>
  <trkseg>
   <trkpt lat="53.630022" lon="11.410215"><ele>46.75</ele></trkpt>
   <trkpt lat="53.629807" lon="11.41033"><ele>46.75</ele></trkpt>
   <trkpt lat="53.629621" lon="11.410454"><ele>46.25</ele></trkpt>
   <trkpt lat="53.629075" lon="11.410816"><ele>46</ele></trkpt>
   <trkpt lat="53.628967" lon="11.410876"><ele>45.75</ele></trkpt>
   <trkpt lat="53.628896" lon="11.410887"><ele>45.75</ele></trkpt>
   <trkpt lat="53.628564" lon="11.410883"><ele>46</ele></trkpt>
   <trkpt lat="53.628548" lon="11.410883"><ele>46</ele></trkpt>
  </trkseg>
 </trk>
</gpx>