<?xml version="1.0" encoding="UTF-8"?>
<!-- track-length = 374 filtered ascend = 15 plain-ascend = 15 cost=748 energy=0.0kwh time=30s -->
<gpx 
 xmlns="http://www.topografix.com/GPX/1/1" 
 xmlns:xsi="http://www.w3.org/2001/XMLSchema-instance" 
 xsi:schemaLocation="http://www.topografix.com/GPX/1/1 http://www.topografix.com/GPX/1/1/gpx.xsd" 
 version="1.1" 
 creator="BRouter-Web 99.71.0">
 <trk>
  <name>Abzweig Reinlgasse Weiche 14-09/01 - Märzstraße (Steig Ost)</name>
  <link href="https://brouter.damsy.net/latest/#map=19/48.19661/16.31269/standard&amp;lonlats=16.311709,48.193245;16.312018,48.196508">
   <text>BRouter-Web</text>
  </link>
  <trkseg>
   <trkpt lat="48.193245" lon="16.311709"><ele>204.25</ele></trkpt>
   <trkpt lat="48.193245" lon="16.31171"><ele>204.25</ele></trkpt>
   <trkpt lat="48.193276" lon="16.311595"><ele>204.5</ele></trkpt>
   <trkpt lat="48.193293" lon="16.311561"><ele>204.75</ele></trkpt>
   <trkpt lat="48.193327" lon="16.311515"><ele>204.75</ele></trkpt>
   <trkpt lat="48.193362" lon="16.311489"><ele>205</ele></trkpt>
   <trkpt lat="48.193416" lon="16.311472"><ele>205.5</ele></trkpt>
   <trkpt lat="48.193524" lon="16.311484"><ele>206.25</ele></trkpt>
   <trkpt lat="48.194681" lon="16.311695"><ele>211.75</ele></trkpt>
   <trkpt lat="48.195684" lon="16.31187"><ele>215.5</ele></trkpt>
   <trkpt lat="48.196389" lon="16.311993"><ele>219</ele></trkpt>
   <trkpt lat="48.196507" lon="16.312014"><ele>219.5</ele></trkpt>
  </trkseg>
 </trk>
</gpx>