<?xml version="1.0" encoding="UTF-8"?>
<!-- track-length = 295 filtered ascend = 10 plain-ascend = 11 cost=590 energy=0.0kwh time=24s -->
<gpx 
 xmlns="http://www.topografix.com/GPX/1/1" 
 xmlns:xsi="http://www.w3.org/2001/XMLSchema-instance" 
 xsi:schemaLocation="http://www.topografix.com/GPX/1/1 http://www.topografix.com/GPX/1/1/gpx.xsd" 
 version="1.1" 
 creator="BRouter-Web 99.71.0">
 <trk>
  <name>Märzstraße (Steig Ost) - Abzweig Hütteldorfer Straße Weiche Nord-Ost</name>
  <link href="https://brouter.damsy.net/latest/#map=19/48.19910/16.31346/standard&amp;lonlats=16.312018,48.196508;16.312529,48.199121">
   <text>BRouter-Web</text>
  </link>
  <trkseg>
   <trkpt lat="48.196507" lon="16.312014"><ele>219.25</ele></trkpt>
   <trkpt lat="48.196569" lon="16.312025"><ele>219.5</ele></trkpt>
   <trkpt lat="48.196638" lon="16.312038"><ele>219.75</ele></trkpt>
   <trkpt lat="48.196695" lon="16.312048"><ele>220</ele></trkpt>
   <trkpt lat="48.198128" lon="16.312293"><ele>227.25</ele></trkpt>
   <trkpt lat="48.198344" lon="16.312327"><ele>228</ele></trkpt>
   <trkpt lat="48.198481" lon="16.312335"><ele>228.5</ele></trkpt>
   <trkpt lat="48.198889" lon="16.312404"><ele>229</ele></trkpt>
   <trkpt lat="48.198967" lon="16.312424"><ele>229.25</ele></trkpt>
   <trkpt lat="48.199013" lon="16.312445"><ele>229.25</ele></trkpt>
   <trkpt lat="48.199026" lon="16.312453"><ele>229.25</ele></trkpt>
   <trkpt lat="48.199049" lon="16.312469"><ele>229.5</ele></trkpt>
   <trkpt lat="48.199091" lon="16.312506"><ele>229.5</ele></trkpt>
   <trkpt lat="48.199119" lon="16.312529"><ele>229.75</ele></trkpt>
   <trkpt lat="48.19912" lon="16.31253"><ele>229.75</ele></trkpt>
  </trkseg>
 </trk>
</gpx>