<?xml version="1.0" encoding="UTF-8"?>
<!-- track-length = 448 filtered ascend = 2 plain-ascend = 0 cost=895 energy=0.0kwh time=36s -->
<gpx 
 xmlns="http://www.topografix.com/GPX/1/1" 
 xmlns:xsi="http://www.w3.org/2001/XMLSchema-instance" 
 xsi:schemaLocation="http://www.topografix.com/GPX/1/1 http://www.topografix.com/GPX/1/1/gpx.xsd" 
 version="1.1" 
 creator="BRouter-Web 0.18.1">
 <trk>
  <name>Abzweig Huopalahdentie Weiche Südwest - Paciuksenkaari (Steig Südwest)</name>
  <trkseg>
   <trkpt lat="60.196392" lon="24.884955"><ele>2</ele></trkpt>
   <trkpt lat="60.196392" lon="24.884957"><ele>2</ele></trkpt>
   <trkpt lat="60.196388" lon="24.884978"><ele>2</ele></trkpt>
   <trkpt lat="60.196207" lon="24.885875"><ele>2</ele></trkpt>
   <trkpt lat="60.195834" lon="24.887715"><ele>2</ele></trkpt>
   <trkpt lat="60.195781" lon="24.887985"><ele>2</ele></trkpt>
   <trkpt lat="60.195595" lon="24.888888"><ele>2</ele></trkpt>
   <trkpt lat="60.195544" lon="24.889109"><ele>2.25</ele></trkpt>
   <trkpt lat="60.195433" lon="24.889537"><ele>4</ele></trkpt>
   <trkpt lat="60.195375" lon="24.88973"><ele>3.25</ele></trkpt>
   <trkpt lat="60.195238" lon="24.890135"><ele>3</ele></trkpt>
   <trkpt lat="60.195157" lon="24.890346"><ele>3.25</ele></trkpt>
   <trkpt lat="60.19499" lon="24.89074"><ele>3</ele></trkpt>
   <trkpt lat="60.19479" lon="24.891159"><ele>3</ele></trkpt>
   <trkpt lat="60.194776" lon="24.891189"><ele>3</ele></trkpt>
   <trkpt lat="60.194747" lon="24.89125"><ele>3</ele></trkpt>
   <trkpt lat="60.194707" lon="24.891334"><ele>2.75</ele></trkpt>
   <trkpt lat="60.194671" lon="24.891408"><ele>2.75</ele></trkpt>
   <trkpt lat="60.194664" lon="24.891423"><ele>2.5</ele></trkpt>
   <trkpt lat="60.194639" lon="24.891482"><ele>2.25</ele></trkpt>
   <trkpt lat="60.19445" lon="24.891881"><ele>2</ele></trkpt>
  </trkseg>
 </trk>
</gpx>