<?xml version="1.0" encoding="UTF-8"?>
<!-- track-length = 668 filtered ascend = 19 plain-ascend = 18 cost=1336 energy=0.0kwh time=53s -->
<gpx 
 xmlns="http://www.topografix.com/GPX/1/1" 
 xmlns:xsi="http://www.w3.org/2001/XMLSchema-instance" 
 xsi:schemaLocation="http://www.topografix.com/GPX/1/1 http://www.topografix.com/GPX/1/1/gpx.xsd" 
 version="1.1" 
 creator="BRouter-Web 0.18.1">
 <trk>
  <name>Meilahdentie (Steig Südwest) - Meilahden sairaala (Steig Süd)</name>
  <trkseg>
   <trkpt lat="60.193202" lon="24.8948"><ele>3</ele></trkpt>
   <trkpt lat="60.19318" lon="24.894859"><ele>3.25</ele></trkpt>
   <trkpt lat="60.193152" lon="24.894932"><ele>3.25</ele></trkpt>
   <trkpt lat="60.193139" lon="24.894964"><ele>3.5</ele></trkpt>
   <trkpt lat="60.193121" lon="24.89501"><ele>3.75</ele></trkpt>
   <trkpt lat="60.193089" lon="24.895091"><ele>3.75</ele></trkpt>
   <trkpt lat="60.193058" lon="24.895171"><ele>3.75</ele></trkpt>
   <trkpt lat="60.19291" lon="24.895552"><ele>5.5</ele></trkpt>
   <trkpt lat="60.192707" lon="24.896072"><ele>7</ele></trkpt>
   <trkpt lat="60.192569" lon="24.89653"><ele>9</ele></trkpt>
   <trkpt lat="60.192263" lon="24.897392"><ele>11.75</ele></trkpt>
   <trkpt lat="60.191674" lon="24.899017"><ele>16.25</ele></trkpt>
   <trkpt lat="60.191539" lon="24.899388"><ele>17</ele></trkpt>
   <trkpt lat="60.191468" lon="24.899634"><ele>17.75</ele></trkpt>
   <trkpt lat="60.191442" lon="24.899749"><ele>18</ele></trkpt>
   <trkpt lat="60.191419" lon="24.899858"><ele>18.25</ele></trkpt>
   <trkpt lat="60.191392" lon="24.900041"><ele>19</ele></trkpt>
   <trkpt lat="60.191374" lon="24.900188"><ele>19</ele></trkpt>
   <trkpt lat="60.19136" lon="24.900406"><ele>19</ele></trkpt>
   <trkpt lat="60.191358" lon="24.900433"><ele>19</ele></trkpt>
   <trkpt lat="60.191346" lon="24.900971"><ele>20.5</ele></trkpt>
   <trkpt lat="60.191343" lon="24.901121"><ele>21</ele></trkpt>
   <trkpt lat="60.191341" lon="24.901248"><ele>21</ele></trkpt>
   <trkpt lat="60.191322" lon="24.902215"><ele>22</ele></trkpt>
   <trkpt lat="60.191305" lon="24.903068"><ele>21.5</ele></trkpt>
   <trkpt lat="60.191274" lon="24.904646"><ele>20.5</ele></trkpt>
   <trkpt lat="60.191272" lon="24.904737"><ele>20.5</ele></trkpt>
   <trkpt lat="60.191266" lon="24.905024"><ele>20</ele></trkpt>
   <trkpt lat="60.191254" lon="24.905618"><ele>21</ele></trkpt>
  </trkseg>
 </trk>
</gpx>