<?xml version="1.0" encoding="UTF-8"?>
<!-- track-length = 194 filtered ascend = 0 plain-ascend = 0 cost=388 energy=0.0kwh time=16s -->
<gpx 
 xmlns="http://www.topografix.com/GPX/1/1" 
 xmlns:xsi="http://www.w3.org/2001/XMLSchema-instance" 
 xsi:schemaLocation="http://www.topografix.com/GPX/1/1 http://www.topografix.com/GPX/1/1/gpx.xsd" 
 version="1.1" 
 creator="BRouter-Web 0.18.1">
 <trk>
  <name>Meilahden sairaala (Steig Süd) - Abzweig Wendeschleife Meilahden sairaala Weiche Ost</name>
  <trkseg>
   <trkpt lat="60.191254" lon="24.905618"><ele>20.75</ele></trkpt>
   <trkpt lat="60.191252" lon="24.90573"><ele>21</ele></trkpt>
   <trkpt lat="60.191228" lon="24.906582"><ele>21</ele></trkpt>
   <trkpt lat="60.191218" lon="24.906867"><ele>21</ele></trkpt>
   <trkpt lat="60.191214" lon="24.906988"><ele>21</ele></trkpt>
   <trkpt lat="60.191209" lon="24.907256"><ele>21</ele></trkpt>
   <trkpt lat="60.191209" lon="24.907288"><ele>21</ele></trkpt>
   <trkpt lat="60.191208" lon="24.907391"><ele>21</ele></trkpt>
   <trkpt lat="60.191206" lon="24.907513"><ele>20.75</ele></trkpt>
   <trkpt lat="60.191176" lon="24.909089"><ele>20</ele></trkpt>
  </trkseg>
 </trk>
</gpx>