<?xml version="1.0" encoding="UTF-8"?>
<!-- track-length = 214 filtered ascend = 1 plain-ascend = 1 cost=428 energy=0.0kwh time=17s -->
<gpx 
 xmlns="http://www.topografix.com/GPX/1/1" 
 xmlns:xsi="http://www.w3.org/2001/XMLSchema-instance" 
 xsi:schemaLocation="http://www.topografix.com/GPX/1/1 http://www.topografix.com/GPX/1/1/gpx.xsd" 
 version="1.1" 
 creator="BRouter-Web 0.18.1">
 <trk>
  <name>Paciuksenkaari (Steig Südwest) - Meilahdentie (Steig Südwest)</name>
  <trkseg>
   <trkpt lat="60.19445" lon="24.891881"><ele>2</ele></trkpt>
   <trkpt lat="60.193935" lon="24.892976"><ele>2</ele></trkpt>
   <trkpt lat="60.193775" lon="24.893342"><ele>2.25</ele></trkpt>
   <trkpt lat="60.193608" lon="24.893746"><ele>3</ele></trkpt>
   <trkpt lat="60.193202" lon="24.8948"><ele>3.25</ele></trkpt>
  </trkseg>
 </trk>
</gpx>