<?xml version="1.0" encoding="UTF-8"?>
<!-- track-length = 377 filtered ascend = 0 plain-ascend = -2 cost=377 energy=0.0kwh time=30s -->
<gpx 
 xmlns="http://www.topografix.com/GPX/1/1" 
 xmlns:xsi="http://www.w3.org/2001/XMLSchema-instance" 
 xsi:schemaLocation="http://www.topografix.com/GPX/1/1 http://www.topografix.com/GPX/1/1/gpx.xsd" 
 version="1.1" 
 creator="BRouter-Web 0.18.1">
 <trk>
  <name>TAYS (Steig B) - Üst Kaupin kampus West Weiche Südwest</name>
  <trkseg>
   <trkpt lat="61.503764" lon="23.812439"><ele>108</ele></trkpt>
   <trkpt lat="61.503709" lon="23.812564"><ele>108</ele></trkpt>
   <trkpt lat="61.503669" lon="23.812656"><ele>108</ele></trkpt>
   <trkpt lat="61.503534" lon="23.812978"><ele>107.25</ele></trkpt>
   <trkpt lat="61.503498" lon="23.813094"><ele>107</ele></trkpt>
   <trkpt lat="61.503469" lon="23.813212"><ele>107.25</ele></trkpt>
   <trkpt lat="61.503427" lon="23.813454"><ele>107</ele></trkpt>
   <trkpt lat="61.503417" lon="23.813549"><ele>106.75</ele></trkpt>
   <trkpt lat="61.503405" lon="23.813786"><ele>106.5</ele></trkpt>
   <trkpt lat="61.50341" lon="23.814046"><ele>106.25</ele></trkpt>
   <trkpt lat="61.503444" lon="23.814505"><ele>105.75</ele></trkpt>
   <trkpt lat="61.503473" lon="23.814791"><ele>105.75</ele></trkpt>
   <trkpt lat="61.503564" lon="23.815447"><ele>105.75</ele></trkpt>
   <trkpt lat="61.504073" lon="23.819075"><ele>105.5</ele></trkpt>
  </trkseg>
 </trk>
</gpx>