<?xml version="1.0" encoding="UTF-8"?>
<!-- track-length = 86 filtered ascend = 0 plain-ascend = 0 cost=172 energy=0.0kwh time=7s -->
<gpx 
 xmlns="http://www.topografix.com/GPX/1/1" 
 xmlns:xsi="http://www.w3.org/2001/XMLSchema-instance" 
 xsi:schemaLocation="http://www.topografix.com/GPX/1/1 http://www.topografix.com/GPX/1/1/gpx.xsd" 
 version="1.1" 
 creator="BRouter-Web 0.18.1">
 <trk>
  <name>Cenisio M5 (Steig Nord) - Dreieck Cenisio M5 Weiche West-Nord</name>
  <trkseg>
   <trkpt lat="45.487468" lon="9.173018"><ele>125</ele></trkpt>
   <trkpt lat="45.487471" lon="9.172938"><ele>125</ele></trkpt>
   <trkpt lat="45.487475" lon="9.172774"><ele>125</ele></trkpt>
   <trkpt lat="45.487495" lon="9.172082"><ele>125</ele></trkpt>
   <trkpt lat="45.487499" lon="9.171924"><ele>125</ele></trkpt>
   <trkpt lat="45.487499" lon="9.171916"><ele>124.75</ele></trkpt>
  </trkseg>
 </trk>
</gpx>