<?xml version="1.0" encoding="UTF-8"?>
<!-- track-length = 69 filtered ascend = 0 plain-ascend = 2 cost=138 energy=0.0kwh time=6s -->
<gpx 
 xmlns="http://www.topografix.com/GPX/1/1" 
 xmlns:xsi="http://www.w3.org/2001/XMLSchema-instance" 
 xsi:schemaLocation="http://www.topografix.com/GPX/1/1 http://www.topografix.com/GPX/1/1/gpx.xsd" 
 version="1.1" 
 creator="BRouter-Web 0.18.1">
 <trk>
  <name>Kreuz Cimitero Monumentale Weiche Ost-nach-Nordwest-Ost - Kreuz Cimitero Monumentale Weiche Ost-nach-Nordwest-Nordwest</name>
  <trkseg>
   <trkpt lat="45.484345" lon="9.177726"><ele>124</ele></trkpt>
   <trkpt lat="45.484346" lon="9.177725"><ele>124</ele></trkpt>
   <trkpt lat="45.484429" lon="9.177181"><ele>124</ele></trkpt>
   <trkpt lat="45.48444" lon="9.177138"><ele>124.5</ele></trkpt>
   <trkpt lat="45.484454" lon="9.177086"><ele>124.5</ele></trkpt>
   <trkpt lat="45.484483" lon="9.177023"><ele>124.75</ele></trkpt>
   <trkpt lat="45.484528" lon="9.176954"><ele>124.75</ele></trkpt>
   <trkpt lat="45.484541" lon="9.176939"><ele>124.75</ele></trkpt>
   <trkpt lat="45.484543" lon="9.176936"><ele>124.5</ele></trkpt>
  </trkseg>
 </trk>
</gpx>