<?xml version="1.0" encoding="UTF-8"?>
<!-- track-length = 645 filtered ascend = 1 plain-ascend = 2 cost=645 energy=0.0kwh time=52s -->
<gpx 
 xmlns="http://www.topografix.com/GPX/1/1" 
 xmlns:xsi="http://www.w3.org/2001/XMLSchema-instance" 
 xsi:schemaLocation="http://www.topografix.com/GPX/1/1 http://www.topografix.com/GPX/1/1/gpx.xsd" 
 version="1.1" 
 creator="BRouter-Web 99.71.0">
 <trk>
  <name>Bahnhof Deutz/Messe/Arena (Steig 1) - Deutzer Freiheit (Steig 2)</name>
  <link href="https://brouter.damsy.net/latest/#map=17/50.93698/6.97574/standard&amp;lonlats=6.977819,50.939804;6.971293,50.937564&amp;nogos=6.781752,51.218852,6&amp;profile=rail">
   <text>BRouter-Web</text>
  </link>
  <trkseg>
   <trkpt lat="50.939798" lon="6.977816"><ele>44.5</ele></trkpt>
   <trkpt lat="50.939862" lon="6.97747"><ele>44.5</ele></trkpt>
   <trkpt lat="50.939886" lon="6.97726"><ele>44.5</ele></trkpt>
   <trkpt lat="50.939933" lon="6.976868"><ele>44.5</ele></trkpt>
   <trkpt lat="50.940011" lon="6.975972"><ele>44.5</ele></trkpt>
   <trkpt lat="50.940037" lon="6.975355"><ele>44.5</ele></trkpt>
   <trkpt lat="50.940039" lon="6.974576"><ele>44.5</ele></trkpt>
   <trkpt lat="50.940012" lon="6.973956"><ele>44.5</ele></trkpt>
   <trkpt lat="50.939967" lon="6.973481"><ele>44.5</ele></trkpt>
   <trkpt lat="50.939898" lon="6.973129"><ele>44.5</ele></trkpt>
   <trkpt lat="50.939806" lon="6.972794"><ele>44.5</ele></trkpt>
   <trkpt lat="50.939679" lon="6.972471"><ele>44.5</ele></trkpt>
   <trkpt lat="50.939521" lon="6.972183"><ele>44.5</ele></trkpt>
   <trkpt lat="50.939421" lon="6.972036"><ele>44.5</ele></trkpt>
   <trkpt lat="50.93925" lon="6.971838"><ele>45</ele></trkpt>
   <trkpt lat="50.939108" lon="6.971707"><ele>44.75</ele></trkpt>
   <trkpt lat="50.938959" lon="6.971601"><ele>44.5</ele></trkpt>
   <trkpt lat="50.93888" lon="6.971555"><ele>44.75</ele></trkpt>
   <trkpt lat="50.938705" lon="6.971477"><ele>45</ele></trkpt>
   <trkpt lat="50.938552" lon="6.971435"><ele>45</ele></trkpt>
   <trkpt lat="50.938398" lon="6.971402"><ele>45</ele></trkpt>
   <trkpt lat="50.93809" lon="6.971361"><ele>45.75</ele></trkpt>
   <trkpt lat="50.937562" lon="6.971296"><ele>46</ele></trkpt>
  </trkseg>
 </trk>
</gpx>