<?xml version="1.0" encoding="UTF-8"?>
<!-- track-length = 307 filtered ascend = 0 plain-ascend = 0 cost=614 energy=0.0kwh time=25s -->
<gpx 
 xmlns="http://www.topografix.com/GPX/1/1" 
 xmlns:xsi="http://www.w3.org/2001/XMLSchema-instance" 
 xsi:schemaLocation="http://www.topografix.com/GPX/1/1 http://www.topografix.com/GPX/1/1/gpx.xsd" 
 version="1.1" 
 creator="BRouter-Web 0.18.1">
 <trk>
  <name>Abzweig Degnerstraße Weiche 598 - Freienwalder Straße (Steig Nordwest)</name>
  <trkseg>
   <trkpt lat="52.546097" lon="13.496276"><ele>56.25</ele></trkpt>
   <trkpt lat="52.545972" lon="13.496038"><ele>56.75</ele></trkpt>
   <trkpt lat="52.545473" lon="13.495083"><ele>56</ele></trkpt>
   <trkpt lat="52.545392" lon="13.494924"><ele>56</ele></trkpt>
   <trkpt lat="52.545289" lon="13.494724"><ele>56</ele></trkpt>
   <trkpt lat="52.544938" lon="13.494048"><ele>56</ele></trkpt>
   <trkpt lat="52.544722" lon="13.493636"><ele>56</ele></trkpt>
   <trkpt lat="52.544667" lon="13.493534"><ele>56</ele></trkpt>
   <trkpt lat="52.544291" lon="13.492833"><ele>56</ele></trkpt>
  </trkseg>
 </trk>
</gpx>