<?xml version="1.0" encoding="UTF-8"?>
<!-- track-length = 495 filtered ascend = 1 plain-ascend = 0 cost=990 energy=0.0kwh time=40s -->
<gpx 
 xmlns="http://www.topografix.com/GPX/1/1" 
 xmlns:xsi="http://www.w3.org/2001/XMLSchema-instance" 
 xsi:schemaLocation="http://www.topografix.com/GPX/1/1 http://www.topografix.com/GPX/1/1/gpx.xsd" 
 version="1.1" 
 creator="BRouter-Web 0.18.1">
 <trk>
  <name>Werneuchener Straße (Steig Nordwest) - Simon-Bolivar-Straße (Steig Nordwest)</name>
  <trkseg>
   <trkpt lat="52.542789" lon="13.489951"><ele>58</ele></trkpt>
   <trkpt lat="52.542728" lon="13.489833"><ele>58</ele></trkpt>
   <trkpt lat="52.54257" lon="13.489529"><ele>58</ele></trkpt>
   <trkpt lat="52.542516" lon="13.489418"><ele>58</ele></trkpt>
   <trkpt lat="52.542404" lon="13.489204"><ele>58.5</ele></trkpt>
   <trkpt lat="52.542132" lon="13.488686"><ele>58.75</ele></trkpt>
   <trkpt lat="52.541817" lon="13.488081"><ele>59</ele></trkpt>
   <trkpt lat="52.5418" lon="13.488049"><ele>58.75</ele></trkpt>
   <trkpt lat="52.541683" lon="13.487824"><ele>58</ele></trkpt>
   <trkpt lat="52.541594" lon="13.487652"><ele>58.25</ele></trkpt>
   <trkpt lat="52.541047" lon="13.486596"><ele>58</ele></trkpt>
   <trkpt lat="52.540933" lon="13.48638"><ele>58.5</ele></trkpt>
   <trkpt lat="52.540666" lon="13.485871"><ele>58</ele></trkpt>
   <trkpt lat="52.540381" lon="13.485326"><ele>58</ele></trkpt>
   <trkpt lat="52.539903" lon="13.484415"><ele>58</ele></trkpt>
   <trkpt lat="52.539897" lon="13.484405"><ele>57.75</ele></trkpt>
  </trkseg>
 </trk>
</gpx>