<?xml version="1.0" encoding="UTF-8"?>
<!-- track-length = 164 filtered ascend = 5 plain-ascend = 5 cost=164 energy=0.0kwh time=13s -->
<gpx 
 xmlns="http://www.topografix.com/GPX/1/1" 
 xmlns:xsi="http://www.w3.org/2001/XMLSchema-instance" 
 xsi:schemaLocation="http://www.topografix.com/GPX/1/1 http://www.topografix.com/GPX/1/1/gpx.xsd" 
 version="1.1" 
 creator="BRouter-Web 99.71.0">
 <trk>
  <name>Frechen Mühlengasse (Steig Nordwest) - Frechen Üst Mühlengasse Weiche Südwest</name>
  <link href="https://brouter.damsy.net/latest/#map=19/50.90774/6.80151/standard&amp;lonlats=6.801966,50.908256;6.800225,50.907333&amp;nogos=6.781752,51.218852,6&amp;profile=rail">
   <text>BRouter-Web</text>
  </link>
  <trkseg>
   <trkpt lat="50.908256" lon="6.801964"><ele>79.75</ele></trkpt>
   <trkpt lat="50.908231" lon="6.801882"><ele>80</ele></trkpt>
   <trkpt lat="50.908033" lon="6.801333"><ele>81</ele></trkpt>
   <trkpt lat="50.90785" lon="6.800875"><ele>82</ele></trkpt>
   <trkpt lat="50.907755" lon="6.800666"><ele>82.5</ele></trkpt>
   <trkpt lat="50.907643" lon="6.800491"><ele>83.5</ele></trkpt>
   <trkpt lat="50.907563" lon="6.800404"><ele>83.75</ele></trkpt>
   <trkpt lat="50.907332" lon="6.800231"><ele>84</ele></trkpt>
   <trkpt lat="50.90733" lon="6.80023"><ele>85</ele></trkpt>
  </trkseg>
 </trk>
</gpx>