<?xml version="1.0" encoding="UTF-8"?>
<!-- track-length = 616 filtered ascend = 0 plain-ascend = -3 cost=616 energy=0.0kwh time=49s -->
<gpx 
 xmlns="http://www.topografix.com/GPX/1/1" 
 xmlns:xsi="http://www.w3.org/2001/XMLSchema-instance" 
 xsi:schemaLocation="http://www.topografix.com/GPX/1/1 http://www.topografix.com/GPX/1/1/gpx.xsd" 
 version="1.1" 
 creator="BRouter-Web 99.71.0">
 <trk>
  <name>Frechen Rathaus - Frechen Üst Kirche Weiche West</name>
  <link href="https://brouter.damsy.net/latest/#map=19/50.90939/6.80818/standard&amp;lonlats=6.805917,50.909404;6.814614,50.909971&amp;nogos=6.781752,51.218852,6&amp;profile=rail">
   <text>BRouter-Web</text>
  </link>
  <trkseg>
   <trkpt lat="50.909404" lon="6.805915"><ele>76</ele></trkpt>
   <trkpt lat="50.909434" lon="6.806148"><ele>76</ele></trkpt>
   <trkpt lat="50.909471" lon="6.80649"><ele>76</ele></trkpt>
   <trkpt lat="50.909477" lon="6.806568"><ele>76</ele></trkpt>
   <trkpt lat="50.909549" lon="6.807246"><ele>76</ele></trkpt>
   <trkpt lat="50.909641" lon="6.808038"><ele>76</ele></trkpt>
   <trkpt lat="50.909696" lon="6.808812"><ele>76</ele></trkpt>
   <trkpt lat="50.909822" lon="6.810999"><ele>74.25</ele></trkpt>
   <trkpt lat="50.909835" lon="6.811585"><ele>74</ele></trkpt>
   <trkpt lat="50.909837" lon="6.812006"><ele>74</ele></trkpt>
   <trkpt lat="50.9099" lon="6.813308"><ele>73</ele></trkpt>
   <trkpt lat="50.909905" lon="6.813416"><ele>73</ele></trkpt>
   <trkpt lat="50.909908" lon="6.813476"><ele>73</ele></trkpt>
   <trkpt lat="50.909942" lon="6.8142"><ele>72.75</ele></trkpt>
   <trkpt lat="50.909971" lon="6.814612"><ele>72</ele></trkpt>
  </trkseg>
 </trk>
</gpx>
