<?xml version="1.0" encoding="UTF-8"?>
<!-- track-length = 132 filtered ascend = 0 plain-ascend = 0 cost=264 energy=0.0kwh time=11s -->
<gpx 
 xmlns="http://www.topografix.com/GPX/1/1" 
 xmlns:xsi="http://www.w3.org/2001/XMLSchema-instance" 
 xsi:schemaLocation="http://www.topografix.com/GPX/1/1 http://www.topografix.com/GPX/1/1/gpx.xsd" 
 version="1.1" 
 creator="BRouter-Web 0.18.1">
 <trk>
  <name>Abzweig Vallilan varikko Mitte Weiche West - Abzweig Vallilan varikko Süd Weiche West</name>
  <trkseg>
   <trkpt lat="60.194714" lon="24.963389"><ele>22.75</ele></trkpt>
   <trkpt lat="60.194712" lon="24.963391"><ele>23</ele></trkpt>
   <trkpt lat="60.194587" lon="24.963498"><ele>23</ele></trkpt>
   <trkpt lat="60.193823" lon="24.964149"><ele>23</ele></trkpt>
   <trkpt lat="60.193728" lon="24.964228"><ele>23</ele></trkpt>
   <trkpt lat="60.193626" lon="24.964315"><ele>23</ele></trkpt>
   <trkpt lat="60.193624" lon="24.964316"><ele>23</ele></trkpt>
  </trkseg>
 </trk>
</gpx>