<?xml version="1.0" encoding="UTF-8"?>
<!-- track-length = 31 filtered ascend = 0 plain-ascend = 1 cost=62 energy=0.0kwh time=2s -->
<gpx 
 xmlns="http://www.topografix.com/GPX/1/1" 
 xmlns:xsi="http://www.w3.org/2001/XMLSchema-instance" 
 xsi:schemaLocation="http://www.topografix.com/GPX/1/1 http://www.topografix.com/GPX/1/1/gpx.xsd" 
 version="1.1" 
 creator="BRouter-Web 0.18.1">
 <trk>
  <name>Abzweig Vallilan varikko Nord Weiche West - Abzweig Vallilan varikko Mitte Weiche West</name>
  <trkseg>
   <trkpt lat="60.194957" lon="24.963187"><ele>22.25</ele></trkpt>
   <trkpt lat="60.194957" lon="24.963188"><ele>22.5</ele></trkpt>
   <trkpt lat="60.194934" lon="24.963207"><ele>22.5</ele></trkpt>
   <trkpt lat="60.194714" lon="24.963389"><ele>23</ele></trkpt>
  </trkseg>
 </trk>
</gpx>