<?xml version="1.0" encoding="UTF-8"?>
<!-- track-length = 63 filtered ascend = 0 plain-ascend = 0 cost=126 energy=0.0kwh time=5s -->
<gpx 
 xmlns="http://www.topografix.com/GPX/1/1" 
 xmlns:xsi="http://www.w3.org/2001/XMLSchema-instance" 
 xsi:schemaLocation="http://www.topografix.com/GPX/1/1 http://www.topografix.com/GPX/1/1/gpx.xsd" 
 version="1.1" 
 creator="BRouter-Web 0.18.1">
 <trk>
  <name>Abzweig Vallilan varikko Süd Weiche West - Hauhon puisto (Steig West)</name>
  <trkseg>
   <trkpt lat="60.193624" lon="24.964316"><ele>23</ele></trkpt>
   <trkpt lat="60.193572" lon="24.964362"><ele>23</ele></trkpt>
   <trkpt lat="60.193515" lon="24.964408"><ele>23</ele></trkpt>
   <trkpt lat="60.193392" lon="24.964484"><ele>23</ele></trkpt>
   <trkpt lat="60.193357" lon="24.9645"><ele>22.75</ele></trkpt>
   <trkpt lat="60.193122" lon="24.964586"><ele>23</ele></trkpt>
   <trkpt lat="60.19308" lon="24.964597"><ele>22.75</ele></trkpt>
  </trkseg>
 </trk>
</gpx>