<?xml version="1.0" encoding="UTF-8"?>
<!-- track-length = 318 filtered ascend = 0 plain-ascend = 0 cost=636 energy=0.0kwh time=25s -->
<gpx 
 xmlns="http://www.topografix.com/GPX/1/1" 
 xmlns:xsi="http://www.w3.org/2001/XMLSchema-instance" 
 xsi:schemaLocation="http://www.topografix.com/GPX/1/1 http://www.topografix.com/GPX/1/1/gpx.xsd" 
 version="1.1" 
 creator="BRouter-Web 0.18.1">
 <trk>
  <name>Abzweig Kanariankatu Weiche Nord - Saukonkatu (Steig Südost)</name>
  <trkseg>
   <trkpt lat="60.154068" lon="24.909778"><ele>4</ele></trkpt>
   <trkpt lat="60.154433" lon="24.909785"><ele>4</ele></trkpt>
   <trkpt lat="60.154691" lon="24.909831"><ele>3</ele></trkpt>
   <trkpt lat="60.154732" lon="24.909841"><ele>2.75</ele></trkpt>
   <trkpt lat="60.15498" lon="24.909937"><ele>2.25</ele></trkpt>
   <trkpt lat="60.155164" lon="24.910025"><ele>2.5</ele></trkpt>
   <trkpt lat="60.155241" lon="24.910068"><ele>2.75</ele></trkpt>
   <trkpt lat="60.155322" lon="24.910112"><ele>3</ele></trkpt>
   <trkpt lat="60.155534" lon="24.910233"><ele>3</ele></trkpt>
   <trkpt lat="60.155909" lon="24.910477"><ele>3</ele></trkpt>
   <trkpt lat="60.156139" lon="24.91064"><ele>3</ele></trkpt>
   <trkpt lat="60.156201" lon="24.910698"><ele>3</ele></trkpt>
   <trkpt lat="60.15627" lon="24.910779"><ele>3</ele></trkpt>
   <trkpt lat="60.156307" lon="24.910832"><ele>3</ele></trkpt>
   <trkpt lat="60.156712" lon="24.911498"><ele>3.5</ele></trkpt>
  </trkseg>
 </trk>
</gpx>