<?xml version="1.0" encoding="UTF-8"?>
<!-- track-length = 66 filtered ascend = 0 plain-ascend = 0 cost=132 energy=0.0kwh time=5s -->
<gpx 
 xmlns="http://www.topografix.com/GPX/1/1" 
 xmlns:xsi="http://www.w3.org/2001/XMLSchema-instance" 
 xsi:schemaLocation="http://www.topografix.com/GPX/1/1 http://www.topografix.com/GPX/1/1/gpx.xsd" 
 version="1.1" 
 creator="BRouter-Web 0.18.1">
 <trk>
  <name>Abzweig Hegdehaugsveien/Josefines gate Weiche West - Homansbyen (Steig Südwest)</name>
  <trkseg>
   <trkpt lat="59.923022" lon="10.726291"><ele>37.75</ele></trkpt>
   <trkpt lat="59.922972" lon="10.726314"><ele>37.75</ele></trkpt>
   <trkpt lat="59.922543" lon="10.72652"><ele>37</ele></trkpt>
   <trkpt lat="59.922449" lon="10.726565"><ele>37</ele></trkpt>
  </trkseg>
 </trk>
</gpx>
