<?xml version="1.0" encoding="UTF-8"?>
<!-- track-length = 704 filtered ascend = 2 plain-ascend = 2 cost=704 energy=0.0kwh time=56s -->
<gpx 
 xmlns="http://www.topografix.com/GPX/1/1" 
 xmlns:xsi="http://www.w3.org/2001/XMLSchema-instance" 
 xsi:schemaLocation="http://www.topografix.com/GPX/1/1 http://www.topografix.com/GPX/1/1/gpx.xsd" 
 version="1.1" 
 creator="BRouter-Web 0.18.1">
 <trk>
  <name>6207 Niesky Weiche 3 - Niesky (Gleis 2)</name>
  <trkseg>
   <trkpt lat="51.297953" lon="14.8411"><ele>170</ele></trkpt>
   <trkpt lat="51.297954" lon="14.8411"><ele>170</ele></trkpt>
   <trkpt lat="51.297975" lon="14.840821"><ele>170</ele></trkpt>
   <trkpt lat="51.298122" lon="14.838589"><ele>170.5</ele></trkpt>
   <trkpt lat="51.298146" lon="14.83822"><ele>170</ele></trkpt>
   <trkpt lat="51.298237" lon="14.83691"><ele>170.5</ele></trkpt>
   <trkpt lat="51.298339" lon="14.835727"><ele>171.75</ele></trkpt>
   <trkpt lat="51.298394" lon="14.835208"><ele>171.5</ele></trkpt>
   <trkpt lat="51.298786" lon="14.831814"><ele>172</ele></trkpt>
   <trkpt lat="51.298861" lon="14.831158"><ele>172</ele></trkpt>
  </trkseg>
 </trk>
</gpx>