<?xml version="1.0" encoding="UTF-8"?>
<!-- track-length = 209 filtered ascend = 0 plain-ascend = 0 cost=210 energy=0.0kwh time=17s -->
<gpx 
 xmlns="http://www.topografix.com/GPX/1/1" 
 xmlns:xsi="http://www.w3.org/2001/XMLSchema-instance" 
 xsi:schemaLocation="http://www.topografix.com/GPX/1/1 http://www.topografix.com/GPX/1/1/gpx.xsd" 
 version="1.1" 
 creator="BRouter-Web 0.18.1">
 <trk>
  <name>6207 Horka Gbf Weiche 52 - Horka Gbf Weiche 55</name>
  <trkseg>
   <trkpt lat="51.305004" lon="14.913185"><ele>165.75</ele></trkpt>
   <trkpt lat="51.304731" lon="14.91095"><ele>165.5</ele></trkpt>
   <trkpt lat="51.304681" lon="14.910536"><ele>165.5</ele></trkpt>
   <trkpt lat="51.304647" lon="14.910253"><ele>164.75</ele></trkpt>
   <trkpt lat="51.304646" lon="14.910248"><ele>164.75</ele></trkpt>
  </trkseg>
 </trk>
</gpx>