<?xml version="1.0" encoding="UTF-8"?>
<!-- track-length = 3130 filtered ascend = 4 plain-ascend = 5 cost=3130 energy=0.0kwh time=4m 10s -->
<gpx 
 xmlns="http://www.topografix.com/GPX/1/1" 
 xmlns:xsi="http://www.w3.org/2001/XMLSchema-instance" 
 xsi:schemaLocation="http://www.topografix.com/GPX/1/1 http://www.topografix.com/GPX/1/1/gpx.xsd" 
 version="1.1" 
 creator="BRouter-Web 0.18.1">
 <trk>
  <name>6207 Särichen Weiche 63 - Niesky Weiche 2</name>
  <trkseg>
   <trkpt lat="51.301646" lon="14.885432"><ele>165.25</ele></trkpt>
   <trkpt lat="51.301374" lon="14.883167"><ele>165.25</ele></trkpt>
   <trkpt lat="51.30135" lon="14.882968"><ele>164.75</ele></trkpt>
   <trkpt lat="51.301345" lon="14.882924"><ele>164.75</ele></trkpt>
   <trkpt lat="51.301288" lon="14.882459"><ele>165</ele></trkpt>
   <trkpt lat="51.30116" lon="14.881395"><ele>165</ele></trkpt>
   <trkpt lat="51.301159" lon="14.88139"><ele>165</ele></trkpt>
   <trkpt lat="51.300947" lon="14.879635"><ele>165</ele></trkpt>
   <trkpt lat="51.300624" lon="14.876955"><ele>165</ele></trkpt>
   <trkpt lat="51.300277" lon="14.874067"><ele>166</ele></trkpt>
   <trkpt lat="51.29993" lon="14.871208"><ele>165.5</ele></trkpt>
   <trkpt lat="51.299597" lon="14.868454"><ele>167.25</ele></trkpt>
   <trkpt lat="51.299248" lon="14.865566"><ele>166.5</ele></trkpt>
   <trkpt lat="51.299149" lon="14.864736"><ele>167</ele></trkpt>
   <trkpt lat="51.299116" lon="14.864462"><ele>167.25</ele></trkpt>
   <trkpt lat="51.29911" lon="14.864414"><ele>167.25</ele></trkpt>
   <trkpt lat="51.299109" lon="14.864407"><ele>167.25</ele></trkpt>
   <trkpt lat="51.298907" lon="14.862739"><ele>168</ele></trkpt>
   <trkpt lat="51.29859" lon="14.86013"><ele>166.75</ele></trkpt>
   <trkpt lat="51.298362" lon="14.858234"><ele>166.75</ele></trkpt>
   <trkpt lat="51.298333" lon="14.857989"><ele>166.75</ele></trkpt>
   <trkpt lat="51.298252" lon="14.857315"><ele>166.5</ele></trkpt>
   <trkpt lat="51.297902" lon="14.854422"><ele>168</ele></trkpt>
   <trkpt lat="51.2978" lon="14.853529"><ele>168</ele></trkpt>
   <trkpt lat="51.297708" lon="14.852612"><ele>168.25</ele></trkpt>
   <trkpt lat="51.297637" lon="14.851685"><ele>169</ele></trkpt>
   <trkpt lat="51.297611" lon="14.851287"><ele>169</ele></trkpt>
   <trkpt lat="51.297564" lon="14.850296"><ele>168.75</ele></trkpt>
   <trkpt lat="51.297539" lon="14.849107"><ele>168</ele></trkpt>
   <trkpt lat="51.29754" lon="14.848566"><ele>168.75</ele></trkpt>
   <trkpt lat="51.297548" lon="14.847931"><ele>169</ele></trkpt>
   <trkpt lat="51.297578" lon="14.84694"><ele>169</ele></trkpt>
   <trkpt lat="51.297604" lon="14.846462"><ele>169</ele></trkpt>
   <trkpt lat="51.297666" lon="14.845415"><ele>169</ele></trkpt>
   <trkpt lat="51.297784" lon="14.843681"><ele>169.5</ele></trkpt>
   <trkpt lat="51.297822" lon="14.843101"><ele>169.75</ele></trkpt>
   <trkpt lat="51.297881" lon="14.842201"><ele>169.75</ele></trkpt>
   <trkpt lat="51.297947" lon="14.841226"><ele>170</ele></trkpt>
   <trkpt lat="51.297947" lon="14.84122"><ele>170</ele></trkpt>
  </trkseg>
 </trk>
</gpx>