<?xml version="1.0" encoding="UTF-8"?>
<!-- track-length = 469 filtered ascend = 0 plain-ascend = -2 cost=938 energy=0.0kwh time=38s -->
<gpx 
 xmlns="http://www.topografix.com/GPX/1/1" 
 xmlns:xsi="http://www.w3.org/2001/XMLSchema-instance" 
 xsi:schemaLocation="http://www.topografix.com/GPX/1/1 http://www.topografix.com/GPX/1/1/gpx.xsd" 
 version="1.1" 
 creator="BRouter-Web 0.18.1">
 <trk>
  <name>Hattulantie (Steig Nordost) - Mäkelänrinne (Steig Nordost)</name>
  <trkseg>
   <trkpt lat="60.195202" lon="24.95557"><ele>24.75</ele></trkpt>
   <trkpt lat="60.195224" lon="24.955522"><ele>25</ele></trkpt>
   <trkpt lat="60.19524" lon="24.955485"><ele>25</ele></trkpt>
   <trkpt lat="60.195287" lon="24.955375"><ele>25</ele></trkpt>
   <trkpt lat="60.195334" lon="24.955259"><ele>25</ele></trkpt>
   <trkpt lat="60.195348" lon="24.955225"><ele>25</ele></trkpt>
   <trkpt lat="60.195712" lon="24.954317"><ele>25</ele></trkpt>
   <trkpt lat="60.195737" lon="24.954254"><ele>25</ele></trkpt>
   <trkpt lat="60.195757" lon="24.954205"><ele>25</ele></trkpt>
   <trkpt lat="60.195909" lon="24.953828"><ele>25</ele></trkpt>
   <trkpt lat="60.196192" lon="24.953121"><ele>25</ele></trkpt>
   <trkpt lat="60.196733" lon="24.951774"><ele>24</ele></trkpt>
   <trkpt lat="60.197176" lon="24.950674"><ele>23</ele></trkpt>
   <trkpt lat="60.197793" lon="24.949175"><ele>22</ele></trkpt>
   <trkpt lat="60.197857" lon="24.949022"><ele>22</ele></trkpt>
  </trkseg>
 </trk>
</gpx>