<?xml version="1.0" encoding="UTF-8"?>
<!-- track-length = 361 filtered ascend = 0 plain-ascend = -9 cost=722 energy=0.0kwh time=29s -->
<gpx 
 xmlns="http://www.topografix.com/GPX/1/1" 
 xmlns:xsi="http://www.w3.org/2001/XMLSchema-instance" 
 xsi:schemaLocation="http://www.topografix.com/GPX/1/1 http://www.topografix.com/GPX/1/1/gpx.xsd" 
 version="1.1" 
 creator="BRouter-Web 0.18.1">
 <trk>
  <name>Mäkelänrinne (Steig Nordost) - Abzweig Velodromi Weiche Südost-Ost</name>
  <trkseg>
   <trkpt lat="60.197857" lon="24.949022"><ele>22</ele></trkpt>
   <trkpt lat="60.197865" lon="24.949004"><ele>22</ele></trkpt>
   <trkpt lat="60.197883" lon="24.94896"><ele>22</ele></trkpt>
   <trkpt lat="60.197966" lon="24.94876"><ele>21.5</ele></trkpt>
   <trkpt lat="60.198024" lon="24.948623"><ele>21</ele></trkpt>
   <trkpt lat="60.198259" lon="24.948066"><ele>20.25</ele></trkpt>
   <trkpt lat="60.198273" lon="24.948033"><ele>20</ele></trkpt>
   <trkpt lat="60.198347" lon="24.947852"><ele>20</ele></trkpt>
   <trkpt lat="60.198418" lon="24.947692"><ele>20</ele></trkpt>
   <trkpt lat="60.198511" lon="24.947502"><ele>20</ele></trkpt>
   <trkpt lat="60.198569" lon="24.947403"><ele>19.75</ele></trkpt>
   <trkpt lat="60.2" lon="24.945346"><ele>12</ele></trkpt>
   <trkpt lat="60.200081" lon="24.945246"><ele>12</ele></trkpt>
   <trkpt lat="60.200216" lon="24.945112"><ele>12</ele></trkpt>
   <trkpt lat="60.200312" lon="24.945039"><ele>12</ele></trkpt>
   <trkpt lat="60.20037" lon="24.944998"><ele>12</ele></trkpt>
  </trkseg>
 </trk>
</gpx>