<?xml version="1.0" encoding="UTF-8"?>
<!-- track-length = 221 filtered ascend = 2 plain-ascend = 2 cost=444 energy=0.0kwh time=18s -->
<gpx 
 xmlns="http://www.topografix.com/GPX/1/1" 
 xmlns:xsi="http://www.w3.org/2001/XMLSchema-instance" 
 xsi:schemaLocation="http://www.topografix.com/GPX/1/1 http://www.topografix.com/GPX/1/1/gpx.xsd" 
 version="1.1" 
 creator="BRouter-Web 0.18.1">
 <trk>
  <name>Abzweig Kaivokatu/Mikonkatu Weiche Nord - Päärautatieasema (Steig Nord)</name>
  <trkseg>
   <trkpt lat="60.170542" lon="24.944507"><ele>2</ele></trkpt>
   <trkpt lat="60.170492" lon="24.944187"><ele>2</ele></trkpt>
   <trkpt lat="60.170481" lon="24.944062"><ele>2</ele></trkpt>
   <trkpt lat="60.170476" lon="24.943861"><ele>2</ele></trkpt>
   <trkpt lat="60.170457" lon="24.943009"><ele>3</ele></trkpt>
   <trkpt lat="60.17045" lon="24.942766"><ele>3</ele></trkpt>
   <trkpt lat="60.170444" lon="24.942532"><ele>3</ele></trkpt>
   <trkpt lat="60.170422" lon="24.941528"><ele>4</ele></trkpt>
   <trkpt lat="60.170401" lon="24.940677"><ele>4</ele></trkpt>
   <trkpt lat="60.170398" lon="24.940554"><ele>4</ele></trkpt>
  </trkseg>
 </trk>
</gpx>