<?xml version="1.0" encoding="UTF-8"?>
<!-- track-length = 55 filtered ascend = 0 plain-ascend = 0 cost=110 energy=0.0kwh time=4s -->
<gpx 
 xmlns="http://www.topografix.com/GPX/1/1" 
 xmlns:xsi="http://www.w3.org/2001/XMLSchema-instance" 
 xsi:schemaLocation="http://www.topografix.com/GPX/1/1 http://www.topografix.com/GPX/1/1/gpx.xsd" 
 version="1.1" 
 creator="BRouter-Web 0.18.1">
 <trk>
  <name>Dreieck 13. janvāra iela/Prāgas iela Weiche Südwest-Südost - Dreieck 13. janvāra iela/Prāgas iela Weiche Nordost-Südost</name>
  <trkseg>
   <trkpt lat="56.946122" lon="24.11409"><ele>4</ele></trkpt>
   <trkpt lat="56.946219" lon="24.114284"><ele>4</ele></trkpt>
   <trkpt lat="56.946332" lon="24.114508"><ele>4</ele></trkpt>
   <trkpt lat="56.946351" lon="24.114546"><ele>4</ele></trkpt>
   <trkpt lat="56.946456" lon="24.114754"><ele>4</ele></trkpt>
  </trkseg>
 </trk>
</gpx>
