<?xml version="1.0" encoding="UTF-8"?>
<!-- track-length = 15 filtered ascend = 0 plain-ascend = 1 cost=30 energy=0.0kwh time=1s -->
<gpx 
 xmlns="http://www.topografix.com/GPX/1/1" 
 xmlns:xsi="http://www.w3.org/2001/XMLSchema-instance" 
 xsi:schemaLocation="http://www.topografix.com/GPX/1/1 http://www.topografix.com/GPX/1/1/gpx.xsd" 
 version="1.1" 
 creator="BRouter-Web 0.18.1">
 <trk>
  <name>Dreieck 13. janvāra iela/Prāgas iela Weiche Nordost-Südost - Dreieck Prāgas iela/Aspazijas bulvāris Weiche Südwest-Südost</name>
  <trkseg>
   <trkpt lat="56.946455" lon="24.114753"><ele>4</ele></trkpt>
   <trkpt lat="56.946458" lon="24.114758"><ele>4</ele></trkpt>
   <trkpt lat="56.946545" lon="24.114926"><ele>4.5</ele></trkpt>
  </trkseg>
 </trk>
</gpx>