<?xml version="1.0" encoding="UTF-8"?>
<!-- track-length = 64 filtered ascend = 0 plain-ascend = 0 cost=128 energy=0.0kwh time=5s -->
<gpx 
 xmlns="http://www.topografix.com/GPX/1/1" 
 xmlns:xsi="http://www.w3.org/2001/XMLSchema-instance" 
 xsi:schemaLocation="http://www.topografix.com/GPX/1/1 http://www.topografix.com/GPX/1/1/gpx.xsd" 
 version="1.1" 
 creator="BRouter-Web 0.18.1">
 <trk>
  <name>Dreieck Vazovova Nordwest Weiche Ost-Süd - Vazovova (Steig B)</name>
  <trkseg>
   <trkpt lat="48.154429" lon="17.119734"><ele>140</ele></trkpt>
   <trkpt lat="48.154424" lon="17.119751"><ele>140</ele></trkpt>
   <trkpt lat="48.154178" lon="17.120454"><ele>139</ele></trkpt>
   <trkpt lat="48.15416" lon="17.120504"><ele>139</ele></trkpt>
  </trkseg>
 </trk>
</gpx>