<?xml version="1.0" encoding="UTF-8"?>
<!-- track-length = 88 filtered ascend = 0 plain-ascend = 0 cost=176 energy=0.0kwh time=7s -->
<gpx 
 xmlns="http://www.topografix.com/GPX/1/1" 
 xmlns:xsi="http://www.w3.org/2001/XMLSchema-instance" 
 xsi:schemaLocation="http://www.topografix.com/GPX/1/1 http://www.topografix.com/GPX/1/1/gpx.xsd" 
 version="1.1" 
 creator="BRouter-Web 0.18.1">
 <trk>
  <name>Vazovova (Steig B) - Dreieck Vazovova Südost Weiche 048</name>
  <trkseg>
   <trkpt lat="48.15416" lon="17.120504"><ele>139</ele></trkpt>
   <trkpt lat="48.154159" lon="17.120507"><ele>139</ele></trkpt>
   <trkpt lat="48.153949" lon="17.121088"><ele>138.25</ele></trkpt>
   <trkpt lat="48.153902" lon="17.121217"><ele>138</ele></trkpt>
   <trkpt lat="48.153896" lon="17.121233"><ele>138</ele></trkpt>
   <trkpt lat="48.153891" lon="17.121242"><ele>138</ele></trkpt>
   <trkpt lat="48.153841" lon="17.121341"><ele>138</ele></trkpt>
   <trkpt lat="48.153749" lon="17.12151"><ele>138</ele></trkpt>
  </trkseg>
 </trk>
</gpx>