<?xml version="1.0" encoding="UTF-8"?>
<!-- track-length = 39 filtered ascend = 0 plain-ascend = -1 cost=78 energy=0.0kwh time=3s -->
<gpx 
 xmlns="http://www.topografix.com/GPX/1/1" 
 xmlns:xsi="http://www.w3.org/2001/XMLSchema-instance" 
 xsi:schemaLocation="http://www.topografix.com/GPX/1/1 http://www.topografix.com/GPX/1/1/gpx.xsd" 
 version="1.1" 
 creator="BRouter-Web 0.18.1">
 <trk>
  <name>Kreuz Largo Quinto Alpini Südwest-nach-Südost-Südwest - Kreuz Largo Quinto Alpini Südwest-nach-Südost-Südost</name>
  <trkseg>
   <trkpt lat="45.472207" lon="9.167101"><ele>122</ele></trkpt>
   <trkpt lat="45.472209" lon="9.167104"><ele>122</ele></trkpt>
   <trkpt lat="45.472236" lon="9.167212"><ele>122</ele></trkpt>
   <trkpt lat="45.472243" lon="9.167272"><ele>122</ele></trkpt>
   <trkpt lat="45.472241" lon="9.167324"><ele>122</ele></trkpt>
   <trkpt lat="45.472228" lon="9.167391"><ele>121.75</ele></trkpt>
   <trkpt lat="45.472191" lon="9.167476"><ele>121.5</ele></trkpt>
   <trkpt lat="45.472158" lon="9.16753"><ele>121</ele></trkpt>
   <trkpt lat="45.472154" lon="9.167534"><ele>120.5</ele></trkpt>
  </trkseg>
 </trk>
</gpx>