<?xml version="1.0" encoding="UTF-8"?>
<!-- track-length = 316 filtered ascend = 0 plain-ascend = 0 cost=632 energy=0.0kwh time=25s -->
<gpx 
 xmlns="http://www.topografix.com/GPX/1/1" 
 xmlns:xsi="http://www.w3.org/2001/XMLSchema-instance" 
 xsi:schemaLocation="http://www.topografix.com/GPX/1/1 http://www.topografix.com/GPX/1/1/gpx.xsd" 
 version="1.1" 
 creator="BRouter-Web 0.18.1">
 <trk>
  <name>Via Venti Settembre (Steig Südwest) - Piazza Virgilio (Steig Südwest)</name>
  <trkseg>
   <trkpt lat="45.470233" lon="9.170069"><ele>121</ele></trkpt>
   <trkpt lat="45.470193" lon="9.170121"><ele>121.25</ele></trkpt>
   <trkpt lat="45.470159" lon="9.170166"><ele>121.5</ele></trkpt>
   <trkpt lat="45.470137" lon="9.170194"><ele>121.5</ele></trkpt>
   <trkpt lat="45.470068" lon="9.170285"><ele>121.75</ele></trkpt>
   <trkpt lat="45.469997" lon="9.170379"><ele>121.5</ele></trkpt>
   <trkpt lat="45.46997" lon="9.170416"><ele>121.5</ele></trkpt>
   <trkpt lat="45.469685" lon="9.170788"><ele>121</ele></trkpt>
   <trkpt lat="45.469081" lon="9.171586"><ele>121</ele></trkpt>
   <trkpt lat="45.468148" lon="9.172811"><ele>121</ele></trkpt>
   <trkpt lat="45.468146" lon="9.172813"><ele>121</ele></trkpt>
  </trkseg>
 </trk>
</gpx>