<?xml version="1.0" encoding="UTF-8"?>
<!-- track-length = 270 filtered ascend = 0 plain-ascend = -4 cost=540 energy=0.0kwh time=22s -->
<gpx 
 xmlns="http://www.topografix.com/GPX/1/1" 
 xmlns:xsi="http://www.w3.org/2001/XMLSchema-instance" 
 xsi:schemaLocation="http://www.topografix.com/GPX/1/1 http://www.topografix.com/GPX/1/1/gpx.xsd" 
 version="1.1" 
 creator="BRouter-Web 0.18.1">
 <trk>
  <name>Asemapäällikönkatu (Steig Südost-Südwest) - Jämsänkatu (Steig Süd)</name>
  <trkseg>
   <trkpt lat="60.198038" lon="24.940294"><ele>26.75</ele></trkpt>
   <trkpt lat="60.197954" lon="24.940334"><ele>27</ele></trkpt>
   <trkpt lat="60.196889" lon="24.940835"><ele>23.75</ele></trkpt>
   <trkpt lat="60.19684" lon="24.940863"><ele>23.5</ele></trkpt>
   <trkpt lat="60.196801" lon="24.940905"><ele>23.25</ele></trkpt>
   <trkpt lat="60.196768" lon="24.940953"><ele>23.25</ele></trkpt>
   <trkpt lat="60.196736" lon="24.941008"><ele>23</ele></trkpt>
   <trkpt lat="60.19672" lon="24.941054"><ele>23</ele></trkpt>
   <trkpt lat="60.196699" lon="24.941118"><ele>23</ele></trkpt>
   <trkpt lat="60.196684" lon="24.941196"><ele>23</ele></trkpt>
   <trkpt lat="60.196672" lon="24.941286"><ele>23</ele></trkpt>
   <trkpt lat="60.196663" lon="24.941427"><ele>22.75</ele></trkpt>
   <trkpt lat="60.196681" lon="24.942255"><ele>23</ele></trkpt>
   <trkpt lat="60.19669" lon="24.942664"><ele>22.75</ele></trkpt>
   <trkpt lat="60.196691" lon="24.943054"><ele>22.25</ele></trkpt>
   <trkpt lat="60.19669" lon="24.94306"><ele>22.25</ele></trkpt>
  </trkseg>
 </trk>
</gpx>