<?xml version="1.0" encoding="UTF-8"?>
<!-- track-length = 340 filtered ascend = 0 plain-ascend = -5 cost=680 energy=0.0kwh time=27s -->
<gpx 
 xmlns="http://www.topografix.com/GPX/1/1" 
 xmlns:xsi="http://www.w3.org/2001/XMLSchema-instance" 
 xsi:schemaLocation="http://www.topografix.com/GPX/1/1 http://www.topografix.com/GPX/1/1/gpx.xsd" 
 version="1.1" 
 creator="BRouter-Web 0.18.1">
 <trk>
  <name>Jämsänkatu (Steig Süd) - Pasilan konepaja (Steig Nordwest)</name>
  <trkseg>
   <trkpt lat="60.19669" lon="24.94306"><ele>22.25</ele></trkpt>
   <trkpt lat="60.19669" lon="24.943241"><ele>22.25</ele></trkpt>
   <trkpt lat="60.196682" lon="24.943317"><ele>22.25</ele></trkpt>
   <trkpt lat="60.196665" lon="24.943383"><ele>21.75</ele></trkpt>
   <trkpt lat="60.196626" lon="24.943471"><ele>21.5</ele></trkpt>
   <trkpt lat="60.196593" lon="24.943517"><ele>21.25</ele></trkpt>
   <trkpt lat="60.196543" lon="24.943556"><ele>21</ele></trkpt>
   <trkpt lat="60.196194" lon="24.94369"><ele>19.25</ele></trkpt>
   <trkpt lat="60.196144" lon="24.943706"><ele>19</ele></trkpt>
   <trkpt lat="60.196036" lon="24.943742"><ele>18.5</ele></trkpt>
   <trkpt lat="60.195879" lon="24.943803"><ele>18</ele></trkpt>
   <trkpt lat="60.195788" lon="24.943838"><ele>18</ele></trkpt>
   <trkpt lat="60.195672" lon="24.943879"><ele>18</ele></trkpt>
   <trkpt lat="60.195647" lon="24.943889"><ele>18</ele></trkpt>
   <trkpt lat="60.195565" lon="24.943935"><ele>18</ele></trkpt>
   <trkpt lat="60.195527" lon="24.943976"><ele>17.75</ele></trkpt>
   <trkpt lat="60.195506" lon="24.944007"><ele>17.75</ele></trkpt>
   <trkpt lat="60.195462" lon="24.944099"><ele>17.5</ele></trkpt>
   <trkpt lat="60.194898" lon="24.945449"><ele>17</ele></trkpt>
   <trkpt lat="60.194868" lon="24.945507"><ele>17</ele></trkpt>
   <trkpt lat="60.194827" lon="24.945564"><ele>17</ele></trkpt>
   <trkpt lat="60.194801" lon="24.945588"><ele>17</ele></trkpt>
   <trkpt lat="60.19474" lon="24.945612"><ele>17</ele></trkpt>
   <trkpt lat="60.194684" lon="24.945601"><ele>17</ele></trkpt>
   <trkpt lat="60.194625" lon="24.945553"><ele>16.75</ele></trkpt>
   <trkpt lat="60.194501" lon="24.945357"><ele>16.25</ele></trkpt>
   <trkpt lat="60.194307" lon="24.945039"><ele>16.25</ele></trkpt>
   <trkpt lat="60.194306" lon="24.945037"><ele>16.25</ele></trkpt>
  </trkseg>
 </trk>
</gpx>