<?xml version="1.0" encoding="UTF-8"?>
<!-- track-length = 347 filtered ascend = 0 plain-ascend = 0 cost=694 energy=0.0kwh time=28s -->
<gpx 
 xmlns="http://www.topografix.com/GPX/1/1" 
 xmlns:xsi="http://www.w3.org/2001/XMLSchema-instance" 
 xsi:schemaLocation="http://www.topografix.com/GPX/1/1 http://www.topografix.com/GPX/1/1/gpx.xsd" 
 version="1.1" 
 creator="BRouter-Web 0.18.1">
 <trk>
  <name>Kotkankatu (Steig Südwest) - Sturenkatu (Steig Südwest)</name>
  <trkseg>
   <trkpt lat="60.192865" lon="24.943987"><ele>17</ele></trkpt>
   <trkpt lat="60.19286" lon="24.944001"><ele>17</ele></trkpt>
   <trkpt lat="60.192842" lon="24.944045"><ele>17</ele></trkpt>
   <trkpt lat="60.192771" lon="24.944213"><ele>17</ele></trkpt>
   <trkpt lat="60.192649" lon="24.9445"><ele>17</ele></trkpt>
   <trkpt lat="60.191989" lon="24.946074"><ele>17</ele></trkpt>
   <trkpt lat="60.191977" lon="24.946106"><ele>17</ele></trkpt>
   <trkpt lat="60.191896" lon="24.946292"><ele>16.5</ele></trkpt>
   <trkpt lat="60.191783" lon="24.946557"><ele>16.75</ele></trkpt>
   <trkpt lat="60.19111" lon="24.948163"><ele>16</ele></trkpt>
   <trkpt lat="60.191084" lon="24.948225"><ele>16</ele></trkpt>
   <trkpt lat="60.190867" lon="24.948744"><ele>16</ele></trkpt>
   <trkpt lat="60.190859" lon="24.948762"><ele>16</ele></trkpt>
  </trkseg>
 </trk>
</gpx>