<?xml version="1.0" encoding="UTF-8"?>
<!-- track-length = 375 filtered ascend = 0 plain-ascend = -1 cost=750 energy=0.0kwh time=30s -->
<gpx 
 xmlns="http://www.topografix.com/GPX/1/1" 
 xmlns:xsi="http://www.w3.org/2001/XMLSchema-instance" 
 xsi:schemaLocation="http://www.topografix.com/GPX/1/1 http://www.topografix.com/GPX/1/1/gpx.xsd" 
 version="1.1" 
 creator="BRouter-Web 0.18.1">
 <trk>
  <name>Abzweig Haupt-/Konrad-Wolf_Straße Weiche 92 - Oberseestraße (Steig Nordwest)</name>
  <trkseg>
   <trkpt lat="52.548947" lon="13.502281"><ele>59</ele></trkpt>
   <trkpt lat="52.548947" lon="13.502283"><ele>59</ele></trkpt>
   <trkpt lat="52.548949" lon="13.502122"><ele>59</ele></trkpt>
   <trkpt lat="52.548944" lon="13.502002"><ele>59</ele></trkpt>
   <trkpt lat="52.548937" lon="13.501954"><ele>59</ele></trkpt>
   <trkpt lat="52.548926" lon="13.501871"><ele>59</ele></trkpt>
   <trkpt lat="52.54888" lon="13.501663"><ele>59</ele></trkpt>
   <trkpt lat="52.548842" lon="13.501552"><ele>59</ele></trkpt>
   <trkpt lat="52.548837" lon="13.501538"><ele>59</ele></trkpt>
   <trkpt lat="52.548818" lon="13.501494"><ele>59</ele></trkpt>
   <trkpt lat="52.548799" lon="13.501454"><ele>59</ele></trkpt>
   <trkpt lat="52.548267" lon="13.500435"><ele>58.25</ele></trkpt>
   <trkpt lat="52.548038" lon="13.499995"><ele>58</ele></trkpt>
   <trkpt lat="52.547908" lon="13.499744"><ele>58</ele></trkpt>
   <trkpt lat="52.547776" lon="13.499491"><ele>58</ele></trkpt>
   <trkpt lat="52.547374" lon="13.498717"><ele>57.5</ele></trkpt>
   <trkpt lat="52.547304" lon="13.498579"><ele>57.25</ele></trkpt>
   <trkpt lat="52.547079" lon="13.498149"><ele>57</ele></trkpt>
   <trkpt lat="52.546965" lon="13.497929"><ele>57</ele></trkpt>
  </trkseg>
 </trk>
</gpx>