<?xml version="1.0" encoding="UTF-8"?>
<!-- track-length = 150 filtered ascend = 0 plain-ascend = 0 cost=300 energy=0.0kwh time=12s -->
<gpx 
 xmlns="http://www.topografix.com/GPX/1/1" 
 xmlns:xsi="http://www.w3.org/2001/XMLSchema-instance" 
 xsi:schemaLocation="http://www.topografix.com/GPX/1/1 http://www.topografix.com/GPX/1/1/gpx.xsd" 
 version="1.1" 
 creator="BRouter-Web 0.18.1">
 <trk>
  <name>Oberseestraße (Steig Nordwest) - Abzweig Degnerstraße Weiche 598</name>
  <trkseg>
   <trkpt lat="52.546965" lon="13.497929"><ele>57</ele></trkpt>
   <trkpt lat="52.546943" lon="13.497887"><ele>57</ele></trkpt>
   <trkpt lat="52.546886" lon="13.49778"><ele>57</ele></trkpt>
   <trkpt lat="52.546336" lon="13.496737"><ele>57</ele></trkpt>
   <trkpt lat="52.546277" lon="13.496625"><ele>56.75</ele></trkpt>
   <trkpt lat="52.546226" lon="13.496526"><ele>56.25</ele></trkpt>
   <trkpt lat="52.546101" lon="13.496284"><ele>56.25</ele></trkpt>
   <trkpt lat="52.546097" lon="13.496276"><ele>56.75</ele></trkpt>
  </trkseg>
 </trk>
</gpx>