<?xml version="1.0" encoding="UTF-8"?>
<!-- track-length = 160 filtered ascend = 0 plain-ascend = 0 cost=320 energy=0.0kwh time=13s -->
<gpx 
 xmlns="http://www.topografix.com/GPX/1/1" 
 xmlns:xsi="http://www.w3.org/2001/XMLSchema-instance" 
 xsi:schemaLocation="http://www.topografix.com/GPX/1/1 http://www.topografix.com/GPX/1/1/gpx.xsd" 
 version="1.1" 
 creator="BRouter-Web 0.18.1">
 <trk>
  <name>Via Settembrini (Steig Nordwest) - Via Vitruvio (Steig Nordost)</name>
  <trkseg>
   <trkpt lat="45.483746" lon="9.208048"><ele>121.75</ele></trkpt>
   <trkpt lat="45.483704" lon="9.208003"><ele>121.75</ele></trkpt>
   <trkpt lat="45.483645" lon="9.207941"><ele>121.5</ele></trkpt>
   <trkpt lat="45.483603" lon="9.207897"><ele>121.25</ele></trkpt>
   <trkpt lat="45.48359" lon="9.207883"><ele>121.25</ele></trkpt>
   <trkpt lat="45.48323" lon="9.207505"><ele>120.25</ele></trkpt>
   <trkpt lat="45.482873" lon="9.207129"><ele>120.5</ele></trkpt>
   <trkpt lat="45.482597" lon="9.206841"><ele>120.5</ele></trkpt>
   <trkpt lat="45.482596" lon="9.206839"><ele>120.75</ele></trkpt>
  </trkseg>
 </trk>
</gpx>