<?xml version="1.0" encoding="UTF-8"?>
<!-- track-length = 86 filtered ascend = 0 plain-ascend = 1 cost=86 energy=0.0kwh time=7s -->
<gpx 
 xmlns="http://www.topografix.com/GPX/1/1" 
 xmlns:xsi="http://www.w3.org/2001/XMLSchema-instance" 
 xsi:schemaLocation="http://www.topografix.com/GPX/1/1 http://www.topografix.com/GPX/1/1/gpx.xsd" 
 version="1.1" 
 creator="BRouter-Web 99.71.0">
 <trk>
  <name>Abzweig Schleife Innerer Grüngürtel Weiche Süd - Moltkestraße (Steig Süd)</name>
  <link href="https://brouter.damsy.net/latest/#map=20/50.93557/6.93237/standard&amp;lonlats=6.931048,50.935564;6.932283,50.935562&amp;nogos=6.781752,51.218852,6&amp;profile=rail">
   <text>BRouter-Web</text>
  </link>
  <trkseg>
   <trkpt lat="50.935562" lon="6.931047"><ele>48.5</ele></trkpt>
   <trkpt lat="50.935565" lon="6.931477"><ele>48</ele></trkpt>
   <trkpt lat="50.935563" lon="6.932066"><ele>48.25</ele></trkpt>
   <trkpt lat="50.935561" lon="6.932282"><ele>49</ele></trkpt>
  </trkseg>
 </trk>
</gpx>