<?xml version="1.0" encoding="UTF-8"?>
<!-- track-length = 26 filtered ascend = 0 plain-ascend = 0 cost=52 energy=0.0kwh time=2s -->
<gpx 
 xmlns="http://www.topografix.com/GPX/1/1" 
 xmlns:xsi="http://www.w3.org/2001/XMLSchema-instance" 
 xsi:schemaLocation="http://www.topografix.com/GPX/1/1 http://www.topografix.com/GPX/1/1/gpx.xsd" 
 version="1.1" 
 creator="BRouter-Web 0.18.1">
 <trk>
  <name>Abzweig Heinrich-_Reichsstraße - Abzweig Heinrich-/Breitscheidstraße Weiche West</name>
  <trkseg>
   <trkpt lat="50.8762" lon="12.080003"><ele>194</ele></trkpt>
   <trkpt lat="50.87618" lon="12.079941"><ele>194</ele></trkpt>
   <trkpt lat="50.876156" lon="12.079869"><ele>193.75</ele></trkpt>
   <trkpt lat="50.876082" lon="12.079713"><ele>194</ele></trkpt>
   <trkpt lat="50.876079" lon="12.079707"><ele>194</ele></trkpt>
  </trkseg>
 </trk>
</gpx>