<?xml version="1.0" encoding="UTF-8"?>
<!-- track-length = 197 filtered ascend = 0 plain-ascend = -1 cost=394 energy=0.0kwh time=16s -->
<gpx 
 xmlns="http://www.topografix.com/GPX/1/1" 
 xmlns:xsi="http://www.w3.org/2001/XMLSchema-instance" 
 xsi:schemaLocation="http://www.topografix.com/GPX/1/1 http://www.topografix.com/GPX/1/1/gpx.xsd" 
 version="1.1" 
 creator="BRouter-Web 0.18.1">
 <trk>
  <name>Alt-Hohenschönhausen (Steig Süd) - Dreieck Hauptstraße Weiche 169</name>
  <trkseg>
   <trkpt lat="52.548806" lon="13.505145"><ele>59</ele></trkpt>
   <trkpt lat="52.548803" lon="13.505192"><ele>59</ele></trkpt>
   <trkpt lat="52.548794" lon="13.505316"><ele>58.75</ele></trkpt>
   <trkpt lat="52.548783" lon="13.505473"><ele>58.5</ele></trkpt>
   <trkpt lat="52.548752" lon="13.505792"><ele>58</ele></trkpt>
   <trkpt lat="52.548611" lon="13.506732"><ele>57.75</ele></trkpt>
   <trkpt lat="52.548577" lon="13.507035"><ele>57</ele></trkpt>
   <trkpt lat="52.548567" lon="13.507206"><ele>57</ele></trkpt>
   <trkpt lat="52.548546" lon="13.508001"><ele>57</ele></trkpt>
  </trkseg>
 </trk>
</gpx>