<?xml version="1.0" encoding="UTF-8"?>
<!-- track-length = 3345 filtered ascend = 65 plain-ascend = 64 cost=3345 energy=0.1kwh time=4m 28s -->
<gpx 
 xmlns="http://www.topografix.com/GPX/1/1" 
 xmlns:xsi="http://www.w3.org/2001/XMLSchema-instance" 
 xsi:schemaLocation="http://www.topografix.com/GPX/1/1 http://www.topografix.com/GPX/1/1/gpx.xsd" 
 version="1.1" 
 creator="BRouter-Web 0.18.1">
 <trk>
  <name>9470 Amstetten (Württ) Lokalbahn - Abzweig Alb-Donau Industrieservice Weiche 1</name>
  <trkseg>
   <trkpt lat="48.57787" lon="9.874002"><ele>578.25</ele></trkpt>
   <trkpt lat="48.576442" lon="9.875222"><ele>578</ele></trkpt>
   <trkpt lat="48.576314" lon="9.875345"><ele>578</ele></trkpt>
   <trkpt lat="48.576164" lon="9.875507"><ele>578</ele></trkpt>
   <trkpt lat="48.576016" lon="9.875712"><ele>578</ele></trkpt>
   <trkpt lat="48.575907" lon="9.875892"><ele>578</ele></trkpt>
   <trkpt lat="48.575818" lon="9.876072"><ele>578</ele></trkpt>
   <trkpt lat="48.575689" lon="9.876399"><ele>578</ele></trkpt>
   <trkpt lat="48.575615" lon="9.876667"><ele>579</ele></trkpt>
   <trkpt lat="48.575565" lon="9.876892"><ele>579</ele></trkpt>
   <trkpt lat="48.575534" lon="9.8771"><ele>579</ele></trkpt>
   <trkpt lat="48.575514" lon="9.877309"><ele>579</ele></trkpt>
   <trkpt lat="48.575502" lon="9.877537"><ele>579</ele></trkpt>
   <trkpt lat="48.575505" lon="9.877749"><ele>579.5</ele></trkpt>
   <trkpt lat="48.575519" lon="9.877968"><ele>579.75</ele></trkpt>
   <trkpt lat="48.575567" lon="9.878302"><ele>580.75</ele></trkpt>
   <trkpt lat="48.575643" lon="9.878638"><ele>581.25</ele></trkpt>
   <trkpt lat="48.575737" lon="9.878931"><ele>581</ele></trkpt>
   <trkpt lat="48.575857" lon="9.879204"><ele>582</ele></trkpt>
   <trkpt lat="48.575983" lon="9.879432"><ele>582</ele></trkpt>
   <trkpt lat="48.576131" lon="9.879642"><ele>581.75</ele></trkpt>
   <trkpt lat="48.57631" lon="9.879847"><ele>582</ele></trkpt>
   <trkpt lat="48.576491" lon="9.880006"><ele>582</ele></trkpt>
   <trkpt lat="48.576663" lon="9.880121"><ele>582</ele></trkpt>
   <trkpt lat="48.576824" lon="9.880198"><ele>582</ele></trkpt>
   <trkpt lat="48.577202" lon="9.880327"><ele>582</ele></trkpt>
   <trkpt lat="48.578003" lon="9.880589"><ele>584.5</ele></trkpt>
   <trkpt lat="48.578213" lon="9.880671"><ele>585.75</ele></trkpt>
   <trkpt lat="48.578446" lon="9.880785"><ele>587</ele></trkpt>
   <trkpt lat="48.578595" lon="9.880882"><ele>587.5</ele></trkpt>
   <trkpt lat="48.578792" lon="9.881053"><ele>588.5</ele></trkpt>
   <trkpt lat="48.579025" lon="9.881316"><ele>589.75</ele></trkpt>
   <trkpt lat="48.57925" lon="9.881655"><ele>589.75</ele></trkpt>
   <trkpt lat="48.580553" lon="9.884041"><ele>594.25</ele></trkpt>
   <trkpt lat="48.581124" lon="9.884993"><ele>598.25</ele></trkpt>
   <trkpt lat="48.581266" lon="9.885168"><ele>600</ele></trkpt>
   <trkpt lat="48.581427" lon="9.885309"><ele>602.25</ele></trkpt>
   <trkpt lat="48.581566" lon="9.885404"><ele>603.25</ele></trkpt>
   <trkpt lat="48.581706" lon="9.885483"><ele>603.75</ele></trkpt>
   <trkpt lat="48.581839" lon="9.885539"><ele>603</ele></trkpt>
   <trkpt lat="48.581972" lon="9.885579"><ele>602.5</ele></trkpt>
   <trkpt lat="48.582118" lon="9.885604"><ele>602</ele></trkpt>
   <trkpt lat="48.582263" lon="9.885609"><ele>601.75</ele></trkpt>
   <trkpt lat="48.582426" lon="9.885601"><ele>601.25</ele></trkpt>
   <trkpt lat="48.584517" lon="9.885356"><ele>606</ele></trkpt>
   <trkpt lat="48.584675" lon="9.885358"><ele>606.75</ele></trkpt>
   <trkpt lat="48.584824" lon="9.885377"><ele>607.25</ele></trkpt>
   <trkpt lat="48.584973" lon="9.885416"><ele>607.25</ele></trkpt>
   <trkpt lat="48.585098" lon="9.885466"><ele>607.25</ele></trkpt>
   <trkpt lat="48.585224" lon="9.885529"><ele>607</ele></trkpt>
   <trkpt lat="48.585357" lon="9.885614"><ele>607.25</ele></trkpt>
   <trkpt lat="48.585491" lon="9.885719"><ele>607.5</ele></trkpt>
   <trkpt lat="48.585611" lon="9.885832"><ele>607.5</ele></trkpt>
   <trkpt lat="48.585727" lon="9.885966"><ele>607.25</ele></trkpt>
   <trkpt lat="48.585831" lon="9.886104"><ele>607</ele></trkpt>
   <trkpt lat="48.585919" lon="9.886237"><ele>607</ele></trkpt>
   <trkpt lat="48.585984" lon="9.886352"><ele>606.75</ele></trkpt>
   <trkpt lat="48.586053" lon="9.886488"><ele>607</ele></trkpt>
   <trkpt lat="48.586121" lon="9.886641"><ele>607</ele></trkpt>
   <trkpt lat="48.586236" lon="9.886967"><ele>604.75</ele></trkpt>
   <trkpt lat="48.58629" lon="9.887171"><ele>604.25</ele></trkpt>
   <trkpt lat="48.58635" lon="9.887501"><ele>603.5</ele></trkpt>
   <trkpt lat="48.586371" lon="9.88768"><ele>603.75</ele></trkpt>
   <trkpt lat="48.586384" lon="9.88786"><ele>603.75</ele></trkpt>
   <trkpt lat="48.586389" lon="9.888052"><ele>604</ele></trkpt>
   <trkpt lat="48.586379" lon="9.888369"><ele>604</ele></trkpt>
   <trkpt lat="48.586342" lon="9.888688"><ele>605</ele></trkpt>
   <trkpt lat="48.586285" lon="9.888976"><ele>605.25</ele></trkpt>
   <trkpt lat="48.586211" lon="9.88924"><ele>606.5</ele></trkpt>
   <trkpt lat="48.586169" lon="9.889363"><ele>607.25</ele></trkpt>
   <trkpt lat="48.586077" lon="9.889588"><ele>608.75</ele></trkpt>
   <trkpt lat="48.585973" lon="9.889793"><ele>610.5</ele></trkpt>
   <trkpt lat="48.585839" lon="9.89001"><ele>612.75</ele></trkpt>
   <trkpt lat="48.585745" lon="9.890137"><ele>613.75</ele></trkpt>
   <trkpt lat="48.584753" lon="9.891346"><ele>622.75</ele></trkpt>
   <trkpt lat="48.584581" lon="9.891578"><ele>623.25</ele></trkpt>
   <trkpt lat="48.584498" lon="9.891713"><ele>623.25</ele></trkpt>
   <trkpt lat="48.584432" lon="9.891838"><ele>623.5</ele></trkpt>
   <trkpt lat="48.584286" lon="9.892179"><ele>623.75</ele></trkpt>
   <trkpt lat="48.584229" lon="9.892365"><ele>623.75</ele></trkpt>
   <trkpt lat="48.584178" lon="9.892567"><ele>624.25</ele></trkpt>
   <trkpt lat="48.58413" lon="9.892796"><ele>624.5</ele></trkpt>
   <trkpt lat="48.584101" lon="9.893033"><ele>624.5</ele></trkpt>
   <trkpt lat="48.584079" lon="9.893318"><ele>624.25</ele></trkpt>
   <trkpt lat="48.584077" lon="9.893601"><ele>624.25</ele></trkpt>
   <trkpt lat="48.584091" lon="9.893899"><ele>624.25</ele></trkpt>
   <trkpt lat="48.584179" lon="9.895203"><ele>626</ele></trkpt>
   <trkpt lat="48.584221" lon="9.895542"><ele>626.25</ele></trkpt>
   <trkpt lat="48.584274" lon="9.895847"><ele>626</ele></trkpt>
   <trkpt lat="48.58434" lon="9.896144"><ele>626.75</ele></trkpt>
   <trkpt lat="48.584416" lon="9.896436"><ele>627.5</ele></trkpt>
   <trkpt lat="48.584507" lon="9.896714"><ele>628.25</ele></trkpt>
   <trkpt lat="48.584606" lon="9.896975"><ele>628.5</ele></trkpt>
   <trkpt lat="48.584713" lon="9.897227"><ele>629.75</ele></trkpt>
   <trkpt lat="48.584831" lon="9.897468"><ele>629.75</ele></trkpt>
   <trkpt lat="48.584957" lon="9.897692"><ele>630.5</ele></trkpt>
   <trkpt lat="48.58507" lon="9.897868"><ele>631</ele></trkpt>
   <trkpt lat="48.585192" lon="9.898038"><ele>631.25</ele></trkpt>
   <trkpt lat="48.585335" lon="9.898217"><ele>631.5</ele></trkpt>
   <trkpt lat="48.585489" lon="9.898393"><ele>631.75</ele></trkpt>
   <trkpt lat="48.585644" lon="9.898551"><ele>632.5</ele></trkpt>
   <trkpt lat="48.58748" lon="9.900267"><ele>639.5</ele></trkpt>
   <trkpt lat="48.587632" lon="9.900419"><ele>639.5</ele></trkpt>
   <trkpt lat="48.587777" lon="9.900579"><ele>639.75</ele></trkpt>
   <trkpt lat="48.587921" lon="9.900749"><ele>640.5</ele></trkpt>
   <trkpt lat="48.588055" lon="9.900925"><ele>640.5</ele></trkpt>
   <trkpt lat="48.588191" lon="9.901121"><ele>641.25</ele></trkpt>
   <trkpt lat="48.588725" lon="9.901981"><ele>643.5</ele></trkpt>
   <trkpt lat="48.588723" lon="9.901977"><ele>642.5</ele></trkpt>
  </trkseg>
 </trk>
</gpx>