<?xml version="1.0" encoding="UTF-8"?>
<!-- track-length = 141 filtered ascend = 1 plain-ascend = 1 cost=141 energy=0.0kwh time=11s -->
<gpx 
 xmlns="http://www.topografix.com/GPX/1/1" 
 xmlns:xsi="http://www.w3.org/2001/XMLSchema-instance" 
 xsi:schemaLocation="http://www.topografix.com/GPX/1/1 http://www.topografix.com/GPX/1/1/gpx.xsd" 
 version="1.1" 
 creator="BRouter-Web 0.18.1">
 <trk>
  <name>9470 Gussenstadt (Hauptgleis) - Gussenstadt Weiche 3</name>
  <trkseg>
   <trkpt lat="48.639894" lon="9.957575"><ele>664</ele></trkpt>
   <trkpt lat="48.639881" lon="9.957682"><ele>664.25</ele></trkpt>
   <trkpt lat="48.639647" lon="9.959439"><ele>664.5</ele></trkpt>
   <trkpt lat="48.639646" lon="9.959441"><ele>665</ele></trkpt>
  </trkseg>
 </trk>
</gpx>