<?xml version="1.0" encoding="UTF-8"?>
<!-- track-length = 76 filtered ascend = 0 plain-ascend = -1 cost=76 energy=0.0kwh time=6s -->
<gpx 
 xmlns="http://www.topografix.com/GPX/1/1" 
 xmlns:xsi="http://www.w3.org/2001/XMLSchema-instance" 
 xsi:schemaLocation="http://www.topografix.com/GPX/1/1 http://www.topografix.com/GPX/1/1/gpx.xsd" 
 version="1.1" 
 creator="BRouter-Web 0.18.1">
 <trk>
  <name>9470 Gerstetten (Hauptgleis) - Gerstetten Weiche 2</name>
  <trkseg>
   <trkpt lat="48.62491" lon="10.022427"><ele>634</ele></trkpt>
   <trkpt lat="48.624932" lon="10.022368"><ele>634</ele></trkpt>
   <trkpt lat="48.625096" lon="10.021919"><ele>632.5</ele></trkpt>
   <trkpt lat="48.625235" lon="10.021538"><ele>632</ele></trkpt>
   <trkpt lat="48.625237" lon="10.02153"><ele>632</ele></trkpt>
  </trkseg>
 </trk>
</gpx>