<?xml version="1.0" encoding="UTF-8"?>
<!-- track-length = 15 filtered ascend = 0 plain-ascend = 0 cost=15 energy=0.0kwh time=1s -->
<gpx 
 xmlns="http://www.topografix.com/GPX/1/1" 
 xmlns:xsi="http://www.w3.org/2001/XMLSchema-instance" 
 xsi:schemaLocation="http://www.topografix.com/GPX/1/1 http://www.topografix.com/GPX/1/1/gpx.xsd" 
 version="1.1" 
 creator="BRouter-Web 0.18.1">
 <trk>
  <name>9470 Schalkstetten - Schalkstetten Weiche 2</name>
  <trkseg>
   <trkpt lat="48.612485" lon="9.911026"><ele>687.25</ele></trkpt>
   <trkpt lat="48.612448" lon="9.911046"><ele>687.25</ele></trkpt>
   <trkpt lat="48.612354" lon="9.911095"><ele>687.5</ele></trkpt>
  </trkseg>
 </trk>
</gpx>