<?xml version="1.0" encoding="UTF-8"?>
<!-- track-length = 217 filtered ascend = 0 plain-ascend = 1 cost=217 energy=0.0kwh time=17s -->
<gpx 
 xmlns="http://www.topografix.com/GPX/1/1" 
 xmlns:xsi="http://www.w3.org/2001/XMLSchema-instance" 
 xsi:schemaLocation="http://www.topografix.com/GPX/1/1 http://www.topografix.com/GPX/1/1/gpx.xsd" 
 version="1.1" 
 creator="BRouter-Web 0.18.1">
 <trk>
  <name>9470 Stubersheim Weiche 1 - (Südöstliches Gleis) - Stubersheim Weiche 2</name>
  <trkseg>
   <trkpt lat="48.593913" lon="9.920529"><ele>678</ele></trkpt>
   <trkpt lat="48.593917" lon="9.920533"><ele>678</ele></trkpt>
   <trkpt lat="48.594137" lon="9.920822"><ele>677.75</ele></trkpt>
   <trkpt lat="48.59468" lon="9.921534"><ele>677.25</ele></trkpt>
   <trkpt lat="48.594693" lon="9.92155"><ele>677.25</ele></trkpt>
   <trkpt lat="48.594939" lon="9.921872"><ele>677.25</ele></trkpt>
   <trkpt lat="48.59538" lon="9.922446"><ele>677.25</ele></trkpt>
   <trkpt lat="48.595378" lon="9.922443"><ele>677.75</ele></trkpt>
  </trkseg>
 </trk>
</gpx>