<?xml version="1.0" encoding="UTF-8"?>
<!-- track-length = 154 filtered ascend = 1 plain-ascend = 2 cost=154 energy=0.0kwh time=12s -->
<gpx 
 xmlns="http://www.topografix.com/GPX/1/1" 
 xmlns:xsi="http://www.w3.org/2001/XMLSchema-instance" 
 xsi:schemaLocation="http://www.topografix.com/GPX/1/1 http://www.topografix.com/GPX/1/1/gpx.xsd" 
 version="1.1" 
 creator="BRouter-Web 0.18.1">
 <trk>
  <name>9470 Schalkstetten Weiche 1 - (Südwestliches Gleis) - Schalkstetten Weiche 2</name>
  <trkseg>
   <trkpt lat="48.611066" lon="9.911788"><ele>686.25</ele></trkpt>
   <trkpt lat="48.611067" lon="9.911788"><ele>686.5</ele></trkpt>
   <trkpt lat="48.611673" lon="9.911462"><ele>686.5</ele></trkpt>
   <trkpt lat="48.611942" lon="9.911317"><ele>687.5</ele></trkpt>
   <trkpt lat="48.61235" lon="9.911098"><ele>687.5</ele></trkpt>
   <trkpt lat="48.612354" lon="9.911095"><ele>687.25</ele></trkpt>
  </trkseg>
 </trk>
</gpx>