<?xml version="1.0" encoding="UTF-8"?>
<!-- track-length = 1595 filtered ascend = 34 plain-ascend = 35 cost=1595 energy=0.0kwh time=2m 8s -->
<gpx 
 xmlns="http://www.topografix.com/GPX/1/1" 
 xmlns:xsi="http://www.w3.org/2001/XMLSchema-instance" 
 xsi:schemaLocation="http://www.topografix.com/GPX/1/1 http://www.topografix.com/GPX/1/1/gpx.xsd" 
 version="1.1" 
 creator="BRouter-Web 0.18.1">
 <trk>
  <name>9470 Abzweig Alb-Donau Industrieservice Weiche 1 - Stubersheim</name>
  <trkseg>
   <trkpt lat="48.588723" lon="9.901977"><ele>643.25</ele></trkpt>
   <trkpt lat="48.588725" lon="9.901981"><ele>643.5</ele></trkpt>
   <trkpt lat="48.590003" lon="9.90404"><ele>653</ele></trkpt>
   <trkpt lat="48.590676" lon="9.90514"><ele>653.5</ele></trkpt>
   <trkpt lat="48.590764" lon="9.905306"><ele>653.75</ele></trkpt>
   <trkpt lat="48.590848" lon="9.905494"><ele>653.5</ele></trkpt>
   <trkpt lat="48.590914" lon="9.905668"><ele>654</ele></trkpt>
   <trkpt lat="48.590968" lon="9.905832"><ele>654.25</ele></trkpt>
   <trkpt lat="48.591038" lon="9.906145"><ele>654.25</ele></trkpt>
   <trkpt lat="48.591073" lon="9.906372"><ele>654</ele></trkpt>
   <trkpt lat="48.591094" lon="9.906592"><ele>653.75</ele></trkpt>
   <trkpt lat="48.591103" lon="9.906809"><ele>654.25</ele></trkpt>
   <trkpt lat="48.5911" lon="9.907025"><ele>655.25</ele></trkpt>
   <trkpt lat="48.591084" lon="9.907274"><ele>656.75</ele></trkpt>
   <trkpt lat="48.591048" lon="9.907522"><ele>658</ele></trkpt>
   <trkpt lat="48.590829" lon="9.908777"><ele>660.75</ele></trkpt>
   <trkpt lat="48.590801" lon="9.909025"><ele>661.25</ele></trkpt>
   <trkpt lat="48.590794" lon="9.90927"><ele>662</ele></trkpt>
   <trkpt lat="48.590804" lon="9.909526"><ele>662.25</ele></trkpt>
   <trkpt lat="48.590824" lon="9.909792"><ele>661.25</ele></trkpt>
   <trkpt lat="48.590862" lon="9.910031"><ele>660.25</ele></trkpt>
   <trkpt lat="48.590908" lon="9.910233"><ele>660.5</ele></trkpt>
   <trkpt lat="48.590959" lon="9.910418"><ele>661</ele></trkpt>
   <trkpt lat="48.591802" lon="9.913056"><ele>668.75</ele></trkpt>
   <trkpt lat="48.591853" lon="9.913237"><ele>669</ele></trkpt>
   <trkpt lat="48.591897" lon="9.913428"><ele>669</ele></trkpt>
   <trkpt lat="48.591932" lon="9.913635"><ele>668.75</ele></trkpt>
   <trkpt lat="48.591955" lon="9.913839"><ele>669</ele></trkpt>
   <trkpt lat="48.591968" lon="9.914043"><ele>669</ele></trkpt>
   <trkpt lat="48.591964" lon="9.914399"><ele>669</ele></trkpt>
   <trkpt lat="48.591951" lon="9.914582"><ele>669</ele></trkpt>
   <trkpt lat="48.591897" lon="9.914961"><ele>669.5</ele></trkpt>
   <trkpt lat="48.591767" lon="9.915676"><ele>671</ele></trkpt>
   <trkpt lat="48.591719" lon="9.915988"><ele>672.5</ele></trkpt>
   <trkpt lat="48.591701" lon="9.91633"><ele>674.75</ele></trkpt>
   <trkpt lat="48.591703" lon="9.916515"><ele>675</ele></trkpt>
   <trkpt lat="48.591714" lon="9.916705"><ele>674.75</ele></trkpt>
   <trkpt lat="48.591732" lon="9.916888"><ele>675</ele></trkpt>
   <trkpt lat="48.591791" lon="9.917222"><ele>675</ele></trkpt>
   <trkpt lat="48.591869" lon="9.917516"><ele>675</ele></trkpt>
   <trkpt lat="48.591915" lon="9.917646"><ele>675</ele></trkpt>
   <trkpt lat="48.59196" lon="9.917774"><ele>675</ele></trkpt>
   <trkpt lat="48.592076" lon="9.918032"><ele>676.25</ele></trkpt>
   <trkpt lat="48.592142" lon="9.918154"><ele>676.75</ele></trkpt>
   <trkpt lat="48.592256" lon="9.918339"><ele>677</ele></trkpt>
   <trkpt lat="48.592336" lon="9.918452"><ele>677.5</ele></trkpt>
   <trkpt lat="48.592436" lon="9.918589"><ele>677.75</ele></trkpt>
   <trkpt lat="48.592483" lon="9.918651"><ele>678</ele></trkpt>
   <trkpt lat="48.593842" lon="9.920434"><ele>678</ele></trkpt>
   <trkpt lat="48.593847" lon="9.92044"><ele>678</ele></trkpt>
  </trkseg>
 </trk>
</gpx>