<?xml version="1.0" encoding="UTF-8"?>
<!-- track-length = 21 filtered ascend = 0 plain-ascend = 0 cost=21 energy=0.0kwh time=2s -->
<gpx 
 xmlns="http://www.topografix.com/GPX/1/1" 
 xmlns:xsi="http://www.w3.org/2001/XMLSchema-instance" 
 xsi:schemaLocation="http://www.topografix.com/GPX/1/1 http://www.topografix.com/GPX/1/1/gpx.xsd" 
 version="1.1" 
 creator="BRouter-Web 0.18.1">
 <trk>
  <name>9470 Waldhausen - Waldhausen Weiche 1</name>
  <trkseg>
   <trkpt lat="48.634871" lon="9.907847"><ele>670</ele></trkpt>
   <trkpt lat="48.634897" lon="9.90784"><ele>670</ele></trkpt>
   <trkpt lat="48.635044" lon="9.907799"><ele>670</ele></trkpt>
   <trkpt lat="48.635044" lon="9.907798"><ele>670</ele></trkpt>
  </trkseg>
 </trk>
</gpx>