<?xml version="1.0" encoding="UTF-8"?>
<!-- track-length = 2847 filtered ascend = 0 plain-ascend = -18 cost=2847 energy=0.0kwh time=3m 48s -->
<gpx 
 xmlns="http://www.topografix.com/GPX/1/1" 
 xmlns:xsi="http://www.w3.org/2001/XMLSchema-instance" 
 xsi:schemaLocation="http://www.topografix.com/GPX/1/1 http://www.topografix.com/GPX/1/1/gpx.xsd" 
 version="1.1" 
 creator="BRouter-Web 0.18.1">
 <trk>
  <name>9470 Abzweig ehem. Bundeswehrdepot Kickethau Weiche Ost - Gerstetten Weiche 1</name>
  <trkseg>
   <trkpt lat="48.631001" lon="9.986077"><ele>651</ele></trkpt>
   <trkpt lat="48.631002" lon="9.986081"><ele>651</ele></trkpt>
   <trkpt lat="48.631087" lon="9.988865"><ele>647</ele></trkpt>
   <trkpt lat="48.63114" lon="9.990561"><ele>645.75</ele></trkpt>
   <trkpt lat="48.631142" lon="9.990973"><ele>645.25</ele></trkpt>
   <trkpt lat="48.631133" lon="9.99118"><ele>644.75</ele></trkpt>
   <trkpt lat="48.631093" lon="9.991589"><ele>645</ele></trkpt>
   <trkpt lat="48.631063" lon="9.991793"><ele>644.5</ele></trkpt>
   <trkpt lat="48.630977" lon="9.992216"><ele>644</ele></trkpt>
   <trkpt lat="48.630861" lon="9.992618"><ele>643.75</ele></trkpt>
   <trkpt lat="48.630794" lon="9.992809"><ele>643.75</ele></trkpt>
   <trkpt lat="48.630676" lon="9.993094"><ele>643.25</ele></trkpt>
   <trkpt lat="48.630531" lon="9.993383"><ele>643</ele></trkpt>
   <trkpt lat="48.630376" lon="9.993647"><ele>642.75</ele></trkpt>
   <trkpt lat="48.630289" lon="9.993777"><ele>642.75</ele></trkpt>
   <trkpt lat="48.630097" lon="9.994023"><ele>642.5</ele></trkpt>
   <trkpt lat="48.629615" lon="9.994569"><ele>641.75</ele></trkpt>
   <trkpt lat="48.627903" lon="9.996498"><ele>640.25</ele></trkpt>
   <trkpt lat="48.62768" lon="9.996774"><ele>640</ele></trkpt>
   <trkpt lat="48.62749" lon="9.997043"><ele>640</ele></trkpt>
   <trkpt lat="48.62732" lon="9.997322"><ele>639.5</ele></trkpt>
   <trkpt lat="48.627182" lon="9.997587"><ele>639.5</ele></trkpt>
   <trkpt lat="48.627057" lon="9.997853"><ele>638.25</ele></trkpt>
   <trkpt lat="48.626943" lon="9.998131"><ele>637.25</ele></trkpt>
   <trkpt lat="48.626832" lon="9.998437"><ele>636.75</ele></trkpt>
   <trkpt lat="48.626726" lon="9.998775"><ele>636.5</ele></trkpt>
   <trkpt lat="48.626623" lon="9.999147"><ele>636.5</ele></trkpt>
   <trkpt lat="48.626545" lon="9.999478"><ele>636</ele></trkpt>
   <trkpt lat="48.626478" lon="9.999817"><ele>636.5</ele></trkpt>
   <trkpt lat="48.626451" lon="10.000004"><ele>636.25</ele></trkpt>
   <trkpt lat="48.626414" lon="10.000345"><ele>637</ele></trkpt>
   <trkpt lat="48.626398" lon="10.000673"><ele>637</ele></trkpt>
   <trkpt lat="48.626397" lon="10.000842"><ele>637</ele></trkpt>
   <trkpt lat="48.626399" lon="10.000981"><ele>637</ele></trkpt>
   <trkpt lat="48.626417" lon="10.001298"><ele>637</ele></trkpt>
   <trkpt lat="48.626458" lon="10.001659"><ele>637</ele></trkpt>
   <trkpt lat="48.626487" lon="10.001842"><ele>637.25</ele></trkpt>
   <trkpt lat="48.626552" lon="10.002163"><ele>637.5</ele></trkpt>
   <trkpt lat="48.627131" lon="10.004599"><ele>638.25</ele></trkpt>
   <trkpt lat="48.627171" lon="10.004771"><ele>638.5</ele></trkpt>
   <trkpt lat="48.62724" lon="10.005121"><ele>638.5</ele></trkpt>
   <trkpt lat="48.627295" lon="10.005454"><ele>638.5</ele></trkpt>
   <trkpt lat="48.627354" lon="10.005943"><ele>638.25</ele></trkpt>
   <trkpt lat="48.62738" lon="10.006303"><ele>638.25</ele></trkpt>
   <trkpt lat="48.627396" lon="10.006744"><ele>638</ele></trkpt>
   <trkpt lat="48.627394" lon="10.007214"><ele>637</ele></trkpt>
   <trkpt lat="48.62738" lon="10.007515"><ele>637</ele></trkpt>
   <trkpt lat="48.627022" lon="10.011329"><ele>638.25</ele></trkpt>
   <trkpt lat="48.626464" lon="10.017163"><ele>637</ele></trkpt>
   <trkpt lat="48.626411" lon="10.017641"><ele>636.75</ele></trkpt>
   <trkpt lat="48.626376" lon="10.017891"><ele>636.5</ele></trkpt>
   <trkpt lat="48.626334" lon="10.018137"><ele>636</ele></trkpt>
   <trkpt lat="48.626237" lon="10.018594"><ele>635</ele></trkpt>
   <trkpt lat="48.626132" lon="10.019005"><ele>634.75</ele></trkpt>
   <trkpt lat="48.62607" lon="10.019215"><ele>635</ele></trkpt>
   <trkpt lat="48.625969" lon="10.019515"><ele>635</ele></trkpt>
   <trkpt lat="48.625716" lon="10.020213"><ele>633.5</ele></trkpt>
   <trkpt lat="48.625381" lon="10.021137"><ele>632</ele></trkpt>
  </trkseg>
 </trk>
</gpx>