<?xml version="1.0" encoding="UTF-8"?>
<!-- track-length = 705 filtered ascend = 1 plain-ascend = -31 cost=1410 energy=0.0kwh time=56s -->
<gpx 
 xmlns="http://www.topografix.com/GPX/1/1" 
 xmlns:xsi="http://www.w3.org/2001/XMLSchema-instance" 
 xsi:schemaLocation="http://www.topografix.com/GPX/1/1 http://www.topografix.com/GPX/1/1/gpx.xsd" 
 version="1.1" 
 creator="BRouter-Web 0.18.1">
 <trk>
  <name>Altnossener Straße (Steig 1) - Dreieck Gorbitz Betriebshof Südwest Weiche 164</name>
  <trkseg>
   <trkpt lat="51.040084" lon="13.646116"><ele>248.75</ele></trkpt>
   <trkpt lat="51.0401" lon="13.646232"><ele>249.25</ele></trkpt>
   <trkpt lat="51.040156" lon="13.646523"><ele>250</ele></trkpt>
   <trkpt lat="51.0402" lon="13.646704"><ele>249.75</ele></trkpt>
   <trkpt lat="51.040255" lon="13.646864"><ele>249.25</ele></trkpt>
   <trkpt lat="51.040325" lon="13.647039"><ele>248.5</ele></trkpt>
   <trkpt lat="51.04039" lon="13.64717"><ele>248</ele></trkpt>
   <trkpt lat="51.040501" lon="13.64736"><ele>247.5</ele></trkpt>
   <trkpt lat="51.040629" lon="13.647535"><ele>246.5</ele></trkpt>
   <trkpt lat="51.040745" lon="13.647654"><ele>245.75</ele></trkpt>
   <trkpt lat="51.040979" lon="13.647873"><ele>244</ele></trkpt>
   <trkpt lat="51.041649" lon="13.648483"><ele>239.5</ele></trkpt>
   <trkpt lat="51.042065" lon="13.648849"><ele>236.5</ele></trkpt>
   <trkpt lat="51.04234" lon="13.649041"><ele>234</ele></trkpt>
   <trkpt lat="51.042796" lon="13.649289"><ele>232.25</ele></trkpt>
   <trkpt lat="51.044207" lon="13.650044"><ele>223.25</ele></trkpt>
   <trkpt lat="51.044563" lon="13.650247"><ele>221.75</ele></trkpt>
   <trkpt lat="51.044882" lon="13.650478"><ele>220.25</ele></trkpt>
   <trkpt lat="51.045076" lon="13.650643"><ele>218.75</ele></trkpt>
   <trkpt lat="51.0454" lon="13.650978"><ele>217.25</ele></trkpt>
  </trkseg>
 </trk>
</gpx>