<?xml version="1.0" encoding="UTF-8"?>
<!-- track-length = 585 filtered ascend = 0 plain-ascend = -26 cost=1170 energy=0.0kwh time=47s -->
<gpx 
 xmlns="http://www.topografix.com/GPX/1/1" 
 xmlns:xsi="http://www.w3.org/2001/XMLSchema-instance" 
 xsi:schemaLocation="http://www.topografix.com/GPX/1/1 http://www.topografix.com/GPX/1/1/gpx.xsd" 
 version="1.1" 
 creator="BRouter-Web 0.18.1">
 <trk>
  <name>Rudolf-Walther-Straße (Steig 1) - Altnossener Straße (Steig 1)</name>
  <trkseg>
   <trkpt lat="51.038849" lon="13.638026"><ele>276.5</ele></trkpt>
   <trkpt lat="51.038851" lon="13.638033"><ele>276.5</ele></trkpt>
   <trkpt lat="51.038863" lon="13.638108"><ele>276.25</ele></trkpt>
   <trkpt lat="51.038968" lon="13.638795"><ele>273.75</ele></trkpt>
   <trkpt lat="51.039472" lon="13.642098"><ele>263.25</ele></trkpt>
   <trkpt lat="51.039844" lon="13.644539"><ele>251.75</ele></trkpt>
   <trkpt lat="51.039938" lon="13.645146"><ele>253.25</ele></trkpt>
   <trkpt lat="51.040084" lon="13.646115"><ele>248.75</ele></trkpt>
   <trkpt lat="51.040084" lon="13.646118"><ele>249.25</ele></trkpt>
  </trkseg>
 </trk>
</gpx>