<?xml version="1.0" encoding="UTF-8"?>
<!-- track-length = 370 filtered ascend = 3 plain-ascend = 4 cost=740 energy=0.0kwh time=30s -->
<gpx 
 xmlns="http://www.topografix.com/GPX/1/1" 
 xmlns:xsi="http://www.w3.org/2001/XMLSchema-instance" 
 xsi:schemaLocation="http://www.topografix.com/GPX/1/1 http://www.topografix.com/GPX/1/1/gpx.xsd" 
 version="1.1" 
 creator="BRouter-Web 0.18.1">
 <trk>
  <name>Fakultní nemocnice (Steig Nordwest) - Pionýrská (Steig Nordwest)</name>
  <trkseg>
   <trkpt lat="49.581333" lon="17.240268"><ele>216.5</ele></trkpt>
   <trkpt lat="49.5811" lon="17.240145"><ele>217</ele></trkpt>
   <trkpt lat="49.578184" lon="17.238592"><ele>220</ele></trkpt>
  </trkseg>
 </trk>
</gpx>