<?xml version="1.0" encoding="UTF-8"?>
<!-- track-length = 537 filtered ascend = 0 plain-ascend = 0 cost=1074 energy=0.0kwh time=43s -->
<gpx 
 xmlns="http://www.topografix.com/GPX/1/1" 
 xmlns:xsi="http://www.w3.org/2001/XMLSchema-instance" 
 xsi:schemaLocation="http://www.topografix.com/GPX/1/1 http://www.topografix.com/GPX/1/1/gpx.xsd" 
 version="1.1" 
 creator="BRouter-Web 0.18.1">
 <trk>
  <name>Výstaviště Flora (Steig Nordwest) - Wolkerova (Steig Nordwest)</name>
  <trkseg>
   <trkpt lat="49.589277" lon="17.245137"><ele>214.75</ele></trkpt>
   <trkpt lat="49.589122" lon="17.244898"><ele>214.5</ele></trkpt>
   <trkpt lat="49.589006" lon="17.244738"><ele>214.5</ele></trkpt>
   <trkpt lat="49.588861" lon="17.244563"><ele>214.75</ele></trkpt>
   <trkpt lat="49.588773" lon="17.24447"><ele>214.75</ele></trkpt>
   <trkpt lat="49.588588" lon="17.244311"><ele>214.75</ele></trkpt>
   <trkpt lat="49.588481" lon="17.244235"><ele>214.5</ele></trkpt>
   <trkpt lat="49.588368" lon="17.244166"><ele>214</ele></trkpt>
   <trkpt lat="49.587784" lon="17.243823"><ele>214</ele></trkpt>
   <trkpt lat="49.587619" lon="17.243739"><ele>214</ele></trkpt>
   <trkpt lat="49.587404" lon="17.243596"><ele>214</ele></trkpt>
   <trkpt lat="49.58714" lon="17.243376"><ele>214.25</ele></trkpt>
   <trkpt lat="49.587075" lon="17.243302"><ele>214.5</ele></trkpt>
   <trkpt lat="49.586801" lon="17.243046"><ele>215</ele></trkpt>
   <trkpt lat="49.586686" lon="17.242944"><ele>215</ele></trkpt>
   <trkpt lat="49.586511" lon="17.242815"><ele>215</ele></trkpt>
   <trkpt lat="49.58638" lon="17.242737"><ele>214.75</ele></trkpt>
   <trkpt lat="49.586109" lon="17.242599"><ele>215</ele></trkpt>
   <trkpt lat="49.586058" lon="17.242579"><ele>215</ele></trkpt>
   <trkpt lat="49.585985" lon="17.242554"><ele>215</ele></trkpt>
   <trkpt lat="49.585913" lon="17.242528"><ele>215</ele></trkpt>
   <trkpt lat="49.585753" lon="17.242491"><ele>215</ele></trkpt>
   <trkpt lat="49.585452" lon="17.242439"><ele>215</ele></trkpt>
   <trkpt lat="49.58529" lon="17.242374"><ele>215</ele></trkpt>
   <trkpt lat="49.584941" lon="17.242187"><ele>214.75</ele></trkpt>
  </trkseg>
 </trk>
</gpx>