<?xml version="1.0" encoding="UTF-8"?>
<!-- track-length = 447 filtered ascend = 0 plain-ascend = 0 cost=894 energy=0.0kwh time=36s -->
<gpx 
 xmlns="http://www.topografix.com/GPX/1/1" 
 xmlns:xsi="http://www.w3.org/2001/XMLSchema-instance" 
 xsi:schemaLocation="http://www.topografix.com/GPX/1/1 http://www.topografix.com/GPX/1/1/gpx.xsd" 
 version="1.1" 
 creator="BRouter-Web 0.18.1">
 <trk>
  <name>Abzweig Stanica Vinohrady Weiche West - Námestie Biely kríž (Steig A)</name>
  <trkseg>
   <trkpt lat="48.185464" lon="17.133127"><ele>141.25</ele></trkpt>
   <trkpt lat="48.185259" lon="17.132914"><ele>141.75</ele></trkpt>
   <trkpt lat="48.185174" lon="17.13286"><ele>141.75</ele></trkpt>
   <trkpt lat="48.185136" lon="17.132845"><ele>141.5</ele></trkpt>
   <trkpt lat="48.184928" lon="17.132786"><ele>141</ele></trkpt>
   <trkpt lat="48.184868" lon="17.132744"><ele>141</ele></trkpt>
   <trkpt lat="48.184765" lon="17.132639"><ele>141</ele></trkpt>
   <trkpt lat="48.184131" lon="17.131941"><ele>142</ele></trkpt>
   <trkpt lat="48.182648" lon="17.130291"><ele>141.5</ele></trkpt>
   <trkpt lat="48.182175" lon="17.129767"><ele>141</ele></trkpt>
   <trkpt lat="48.182171" lon="17.129762"><ele>141</ele></trkpt>
  </trkseg>
 </trk>
</gpx>