<?xml version="1.0" encoding="UTF-8"?>
<!-- track-length = 361 filtered ascend = 1 plain-ascend = 2 cost=722 energy=0.0kwh time=29s -->
<gpx 
 xmlns="http://www.topografix.com/GPX/1/1" 
 xmlns:xsi="http://www.w3.org/2001/XMLSchema-instance" 
 xsi:schemaLocation="http://www.topografix.com/GPX/1/1 http://www.topografix.com/GPX/1/1/gpx.xsd" 
 version="1.1" 
 creator="BRouter-Web 0.18.1">
 <trk>
  <name>Račianske mýto (Steig A) - Dreieck Vazovova Nordwest Weiche 052</name>
  <trkseg>
   <trkpt lat="48.157949" lon="17.120523"><ele>139.5</ele></trkpt>
   <trkpt lat="48.157921" lon="17.1205"><ele>139.5</ele></trkpt>
   <trkpt lat="48.157791" lon="17.120391"><ele>139.5</ele></trkpt>
   <trkpt lat="48.157716" lon="17.120332"><ele>139.75</ele></trkpt>
   <trkpt lat="48.157542" lon="17.120186"><ele>140</ele></trkpt>
   <trkpt lat="48.157371" lon="17.120063"><ele>139.75</ele></trkpt>
   <trkpt lat="48.157288" lon="17.120012"><ele>139.75</ele></trkpt>
   <trkpt lat="48.157079" lon="17.119926"><ele>140</ele></trkpt>
   <trkpt lat="48.156112" lon="17.119622"><ele>140</ele></trkpt>
   <trkpt lat="48.155962" lon="17.119575"><ele>140.5</ele></trkpt>
   <trkpt lat="48.155327" lon="17.119362"><ele>141</ele></trkpt>
   <trkpt lat="48.154841" lon="17.119207"><ele>141</ele></trkpt>
  </trkseg>
 </trk>
</gpx>