<?xml version="1.0" encoding="UTF-8"?>
<!-- track-length = 511 filtered ascend = 0 plain-ascend = 0 cost=1022 energy=0.0kwh time=41s -->
<gpx 
 xmlns="http://www.topografix.com/GPX/1/1" 
 xmlns:xsi="http://www.w3.org/2001/XMLSchema-instance" 
 xsi:schemaLocation="http://www.topografix.com/GPX/1/1 http://www.topografix.com/GPX/1/1/gpx.xsd" 
 version="1.1" 
 creator="BRouter-Web 0.18.1">
 <trk>
  <name>Ursínyho (Steig A) - Račianske mýto (Steig A)</name>
  <trkseg>
   <trkpt lat="48.161967" lon="17.123817"><ele>139.25</ele></trkpt>
   <trkpt lat="48.16193" lon="17.123787"><ele>139.25</ele></trkpt>
   <trkpt lat="48.16191" lon="17.123771"><ele>139.25</ele></trkpt>
   <trkpt lat="48.161103" lon="17.123165"><ele>139</ele></trkpt>
   <trkpt lat="48.160101" lon="17.12233"><ele>139</ele></trkpt>
   <trkpt lat="48.16" lon="17.12224"><ele>139</ele></trkpt>
   <trkpt lat="48.159022" lon="17.121413"><ele>139</ele></trkpt>
   <trkpt lat="48.157955" lon="17.120527"><ele>139.5</ele></trkpt>
   <trkpt lat="48.157951" lon="17.120523"><ele>139.5</ele></trkpt>
  </trkseg>
 </trk>
</gpx>