<?xml version="1.0" encoding="UTF-8"?>
<!-- track-length = 58 filtered ascend = 0 plain-ascend = 0 cost=116 energy=0.0kwh time=5s -->
<gpx 
 xmlns="http://www.topografix.com/GPX/1/1" 
 xmlns:xsi="http://www.w3.org/2001/XMLSchema-instance" 
 xsi:schemaLocation="http://www.topografix.com/GPX/1/1 http://www.topografix.com/GPX/1/1/gpx.xsd" 
 version="1.1" 
 creator="BRouter-Web 0.18.1">
 <trk>
  <name>Kreuz Lasipalatsi Weiche Südost-nach-Südwest-Südwest - Kreuz Lasipalatsi Weiche Südwest-nach-Südost-Südost</name>
  <trkseg>
   <trkpt lat="60.169728" lon="24.938083"><ele>7.75</ele></trkpt>
   <trkpt lat="60.169753" lon="24.93816"><ele>7.5</ele></trkpt>
   <trkpt lat="60.169777" lon="24.938271"><ele>7</ele></trkpt>
   <trkpt lat="60.169782" lon="24.938348"><ele>7</ele></trkpt>
   <trkpt lat="60.169781" lon="24.938416"><ele>7</ele></trkpt>
   <trkpt lat="60.169761" lon="24.938552"><ele>7</ele></trkpt>
   <trkpt lat="60.169729" lon="24.938644"><ele>6.75</ele></trkpt>
   <trkpt lat="60.169563" lon="24.938929"><ele>7</ele></trkpt>
  </trkseg>
 </trk>
</gpx>