<?xml version="1.0" encoding="UTF-8"?>
<!-- track-length = 20 filtered ascend = 0 plain-ascend = 0 cost=40 energy=0.0kwh time=2s -->
<gpx 
 xmlns="http://www.topografix.com/GPX/1/1" 
 xmlns:xsi="http://www.w3.org/2001/XMLSchema-instance" 
 xsi:schemaLocation="http://www.topografix.com/GPX/1/1 http://www.topografix.com/GPX/1/1/gpx.xsd" 
 version="1.1" 
 creator="BRouter-Web 0.18.1">
 <trk>
  <name>Kreuz Lasipalatsi Weiche Nordost-nach-Südost-Südost - Kreuz Lasipalatsi Weiche Südwest-nach-Südost-Südost</name>
  <trkseg>
   <trkpt lat="60.1697" lon="24.938725"><ele>7</ele></trkpt>
   <trkpt lat="60.169563" lon="24.93893"><ele>7</ele></trkpt>
   <trkpt lat="60.169563" lon="24.938929"><ele>6.75</ele></trkpt>
  </trkseg>
 </trk>
</gpx>