<?xml version="1.0" encoding="UTF-8"?>
<!-- track-length = 449 filtered ascend = 0 plain-ascend = 0 cost=898 energy=0.0kwh time=36s -->
<gpx 
 xmlns="http://www.topografix.com/GPX/1/1" 
 xmlns:xsi="http://www.w3.org/2001/XMLSchema-instance" 
 xsi:schemaLocation="http://www.topografix.com/GPX/1/1 http://www.topografix.com/GPX/1/1/gpx.xsd" 
 version="1.1" 
 creator="BRouter-Web 0.18.1">
 <trk>
  <name>Gounod (Steig Nordost) - Van Bree (Steig Nordost)</name>
  <trkseg>
   <trkpt lat="51.205677" lon="4.410115"><ele>8</ele></trkpt>
   <trkpt lat="51.20572" lon="4.410095"><ele>8</ele></trkpt>
   <trkpt lat="51.205782" lon="4.410079"><ele>8</ele></trkpt>
   <trkpt lat="51.205799" lon="4.410075"><ele>8</ele></trkpt>
   <trkpt lat="51.205918" lon="4.410057"><ele>7.75</ele></trkpt>
   <trkpt lat="51.206463" lon="4.409983"><ele>7.5</ele></trkpt>
   <trkpt lat="51.206836" lon="4.409814"><ele>7</ele></trkpt>
   <trkpt lat="51.206932" lon="4.409758"><ele>7</ele></trkpt>
   <trkpt lat="51.206978" lon="4.40973"><ele>7</ele></trkpt>
   <trkpt lat="51.208328" lon="4.408916"><ele>7</ele></trkpt>
   <trkpt lat="51.208528" lon="4.408794"><ele>7.5</ele></trkpt>
   <trkpt lat="51.208632" lon="4.408703"><ele>7.25</ele></trkpt>
   <trkpt lat="51.208683" lon="4.408658"><ele>7</ele></trkpt>
   <trkpt lat="51.208906" lon="4.408449"><ele>7</ele></trkpt>
   <trkpt lat="51.209491" lon="4.408103"><ele>7</ele></trkpt>
  </trkseg>
 </trk>
</gpx>