<?xml version="1.0" encoding="UTF-8"?>
<!-- track-length = 36 filtered ascend = 0 plain-ascend = 0 cost=72 energy=0.0kwh time=3s -->
<gpx 
 xmlns="http://www.topografix.com/GPX/1/1" 
 xmlns:xsi="http://www.w3.org/2001/XMLSchema-instance" 
 xsi:schemaLocation="http://www.topografix.com/GPX/1/1 http://www.topografix.com/GPX/1/1/gpx.xsd" 
 version="1.1" 
 creator="BRouter-Web 0.18.1">
 <trk>
  <name>Abzweig Leopoldplaats/Mechelsesteenweg Weiche EW 60 - Abzweig Leopoldplaats/Mechelsesteenweg Weiche Südost</name>
  <trkseg>
   <trkpt lat="51.212384" lon="4.407224"><ele>7</ele></trkpt>
   <trkpt lat="51.212385" lon="4.407221"><ele>7</ele></trkpt>
   <trkpt lat="51.212351" lon="4.407337"><ele>7</ele></trkpt>
   <trkpt lat="51.212325" lon="4.407409"><ele>7</ele></trkpt>
   <trkpt lat="51.212275" lon="4.407476"><ele>7</ele></trkpt>
   <trkpt lat="51.212224" lon="4.40751"><ele>7</ele></trkpt>
   <trkpt lat="51.212174" lon="4.407529"><ele>7</ele></trkpt>
   <trkpt lat="51.212173" lon="4.407529"><ele>7</ele></trkpt>
  </trkseg>
 </trk>
</gpx>