<?xml version="1.0" encoding="UTF-8"?>
<!-- track-length = 1148 filtered ascend = 23 plain-ascend = 23 cost=1148 energy=0.0kwh time=1m 32s -->
<gpx 
 xmlns="http://www.topografix.com/GPX/1/1" 
 xmlns:xsi="http://www.w3.org/2001/XMLSchema-instance" 
 xsi:schemaLocation="http://www.topografix.com/GPX/1/1 http://www.topografix.com/GPX/1/1/gpx.xsd" 
 version="1.1" 
 creator="BRouter-Web 0.18.1">
 <trk>
  <name>Hallila (Steig B) - Pohjois-Hervanta (Steig A)</name>
  <trkseg>
   <trkpt lat="61.46685" lon="23.839974"><ele>123.25</ele></trkpt>
   <trkpt lat="61.46681" lon="23.840069"><ele>123</ele></trkpt>
   <trkpt lat="61.466588" lon="23.840586"><ele>122.5</ele></trkpt>
   <trkpt lat="61.46648" lon="23.840799"><ele>122.75</ele></trkpt>
   <trkpt lat="61.466362" lon="23.841004"><ele>122.5</ele></trkpt>
   <trkpt lat="61.466235" lon="23.841188"><ele>122.25</ele></trkpt>
   <trkpt lat="61.466122" lon="23.841322"><ele>122</ele></trkpt>
   <trkpt lat="61.465964" lon="23.841476"><ele>124.25</ele></trkpt>
   <trkpt lat="61.465753" lon="23.84163"><ele>124.5</ele></trkpt>
   <trkpt lat="61.4656" lon="23.841712"><ele>126.25</ele></trkpt>
   <trkpt lat="61.464456" lon="23.84231"><ele>128.75</ele></trkpt>
   <trkpt lat="61.464363" lon="23.842356"><ele>129.25</ele></trkpt>
   <trkpt lat="61.464049" lon="23.842513"><ele>132.75</ele></trkpt>
   <trkpt lat="61.463617" lon="23.842661"><ele>135.25</ele></trkpt>
   <trkpt lat="61.463192" lon="23.84275"><ele>133</ele></trkpt>
   <trkpt lat="61.462904" lon="23.842837"><ele>134.75</ele></trkpt>
   <trkpt lat="61.460622" lon="23.843865"><ele>132.25</ele></trkpt>
   <trkpt lat="61.459708" lon="23.844283"><ele>130</ele></trkpt>
   <trkpt lat="61.459501" lon="23.844373"><ele>134.25</ele></trkpt>
   <trkpt lat="61.458295" lon="23.844923"><ele>141.25</ele></trkpt>
   <trkpt lat="61.458256" lon="23.84494"><ele>141.25</ele></trkpt>
   <trkpt lat="61.458183" lon="23.844971"><ele>141.5</ele></trkpt>
   <trkpt lat="61.45757" lon="23.845252"><ele>143.5</ele></trkpt>
   <trkpt lat="61.457081" lon="23.84548"><ele>145.5</ele></trkpt>
   <trkpt lat="61.457024" lon="23.845505"><ele>146</ele></trkpt>
  </trkseg>
 </trk>
</gpx>