<?xml version="1.0" encoding="UTF-8"?>
<!-- track-length = 155 filtered ascend = 0 plain-ascend = 0 cost=155 energy=0.0kwh time=12s -->
<gpx 
 xmlns="http://www.topografix.com/GPX/1/1" 
 xmlns:xsi="http://www.w3.org/2001/XMLSchema-instance" 
 xsi:schemaLocation="http://www.topografix.com/GPX/1/1 http://www.topografix.com/GPX/1/1/gpx.xsd" 
 version="1.1" 
 creator="BRouter-Web 0.18.1">
 <trk>
  <name>Kalevanrinne (Steig B) - Üst Kalevanrinne Weiche Südost</name>
  <trkseg>
   <trkpt lat="61.494459" lon="23.812572"><ele>96</ele></trkpt>
   <trkpt lat="61.494435" lon="23.812696"><ele>96</ele></trkpt>
   <trkpt lat="61.494198" lon="23.813843"><ele>96</ele></trkpt>
   <trkpt lat="61.494152" lon="23.814065"><ele>96</ele></trkpt>
   <trkpt lat="61.494105" lon="23.814287"><ele>96</ele></trkpt>
   <trkpt lat="61.493911" lon="23.815221"><ele>96</ele></trkpt>
   <trkpt lat="61.493911" lon="23.815219"><ele>96</ele></trkpt>
  </trkseg>
 </trk>
</gpx>