<?xml version="1.0" encoding="UTF-8"?>
<!-- track-length = 457 filtered ascend = 0 plain-ascend = -7 cost=457 energy=0.0kwh time=37s -->
<gpx 
 xmlns="http://www.topografix.com/GPX/1/1" 
 xmlns:xsi="http://www.w3.org/2001/XMLSchema-instance" 
 xsi:schemaLocation="http://www.topografix.com/GPX/1/1 http://www.topografix.com/GPX/1/1/gpx.xsd" 
 version="1.1" 
 creator="BRouter-Web 0.18.1">
 <trk>
  <name>Opiskelija (Steig B) - Hervantakeskus (Steig B)</name>
  <trkseg>
   <trkpt lat="61.453976" lon="23.846798"><ele>150</ele></trkpt>
   <trkpt lat="61.453902" lon="23.846835"><ele>150</ele></trkpt>
   <trkpt lat="61.453727" lon="23.846927"><ele>149.5</ele></trkpt>
   <trkpt lat="61.453591" lon="23.847036"><ele>148.75</ele></trkpt>
   <trkpt lat="61.453556" lon="23.84707"><ele>148.75</ele></trkpt>
   <trkpt lat="61.453453" lon="23.847168"><ele>148.25</ele></trkpt>
   <trkpt lat="61.453339" lon="23.847249"><ele>148</ele></trkpt>
   <trkpt lat="61.453239" lon="23.847308"><ele>147.5</ele></trkpt>
   <trkpt lat="61.453181" lon="23.847339"><ele>147.25</ele></trkpt>
   <trkpt lat="61.452678" lon="23.847665"><ele>146</ele></trkpt>
   <trkpt lat="61.452249" lon="23.847976"><ele>145</ele></trkpt>
   <trkpt lat="61.452109" lon="23.848079"><ele>144.5</ele></trkpt>
   <trkpt lat="61.451975" lon="23.848187"><ele>144</ele></trkpt>
   <trkpt lat="61.451541" lon="23.848552"><ele>143.5</ele></trkpt>
   <trkpt lat="61.451041" lon="23.849007"><ele>142.75</ele></trkpt>
   <trkpt lat="61.450951" lon="23.849087"><ele>142.5</ele></trkpt>
   <trkpt lat="61.450712" lon="23.849285"><ele>142</ele></trkpt>
   <trkpt lat="61.450532" lon="23.849465"><ele>142</ele></trkpt>
   <trkpt lat="61.45016" lon="23.849839"><ele>142</ele></trkpt>
  </trkseg>
 </trk>
</gpx>