<?xml version="1.0" encoding="UTF-8"?>
<!-- track-length = 205 filtered ascend = 2 plain-ascend = 1 cost=205 energy=0.0kwh time=16s -->
<gpx 
 xmlns="http://www.topografix.com/GPX/1/1" 
 xmlns:xsi="http://www.w3.org/2001/XMLSchema-instance" 
 xsi:schemaLocation="http://www.topografix.com/GPX/1/1 http://www.topografix.com/GPX/1/1/gpx.xsd" 
 version="1.1" 
 creator="BRouter-Web 0.18.1">
 <trk>
  <name>Üst Pohjois-Hervanta Weiche Süd - Opiskelija (Steig B)</name>
  <trkseg>
   <trkpt lat="61.455759" lon="23.846077"><ele>149</ele></trkpt>
   <trkpt lat="61.455246" lon="23.846313"><ele>150.5</ele></trkpt>
   <trkpt lat="61.455215" lon="23.846326"><ele>150.5</ele></trkpt>
   <trkpt lat="61.455113" lon="23.846364"><ele>150.5</ele></trkpt>
   <trkpt lat="61.455028" lon="23.846398"><ele>150.75</ele></trkpt>
   <trkpt lat="61.454893" lon="23.846416"><ele>151</ele></trkpt>
   <trkpt lat="61.454811" lon="23.846426"><ele>151</ele></trkpt>
   <trkpt lat="61.454645" lon="23.846472"><ele>151</ele></trkpt>
   <trkpt lat="61.454497" lon="23.846544"><ele>151.25</ele></trkpt>
   <trkpt lat="61.453998" lon="23.846788"><ele>150</ele></trkpt>
   <trkpt lat="61.453976" lon="23.846798"><ele>150</ele></trkpt>
  </trkseg>
 </trk>
</gpx>