<?xml version="1.0" encoding="UTF-8"?>
<!-- track-length = 261 filtered ascend = 0 plain-ascend = -2 cost=261 energy=0.0kwh time=21s -->
<gpx 
 xmlns="http://www.topografix.com/GPX/1/1" 
 xmlns:xsi="http://www.w3.org/2001/XMLSchema-instance" 
 xsi:schemaLocation="http://www.topografix.com/GPX/1/1 http://www.topografix.com/GPX/1/1/gpx.xsd" 
 version="1.1" 
 creator="BRouter-Web 0.18.1">
 <trk>
  <name>Üst Kalevanrinne Weiche Südost - Hakametsä (Steig B)</name>
  <trkseg>
   <trkpt lat="61.493911" lon="23.815219"><ele>96</ele></trkpt>
   <trkpt lat="61.493911" lon="23.815221"><ele>96</ele></trkpt>
   <trkpt lat="61.493779" lon="23.815842"><ele>95.75</ele></trkpt>
   <trkpt lat="61.49373" lon="23.816117"><ele>95</ele></trkpt>
   <trkpt lat="61.493695" lon="23.816348"><ele>95</ele></trkpt>
   <trkpt lat="61.493521" lon="23.817784"><ele>92.25</ele></trkpt>
   <trkpt lat="61.493481" lon="23.817916"><ele>91.5</ele></trkpt>
   <trkpt lat="61.493429" lon="23.818018"><ele>91</ele></trkpt>
   <trkpt lat="61.493388" lon="23.818066"><ele>91</ele></trkpt>
   <trkpt lat="61.493361" lon="23.818091"><ele>91</ele></trkpt>
   <trkpt lat="61.493319" lon="23.818109"><ele>91</ele></trkpt>
   <trkpt lat="61.493269" lon="23.818107"><ele>91.25</ele></trkpt>
   <trkpt lat="61.49323" lon="23.818093"><ele>91.25</ele></trkpt>
   <trkpt lat="61.49317" lon="23.818038"><ele>91.5</ele></trkpt>
   <trkpt lat="61.493122" lon="23.817994"><ele>91.75</ele></trkpt>
   <trkpt lat="61.492606" lon="23.817528"><ele>92.75</ele></trkpt>
   <trkpt lat="61.492594" lon="23.817517"><ele>93</ele></trkpt>
  </trkseg>
 </trk>
</gpx>