<?xml version="1.0" encoding="UTF-8"?>
<!-- track-length = 103 filtered ascend = 0 plain-ascend = 0 cost=103 energy=0.0kwh time=8s -->
<gpx 
 xmlns="http://www.topografix.com/GPX/1/1" 
 xmlns:xsi="http://www.w3.org/2001/XMLSchema-instance" 
 xsi:schemaLocation="http://www.topografix.com/GPX/1/1 http://www.topografix.com/GPX/1/1/gpx.xsd" 
 version="1.1" 
 creator="BRouter-Web 0.18.1">
 <trk>
  <name>007 Lahti Weiche 614 - Lahti Weiche 616</name>
  <trkseg>
   <trkpt lat="60.975613" lon="25.672136"><ele>99</ele></trkpt>
   <trkpt lat="60.975613" lon="25.672142"><ele>99</ele></trkpt>
   <trkpt lat="60.975525" lon="25.673169"><ele>98.75</ele></trkpt>
   <trkpt lat="60.975482" lon="25.67398"><ele>98.25</ele></trkpt>
   <trkpt lat="60.975481" lon="25.673984"><ele>98</ele></trkpt>
  </trkseg>
 </trk>
</gpx>