<?xml version="1.0" encoding="UTF-8"?>
<!-- track-length = 273 filtered ascend = 1 plain-ascend = 2 cost=273 energy=0.0kwh time=22s -->
<gpx 
 xmlns="http://www.topografix.com/GPX/1/1" 
 xmlns:xsi="http://www.w3.org/2001/XMLSchema-instance" 
 xsi:schemaLocation="http://www.topografix.com/GPX/1/1 http://www.topografix.com/GPX/1/1/gpx.xsd" 
 version="1.1" 
 creator="BRouter-Web 0.18.1">
 <trk>
  <name>007 Orimattila (Gleis 1) - Orimattila Weiche 001</name>
  <trkseg>
   <trkpt lat="60.815841" lon="25.748432"><ele>74.25</ele></trkpt>
   <trkpt lat="60.817859" lon="25.747984"><ele>75</ele></trkpt>
   <trkpt lat="60.81812" lon="25.747925"><ele>74.75</ele></trkpt>
   <trkpt lat="60.818272" lon="25.747893"><ele>75</ele></trkpt>
   <trkpt lat="60.818277" lon="25.747891"><ele>75.75</ele></trkpt>
  </trkseg>
 </trk>
</gpx>