<?xml version="1.0" encoding="UTF-8"?>
<!-- track-length = 1755 filtered ascend = 8 plain-ascend = 6 cost=1755 energy=0.0kwh time=2m 20s -->
<gpx 
 xmlns="http://www.topografix.com/GPX/1/1" 
 xmlns:xsi="http://www.w3.org/2001/XMLSchema-instance" 
 xsi:schemaLocation="http://www.topografix.com/GPX/1/1 http://www.topografix.com/GPX/1/1/gpx.xsd" 
 version="1.1" 
 creator="BRouter-Web 0.18.1">
 <trk>
  <name>007 Ämmälä - Turvemaa</name>
  <trkseg>
   <trkpt lat="60.933598" lon="25.711735"><ele>88</ele></trkpt>
   <trkpt lat="60.933708" lon="25.711708"><ele>88.25</ele></trkpt>
   <trkpt lat="60.935419" lon="25.7113"><ele>91</ele></trkpt>
   <trkpt lat="60.9356" lon="25.711229"><ele>90.75</ele></trkpt>
   <trkpt lat="60.93616" lon="25.711009"><ele>91</ele></trkpt>
   <trkpt lat="60.936978" lon="25.710516"><ele>91.75</ele></trkpt>
   <trkpt lat="60.938103" lon="25.709322"><ele>91.25</ele></trkpt>
   <trkpt lat="60.940104" lon="25.706955"><ele>93</ele></trkpt>
   <trkpt lat="60.940161" lon="25.706896"><ele>93</ele></trkpt>
   <trkpt lat="60.94084" lon="25.706244"><ele>95</ele></trkpt>
   <trkpt lat="60.940901" lon="25.706199"><ele>95</ele></trkpt>
   <trkpt lat="60.941311" lon="25.705885"><ele>95.5</ele></trkpt>
   <trkpt lat="60.941718" lon="25.705598"><ele>95.5</ele></trkpt>
   <trkpt lat="60.942263" lon="25.705258"><ele>95.75</ele></trkpt>
   <trkpt lat="60.942823" lon="25.704966"><ele>96.75</ele></trkpt>
   <trkpt lat="60.943335" lon="25.704826"><ele>96.5</ele></trkpt>
   <trkpt lat="60.943821" lon="25.704719"><ele>96.75</ele></trkpt>
   <trkpt lat="60.944832" lon="25.704523"><ele>96.25</ele></trkpt>
   <trkpt lat="60.945931" lon="25.704393"><ele>96.25</ele></trkpt>
   <trkpt lat="60.947363" lon="25.70413"><ele>93.75</ele></trkpt>
   <trkpt lat="60.94864" lon="25.703944"><ele>93.75</ele></trkpt>
  </trkseg>
 </trk>
</gpx>