<?xml version="1.0" encoding="UTF-8"?>
<!-- track-length = 2087 filtered ascend = 10 plain-ascend = 6 cost=2087 energy=0.0kwh time=2m 47s -->
<gpx 
 xmlns="http://www.topografix.com/GPX/1/1" 
 xmlns:xsi="http://www.w3.org/2001/XMLSchema-instance" 
 xsi:schemaLocation="http://www.topografix.com/GPX/1/1 http://www.topografix.com/GPX/1/1/gpx.xsd" 
 version="1.1" 
 creator="BRouter-Web 0.18.1">
 <trk>
  <name>007 Anschluss Starckjohann Steel Weiche 679 - Lahti Weiche 616</name>
  <trkseg>
   <trkpt lat="60.965233" lon="25.7014"><ele>92</ele></trkpt>
   <trkpt lat="60.965237" lon="25.701401"><ele>92</ele></trkpt>
   <trkpt lat="60.965288" lon="25.701394"><ele>92</ele></trkpt>
   <trkpt lat="60.965832" lon="25.701288"><ele>90.75</ele></trkpt>
   <trkpt lat="60.966647" lon="25.701179"><ele>92.75</ele></trkpt>
   <trkpt lat="60.967058" lon="25.701103"><ele>94.25</ele></trkpt>
   <trkpt lat="60.967572" lon="25.700957"><ele>95.5</ele></trkpt>
   <trkpt lat="60.968022" lon="25.700751"><ele>96</ele></trkpt>
   <trkpt lat="60.968492" lon="25.700473"><ele>96.5</ele></trkpt>
   <trkpt lat="60.968836" lon="25.700226"><ele>97</ele></trkpt>
   <trkpt lat="60.969174" lon="25.699949"><ele>97</ele></trkpt>
   <trkpt lat="60.969288" lon="25.699841"><ele>97</ele></trkpt>
   <trkpt lat="60.969359" lon="25.699775"><ele>97</ele></trkpt>
   <trkpt lat="60.969543" lon="25.699588"><ele>96.25</ele></trkpt>
   <trkpt lat="60.969563" lon="25.699567"><ele>96.25</ele></trkpt>
   <trkpt lat="60.969726" lon="25.699387"><ele>96.75</ele></trkpt>
   <trkpt lat="60.970172" lon="25.698836"><ele>95.75</ele></trkpt>
   <trkpt lat="60.970404" lon="25.698514"><ele>96.75</ele></trkpt>
   <trkpt lat="60.970631" lon="25.698172"><ele>96.75</ele></trkpt>
   <trkpt lat="60.970938" lon="25.697669"><ele>97.25</ele></trkpt>
   <trkpt lat="60.971233" lon="25.697122"><ele>98</ele></trkpt>
   <trkpt lat="60.971435" lon="25.696705"><ele>98</ele></trkpt>
   <trkpt lat="60.971792" lon="25.695886"><ele>98</ele></trkpt>
   <trkpt lat="60.971808" lon="25.695851"><ele>98</ele></trkpt>
   <trkpt lat="60.972048" lon="25.695209"><ele>98.5</ele></trkpt>
   <trkpt lat="60.972268" lon="25.694586"><ele>100</ele></trkpt>
   <trkpt lat="60.972531" lon="25.693673"><ele>100.25</ele></trkpt>
   <trkpt lat="60.972754" lon="25.692789"><ele>100.75</ele></trkpt>
   <trkpt lat="60.972856" lon="25.692334"><ele>101.25</ele></trkpt>
   <trkpt lat="60.973004" lon="25.691565"><ele>101.5</ele></trkpt>
   <trkpt lat="60.97319" lon="25.690481"><ele>101.25</ele></trkpt>
   <trkpt lat="60.973672" lon="25.687578"><ele>102</ele></trkpt>
   <trkpt lat="60.973921" lon="25.686141"><ele>101</ele></trkpt>
   <trkpt lat="60.974771" lon="25.680996"><ele>98.75</ele></trkpt>
   <trkpt lat="60.974994" lon="25.679437"><ele>98.75</ele></trkpt>
   <trkpt lat="60.975116" lon="25.678538"><ele>97.75</ele></trkpt>
   <trkpt lat="60.975207" lon="25.677727"><ele>98.25</ele></trkpt>
   <trkpt lat="60.975286" lon="25.676945"><ele>97.75</ele></trkpt>
   <trkpt lat="60.975414" lon="25.675227"><ele>98.25</ele></trkpt>
   <trkpt lat="60.975444" lon="25.674697"><ele>98</ele></trkpt>
   <trkpt lat="60.975481" lon="25.673984"><ele>98.25</ele></trkpt>
  </trkseg>
 </trk>
</gpx>