<?xml version="1.0" encoding="UTF-8"?>
<!-- track-length = 1856 filtered ascend = 8 plain-ascend = 2 cost=1856 energy=0.0kwh time=2m 28s -->
<gpx 
 xmlns="http://www.topografix.com/GPX/1/1" 
 xmlns:xsi="http://www.w3.org/2001/XMLSchema-instance" 
 xsi:schemaLocation="http://www.topografix.com/GPX/1/1 http://www.topografix.com/GPX/1/1/gpx.xsd" 
 version="1.1" 
 creator="BRouter-Web 0.18.1">
 <trk>
  <name>007 Anschluss Starckjohann Steel Weiche 679 - Turvemaa</name>
  <trkseg>
   <trkpt lat="60.965235" lon="25.7014"><ele>92</ele></trkpt>
   <trkpt lat="60.965237" lon="25.701401"><ele>92</ele></trkpt>
   <trkpt lat="60.96464" lon="25.701485"><ele>92.5</ele></trkpt>
   <trkpt lat="60.962588" lon="25.701804"><ele>91</ele></trkpt>
   <trkpt lat="60.96154" lon="25.701958"><ele>92.25</ele></trkpt>
   <trkpt lat="60.959884" lon="25.702222"><ele>94.25</ele></trkpt>
   <trkpt lat="60.959011" lon="25.702348"><ele>94</ele></trkpt>
   <trkpt lat="60.958028" lon="25.702511"><ele>95.25</ele></trkpt>
   <trkpt lat="60.957693" lon="25.702562"><ele>91.5</ele></trkpt>
   <trkpt lat="60.956325" lon="25.702772"><ele>96.75</ele></trkpt>
   <trkpt lat="60.955378" lon="25.702915"><ele>95.5</ele></trkpt>
   <trkpt lat="60.954946" lon="25.702981"><ele>95.75</ele></trkpt>
   <trkpt lat="60.951085" lon="25.703567"><ele>100.25</ele></trkpt>
   <trkpt lat="60.948744" lon="25.703929"><ele>93.75</ele></trkpt>
   <trkpt lat="60.94864" lon="25.703944"><ele>93.75</ele></trkpt>
  </trkseg>
 </trk>
</gpx>