<?xml version="1.0" encoding="UTF-8"?>
<!-- track-length = 3620 filtered ascend = 1 plain-ascend = -2 cost=3620 energy=0.0kwh time=4m 50s -->
<gpx 
 xmlns="http://www.topografix.com/GPX/1/1" 
 xmlns:xsi="http://www.w3.org/2001/XMLSchema-instance" 
 xsi:schemaLocation="http://www.topografix.com/GPX/1/1 http://www.topografix.com/GPX/1/1/gpx.xsd" 
 version="1.1" 
 creator="BRouter-Web 0.18.1">
 <trk>
  <name>007 Ämmälä - Pennala</name>
  <trkseg>
   <trkpt lat="60.933598" lon="25.711735"><ele>88</ele></trkpt>
   <trkpt lat="60.931586" lon="25.712231"><ele>86.75</ele></trkpt>
   <trkpt lat="60.928373" lon="25.712981"><ele>86.75</ele></trkpt>
   <trkpt lat="60.922607" lon="25.714373"><ele>85.5</ele></trkpt>
   <trkpt lat="60.920984" lon="25.714754"><ele>85.5</ele></trkpt>
   <trkpt lat="60.920041" lon="25.714997"><ele>86.75</ele></trkpt>
   <trkpt lat="60.917761" lon="25.715616"><ele>88.5</ele></trkpt>
   <trkpt lat="60.917039" lon="25.715892"><ele>88.25</ele></trkpt>
   <trkpt lat="60.916331" lon="25.716378"><ele>88.75</ele></trkpt>
   <trkpt lat="60.913939" lon="25.718346"><ele>88.75</ele></trkpt>
   <trkpt lat="60.912646" lon="25.719447"><ele>88.75</ele></trkpt>
   <trkpt lat="60.911672" lon="25.720154"><ele>88.25</ele></trkpt>
   <trkpt lat="60.910969" lon="25.720454"><ele>89</ele></trkpt>
   <trkpt lat="60.910605" lon="25.72061"><ele>89.5</ele></trkpt>
   <trkpt lat="60.909064" lon="25.721222"><ele>89</ele></trkpt>
   <trkpt lat="60.905884" lon="25.722546"><ele>86</ele></trkpt>
   <trkpt lat="60.905347" lon="25.722779"><ele>86</ele></trkpt>
   <trkpt lat="60.904221" lon="25.723242"><ele>85.5</ele></trkpt>
   <trkpt lat="60.902588" lon="25.723917"><ele>85.75</ele></trkpt>
   <trkpt lat="60.901959" lon="25.724091"><ele>85.75</ele></trkpt>
   <trkpt lat="60.901813" lon="25.724111"><ele>84.75</ele></trkpt>
  </trkseg>
 </trk>
</gpx>