<?xml version="1.0" encoding="UTF-8"?>
<!-- track-length = 398 filtered ascend = 15 plain-ascend = 16 cost=796 energy=0.0kwh time=32s -->
<gpx 
 xmlns="http://www.topografix.com/GPX/1/1" 
 xmlns:xsi="http://www.w3.org/2001/XMLSchema-instance" 
 xsi:schemaLocation="http://www.topografix.com/GPX/1/1 http://www.topografix.com/GPX/1/1/gpx.xsd" 
 version="1.1" 
 creator="BRouter-Web 0.18.1">
 <trk>
  <name>Üst Adamstuen Weiche Nordost - Ullevål sykehus (Steig Nordost)</name>
  <trkseg>
   <trkpt lat="59.933286" lon="10.735097"><ele>67</ele></trkpt>
   <trkpt lat="59.933644" lon="10.735291"><ele>67</ele></trkpt>
   <trkpt lat="59.933688" lon="10.735307"><ele>67.25</ele></trkpt>
   <trkpt lat="59.933767" lon="10.735315"><ele>67.5</ele></trkpt>
   <trkpt lat="59.933814" lon="10.735309"><ele>67.75</ele></trkpt>
   <trkpt lat="59.933902" lon="10.735266"><ele>68</ele></trkpt>
   <trkpt lat="59.933986" lon="10.735187"><ele>68.25</ele></trkpt>
   <trkpt lat="59.93462" lon="10.734309"><ele>69.75</ele></trkpt>
   <trkpt lat="59.934665" lon="10.734245"><ele>69.75</ele></trkpt>
   <trkpt lat="59.935871" lon="10.732568"><ele>75.75</ele></trkpt>
   <trkpt lat="59.935928" lon="10.732489"><ele>76</ele></trkpt>
   <trkpt lat="59.936031" lon="10.732346"><ele>76</ele></trkpt>
   <trkpt lat="59.936101" lon="10.732249"><ele>76</ele></trkpt>
   <trkpt lat="59.936248" lon="10.732043"><ele>77</ele></trkpt>
   <trkpt lat="59.936326" lon="10.731933"><ele>82.5</ele></trkpt>
  </trkseg>
 </trk>
</gpx>