<?xml version="1.0" encoding="UTF-8"?>
<!-- track-length = 55 filtered ascend = 0 plain-ascend = 0 cost=110 energy=0.0kwh time=4s -->
<gpx 
 xmlns="http://www.topografix.com/GPX/1/1" 
 xmlns:xsi="http://www.w3.org/2001/XMLSchema-instance" 
 xsi:schemaLocation="http://www.topografix.com/GPX/1/1 http://www.topografix.com/GPX/1/1/gpx.xsd" 
 version="1.1" 
 creator="BRouter-Web 0.18.1">
 <trk>
  <name>Abzweig Wendeschleife Vienības gatve/Bērnu slimnīca Weiche Ost - Abzweig 4. tramvaju depo Weiche Nordwest-West</name>
  <trkseg>
   <trkpt lat="56.921076" lon="24.090828"><ele>11</ele></trkpt>
   <trkpt lat="56.921077" lon="24.090826"><ele>11</ele></trkpt>
   <trkpt lat="56.921143" lon="24.089967"><ele>10.75</ele></trkpt>
   <trkpt lat="56.921143" lon="24.089965"><ele>11</ele></trkpt>
  </trkseg>
 </trk>
</gpx>