<?xml version="1.0" encoding="UTF-8"?>
<!-- track-length = 373 filtered ascend = 0 plain-ascend = 1 cost=746 energy=0.0kwh time=30s -->
<gpx 
 xmlns="http://www.topografix.com/GPX/1/1" 
 xmlns:xsi="http://www.w3.org/2001/XMLSchema-instance" 
 xsi:schemaLocation="http://www.topografix.com/GPX/1/1 http://www.topografix.com/GPX/1/1/gpx.xsd" 
 version="1.1" 
 creator="BRouter-Web 0.18.1">
 <trk>
  <name>Jelgavas iela (Steig Ost) - Satiksmes iela (Steig Ost)</name>
  <trkseg>
   <trkpt lat="56.923935" lon="24.089893"><ele>10.25</ele></trkpt>
   <trkpt lat="56.923991" lon="24.089907"><ele>10.5</ele></trkpt>
   <trkpt lat="56.924458" lon="24.090024"><ele>11</ele></trkpt>
   <trkpt lat="56.924824" lon="24.090115"><ele>10.75</ele></trkpt>
   <trkpt lat="56.925358" lon="24.090248"><ele>11</ele></trkpt>
   <trkpt lat="56.92566" lon="24.090323"><ele>11</ele></trkpt>
   <trkpt lat="56.926048" lon="24.090419"><ele>11</ele></trkpt>
   <trkpt lat="56.926504" lon="24.090533"><ele>11</ele></trkpt>
   <trkpt lat="56.926849" lon="24.090619"><ele>11</ele></trkpt>
   <trkpt lat="56.927143" lon="24.090692"><ele>11</ele></trkpt>
   <trkpt lat="56.927262" lon="24.090722"><ele>10.75</ele></trkpt>
  </trkseg>
 </trk>
</gpx>