<?xml version="1.0" encoding="UTF-8"?>
<!-- track-length = 66 filtered ascend = 1 plain-ascend = 2 cost=132 energy=0.0kwh time=5s -->
<gpx 
 xmlns="http://www.topografix.com/GPX/1/1" 
 xmlns:xsi="http://www.w3.org/2001/XMLSchema-instance" 
 xsi:schemaLocation="http://www.topografix.com/GPX/1/1 http://www.topografix.com/GPX/1/1/gpx.xsd" 
 version="1.1" 
 creator="BRouter-Web 0.18.1">
 <trk>
  <name>Dreieck Bahnhof-/Schillerstraße Weiche Ost-Nord - Dreieck Bahnhof-/Schillerstraße Weiche Südwest-Nordwest</name>
  <trkseg>
   <trkpt lat="50.971386" lon="11.038279"><ele>197.75</ele></trkpt>
   <trkpt lat="50.971386" lon="11.038275"><ele>197.75</ele></trkpt>
   <trkpt lat="50.971383" lon="11.038254"><ele>197.75</ele></trkpt>
   <trkpt lat="50.971352" lon="11.03809"><ele>197.5</ele></trkpt>
   <trkpt lat="50.971347" lon="11.038077"><ele>197.5</ele></trkpt>
   <trkpt lat="50.971287" lon="11.037869"><ele>197</ele></trkpt>
   <trkpt lat="50.971243" lon="11.037736"><ele>196.75</ele></trkpt>
   <trkpt lat="50.971218" lon="11.037659"><ele>196.75</ele></trkpt>
   <trkpt lat="50.971197" lon="11.037601"><ele>196.75</ele></trkpt>
   <trkpt lat="50.971148" lon="11.037464"><ele>197.25</ele></trkpt>
   <trkpt lat="50.971146" lon="11.037459"><ele>199.25</ele></trkpt>
  </trkseg>
 </trk>
</gpx>
