<?xml version="1.0" encoding="UTF-8"?>
<!-- track-length = 354 filtered ascend = 0 plain-ascend = -13 cost=708 energy=0.0kwh time=28s -->
<gpx 
 xmlns="http://www.topografix.com/GPX/1/1" 
 xmlns:xsi="http://www.w3.org/2001/XMLSchema-instance" 
 xsi:schemaLocation="http://www.topografix.com/GPX/1/1 http://www.topografix.com/GPX/1/1/gpx.xsd" 
 version="1.1" 
 creator="BRouter-Web 99.71.0">
 <trk>
  <name>Märzstraße (Steig West) - Reinlgasse (Steig Nordost)</name>
  <link href="https://brouter.damsy.net/latest/#map=19/48.19372/16.31194/standard&amp;lonlats=16.312014,48.19677;16.31146,48.193615">
   <text>BRouter-Web</text>
  </link>
  <trkseg>
   <trkpt lat="48.196768" lon="16.312017"><ele>220</ele></trkpt>
   <trkpt lat="48.196699" lon="16.312005"><ele>220</ele></trkpt>
   <trkpt lat="48.19664" lon="16.311996"><ele>219.75</ele></trkpt>
   <trkpt lat="48.196571" lon="16.311985"><ele>219.5</ele></trkpt>
   <trkpt lat="48.19569" lon="16.311831"><ele>215.5</ele></trkpt>
   <trkpt lat="48.194687" lon="16.311658"><ele>211.75</ele></trkpt>
   <trkpt lat="48.193701" lon="16.311475"><ele>207.25</ele></trkpt>
   <trkpt lat="48.193614" lon="16.311459"><ele>206.25</ele></trkpt>
  </trkseg>
 </trk>
</gpx>