<?xml version="1.0" encoding="UTF-8"?>
<!-- track-length = 136 filtered ascend = 0 plain-ascend = 0 cost=272 energy=0.0kwh time=11s -->
<gpx 
 xmlns="http://www.topografix.com/GPX/1/1" 
 xmlns:xsi="http://www.w3.org/2001/XMLSchema-instance" 
 xsi:schemaLocation="http://www.topografix.com/GPX/1/1 http://www.topografix.com/GPX/1/1/gpx.xsd" 
 version="1.1" 
 creator="BRouter-Web 0.18.1">
 <trk>
  <name>Dreieck Lanza Weiche Südost-Südwest - Dreieck Via Quintino Sella Weiche Nord-West</name>
  <trkseg>
   <trkpt lat="45.471495" lon="9.182667"><ele>122</ele></trkpt>
   <trkpt lat="45.471202" lon="9.182911"><ele>122</ele></trkpt>
   <trkpt lat="45.470884" lon="9.183112"><ele>122</ele></trkpt>
   <trkpt lat="45.470805" lon="9.18316"><ele>122</ele></trkpt>
   <trkpt lat="45.470519" lon="9.183279"><ele>122</ele></trkpt>
   <trkpt lat="45.470374" lon="9.183318"><ele>122</ele></trkpt>
  </trkseg>
 </trk>
</gpx>