<?xml version="1.0" encoding="UTF-8"?>
<!-- track-length = 49 filtered ascend = 1 plain-ascend = 1 cost=52 energy=0.0kwh time=4s -->
<gpx 
 xmlns="http://www.topografix.com/GPX/1/1" 
 xmlns:xsi="http://www.w3.org/2001/XMLSchema-instance" 
 xsi:schemaLocation="http://www.topografix.com/GPX/1/1 http://www.topografix.com/GPX/1/1/gpx.xsd" 
 version="1.1" 
 creator="BRouter-Web 99.71.0">
 <trk>
  <name>Kreuz Rondo Starołęka Weiche Nord-nach-Südost-Nord - Kreuz Rondo Starołęka Weiche Nord-nach-Südost-Südost</name>
  <link href="https://brouter.damsy.net/latest/#map=20/52.38003/16.94379/standard&amp;lonlats=16.943172,52.380436;16.943462,52.380056">
   <text>BRouter-Web</text>
  </link>
  <trkseg>
   <trkpt lat="52.380435" lon="16.943173"><ele>65</ele></trkpt>
   <trkpt lat="52.38036" lon="16.943167"><ele>65.25</ele></trkpt>
   <trkpt lat="52.380303" lon="16.943179"><ele>65.25</ele></trkpt>
   <trkpt lat="52.380225" lon="16.943211"><ele>65.5</ele></trkpt>
   <trkpt lat="52.380178" lon="16.943248"><ele>65.5</ele></trkpt>
   <trkpt lat="52.380146" lon="16.943288"><ele>65.75</ele></trkpt>
   <trkpt lat="52.380091" lon="16.943382"><ele>66</ele></trkpt>
   <trkpt lat="52.380056" lon="16.943458"><ele>66</ele></trkpt>
   <trkpt lat="52.380055" lon="16.943461"><ele>66</ele></trkpt>
  </trkseg>
 </trk>
</gpx>