<?xml version="1.0" encoding="UTF-8"?>
<!-- track-length = 56 filtered ascend = 1 plain-ascend = 1 cost=112 energy=0.0kwh time=4s -->
<gpx 
 xmlns="http://www.topografix.com/GPX/1/1" 
 xmlns:xsi="http://www.w3.org/2001/XMLSchema-instance" 
 xsi:schemaLocation="http://www.topografix.com/GPX/1/1 http://www.topografix.com/GPX/1/1/gpx.xsd" 
 version="1.1" 
 creator="BRouter-Web 99.71.0">
 <trk>
  <name>Kreuz Rondo Starołęka Weiche Süd-nach-Südost-Südost - Rondo Starołęka (Steig Südost-Südwest)</name>
  <link href="https://brouter.damsy.net/latest/#map=19/52.37968/16.94506/standard&amp;lonlats=16.943527,52.380036;16.944259,52.379813">
   <text>BRouter-Web</text>
  </link>
  <trkseg>
   <trkpt lat="52.380034" lon="16.943526"><ele>66</ele></trkpt>
   <trkpt lat="52.380001" lon="16.94364"><ele>66</ele></trkpt>
   <trkpt lat="52.379969" lon="16.943745"><ele>66</ele></trkpt>
   <trkpt lat="52.379813" lon="16.944259"><ele>67</ele></trkpt>
  </trkseg>
 </trk>
</gpx>