<?xml version="1.0" encoding="UTF-8"?>
<!-- track-length = 65 filtered ascend = 0 plain-ascend = 0 cost=132 energy=0.0kwh time=5s -->
<gpx 
 xmlns="http://www.topografix.com/GPX/1/1" 
 xmlns:xsi="http://www.w3.org/2001/XMLSchema-instance" 
 xsi:schemaLocation="http://www.topografix.com/GPX/1/1 http://www.topografix.com/GPX/1/1/gpx.xsd" 
 version="1.1" 
 creator="BRouter-Web 0.18.1">
 <trk>
  <name>Loeperplatz (Steig Süd-Ost) - Abzweig Loeperplatz Weiche 590</name>
  <trkseg>
   <trkpt lat="52.520255" lon="13.480158"><ele>49</ele></trkpt>
   <trkpt lat="52.520431" lon="13.480191"><ele>49</ele></trkpt>
   <trkpt lat="52.520832" lon="13.480274"><ele>49</ele></trkpt>
  </trkseg>
 </trk>
</gpx>