<?xml version="1.0" encoding="UTF-8"?>
<!-- track-length = 476 filtered ascend = 7 plain-ascend = 7 cost=954 energy=0.0kwh time=38s -->
<gpx 
 xmlns="http://www.topografix.com/GPX/1/1" 
 xmlns:xsi="http://www.w3.org/2001/XMLSchema-instance" 
 xsi:schemaLocation="http://www.topografix.com/GPX/1/1 http://www.topografix.com/GPX/1/1/gpx.xsd" 
 version="1.1" 
 creator="BRouter-Web 0.18.1">
 <trk>
  <name>Rathaus Lichtenberg (Steig Südost) - Loeperplatz (Steig Süd-Ost)</name>
  <trkseg>
   <trkpt lat="52.516093" lon="13.479245"><ele>41.75</ele></trkpt>
   <trkpt lat="52.516102" lon="13.479253"><ele>42</ele></trkpt>
   <trkpt lat="52.516191" lon="13.479324"><ele>42.25</ele></trkpt>
   <trkpt lat="52.516231" lon="13.479356"><ele>42.25</ele></trkpt>
   <trkpt lat="52.516296" lon="13.479408"><ele>42.5</ele></trkpt>
   <trkpt lat="52.516433" lon="13.47952"><ele>43</ele></trkpt>
   <trkpt lat="52.516594" lon="13.479675"><ele>43</ele></trkpt>
   <trkpt lat="52.516662" lon="13.479742"><ele>43</ele></trkpt>
   <trkpt lat="52.516737" lon="13.479814"><ele>43.25</ele></trkpt>
   <trkpt lat="52.516836" lon="13.479887"><ele>43.75</ele></trkpt>
   <trkpt lat="52.517001" lon="13.479986"><ele>44</ele></trkpt>
   <trkpt lat="52.517152" lon="13.480043"><ele>44.5</ele></trkpt>
   <trkpt lat="52.517322" lon="13.480076"><ele>45</ele></trkpt>
   <trkpt lat="52.517881" lon="13.48009"><ele>46</ele></trkpt>
   <trkpt lat="52.518333" lon="13.480071"><ele>46.75</ele></trkpt>
   <trkpt lat="52.518958" lon="13.480087"><ele>48</ele></trkpt>
   <trkpt lat="52.519073" lon="13.480075"><ele>48</ele></trkpt>
   <trkpt lat="52.519974" lon="13.480109"><ele>49</ele></trkpt>
   <trkpt lat="52.520255" lon="13.480158"><ele>49</ele></trkpt>
  </trkseg>
 </trk>
</gpx>