<?xml version="1.0" encoding="UTF-8"?>
<!-- track-length = 242 filtered ascend = 3 plain-ascend = 4 cost=484 energy=0.0kwh time=19s -->
<gpx 
 xmlns="http://www.topografix.com/GPX/1/1" 
 xmlns:xsi="http://www.w3.org/2001/XMLSchema-instance" 
 xsi:schemaLocation="http://www.topografix.com/GPX/1/1 http://www.topografix.com/GPX/1/1/gpx.xsd" 
 version="1.1" 
 creator="BRouter-Web 0.18.1">
 <trk>
  <name>S+U Frankfurter Allee (Steig Südost) - Rathaus Lichtenberg (Steig Südost)</name>
  <trkseg>
   <trkpt lat="52.514138" lon="13.477682"><ele>38.5</ele></trkpt>
   <trkpt lat="52.514438" lon="13.477921"><ele>39</ele></trkpt>
   <trkpt lat="52.514519" lon="13.477987"><ele>39.25</ele></trkpt>
   <trkpt lat="52.514564" lon="13.478023"><ele>39.25</ele></trkpt>
   <trkpt lat="52.514607" lon="13.478057"><ele>39.5</ele></trkpt>
   <trkpt lat="52.515065" lon="13.478425"><ele>40.75</ele></trkpt>
   <trkpt lat="52.516093" lon="13.479245"><ele>42</ele></trkpt>
  </trkseg>
 </trk>
</gpx>