<?xml version="1.0" encoding="UTF-8"?>
<!-- track-length = 226 filtered ascend = 0 plain-ascend = 0 cost=452 energy=0.0kwh time=18s -->
<gpx 
 xmlns="http://www.topografix.com/GPX/1/1" 
 xmlns:xsi="http://www.w3.org/2001/XMLSchema-instance" 
 xsi:schemaLocation="http://www.topografix.com/GPX/1/1 http://www.topografix.com/GPX/1/1/gpx.xsd" 
 version="1.1" 
 creator="BRouter-Web 99.71.0">
 <trk>
  <name>Dreieck Gwarna Weiche Ost - Święty Marcin</name>
  <link href="https://brouter.damsy.net/latest/#map=19/52.40645/16.92472/standard&amp;lonlats=16.92145,52.407008;16.924634,52.406488">
   <text>BRouter-Web</text>
  </link>
  <trkseg>
   <trkpt lat="52.407003" lon="16.921448"><ele>76</ele></trkpt>
   <trkpt lat="52.407002" lon="16.921457"><ele>76</ele></trkpt>
   <trkpt lat="52.406999" lon="16.921496"><ele>76</ele></trkpt>
   <trkpt lat="52.406952" lon="16.921926"><ele>76</ele></trkpt>
   <trkpt lat="52.406825" lon="16.922685"><ele>75.5</ele></trkpt>
   <trkpt lat="52.406797" lon="16.922848"><ele>75.5</ele></trkpt>
   <trkpt lat="52.406542" lon="16.924334"><ele>76</ele></trkpt>
   <trkpt lat="52.406489" lon="16.924634"><ele>75.75</ele></trkpt>
  </trkseg>
 </trk>
</gpx>