<?xml version="1.0" encoding="UTF-8"?>
<!-- track-length = 28 filtered ascend = 0 plain-ascend = 0 cost=56 energy=0.0kwh time=2s -->
<gpx 
 xmlns="http://www.topografix.com/GPX/1/1" 
 xmlns:xsi="http://www.w3.org/2001/XMLSchema-instance" 
 xsi:schemaLocation="http://www.topografix.com/GPX/1/1 http://www.topografix.com/GPX/1/1/gpx.xsd" 
 version="1.1" 
 creator="BRouter-Web 0.18.1">
 <trk>
  <name>Marienplatz (Steig E) - Abzweig Lübecker Straße Weiche 1-31</name>
  <trkseg>
   <trkpt lat="53.628524" lon="11.410795"><ele>46.25</ele></trkpt>
   <trkpt lat="53.628522" lon="11.410797"><ele>46.25</ele></trkpt>
   <trkpt lat="53.628416" lon="11.410857"><ele>46.5</ele></trkpt>
   <trkpt lat="53.628281" lon="11.410872"><ele>46.5</ele></trkpt>
  </trkseg>
 </trk>
</gpx>