<?xml version="1.0" encoding="UTF-8"?>
<!-- track-length = 43 filtered ascend = 0 plain-ascend = 1 cost=86 energy=0.0kwh time=3s -->
<gpx 
 xmlns="http://www.topografix.com/GPX/1/1" 
 xmlns:xsi="http://www.w3.org/2001/XMLSchema-instance" 
 xsi:schemaLocation="http://www.topografix.com/GPX/1/1 http://www.topografix.com/GPX/1/1/gpx.xsd" 
 version="1.1" 
 creator="BRouter-Web 0.18.1">
 <trk>
  <name>Willibaldplatz (Steig Südwest) - Abzweig Wendeschleife Willibaldplatz Weiche 28</name>
  <trkseg>
   <trkpt lat="48.140822" lon="11.489075"><ele>527.75</ele></trkpt>
   <trkpt lat="48.140805" lon="11.489171"><ele>528</ele></trkpt>
   <trkpt lat="48.140796" lon="11.489217"><ele>528</ele></trkpt>
   <trkpt lat="48.140765" lon="11.489389"><ele>528</ele></trkpt>
   <trkpt lat="48.140722" lon="11.489626"><ele>528</ele></trkpt>
   <trkpt lat="48.140721" lon="11.489626"><ele>528.5</ele></trkpt>
  </trkseg>
 </trk>
</gpx>