<?xml version="1.0" encoding="UTF-8"?>
<!-- track-length = 413 filtered ascend = 0 plain-ascend = -1 cost=826 energy=0.0kwh time=33s -->
<gpx 
 xmlns="http://www.topografix.com/GPX/1/1" 
 xmlns:xsi="http://www.w3.org/2001/XMLSchema-instance" 
 xsi:schemaLocation="http://www.topografix.com/GPX/1/1 http://www.topografix.com/GPX/1/1/gpx.xsd" 
 version="1.1" 
 creator="BRouter-Web 0.18.1">
 <trk>
  <name>Abzweig Luzenberg-/Sandhofer Straße Weiche West - Abzweig Wendedreieck Akazienstraße Weiche Süd</name>
  <trkseg>
   <trkpt lat="49.515615" lon="8.475063"><ele>95</ele></trkpt>
   <trkpt lat="49.515565" lon="8.474999"><ele>95</ele></trkpt>
   <trkpt lat="49.51528" lon="8.474607"><ele>94.75</ele></trkpt>
   <trkpt lat="49.513984" lon="8.47276"><ele>95.5</ele></trkpt>
   <trkpt lat="49.513729" lon="8.472445"><ele>94.75</ele></trkpt>
   <trkpt lat="49.51351" lon="8.472211"><ele>93.5</ele></trkpt>
   <trkpt lat="49.513399" lon="8.472115"><ele>93</ele></trkpt>
   <trkpt lat="49.513262" lon="8.472017"><ele>93</ele></trkpt>
   <trkpt lat="49.513097" lon="8.471923"><ele>93</ele></trkpt>
   <trkpt lat="49.512974" lon="8.471871"><ele>93</ele></trkpt>
   <trkpt lat="49.512677" lon="8.471788"><ele>93</ele></trkpt>
   <trkpt lat="49.512668" lon="8.471786"><ele>93</ele></trkpt>
  </trkseg>
 </trk>
</gpx>