<?xml version="1.0" encoding="UTF-8"?>
<!-- track-length = 666 filtered ascend = 1 plain-ascend = 1 cost=1332 energy=0.0kwh time=53s -->
<gpx 
 xmlns="http://www.topografix.com/GPX/1/1" 
 xmlns:xsi="http://www.w3.org/2001/XMLSchema-instance" 
 xsi:schemaLocation="http://www.topografix.com/GPX/1/1 http://www.topografix.com/GPX/1/1/gpx.xsd" 
 version="1.1" 
 creator="BRouter-Web 0.18.1">
 <trk>
  <name>Kreuz Landsberger Allee/Petersburger Straße Weiche 557 - S Landsberger Allee (Steig Südost)</name>
  <trkseg>
   <trkpt lat="52.526482" lon="13.448059"><ele>51.5</ele></trkpt>
   <trkpt lat="52.526492" lon="13.448097"><ele>51.5</ele></trkpt>
   <trkpt lat="52.526615" lon="13.448548"><ele>51</ele></trkpt>
   <trkpt lat="52.527181" lon="13.450634"><ele>50</ele></trkpt>
   <trkpt lat="52.527227" lon="13.450809"><ele>50</ele></trkpt>
   <trkpt lat="52.527271" lon="13.450968"><ele>50</ele></trkpt>
   <trkpt lat="52.527566" lon="13.452058"><ele>50.5</ele></trkpt>
   <trkpt lat="52.52764" lon="13.452333"><ele>50.5</ele></trkpt>
   <trkpt lat="52.527699" lon="13.452565"><ele>51</ele></trkpt>
   <trkpt lat="52.527993" lon="13.453854"><ele>51.75</ele></trkpt>
   <trkpt lat="52.528043" lon="13.45405"><ele>51.75</ele></trkpt>
   <trkpt lat="52.528276" lon="13.454814"><ele>52.75</ele></trkpt>
   <trkpt lat="52.528357" lon="13.455143"><ele>52.5</ele></trkpt>
   <trkpt lat="52.528548" lon="13.45602"><ele>52</ele></trkpt>
   <trkpt lat="52.528573" lon="13.456143"><ele>52</ele></trkpt>
   <trkpt lat="52.528772" lon="13.457116"><ele>52</ele></trkpt>
  </trkseg>
 </trk>
</gpx>