<?xml version="1.0" encoding="UTF-8"?>
<!-- track-length = 5360 filtered ascend = 7 plain-ascend = 7 cost=5360 energy=0.1kwh time=7m 9s -->
<gpx 
 xmlns="http://www.topografix.com/GPX/1/1" 
 xmlns:xsi="http://www.w3.org/2001/XMLSchema-instance" 
 xsi:schemaLocation="http://www.topografix.com/GPX/1/1 http://www.topografix.com/GPX/1/1/gpx.xsd" 
 version="1.1" 
 creator="BRouter-Web 0.18.1">
 <trk>
  <name>Flughafen Frankfurt/Main Skyline Bahn Terminal 3 - Terminal 1</name>
  <trkseg>
   <trkpt lat="50.02791" lon="8.582049"/>
   <trkpt lat="50.028561" lon="8.583139"/>
   <trkpt lat="50.028969" lon="8.583821"/>
   <trkpt lat="50.029064" lon="8.58398"/>
   <trkpt lat="50.029215" lon="8.584134"><ele>105</ele></trkpt>
   <trkpt lat="50.029272" lon="8.584193"><ele>105</ele></trkpt>
   <trkpt lat="50.029587" lon="8.584724"><ele>105</ele></trkpt>
   <trkpt lat="50.029813" lon="8.585161"><ele>105</ele></trkpt>
   <trkpt lat="50.029949" lon="8.585481"><ele>105</ele></trkpt>
   <trkpt lat="50.030059" lon="8.585768"><ele>105</ele></trkpt>
   <trkpt lat="50.030363" lon="8.586604"><ele>105</ele></trkpt>
   <trkpt lat="50.030502" lon="8.586941"><ele>105</ele></trkpt>
   <trkpt lat="50.030872" lon="8.587651"><ele>105</ele></trkpt>
   <trkpt lat="50.031262" lon="8.588125"><ele>105.75</ele></trkpt>
   <trkpt lat="50.031456" lon="8.588326"><ele>106.25</ele></trkpt>
   <trkpt lat="50.031661" lon="8.588503"><ele>105.75</ele></trkpt>
   <trkpt lat="50.03231" lon="8.588977"><ele>106.75</ele></trkpt>
   <trkpt lat="50.033818" lon="8.590051"><ele>106.75</ele></trkpt>
   <trkpt lat="50.03403" lon="8.590208"><ele>106.5</ele></trkpt>
   <trkpt lat="50.034236" lon="8.590376"><ele>107</ele></trkpt>
   <trkpt lat="50.034442" lon="8.590559"><ele>107</ele></trkpt>
   <trkpt lat="50.034642" lon="8.590761"><ele>107.5</ele></trkpt>
   <trkpt lat="50.035018" lon="8.591194"><ele>107.75</ele></trkpt>
   <trkpt lat="50.035449" lon="8.591779"><ele>108.5</ele></trkpt>
   <trkpt lat="50.036567" lon="8.593238"><ele>109.25</ele></trkpt>
   <trkpt lat="50.036945" lon="8.593701"><ele>110</ele></trkpt>
   <trkpt lat="50.037481" lon="8.594327"><ele>110</ele></trkpt>
   <trkpt lat="50.038204" lon="8.595117"><ele>110.25</ele></trkpt>
   <trkpt lat="50.038939" lon="8.595874"><ele>111</ele></trkpt>
   <trkpt lat="50.039213" lon="8.596124"><ele>111</ele></trkpt>
   <trkpt lat="50.039493" lon="8.596353"><ele>111</ele></trkpt>
   <trkpt lat="50.039821" lon="8.596577"><ele>111.5</ele></trkpt>
   <trkpt lat="50.040157" lon="8.596771"><ele>112</ele></trkpt>
   <trkpt lat="50.040987" lon="8.597177"><ele>112</ele></trkpt>
   <trkpt lat="50.041275" lon="8.59741"><ele>112</ele></trkpt>
   <trkpt lat="50.041857" lon="8.597669"><ele>112</ele></trkpt>
   <trkpt lat="50.042208" lon="8.597717"><ele>112</ele></trkpt>
   <trkpt lat="50.042422" lon="8.597802"><ele>112</ele></trkpt>
   <trkpt lat="50.042746" lon="8.59795"><ele>112</ele></trkpt>
   <trkpt lat="50.043645" lon="8.598484"><ele>111.75</ele></trkpt>
   <trkpt lat="50.044328" lon="8.598835"><ele>112</ele></trkpt>
   <trkpt lat="50.048375" lon="8.600848"><ele>112</ele></trkpt>
   <trkpt lat="50.049852" lon="8.601568"/>
   <trkpt lat="50.050006" lon="8.601619"/>
   <trkpt lat="50.050147" lon="8.601652"/>
   <trkpt lat="50.050293" lon="8.60167"/>
   <trkpt lat="50.050506" lon="8.601673"/>
   <trkpt lat="50.050648" lon="8.601656"/>
   <trkpt lat="50.050762" lon="8.601632"/>
   <trkpt lat="50.050904" lon="8.601588"/>
   <trkpt lat="50.05115" lon="8.601477"/>
   <trkpt lat="50.051276" lon="8.6014"><ele>111.5</ele></trkpt>
   <trkpt lat="50.051277" lon="8.6014"><ele>111.5</ele></trkpt>
   <trkpt lat="50.051515" lon="8.60121"><ele>111.5</ele></trkpt>
   <trkpt lat="50.051581" lon="8.601159"><ele>111.5</ele></trkpt>
   <trkpt lat="50.051757" lon="8.600966"><ele>111.5</ele></trkpt>
   <trkpt lat="50.051855" lon="8.600845"><ele>111.5</ele></trkpt>
   <trkpt lat="50.052047" lon="8.600551"><ele>111.5</ele></trkpt>
   <trkpt lat="50.052207" lon="8.600246"><ele>111.5</ele></trkpt>
   <trkpt lat="50.052357" lon="8.599868"><ele>111.5</ele></trkpt>
   <trkpt lat="50.052417" lon="8.599682"><ele>111.5</ele></trkpt>
   <trkpt lat="50.052463" lon="8.59952"><ele>111.5</ele></trkpt>
   <trkpt lat="50.052535" lon="8.5992"><ele>111.5</ele></trkpt>
   <trkpt lat="50.052581" lon="8.598882"><ele>111.5</ele></trkpt>
   <trkpt lat="50.052608" lon="8.59862"><ele>111.5</ele></trkpt>
   <trkpt lat="50.05262" lon="8.598435"><ele>111.5</ele></trkpt>
   <trkpt lat="50.052663" lon="8.597567"><ele>111.5</ele></trkpt>
   <trkpt lat="50.052675" lon="8.597338"><ele>111.5</ele></trkpt>
   <trkpt lat="50.052728" lon="8.596214"><ele>111.5</ele></trkpt>
   <trkpt lat="50.052829" lon="8.594082"/>
   <trkpt lat="50.052893" lon="8.592673"/>
   <trkpt lat="50.052907" lon="8.592358"/>
   <trkpt lat="50.052972" lon="8.590879"/>
   <trkpt lat="50.052967" lon="8.590285"/>
   <trkpt lat="50.052954" lon="8.590085"/>
   <trkpt lat="50.052894" lon="8.589625"/>
   <trkpt lat="50.052815" lon="8.589187"/>
   <trkpt lat="50.052392" lon="8.58739"/>
   <trkpt lat="50.052248" lon="8.586785"/>
   <trkpt lat="50.052126" lon="8.586273"/>
   <trkpt lat="50.052071" lon="8.586049"/>
   <trkpt lat="50.051934" lon="8.585483"/>
   <trkpt lat="50.051943" lon="8.585131"/>
   <trkpt lat="50.051875" lon="8.584851"/>
   <trkpt lat="50.051669" lon="8.583995"/>
   <trkpt lat="50.051422" lon="8.58303"/>
   <trkpt lat="50.050893" lon="8.580822"/>
   <trkpt lat="50.050828" lon="8.580516"/>
   <trkpt lat="50.050815" lon="8.580405"/>
   <trkpt lat="50.05081" lon="8.580273"/>
   <trkpt lat="50.050815" lon="8.580115"/>
   <trkpt lat="50.050827" lon="8.580018"/>
   <trkpt lat="50.05088" lon="8.579785"/>
   <trkpt lat="50.051221" lon="8.578695"/>
   <trkpt lat="50.05126" lon="8.578593"/>
   <trkpt lat="50.051336" lon="8.578451"/>
   <trkpt lat="50.051381" lon="8.578394"/>
   <trkpt lat="50.051463" lon="8.578328"/>
   <trkpt lat="50.051734" lon="8.57817"/>
   <trkpt lat="50.05191" lon="8.578061"/>
   <trkpt lat="50.052041" lon="8.577895"/>
   <trkpt lat="50.052346" lon="8.577724"/>
   <trkpt lat="50.052383" lon="8.577696"/>
   <trkpt lat="50.052464" lon="8.577613"/>
   <trkpt lat="50.052518" lon="8.577535"/>
   <trkpt lat="50.052572" lon="8.577427"/>
   <trkpt lat="50.052614" lon="8.577284"/>
   <trkpt lat="50.052627" lon="8.577218"/>
   <trkpt lat="50.052643" lon="8.577017"/>
   <trkpt lat="50.052639" lon="8.576927"/>
   <trkpt lat="50.052619" lon="8.576796"/>
   <trkpt lat="50.052265" lon="8.575301"/>
   <trkpt lat="50.052218" lon="8.575144"/>
   <trkpt lat="50.052037" lon="8.574664"/>
   <trkpt lat="50.051945" lon="8.574327"/>
   <trkpt lat="50.051811" lon="8.57382"/>
   <trkpt lat="50.051441" lon="8.572324"/>
  </trkseg>
 </trk>
</gpx>