<?xml version="1.0" encoding="UTF-8"?>
<!-- track-length = 41 filtered ascend = 0 plain-ascend = 0 cost=82 energy=0.0kwh time=3s -->
<gpx 
 xmlns="http://www.topografix.com/GPX/1/1" 
 xmlns:xsi="http://www.w3.org/2001/XMLSchema-instance" 
 xsi:schemaLocation="http://www.topografix.com/GPX/1/1 http://www.topografix.com/GPX/1/1/gpx.xsd" 
 version="1.1" 
 creator="BRouter-Web 0.18.1">
 <trk>
  <name>Kreuz Augustusplatz Weiche 496 - Kreuz Augustusplatz Weiche Nord-Ost</name>
  <trkseg>
   <trkpt lat="51.338653" lon="12.382321"><ele>116.75</ele></trkpt>
   <trkpt lat="51.338655" lon="12.382317"><ele>116.75</ele></trkpt>
   <trkpt lat="51.338671" lon="12.382268"><ele>116.75</ele></trkpt>
   <trkpt lat="51.338714" lon="12.382181"><ele>116.5</ele></trkpt>
   <trkpt lat="51.338768" lon="12.382118"><ele>116.5</ele></trkpt>
   <trkpt lat="51.338821" lon="12.382082"><ele>116.5</ele></trkpt>
   <trkpt lat="51.338868" lon="12.382065"><ele>116.5</ele></trkpt>
   <trkpt lat="51.338961" lon="12.382069"><ele>116.25</ele></trkpt>
  </trkseg>
 </trk>
</gpx>