<?xml version="1.0" encoding="UTF-8"?>
<!-- track-length = 520 filtered ascend = 2 plain-ascend = 3 cost=1040 energy=0.0kwh time=42s -->
<gpx 
 xmlns="http://www.topografix.com/GPX/1/1" 
 xmlns:xsi="http://www.w3.org/2001/XMLSchema-instance" 
 xsi:schemaLocation="http://www.topografix.com/GPX/1/1 http://www.topografix.com/GPX/1/1/gpx.xsd" 
 version="1.1" 
 creator="BRouter-Web 99.71.0">
 <trk>
  <name>Nádraží Modřany (Steig A) - Modřanská škola (Steig A)</name>
  <link href="https://brouter.damsy.net/latest/#map=17/50.00822/14.40627/standard&amp;lonlats=14.403276,50.004574;14.403034,50.009159&amp;profile=rail">
   <text>BRouter-Web</text>
  </link>
  <trkseg>
   <trkpt lat="50.004573" lon="14.403272"><ele>193.75</ele></trkpt>
   <trkpt lat="50.004578" lon="14.403271"><ele>193.75</ele></trkpt>
   <trkpt lat="50.004601" lon="14.403263"><ele>193.75</ele></trkpt>
   <trkpt lat="50.005772" lon="14.402843"><ele>194.25</ele></trkpt>
   <trkpt lat="50.005923" lon="14.402798"><ele>194.75</ele></trkpt>
   <trkpt lat="50.006076" lon="14.402762"><ele>195</ele></trkpt>
   <trkpt lat="50.006242" lon="14.402748"><ele>195</ele></trkpt>
   <trkpt lat="50.006395" lon="14.402746"><ele>195</ele></trkpt>
   <trkpt lat="50.006553" lon="14.402773"><ele>195.5</ele></trkpt>
   <trkpt lat="50.006725" lon="14.402822"><ele>195.25</ele></trkpt>
   <trkpt lat="50.006872" lon="14.402883"><ele>194.5</ele></trkpt>
   <trkpt lat="50.007345" lon="14.403132"><ele>194.75</ele></trkpt>
   <trkpt lat="50.007609" lon="14.403228"><ele>195</ele></trkpt>
   <trkpt lat="50.007756" lon="14.403258"><ele>195.75</ele></trkpt>
   <trkpt lat="50.007933" lon="14.403277"><ele>195.25</ele></trkpt>
   <trkpt lat="50.00826" lon="14.403243"><ele>195.75</ele></trkpt>
   <trkpt lat="50.009158" lon="14.403031"><ele>196.5</ele></trkpt>
  </trkseg>
 </trk>
</gpx>