<?xml version="1.0" encoding="UTF-8"?>
<!-- track-length = 394 filtered ascend = 0 plain-ascend = -1 cost=788 energy=0.0kwh time=32s -->
<gpx 
 xmlns="http://www.topografix.com/GPX/1/1" 
 xmlns:xsi="http://www.w3.org/2001/XMLSchema-instance" 
 xsi:schemaLocation="http://www.topografix.com/GPX/1/1 http://www.topografix.com/GPX/1/1/gpx.xsd" 
 version="1.1" 
 creator="BRouter-Web 0.18.1">
 <trk>
  <name>Platz der Vereinten Nationen (Steig Nord) - Büschingstraße (Steig Nord)</name>
  <trkseg>
   <trkpt lat="52.523267" lon="13.432643"><ele>38</ele></trkpt>
   <trkpt lat="52.523267" lon="13.43252"><ele>38</ele></trkpt>
   <trkpt lat="52.52321" lon="13.430164"><ele>37</ele></trkpt>
   <trkpt lat="52.52321" lon="13.430083"><ele>37</ele></trkpt>
   <trkpt lat="52.523207" lon="13.42999"><ele>37</ele></trkpt>
   <trkpt lat="52.523205" lon="13.429907"><ele>37</ele></trkpt>
   <trkpt lat="52.5232" lon="13.429666"><ele>37</ele></trkpt>
   <trkpt lat="52.523196" lon="13.429538"><ele>37</ele></trkpt>
   <trkpt lat="52.523195" lon="13.429465"><ele>37</ele></trkpt>
   <trkpt lat="52.523159" lon="13.427916"><ele>37</ele></trkpt>
   <trkpt lat="52.523154" lon="13.427735"><ele>37</ele></trkpt>
   <trkpt lat="52.523134" lon="13.426824"><ele>36.5</ele></trkpt>
  </trkseg>
 </trk>
</gpx>