<?xml version="1.0" encoding="UTF-8"?>
<!-- track-length = 7 filtered ascend = 0 plain-ascend = 0 cost=14 energy=0.0kwh time=1s -->
<gpx 
 xmlns="http://www.topografix.com/GPX/1/1" 
 xmlns:xsi="http://www.w3.org/2001/XMLSchema-instance" 
 xsi:schemaLocation="http://www.topografix.com/GPX/1/1 http://www.topografix.com/GPX/1/1/gpx.xsd" 
 version="1.1" 
 creator="BRouter-Web 0.18.1">
 <trk>
  <name>Knöllgasse (Steig Südwest) - Dreieck Knöllgasse Weiche 10-06/15</name>
  <trkseg>
   <trkpt lat="48.177105" lon="16.357897"><ele>211.5</ele></trkpt>
   <trkpt lat="48.177161" lon="16.357939"><ele>211.5</ele></trkpt>
  </trkseg>
 </trk>
</gpx>