<?xml version="1.0" encoding="UTF-8"?>
<!-- track-length = 77 filtered ascend = 0 plain-ascend = 0 cost=154 energy=0.0kwh time=6s -->
<gpx 
 xmlns="http://www.topografix.com/GPX/1/1" 
 xmlns:xsi="http://www.w3.org/2001/XMLSchema-instance" 
 xsi:schemaLocation="http://www.topografix.com/GPX/1/1 http://www.topografix.com/GPX/1/1/gpx.xsd" 
 version="1.1" 
 creator="BRouter-Web 0.18.1">
 <trk>
  <name>Stefan-Fadinger-Platz Weiche Südost - Stefan-Fadinger-Platz (Einstieg)</name>
  <trkseg>
   <trkpt lat="48.168043" lon="16.354313"><ele>241</ele></trkpt>
   <trkpt lat="48.168032" lon="16.354377"><ele>241</ele></trkpt>
   <trkpt lat="48.168031" lon="16.354451"><ele>241</ele></trkpt>
   <trkpt lat="48.16805" lon="16.354544"><ele>241</ele></trkpt>
   <trkpt lat="48.168067" lon="16.354584"><ele>241</ele></trkpt>
   <trkpt lat="48.168101" lon="16.354637"><ele>241</ele></trkpt>
   <trkpt lat="48.168151" lon="16.354678"><ele>240.75</ele></trkpt>
   <trkpt lat="48.168197" lon="16.354696"><ele>241</ele></trkpt>
   <trkpt lat="48.168263" lon="16.354688"><ele>241</ele></trkpt>
   <trkpt lat="48.168506" lon="16.354549"><ele>241</ele></trkpt>
   <trkpt lat="48.168529" lon="16.354533"><ele>241</ele></trkpt>
  </trkseg>
 </trk>
</gpx>