<?xml version="1.0" encoding="UTF-8"?>
<!-- track-length = 309 filtered ascend = 0 plain-ascend = -9 cost=618 energy=0.0kwh time=25s -->
<gpx 
 xmlns="http://www.topografix.com/GPX/1/1" 
 xmlns:xsi="http://www.w3.org/2001/XMLSchema-instance" 
 xsi:schemaLocation="http://www.topografix.com/GPX/1/1 http://www.topografix.com/GPX/1/1/gpx.xsd" 
 version="1.1" 
 creator="BRouter-Web 0.18.1">
 <trk>
  <name>Windtenstraße (Steig Nordost) - Knöllgasse/Troststraße (Steig Südost)</name>
  <trkseg>
   <trkpt lat="48.170301" lon="16.351705"><ele>237.75</ele></trkpt>
   <trkpt lat="48.170302" lon="16.351704"><ele>237.75</ele></trkpt>
   <trkpt lat="48.170349" lon="16.351643"><ele>237.75</ele></trkpt>
   <trkpt lat="48.170403" lon="16.351602"><ele>237.5</ele></trkpt>
   <trkpt lat="48.170437" lon="16.351591"><ele>237.5</ele></trkpt>
   <trkpt lat="48.17047" lon="16.351589"><ele>237.25</ele></trkpt>
   <trkpt lat="48.170506" lon="16.351595"><ele>237</ele></trkpt>
   <trkpt lat="48.17055" lon="16.351618"><ele>237</ele></trkpt>
   <trkpt lat="48.171286" lon="16.352326"><ele>233.75</ele></trkpt>
   <trkpt lat="48.171903" lon="16.352915"><ele>231</ele></trkpt>
   <trkpt lat="48.171965" lon="16.352973"><ele>230.75</ele></trkpt>
   <trkpt lat="48.172081" lon="16.353087"><ele>230.5</ele></trkpt>
   <trkpt lat="48.172542" lon="16.353533"><ele>228.75</ele></trkpt>
   <trkpt lat="48.172652" lon="16.353641"><ele>228.25</ele></trkpt>
  </trkseg>
 </trk>
</gpx>