<?xml version="1.0" encoding="UTF-8"?>
<!-- track-length = 55 filtered ascend = 0 plain-ascend = -1 cost=112 energy=0.0kwh time=4s -->
<gpx 
 xmlns="http://www.topografix.com/GPX/1/1" 
 xmlns:xsi="http://www.w3.org/2001/XMLSchema-instance" 
 xsi:schemaLocation="http://www.topografix.com/GPX/1/1 http://www.topografix.com/GPX/1/1/gpx.xsd" 
 version="1.1" 
 creator="BRouter-Web 99.71.0">
 <trk>
  <name>Dreieck Na Zátorách/Partyzánská Weiche Süd-Ost - Dreieck Na Zátorách/Partyzánská Weiche Nord-Ost</name>
  <link href="https://brouter.damsy.net/latest/#map=19/50.10820/14.43652/standard&amp;lonlats=14.436785,50.107721;14.43701,50.108185&amp;profile=rail">
   <text>BRouter-Web</text>
  </link>
  <trkseg>
   <trkpt lat="50.10772" lon="14.436784"><ele>187.25</ele></trkpt>
   <trkpt lat="50.107722" lon="14.436786"><ele>187.25</ele></trkpt>
   <trkpt lat="50.107829" lon="14.436847"><ele>186.75</ele></trkpt>
   <trkpt lat="50.107859" lon="14.436863"><ele>186.5</ele></trkpt>
   <trkpt lat="50.107951" lon="14.436915"><ele>186.25</ele></trkpt>
   <trkpt lat="50.108067" lon="14.436966"><ele>186</ele></trkpt>
   <trkpt lat="50.108101" lon="14.436977"><ele>185.75</ele></trkpt>
   <trkpt lat="50.108166" lon="14.437004"><ele>185.5</ele></trkpt>
   <trkpt lat="50.108185" lon="14.43701"><ele>185.5</ele></trkpt>
  </trkseg>
 </trk>
</gpx>