<?xml version="1.0" encoding="UTF-8"?>
<!-- track-length = 42 filtered ascend = 0 plain-ascend = 1 cost=84 energy=0.0kwh time=3s -->
<gpx 
 xmlns="http://www.topografix.com/GPX/1/1" 
 xmlns:xsi="http://www.w3.org/2001/XMLSchema-instance" 
 xsi:schemaLocation="http://www.topografix.com/GPX/1/1 http://www.topografix.com/GPX/1/1/gpx.xsd" 
 version="1.1" 
 creator="BRouter-Web 0.18.1">
 <trk>
  <name>Abzweig Wendeschleife Saukonpaasi Weiche Nordwest - Abzweig Länsisatamankatu/Välimerenkatu Weiche West</name>
  <trkseg>
   <trkpt lat="60.157923" lon="24.911252"><ele>3</ele></trkpt>
   <trkpt lat="60.157921" lon="24.911256"><ele>3</ele></trkpt>
   <trkpt lat="60.157899" lon="24.91129"><ele>3</ele></trkpt>
   <trkpt lat="60.157834" lon="24.911376"><ele>3</ele></trkpt>
   <trkpt lat="60.157792" lon="24.911413"><ele>3</ele></trkpt>
   <trkpt lat="60.157768" lon="24.91143"><ele>3</ele></trkpt>
   <trkpt lat="60.157741" lon="24.911449"><ele>3</ele></trkpt>
   <trkpt lat="60.157592" lon="24.911542"><ele>3</ele></trkpt>
   <trkpt lat="60.157591" lon="24.911542"><ele>3.5</ele></trkpt>
  </trkseg>
 </trk>
</gpx>