<?xml version="1.0" encoding="UTF-8"?>
<!-- track-length = 315 filtered ascend = 1 plain-ascend = 1 cost=630 energy=0.0kwh time=25s -->
<gpx 
 xmlns="http://www.topografix.com/GPX/1/1" 
 xmlns:xsi="http://www.w3.org/2001/XMLSchema-instance" 
 xsi:schemaLocation="http://www.topografix.com/GPX/1/1 http://www.topografix.com/GPX/1/1/gpx.xsd" 
 version="1.1" 
 creator="BRouter-Web 0.18.1">
 <trk>
  <name>Itämerenkatu (Steig Nord) - Ruoholahti (Steig Nord)</name>
  <trkseg>
   <trkpt lat="60.16357" lon="24.919813"><ele>3</ele></trkpt>
   <trkpt lat="60.163567" lon="24.919724"><ele>3</ele></trkpt>
   <trkpt lat="60.163561" lon="24.919539"><ele>3</ele></trkpt>
   <trkpt lat="60.163544" lon="24.919119"><ele>3</ele></trkpt>
   <trkpt lat="60.163542" lon="24.919058"><ele>3</ele></trkpt>
   <trkpt lat="60.163535" lon="24.918886"><ele>3.25</ele></trkpt>
   <trkpt lat="60.163534" lon="24.918855"><ele>3.25</ele></trkpt>
   <trkpt lat="60.163531" lon="24.918757"><ele>3.25</ele></trkpt>
   <trkpt lat="60.163527" lon="24.918619"><ele>3.25</ele></trkpt>
   <trkpt lat="60.163483" lon="24.917341"><ele>4</ele></trkpt>
   <trkpt lat="60.163481" lon="24.917308"><ele>4</ele></trkpt>
   <trkpt lat="60.163476" lon="24.917176"><ele>3.75</ele></trkpt>
   <trkpt lat="60.163471" lon="24.917021"><ele>3.5</ele></trkpt>
   <trkpt lat="60.16347" lon="24.916989"><ele>3.5</ele></trkpt>
   <trkpt lat="60.163453" lon="24.916505"><ele>3</ele></trkpt>
   <trkpt lat="60.163449" lon="24.916393"><ele>3.5</ele></trkpt>
   <trkpt lat="60.163428" lon="24.915708"><ele>4</ele></trkpt>
   <trkpt lat="60.163425" lon="24.915648"><ele>4</ele></trkpt>
   <trkpt lat="60.163417" lon="24.915423"><ele>4</ele></trkpt>
   <trkpt lat="60.163413" lon="24.91531"><ele>3.75</ele></trkpt>
   <trkpt lat="60.163403" lon="24.915056"><ele>4</ele></trkpt>
   <trkpt lat="60.1634" lon="24.914964"><ele>4</ele></trkpt>
   <trkpt lat="60.163372" lon="24.914134"><ele>4</ele></trkpt>
  </trkseg>
 </trk>
</gpx>