<?xml version="1.0" encoding="UTF-8"?>
<!-- track-length = 6750 filtered ascend = 5 plain-ascend = 3 cost=10101 energy=0.7kwh time=9m 57s -->
<gpx 
 xmlns="http://www.topografix.com/GPX/1/1" 
 xmlns:xsi="http://www.w3.org/2001/XMLSchema-instance" 
 xsi:schemaLocation="http://www.topografix.com/GPX/1/1 http://www.topografix.com/GPX/1/1/gpx.xsd" 
 version="1.1" 
 creator="BRouter-Web 0.18.1">
 <trk>
  <name>OVO Bus 59 Rothenburg (Oberlausitz) Markt - Horka Bahnhof</name>
  <trkseg>
   <trkpt lat="51.334892" lon="14.969584"><ele>162.75</ele></trkpt>
   <trkpt lat="51.334734" lon="14.969616"><ele>163</ele></trkpt>
   <trkpt lat="51.33458" lon="14.969658"><ele>163</ele></trkpt>
   <trkpt lat="51.334454" lon="14.969713"><ele>163</ele></trkpt>
   <trkpt lat="51.334412" lon="14.969749"><ele>163</ele></trkpt>
   <trkpt lat="51.334393" lon="14.969816"><ele>163</ele></trkpt>
   <trkpt lat="51.33439" lon="14.969874"><ele>163</ele></trkpt>
   <trkpt lat="51.334255" lon="14.969916"><ele>163.5</ele></trkpt>
   <trkpt lat="51.333761" lon="14.970068"><ele>164</ele></trkpt>
   <trkpt lat="51.332547" lon="14.970437"><ele>162.5</ele></trkpt>
   <trkpt lat="51.332471" lon="14.970461"><ele>162.5</ele></trkpt>
   <trkpt lat="51.332342" lon="14.9705"><ele>162.25</ele></trkpt>
   <trkpt lat="51.332224" lon="14.97049"><ele>162</ele></trkpt>
   <trkpt lat="51.332085" lon="14.97045"><ele>162.5</ele></trkpt>
   <trkpt lat="51.332051" lon="14.970422"><ele>162.75</ele></trkpt>
   <trkpt lat="51.331995" lon="14.970338"><ele>162.75</ele></trkpt>
   <trkpt lat="51.331961" lon="14.97021"><ele>163</ele></trkpt>
   <trkpt lat="51.331939" lon="14.970076"><ele>163</ele></trkpt>
   <trkpt lat="51.331914" lon="14.969906"><ele>163</ele></trkpt>
   <trkpt lat="51.331808" lon="14.96925"><ele>163.5</ele></trkpt>
   <trkpt lat="51.331738" lon="14.968888"><ele>163.5</ele></trkpt>
   <trkpt lat="51.331629" lon="14.968379"><ele>164</ele></trkpt>
   <trkpt lat="51.331585" lon="14.968244"><ele>164</ele></trkpt>
   <trkpt lat="51.331546" lon="14.968183"><ele>164</ele></trkpt>
   <trkpt lat="51.331084" lon="14.967615"><ele>165</ele></trkpt>
   <trkpt lat="51.330858" lon="14.967309"><ele>165</ele></trkpt>
   <trkpt lat="51.330742" lon="14.96713"><ele>164.75</ele></trkpt>
   <trkpt lat="51.330648" lon="14.966931"><ele>164.25</ele></trkpt>
   <trkpt lat="51.330516" lon="14.966662"><ele>164</ele></trkpt>
   <trkpt lat="51.330475" lon="14.96658"><ele>164</ele></trkpt>
   <trkpt lat="51.330427" lon="14.966489"><ele>164</ele></trkpt>
   <trkpt lat="51.330192" lon="14.9661"><ele>163.75</ele></trkpt>
   <trkpt lat="51.329923" lon="14.965799"><ele>164</ele></trkpt>
   <trkpt lat="51.329544" lon="14.965377"><ele>164.75</ele></trkpt>
   <trkpt lat="51.3295" lon="14.965328"><ele>164.75</ele></trkpt>
   <trkpt lat="51.32918" lon="14.964818"><ele>164.75</ele></trkpt>
   <trkpt lat="51.329035" lon="14.964557"><ele>165</ele></trkpt>
   <trkpt lat="51.328992" lon="14.964483"><ele>165</ele></trkpt>
   <trkpt lat="51.328971" lon="14.964447"><ele>165</ele></trkpt>
   <trkpt lat="51.328796" lon="14.964155"><ele>164.5</ele></trkpt>
   <trkpt lat="51.328379" lon="14.963445"><ele>164.25</ele></trkpt>
   <trkpt lat="51.328013" lon="14.962827"><ele>164</ele></trkpt>
   <trkpt lat="51.327926" lon="14.962677"><ele>164</ele></trkpt>
   <trkpt lat="51.327717" lon="14.962349"><ele>164</ele></trkpt>
   <trkpt lat="51.327333" lon="14.961807"><ele>164</ele></trkpt>
   <trkpt lat="51.327122" lon="14.961519"><ele>164</ele></trkpt>
   <trkpt lat="51.326821" lon="14.961105"><ele>164</ele></trkpt>
   <trkpt lat="51.326718" lon="14.960963"><ele>164</ele></trkpt>
   <trkpt lat="51.32646" lon="14.960593"><ele>164</ele></trkpt>
   <trkpt lat="51.325835" lon="14.95978"><ele>164</ele></trkpt>
   <trkpt lat="51.325646" lon="14.959549"><ele>164</ele></trkpt>
   <trkpt lat="51.324788" lon="14.958592"><ele>164</ele></trkpt>
   <trkpt lat="51.324623" lon="14.958367"><ele>164</ele></trkpt>
   <trkpt lat="51.32447" lon="14.958096"><ele>164.75</ele></trkpt>
   <trkpt lat="51.324088" lon="14.957321"><ele>164</ele></trkpt>
   <trkpt lat="51.323878" lon="14.956867"><ele>164</ele></trkpt>
   <trkpt lat="51.323815" lon="14.956715"><ele>164</ele></trkpt>
   <trkpt lat="51.323765" lon="14.956573"><ele>164</ele></trkpt>
   <trkpt lat="51.323719" lon="14.956414"><ele>164</ele></trkpt>
   <trkpt lat="51.32368" lon="14.956237"><ele>164</ele></trkpt>
   <trkpt lat="51.323356" lon="14.954534"><ele>163.75</ele></trkpt>
   <trkpt lat="51.323326" lon="14.954267"><ele>164</ele></trkpt>
   <trkpt lat="51.323314" lon="14.953999"><ele>164</ele></trkpt>
   <trkpt lat="51.323299" lon="14.952603"><ele>164</ele></trkpt>
   <trkpt lat="51.323288" lon="14.952232"><ele>164</ele></trkpt>
   <trkpt lat="51.323265" lon="14.951751"><ele>164</ele></trkpt>
   <trkpt lat="51.323202" lon="14.950984"><ele>164</ele></trkpt>
   <trkpt lat="51.32311" lon="14.950061"><ele>163.75</ele></trkpt>
   <trkpt lat="51.323096" lon="14.94978"><ele>163.75</ele></trkpt>
   <trkpt lat="51.323096" lon="14.949525"><ele>163.75</ele></trkpt>
   <trkpt lat="51.323124" lon="14.948934"><ele>163.75</ele></trkpt>
   <trkpt lat="51.323121" lon="14.948759"><ele>163.75</ele></trkpt>
   <trkpt lat="51.323102" lon="14.948581"><ele>163.75</ele></trkpt>
   <trkpt lat="51.323038" lon="14.948207"><ele>163.75</ele></trkpt>
   <trkpt lat="51.322898" lon="14.947469"><ele>164</ele></trkpt>
   <trkpt lat="51.322807" lon="14.947071"><ele>164.25</ele></trkpt>
   <trkpt lat="51.322741" lon="14.946812"><ele>164.25</ele></trkpt>
   <trkpt lat="51.32262" lon="14.946386"><ele>164</ele></trkpt>
   <trkpt lat="51.322355" lon="14.945568"><ele>164</ele></trkpt>
   <trkpt lat="51.322285" lon="14.94539"><ele>164</ele></trkpt>
   <trkpt lat="51.322238" lon="14.94527"><ele>164</ele></trkpt>
   <trkpt lat="51.321893" lon="14.94449"><ele>164</ele></trkpt>
   <trkpt lat="51.321676" lon="14.943929"><ele>164.75</ele></trkpt>
   <trkpt lat="51.321547" lon="14.943548"><ele>164</ele></trkpt>
   <trkpt lat="51.321234" lon="14.942565"><ele>164</ele></trkpt>
   <trkpt lat="51.321013" lon="14.941897"><ele>164.5</ele></trkpt>
   <trkpt lat="51.320957" lon="14.941794"><ele>164.5</ele></trkpt>
   <trkpt lat="51.320888" lon="14.941697"><ele>164.5</ele></trkpt>
   <trkpt lat="51.320796" lon="14.941609"><ele>164.5</ele></trkpt>
   <trkpt lat="51.320659" lon="14.941517"><ele>164.5</ele></trkpt>
   <trkpt lat="51.320311" lon="14.941351"><ele>164.75</ele></trkpt>
   <trkpt lat="51.319977" lon="14.9412"><ele>164</ele></trkpt>
   <trkpt lat="51.319405" lon="14.940931"><ele>164</ele></trkpt>
   <trkpt lat="51.319137" lon="14.940815"><ele>164.75</ele></trkpt>
   <trkpt lat="51.318984" lon="14.940767"><ele>164.25</ele></trkpt>
   <trkpt lat="51.318857" lon="14.940746"><ele>164</ele></trkpt>
   <trkpt lat="51.318121" lon="14.940683"><ele>164</ele></trkpt>
   <trkpt lat="51.318001" lon="14.940659"><ele>164</ele></trkpt>
   <trkpt lat="51.31789" lon="14.940607"><ele>164.25</ele></trkpt>
   <trkpt lat="51.317803" lon="14.940548"><ele>164.75</ele></trkpt>
   <trkpt lat="51.317719" lon="14.940458"><ele>164.5</ele></trkpt>
   <trkpt lat="51.317646" lon="14.940348"><ele>164</ele></trkpt>
   <trkpt lat="51.317583" lon="14.940215"><ele>164</ele></trkpt>
   <trkpt lat="51.317519" lon="14.940048"><ele>164.75</ele></trkpt>
   <trkpt lat="51.317165" lon="14.939041"><ele>164.25</ele></trkpt>
   <trkpt lat="51.317028" lon="14.938686"><ele>164.5</ele></trkpt>
   <trkpt lat="51.316999" lon="14.938618"><ele>164.75</ele></trkpt>
   <trkpt lat="51.316804" lon="14.938228"><ele>164</ele></trkpt>
   <trkpt lat="51.315038" lon="14.934969"><ele>164.75</ele></trkpt>
   <trkpt lat="51.314976" lon="14.934867"><ele>164.5</ele></trkpt>
   <trkpt lat="51.314872" lon="14.934741"><ele>164.25</ele></trkpt>
   <trkpt lat="51.314771" lon="14.934648"><ele>164.75</ele></trkpt>
   <trkpt lat="51.314674" lon="14.934579"><ele>165</ele></trkpt>
   <trkpt lat="51.314583" lon="14.934545"><ele>165</ele></trkpt>
   <trkpt lat="51.31444" lon="14.934552"><ele>165</ele></trkpt>
   <trkpt lat="51.314313" lon="14.934571"><ele>165</ele></trkpt>
   <trkpt lat="51.313444" lon="14.93483"><ele>165</ele></trkpt>
   <trkpt lat="51.313255" lon="14.934864"><ele>165</ele></trkpt>
   <trkpt lat="51.313136" lon="14.934869"><ele>165</ele></trkpt>
   <trkpt lat="51.313" lon="14.934863"><ele>165</ele></trkpt>
   <trkpt lat="51.312828" lon="14.934829"><ele>165</ele></trkpt>
   <trkpt lat="51.312731" lon="14.934792"><ele>165</ele></trkpt>
   <trkpt lat="51.312612" lon="14.934725"><ele>165.5</ele></trkpt>
   <trkpt lat="51.31249" lon="14.934648"><ele>166</ele></trkpt>
   <trkpt lat="51.312065" lon="14.934349"><ele>166</ele></trkpt>
   <trkpt lat="51.311631" lon="14.93394"><ele>166</ele></trkpt>
   <trkpt lat="51.311386" lon="14.933675"><ele>166</ele></trkpt>
   <trkpt lat="51.311096" lon="14.933298"><ele>166</ele></trkpt>
   <trkpt lat="51.310956" lon="14.933065"><ele>166</ele></trkpt>
   <trkpt lat="51.31082" lon="14.932808"><ele>166</ele></trkpt>
   <trkpt lat="51.309695" lon="14.930586"><ele>166</ele></trkpt>
   <trkpt lat="51.30858" lon="14.928319"><ele>165.75</ele></trkpt>
   <trkpt lat="51.30842" lon="14.92807"><ele>165.5</ele></trkpt>
   <trkpt lat="51.307009" lon="14.926227"><ele>164.5</ele></trkpt>
   <trkpt lat="51.306843" lon="14.926015"><ele>164.5</ele></trkpt>
   <trkpt lat="51.305931" lon="14.924858"><ele>165</ele></trkpt>
   <trkpt lat="51.304855" lon="14.923458"><ele>165</ele></trkpt>
   <trkpt lat="51.304493" lon="14.92298"><ele>164</ele></trkpt>
   <trkpt lat="51.304209" lon="14.922607"><ele>164</ele></trkpt>
   <trkpt lat="51.304019" lon="14.922306"><ele>164</ele></trkpt>
   <trkpt lat="51.303856" lon="14.921974"><ele>164</ele></trkpt>
   <trkpt lat="51.303674" lon="14.92148"><ele>164</ele></trkpt>
   <trkpt lat="51.303556" lon="14.920929"><ele>164</ele></trkpt>
   <trkpt lat="51.303521" lon="14.920728"><ele>164</ele></trkpt>
   <trkpt lat="51.303483" lon="14.920261"><ele>164</ele></trkpt>
   <trkpt lat="51.303472" lon="14.919891"><ele>164</ele></trkpt>
   <trkpt lat="51.303498" lon="14.919466"><ele>164</ele></trkpt>
   <trkpt lat="51.30356" lon="14.918984"><ele>164</ele></trkpt>
   <trkpt lat="51.303646" lon="14.918672"><ele>164</ele></trkpt>
   <trkpt lat="51.303703" lon="14.918469"><ele>163.75</ele></trkpt>
   <trkpt lat="51.303828" lon="14.918095"><ele>163.75</ele></trkpt>
   <trkpt lat="51.304004" lon="14.917632"><ele>164</ele></trkpt>
   <trkpt lat="51.304308" lon="14.917028"><ele>164</ele></trkpt>
   <trkpt lat="51.304523" lon="14.916579"><ele>164</ele></trkpt>
   <trkpt lat="51.304756" lon="14.915947"><ele>164</ele></trkpt>
   <trkpt lat="51.304848" lon="14.915572"><ele>163.25</ele></trkpt>
   <trkpt lat="51.304891" lon="14.915331"><ele>163.5</ele></trkpt>
   <trkpt lat="51.304921" lon="14.915093"><ele>163.5</ele></trkpt>
   <trkpt lat="51.304952" lon="14.91463"><ele>163.75</ele></trkpt>
   <trkpt lat="51.304951" lon="14.914364"><ele>163.75</ele></trkpt>
   <trkpt lat="51.304942" lon="14.91409"><ele>164</ele></trkpt>
   <trkpt lat="51.304905" lon="14.913714"><ele>164.75</ele></trkpt>
   <trkpt lat="51.304459" lon="14.910128"><ele>164.5</ele></trkpt>
   <trkpt lat="51.304379" lon="14.909484"><ele>164.75</ele></trkpt>
   <trkpt lat="51.303757" lon="14.904481"><ele>166.5</ele></trkpt>
   <trkpt lat="51.303605" lon="14.903403"><ele>164</ele></trkpt>
   <trkpt lat="51.303568" lon="14.903238"><ele>164</ele></trkpt>
   <trkpt lat="51.303529" lon="14.903143"><ele>164</ele></trkpt>
   <trkpt lat="51.303591" lon="14.903063"><ele>164</ele></trkpt>
   <trkpt lat="51.303643" lon="14.903038"><ele>164.25</ele></trkpt>
   <trkpt lat="51.303979" lon="14.902924"><ele>165.25</ele></trkpt>
   <trkpt lat="51.304145" lon="14.902876"><ele>164</ele></trkpt>
   <trkpt lat="51.304205" lon="14.902859"><ele>164</ele></trkpt>
   <trkpt lat="51.304241" lon="14.902849"><ele>164</ele></trkpt>
   <trkpt lat="51.304223" lon="14.902768"><ele>164</ele></trkpt>
   <trkpt lat="51.304214" lon="14.902751"><ele>164</ele></trkpt>
   <trkpt lat="51.304111" lon="14.902658"><ele>164.5</ele></trkpt>
   <trkpt lat="51.304109" lon="14.902657"><ele>164.75</ele></trkpt>
  </trkseg>
 </trk>
</gpx>