<?xml version="1.0" encoding="UTF-8"?>
<!-- track-length = 24724 filtered ascend = 42 plain-ascend = 13 cost=33610 energy=2.9kwh time=30m 55s -->
<gpx 
 xmlns="http://www.topografix.com/GPX/1/1" 
 xmlns:xsi="http://www.w3.org/2001/XMLSchema-instance" 
 xsi:schemaLocation="http://www.topografix.com/GPX/1/1 http://www.topografix.com/GPX/1/1/gpx.xsd" 
 version="1.1" 
 creator="BRouter-Web 0.18.1">
 <trk>
  <name>VBN Bus 123 Bassum Bahnhof - Sulingen ZOB</name>
  <trkseg>
   <trkpt lat="52.847426" lon="8.739151"><ele>43.75</ele></trkpt>
   <trkpt lat="52.847371" lon="8.739062"><ele>44</ele></trkpt>
   <trkpt lat="52.847214" lon="8.738823"><ele>44</ele></trkpt>
   <trkpt lat="52.847142" lon="8.738698"><ele>44</ele></trkpt>
   <trkpt lat="52.847099" lon="8.738558"><ele>44</ele></trkpt>
   <trkpt lat="52.847082" lon="8.738447"><ele>44.5</ele></trkpt>
   <trkpt lat="52.847067" lon="8.738211"><ele>45</ele></trkpt>
   <trkpt lat="52.84705" lon="8.738153"><ele>45</ele></trkpt>
   <trkpt lat="52.847024" lon="8.738106"><ele>45</ele></trkpt>
   <trkpt lat="52.846994" lon="8.738076"><ele>45</ele></trkpt>
   <trkpt lat="52.846934" lon="8.738048"><ele>45</ele></trkpt>
   <trkpt lat="52.846885" lon="8.738292"><ele>45</ele></trkpt>
   <trkpt lat="52.846854" lon="8.738405"><ele>44.5</ele></trkpt>
   <trkpt lat="52.846768" lon="8.73862"><ele>44</ele></trkpt>
   <trkpt lat="52.846683" lon="8.738823"><ele>44</ele></trkpt>
   <trkpt lat="52.846593" lon="8.739064"><ele>43.25</ele></trkpt>
   <trkpt lat="52.846554" lon="8.739272"><ele>43</ele></trkpt>
   <trkpt lat="52.846537" lon="8.73944"><ele>43</ele></trkpt>
   <trkpt lat="52.84654" lon="8.73959"><ele>43</ele></trkpt>
   <trkpt lat="52.846555" lon="8.739813"><ele>42.75</ele></trkpt>
   <trkpt lat="52.846606" lon="8.740074"><ele>42.75</ele></trkpt>
   <trkpt lat="52.846634" lon="8.740201"><ele>42.75</ele></trkpt>
   <trkpt lat="52.846651" lon="8.740336"><ele>42.75</ele></trkpt>
   <trkpt lat="52.846641" lon="8.740635"><ele>42.75</ele></trkpt>
   <trkpt lat="52.846456" lon="8.740614"><ele>42</ele></trkpt>
   <trkpt lat="52.846229" lon="8.740614"><ele>42</ele></trkpt>
   <trkpt lat="52.846145" lon="8.740638"><ele>42</ele></trkpt>
   <trkpt lat="52.846044" lon="8.740693"><ele>42</ele></trkpt>
   <trkpt lat="52.845798" lon="8.740862"><ele>41.75</ele></trkpt>
   <trkpt lat="52.845695" lon="8.740901"><ele>41.25</ele></trkpt>
   <trkpt lat="52.845591" lon="8.740915"><ele>41</ele></trkpt>
   <trkpt lat="52.845444" lon="8.740893"><ele>40.75</ele></trkpt>
   <trkpt lat="52.845364" lon="8.740861"><ele>40.75</ele></trkpt>
   <trkpt lat="52.845279" lon="8.74081"><ele>41</ele></trkpt>
   <trkpt lat="52.845173" lon="8.740703"><ele>41</ele></trkpt>
   <trkpt lat="52.845089" lon="8.740591"><ele>41</ele></trkpt>
   <trkpt lat="52.844856" lon="8.740225"><ele>41</ele></trkpt>
   <trkpt lat="52.843225" lon="8.737591"><ele>45</ele></trkpt>
   <trkpt lat="52.842876" lon="8.737038"><ele>45</ele></trkpt>
   <trkpt lat="52.8428" lon="8.736937"><ele>45</ele></trkpt>
   <trkpt lat="52.842711" lon="8.736856"><ele>45</ele></trkpt>
   <trkpt lat="52.842641" lon="8.736813"><ele>45</ele></trkpt>
   <trkpt lat="52.842561" lon="8.736787"><ele>45</ele></trkpt>
   <trkpt lat="52.842562" lon="8.736621"><ele>45</ele></trkpt>
   <trkpt lat="52.84255" lon="8.736303"><ele>45</ele></trkpt>
   <trkpt lat="52.842571" lon="8.736164"><ele>45</ele></trkpt>
   <trkpt lat="52.84264" lon="8.735978"><ele>45</ele></trkpt>
   <trkpt lat="52.842707" lon="8.735826"><ele>45</ele></trkpt>
   <trkpt lat="52.842778" lon="8.735672"><ele>44.75</ele></trkpt>
   <trkpt lat="52.842803" lon="8.735565"><ele>45</ele></trkpt>
   <trkpt lat="52.842794" lon="8.735469"><ele>44.75</ele></trkpt>
   <trkpt lat="52.842747" lon="8.735351"><ele>45</ele></trkpt>
   <trkpt lat="52.841907" lon="8.734006"><ele>42</ele></trkpt>
   <trkpt lat="52.841306" lon="8.733041"><ele>42</ele></trkpt>
   <trkpt lat="52.841252" lon="8.732959"><ele>42</ele></trkpt>
   <trkpt lat="52.841195" lon="8.732925"><ele>42</ele></trkpt>
   <trkpt lat="52.841144" lon="8.732914"><ele>42</ele></trkpt>
   <trkpt lat="52.841085" lon="8.732957"><ele>42</ele></trkpt>
   <trkpt lat="52.840427" lon="8.733778"><ele>42.5</ele></trkpt>
   <trkpt lat="52.839733" lon="8.734637"><ele>43</ele></trkpt>
   <trkpt lat="52.839631" lon="8.734727"><ele>43</ele></trkpt>
   <trkpt lat="52.839419" lon="8.734879"><ele>43</ele></trkpt>
   <trkpt lat="52.83914" lon="8.734973"><ele>42.75</ele></trkpt>
   <trkpt lat="52.838998" lon="8.735005"><ele>42.5</ele></trkpt>
   <trkpt lat="52.838812" lon="8.735015"><ele>42.25</ele></trkpt>
   <trkpt lat="52.838459" lon="8.734958"><ele>41.75</ele></trkpt>
   <trkpt lat="52.83838" lon="8.734933"><ele>41.75</ele></trkpt>
   <trkpt lat="52.837535" lon="8.734682"><ele>39.75</ele></trkpt>
   <trkpt lat="52.837186" lon="8.734592"><ele>38.25</ele></trkpt>
   <trkpt lat="52.836905" lon="8.734581"><ele>37.25</ele></trkpt>
   <trkpt lat="52.836506" lon="8.734601"><ele>35.75</ele></trkpt>
   <trkpt lat="52.836335" lon="8.734564"><ele>35.25</ele></trkpt>
   <trkpt lat="52.836139" lon="8.734441"><ele>34.75</ele></trkpt>
   <trkpt lat="52.836024" lon="8.734297"><ele>34.25</ele></trkpt>
   <trkpt lat="52.83598" lon="8.734218"><ele>34</ele></trkpt>
   <trkpt lat="52.835899" lon="8.734083"><ele>33.75</ele></trkpt>
   <trkpt lat="52.835535" lon="8.734561"><ele>33.75</ele></trkpt>
   <trkpt lat="52.835513" lon="8.73459"><ele>33.75</ele></trkpt>
   <trkpt lat="52.835374" lon="8.734771"><ele>33.25</ele></trkpt>
   <trkpt lat="52.835146" lon="8.735016"><ele>33</ele></trkpt>
   <trkpt lat="52.834962" lon="8.735175"><ele>32.75</ele></trkpt>
   <trkpt lat="52.834843" lon="8.735245"><ele>32.25</ele></trkpt>
   <trkpt lat="52.834697" lon="8.735327"><ele>32</ele></trkpt>
   <trkpt lat="52.83428" lon="8.735534"><ele>32</ele></trkpt>
   <trkpt lat="52.833977" lon="8.735676"><ele>31.5</ele></trkpt>
   <trkpt lat="52.832852" lon="8.736228"><ele>32.25</ele></trkpt>
   <trkpt lat="52.832751" lon="8.736276"><ele>32.5</ele></trkpt>
   <trkpt lat="52.832578" lon="8.736357"><ele>32.75</ele></trkpt>
   <trkpt lat="52.831677" lon="8.736792"><ele>34</ele></trkpt>
   <trkpt lat="52.83079" lon="8.737219"><ele>37</ele></trkpt>
   <trkpt lat="52.829694" lon="8.737748"><ele>40</ele></trkpt>
   <trkpt lat="52.829381" lon="8.737901"><ele>41.5</ele></trkpt>
   <trkpt lat="52.829264" lon="8.737956"><ele>41.75</ele></trkpt>
   <trkpt lat="52.828126" lon="8.738505"><ele>42</ele></trkpt>
   <trkpt lat="52.828057" lon="8.738544"><ele>42</ele></trkpt>
   <trkpt lat="52.827627" lon="8.738742"><ele>42</ele></trkpt>
   <trkpt lat="52.827076" lon="8.739009"><ele>42.25</ele></trkpt>
   <trkpt lat="52.826565" lon="8.739257"><ele>43</ele></trkpt>
   <trkpt lat="52.826076" lon="8.739494"><ele>44.25</ele></trkpt>
   <trkpt lat="52.825653" lon="8.7397"><ele>45.5</ele></trkpt>
   <trkpt lat="52.825154" lon="8.739943"><ele>46</ele></trkpt>
   <trkpt lat="52.824472" lon="8.740276"><ele>46.75</ele></trkpt>
   <trkpt lat="52.824001" lon="8.740505"><ele>47</ele></trkpt>
   <trkpt lat="52.823371" lon="8.740812"><ele>47</ele></trkpt>
   <trkpt lat="52.822641" lon="8.741167"><ele>45.5</ele></trkpt>
   <trkpt lat="52.821783" lon="8.741574"><ele>45</ele></trkpt>
   <trkpt lat="52.82153" lon="8.741697"><ele>44.75</ele></trkpt>
   <trkpt lat="52.821366" lon="8.741757"><ele>45</ele></trkpt>
   <trkpt lat="52.820642" lon="8.742006"><ele>46.5</ele></trkpt>
   <trkpt lat="52.819385" lon="8.742435"><ele>48</ele></trkpt>
   <trkpt lat="52.817426" lon="8.743104"><ele>49</ele></trkpt>
   <trkpt lat="52.816359" lon="8.743465"><ele>50.25</ele></trkpt>
   <trkpt lat="52.81625" lon="8.743503"><ele>50.5</ele></trkpt>
   <trkpt lat="52.815931" lon="8.743612"><ele>51</ele></trkpt>
   <trkpt lat="52.815163" lon="8.743877"><ele>51.75</ele></trkpt>
   <trkpt lat="52.813852" lon="8.744324"><ele>52.5</ele></trkpt>
   <trkpt lat="52.812697" lon="8.74472"><ele>53</ele></trkpt>
   <trkpt lat="52.810624" lon="8.745421"><ele>53</ele></trkpt>
   <trkpt lat="52.810061" lon="8.745634"><ele>53</ele></trkpt>
   <trkpt lat="52.809611" lon="8.745882"><ele>53</ele></trkpt>
   <trkpt lat="52.809288" lon="8.7461"><ele>53</ele></trkpt>
   <trkpt lat="52.80891" lon="8.746401"><ele>53.75</ele></trkpt>
   <trkpt lat="52.808533" lon="8.746722"><ele>55</ele></trkpt>
   <trkpt lat="52.80807" lon="8.747093"><ele>55</ele></trkpt>
   <trkpt lat="52.807897" lon="8.747225"><ele>55</ele></trkpt>
   <trkpt lat="52.807464" lon="8.747491"><ele>55</ele></trkpt>
   <trkpt lat="52.807143" lon="8.747667"><ele>55.5</ele></trkpt>
   <trkpt lat="52.806936" lon="8.747785"><ele>56</ele></trkpt>
   <trkpt lat="52.806579" lon="8.747989"><ele>56</ele></trkpt>
   <trkpt lat="52.80591" lon="8.748357"><ele>56</ele></trkpt>
   <trkpt lat="52.805468" lon="8.748605"><ele>56</ele></trkpt>
   <trkpt lat="52.805208" lon="8.748751"><ele>56</ele></trkpt>
   <trkpt lat="52.804984" lon="8.748877"><ele>56</ele></trkpt>
   <trkpt lat="52.804722" lon="8.749023"><ele>56</ele></trkpt>
   <trkpt lat="52.804436" lon="8.749183"><ele>56</ele></trkpt>
   <trkpt lat="52.8041" lon="8.749372"><ele>56</ele></trkpt>
   <trkpt lat="52.804018" lon="8.749418"><ele>56</ele></trkpt>
   <trkpt lat="52.803441" lon="8.749737"><ele>56.75</ele></trkpt>
   <trkpt lat="52.803172" lon="8.749886"><ele>57</ele></trkpt>
   <trkpt lat="52.802001" lon="8.750535"><ele>57</ele></trkpt>
   <trkpt lat="52.801488" lon="8.75079"><ele>57</ele></trkpt>
   <trkpt lat="52.801055" lon="8.750987"><ele>57</ele></trkpt>
   <trkpt lat="52.800781" lon="8.751113"><ele>57</ele></trkpt>
   <trkpt lat="52.800419" lon="8.751255"><ele>57</ele></trkpt>
   <trkpt lat="52.799795" lon="8.751473"><ele>57</ele></trkpt>
   <trkpt lat="52.799431" lon="8.751581"><ele>57</ele></trkpt>
   <trkpt lat="52.799065" lon="8.751676"><ele>57</ele></trkpt>
   <trkpt lat="52.798613" lon="8.751783"><ele>57</ele></trkpt>
   <trkpt lat="52.798159" lon="8.751872"><ele>57</ele></trkpt>
   <trkpt lat="52.797508" lon="8.751958"><ele>57</ele></trkpt>
   <trkpt lat="52.796943" lon="8.752001"><ele>57</ele></trkpt>
   <trkpt lat="52.796649" lon="8.752009"><ele>57</ele></trkpt>
   <trkpt lat="52.795987" lon="8.752001"><ele>57</ele></trkpt>
   <trkpt lat="52.795649" lon="8.751986"><ele>57</ele></trkpt>
   <trkpt lat="52.795316" lon="8.751948"><ele>57</ele></trkpt>
   <trkpt lat="52.795191" lon="8.751932"><ele>57</ele></trkpt>
   <trkpt lat="52.794764" lon="8.751865"><ele>57</ele></trkpt>
   <trkpt lat="52.794213" lon="8.751785"><ele>57</ele></trkpt>
   <trkpt lat="52.793872" lon="8.751722"><ele>57</ele></trkpt>
   <trkpt lat="52.793325" lon="8.751595"><ele>57</ele></trkpt>
   <trkpt lat="52.792743" lon="8.751445"><ele>57</ele></trkpt>
   <trkpt lat="52.790908" lon="8.75098"><ele>57</ele></trkpt>
   <trkpt lat="52.789941" lon="8.7508"><ele>56.75</ele></trkpt>
   <trkpt lat="52.789548" lon="8.750754"><ele>57</ele></trkpt>
   <trkpt lat="52.789254" lon="8.750732"><ele>57</ele></trkpt>
   <trkpt lat="52.789033" lon="8.75072"><ele>57</ele></trkpt>
   <trkpt lat="52.788793" lon="8.750706"><ele>56.75</ele></trkpt>
   <trkpt lat="52.788409" lon="8.750696"><ele>56.5</ele></trkpt>
   <trkpt lat="52.787468" lon="8.750703"><ele>57</ele></trkpt>
   <trkpt lat="52.786832" lon="8.750713"><ele>57</ele></trkpt>
   <trkpt lat="52.786598" lon="8.750698"><ele>57.5</ele></trkpt>
   <trkpt lat="52.786389" lon="8.750651"><ele>57.25</ele></trkpt>
   <trkpt lat="52.786144" lon="8.750564"><ele>57</ele></trkpt>
   <trkpt lat="52.785901" lon="8.750426"><ele>57</ele></trkpt>
   <trkpt lat="52.7858" lon="8.750369"><ele>57</ele></trkpt>
   <trkpt lat="52.785622" lon="8.750284"><ele>57</ele></trkpt>
   <trkpt lat="52.785425" lon="8.750206"><ele>57</ele></trkpt>
   <trkpt lat="52.785246" lon="8.750169"><ele>57</ele></trkpt>
   <trkpt lat="52.78508" lon="8.750152"><ele>56.75</ele></trkpt>
   <trkpt lat="52.784902" lon="8.750166"><ele>57</ele></trkpt>
   <trkpt lat="52.78471" lon="8.750192"><ele>57</ele></trkpt>
   <trkpt lat="52.784537" lon="8.750257"><ele>57</ele></trkpt>
   <trkpt lat="52.784104" lon="8.750452"><ele>57</ele></trkpt>
   <trkpt lat="52.782777" lon="8.751136"><ele>59</ele></trkpt>
   <trkpt lat="52.780191" lon="8.752443"><ele>60</ele></trkpt>
   <trkpt lat="52.779581" lon="8.752753"><ele>60</ele></trkpt>
   <trkpt lat="52.779058" lon="8.753019"><ele>60</ele></trkpt>
   <trkpt lat="52.778493" lon="8.753314"><ele>60</ele></trkpt>
   <trkpt lat="52.778307" lon="8.753404"><ele>60</ele></trkpt>
   <trkpt lat="52.778258" lon="8.753429"><ele>60</ele></trkpt>
   <trkpt lat="52.77796" lon="8.753536"><ele>60</ele></trkpt>
   <trkpt lat="52.777852" lon="8.753573"><ele>60</ele></trkpt>
   <trkpt lat="52.777699" lon="8.753619"><ele>60</ele></trkpt>
   <trkpt lat="52.777465" lon="8.75367"><ele>60</ele></trkpt>
   <trkpt lat="52.777199" lon="8.753708"><ele>60</ele></trkpt>
   <trkpt lat="52.77651" lon="8.75377"><ele>60</ele></trkpt>
   <trkpt lat="52.776395" lon="8.753784"><ele>60</ele></trkpt>
   <trkpt lat="52.776259" lon="8.753806"><ele>60</ele></trkpt>
   <trkpt lat="52.776" lon="8.753868"><ele>60</ele></trkpt>
   <trkpt lat="52.775913" lon="8.7539"><ele>60</ele></trkpt>
   <trkpt lat="52.775817" lon="8.75394"><ele>60</ele></trkpt>
   <trkpt lat="52.775574" lon="8.754095"><ele>60</ele></trkpt>
   <trkpt lat="52.77542" lon="8.754215"><ele>60</ele></trkpt>
   <trkpt lat="52.775265" lon="8.754374"><ele>60</ele></trkpt>
   <trkpt lat="52.775063" lon="8.75461"><ele>60</ele></trkpt>
   <trkpt lat="52.774885" lon="8.754875"><ele>60</ele></trkpt>
   <trkpt lat="52.774684" lon="8.755157"><ele>60</ele></trkpt>
   <trkpt lat="52.774606" lon="8.755282"><ele>60</ele></trkpt>
   <trkpt lat="52.774411" lon="8.755532"><ele>60</ele></trkpt>
   <trkpt lat="52.774169" lon="8.755801"><ele>60</ele></trkpt>
   <trkpt lat="52.773965" lon="8.755993"><ele>60</ele></trkpt>
   <trkpt lat="52.773547" lon="8.756335"><ele>60</ele></trkpt>
   <trkpt lat="52.773135" lon="8.756666"><ele>60</ele></trkpt>
   <trkpt lat="52.772397" lon="8.757263"><ele>60</ele></trkpt>
   <trkpt lat="52.772195" lon="8.757427"><ele>60</ele></trkpt>
   <trkpt lat="52.771358" lon="8.758113"><ele>59.75</ele></trkpt>
   <trkpt lat="52.770396" lon="8.758923"><ele>59</ele></trkpt>
   <trkpt lat="52.769377" lon="8.759788"><ele>59</ele></trkpt>
   <trkpt lat="52.76879" lon="8.760289"><ele>59.25</ele></trkpt>
   <trkpt lat="52.768174" lon="8.760793"><ele>59</ele></trkpt>
   <trkpt lat="52.767722" lon="8.761109"><ele>59</ele></trkpt>
   <trkpt lat="52.767498" lon="8.761248"><ele>59</ele></trkpt>
   <trkpt lat="52.767267" lon="8.761369"><ele>59</ele></trkpt>
   <trkpt lat="52.767063" lon="8.761465"><ele>59</ele></trkpt>
   <trkpt lat="52.766855" lon="8.761548"><ele>59</ele></trkpt>
   <trkpt lat="52.76666" lon="8.761613"><ele>59</ele></trkpt>
   <trkpt lat="52.766469" lon="8.761662"><ele>59</ele></trkpt>
   <trkpt lat="52.766276" lon="8.7617"><ele>59</ele></trkpt>
   <trkpt lat="52.76593" lon="8.761768"><ele>59</ele></trkpt>
   <trkpt lat="52.765568" lon="8.761806"><ele>58.75</ele></trkpt>
   <trkpt lat="52.765197" lon="8.761807"><ele>58.5</ele></trkpt>
   <trkpt lat="52.764645" lon="8.761797"><ele>58.25</ele></trkpt>
   <trkpt lat="52.763795" lon="8.761773"><ele>60</ele></trkpt>
   <trkpt lat="52.762981" lon="8.761737"><ele>60</ele></trkpt>
   <trkpt lat="52.76218" lon="8.761707"><ele>59.5</ele></trkpt>
   <trkpt lat="52.761656" lon="8.761713"><ele>59</ele></trkpt>
   <trkpt lat="52.761369" lon="8.761742"><ele>59</ele></trkpt>
   <trkpt lat="52.761089" lon="8.761797"><ele>59</ele></trkpt>
   <trkpt lat="52.760878" lon="8.761858"><ele>59</ele></trkpt>
   <trkpt lat="52.760622" lon="8.761961"><ele>58.75</ele></trkpt>
   <trkpt lat="52.760379" lon="8.762085"><ele>58</ele></trkpt>
   <trkpt lat="52.760138" lon="8.762225"><ele>58</ele></trkpt>
   <trkpt lat="52.759681" lon="8.762568"><ele>57.75</ele></trkpt>
   <trkpt lat="52.759266" lon="8.762953"><ele>57</ele></trkpt>
   <trkpt lat="52.758718" lon="8.763508"><ele>56</ele></trkpt>
   <trkpt lat="52.758201" lon="8.764004"><ele>55.75</ele></trkpt>
   <trkpt lat="52.757978" lon="8.764208"><ele>55.75</ele></trkpt>
   <trkpt lat="52.75775" lon="8.764389"><ele>55.25</ele></trkpt>
   <trkpt lat="52.757522" lon="8.764555"><ele>55.5</ele></trkpt>
   <trkpt lat="52.757362" lon="8.764654"><ele>55.5</ele></trkpt>
   <trkpt lat="52.757109" lon="8.764789"><ele>55.75</ele></trkpt>
   <trkpt lat="52.756854" lon="8.764903"><ele>55.5</ele></trkpt>
   <trkpt lat="52.756662" lon="8.764968"><ele>56</ele></trkpt>
   <trkpt lat="52.756467" lon="8.765018"><ele>55.75</ele></trkpt>
   <trkpt lat="52.756141" lon="8.76508"><ele>55.75</ele></trkpt>
   <trkpt lat="52.75571" lon="8.765128"><ele>56</ele></trkpt>
   <trkpt lat="52.755349" lon="8.765148"><ele>56</ele></trkpt>
   <trkpt lat="52.754895" lon="8.76517"><ele>56</ele></trkpt>
   <trkpt lat="52.75464" lon="8.765181"><ele>56.25</ele></trkpt>
   <trkpt lat="52.754023" lon="8.765206"><ele>56.25</ele></trkpt>
   <trkpt lat="52.753756" lon="8.765219"><ele>56</ele></trkpt>
   <trkpt lat="52.752915" lon="8.765259"><ele>57</ele></trkpt>
   <trkpt lat="52.752607" lon="8.765273"><ele>56.75</ele></trkpt>
   <trkpt lat="52.752523" lon="8.765276"><ele>57</ele></trkpt>
   <trkpt lat="52.752281" lon="8.765286"><ele>57</ele></trkpt>
   <trkpt lat="52.75107" lon="8.76534"><ele>57.5</ele></trkpt>
   <trkpt lat="52.750485" lon="8.765364"><ele>57</ele></trkpt>
   <trkpt lat="52.749902" lon="8.765411"><ele>57</ele></trkpt>
   <trkpt lat="52.749629" lon="8.765448"><ele>57</ele></trkpt>
   <trkpt lat="52.749356" lon="8.765505"><ele>57</ele></trkpt>
   <trkpt lat="52.749029" lon="8.765602"><ele>56.75</ele></trkpt>
   <trkpt lat="52.748862" lon="8.76566"><ele>56.5</ele></trkpt>
   <trkpt lat="52.748476" lon="8.765815"><ele>56</ele></trkpt>
   <trkpt lat="52.74732" lon="8.766348"><ele>56</ele></trkpt>
   <trkpt lat="52.747088" lon="8.766436"><ele>55.25</ele></trkpt>
   <trkpt lat="52.746647" lon="8.766579"><ele>55</ele></trkpt>
   <trkpt lat="52.746509" lon="8.766615"><ele>55</ele></trkpt>
   <trkpt lat="52.746317" lon="8.766648"><ele>55</ele></trkpt>
   <trkpt lat="52.746048" lon="8.766675"><ele>55</ele></trkpt>
   <trkpt lat="52.745946" lon="8.766674"><ele>55</ele></trkpt>
   <trkpt lat="52.745589" lon="8.766661"><ele>55</ele></trkpt>
   <trkpt lat="52.745355" lon="8.766631"><ele>55</ele></trkpt>
   <trkpt lat="52.744609" lon="8.766486"><ele>55</ele></trkpt>
   <trkpt lat="52.744236" lon="8.766442"><ele>55</ele></trkpt>
   <trkpt lat="52.744" lon="8.766441"><ele>55</ele></trkpt>
   <trkpt lat="52.74392" lon="8.76644"><ele>55</ele></trkpt>
   <trkpt lat="52.743473" lon="8.766465"><ele>55</ele></trkpt>
   <trkpt lat="52.74306" lon="8.766513"><ele>55</ele></trkpt>
   <trkpt lat="52.742932" lon="8.766526"><ele>55</ele></trkpt>
   <trkpt lat="52.742511" lon="8.766572"><ele>55</ele></trkpt>
   <trkpt lat="52.742353" lon="8.766581"><ele>55</ele></trkpt>
   <trkpt lat="52.742269" lon="8.766586"><ele>55</ele></trkpt>
   <trkpt lat="52.74189" lon="8.766595"><ele>55</ele></trkpt>
   <trkpt lat="52.741599" lon="8.76658"><ele>55.25</ele></trkpt>
   <trkpt lat="52.74122" lon="8.766517"><ele>55.5</ele></trkpt>
   <trkpt lat="52.740965" lon="8.766445"><ele>55.75</ele></trkpt>
   <trkpt lat="52.740634" lon="8.766329"><ele>56</ele></trkpt>
   <trkpt lat="52.740197" lon="8.766136"><ele>56</ele></trkpt>
   <trkpt lat="52.739549" lon="8.765829"><ele>57</ele></trkpt>
   <trkpt lat="52.738176" lon="8.765156"><ele>57.25</ele></trkpt>
   <trkpt lat="52.737522" lon="8.764829"><ele>57.75</ele></trkpt>
   <trkpt lat="52.737454" lon="8.764796"><ele>58</ele></trkpt>
   <trkpt lat="52.737412" lon="8.764776"><ele>58</ele></trkpt>
   <trkpt lat="52.736997" lon="8.76457"><ele>58</ele></trkpt>
   <trkpt lat="52.736895" lon="8.764512"><ele>58</ele></trkpt>
   <trkpt lat="52.73684" lon="8.764793"><ele>57.75</ele></trkpt>
   <trkpt lat="52.736922" lon="8.765063"><ele>57.75</ele></trkpt>
   <trkpt lat="52.736945" lon="8.765192"><ele>58</ele></trkpt>
   <trkpt lat="52.737045" lon="8.765726"><ele>58</ele></trkpt>
   <trkpt lat="52.737316" lon="8.767136"><ele>57.75</ele></trkpt>
   <trkpt lat="52.737413" lon="8.767845"><ele>57</ele></trkpt>
   <trkpt lat="52.737521" lon="8.768776"><ele>56.75</ele></trkpt>
   <trkpt lat="52.73757" lon="8.769115"><ele>56.75</ele></trkpt>
   <trkpt lat="52.73774" lon="8.769995"><ele>56</ele></trkpt>
   <trkpt lat="52.737823" lon="8.770384"><ele>55</ele></trkpt>
   <trkpt lat="52.737897" lon="8.770683"><ele>55</ele></trkpt>
   <trkpt lat="52.737989" lon="8.770946"><ele>54.5</ele></trkpt>
   <trkpt lat="52.738087" lon="8.771143"><ele>53.75</ele></trkpt>
   <trkpt lat="52.73817" lon="8.771277"><ele>53.75</ele></trkpt>
   <trkpt lat="52.738249" lon="8.771388"><ele>53.25</ele></trkpt>
   <trkpt lat="52.738699" lon="8.771899"><ele>52</ele></trkpt>
   <trkpt lat="52.73871" lon="8.771913"><ele>52</ele></trkpt>
   <trkpt lat="52.738811" lon="8.772068"><ele>52</ele></trkpt>
   <trkpt lat="52.738884" lon="8.772207"><ele>52</ele></trkpt>
   <trkpt lat="52.738998" lon="8.772478"><ele>52</ele></trkpt>
   <trkpt lat="52.739058" lon="8.772651"><ele>52</ele></trkpt>
   <trkpt lat="52.739127" lon="8.772924"><ele>52</ele></trkpt>
   <trkpt lat="52.73916" lon="8.773114"><ele>52</ele></trkpt>
   <trkpt lat="52.739191" lon="8.773348"><ele>51.75</ele></trkpt>
   <trkpt lat="52.7392" lon="8.773576"><ele>52</ele></trkpt>
   <trkpt lat="52.7392" lon="8.773813"><ele>52</ele></trkpt>
   <trkpt lat="52.739184" lon="8.774093"><ele>52</ele></trkpt>
   <trkpt lat="52.739139" lon="8.77443"><ele>52.75</ele></trkpt>
   <trkpt lat="52.738962" lon="8.775517"><ele>54</ele></trkpt>
   <trkpt lat="52.738905" lon="8.775919"><ele>54</ele></trkpt>
   <trkpt lat="52.73886" lon="8.776236"><ele>54.25</ele></trkpt>
   <trkpt lat="52.738822" lon="8.776525"><ele>54.75</ele></trkpt>
   <trkpt lat="52.738578" lon="8.778265"><ele>55</ele></trkpt>
   <trkpt lat="52.738314" lon="8.780208"><ele>54.75</ele></trkpt>
   <trkpt lat="52.738026" lon="8.782238"><ele>54</ele></trkpt>
   <trkpt lat="52.737611" lon="8.785171"><ele>55.5</ele></trkpt>
   <trkpt lat="52.737607" lon="8.785477"><ele>56</ele></trkpt>
   <trkpt lat="52.737617" lon="8.785679"><ele>56</ele></trkpt>
   <trkpt lat="52.737641" lon="8.785864"><ele>56</ele></trkpt>
   <trkpt lat="52.737931" lon="8.787586"><ele>57</ele></trkpt>
   <trkpt lat="52.738163" lon="8.788922"><ele>57.25</ele></trkpt>
   <trkpt lat="52.738769" lon="8.792469"><ele>56</ele></trkpt>
   <trkpt lat="52.739592" lon="8.797257"><ele>58</ele></trkpt>
   <trkpt lat="52.740201" lon="8.800814"><ele>58</ele></trkpt>
   <trkpt lat="52.740237" lon="8.801114"><ele>57.75</ele></trkpt>
   <trkpt lat="52.740248" lon="8.80128"><ele>57.25</ele></trkpt>
   <trkpt lat="52.740253" lon="8.801458"><ele>57</ele></trkpt>
   <trkpt lat="52.740239" lon="8.801682"><ele>57</ele></trkpt>
   <trkpt lat="52.739806" lon="8.805038"><ele>56</ele></trkpt>
   <trkpt lat="52.739461" lon="8.807501"><ele>56</ele></trkpt>
   <trkpt lat="52.739386" lon="8.808031"><ele>56</ele></trkpt>
   <trkpt lat="52.739327" lon="8.808249"><ele>56</ele></trkpt>
   <trkpt lat="52.739258" lon="8.808447"><ele>56.25</ele></trkpt>
   <trkpt lat="52.739123" lon="8.808722"><ele>57</ele></trkpt>
   <trkpt lat="52.738754" lon="8.809292"><ele>57</ele></trkpt>
   <trkpt lat="52.738643" lon="8.809552"><ele>57</ele></trkpt>
   <trkpt lat="52.738586" lon="8.809729"><ele>57</ele></trkpt>
   <trkpt lat="52.738535" lon="8.809992"><ele>57.25</ele></trkpt>
   <trkpt lat="52.738234" lon="8.812603"><ele>58</ele></trkpt>
   <trkpt lat="52.737962" lon="8.81514"><ele>59</ele></trkpt>
   <trkpt lat="52.737888" lon="8.816487"><ele>59</ele></trkpt>
   <trkpt lat="52.737871" lon="8.816858"><ele>59</ele></trkpt>
   <trkpt lat="52.737811" lon="8.818003"><ele>59</ele></trkpt>
   <trkpt lat="52.737779" lon="8.818609"><ele>58.75</ele></trkpt>
   <trkpt lat="52.737778" lon="8.818632"><ele>59</ele></trkpt>
   <trkpt lat="52.737774" lon="8.818711"><ele>59</ele></trkpt>
   <trkpt lat="52.737769" lon="8.818773"><ele>59</ele></trkpt>
   <trkpt lat="52.737235" lon="8.818713"><ele>59</ele></trkpt>
   <trkpt lat="52.737106" lon="8.818691"><ele>59</ele></trkpt>
   <trkpt lat="52.736897" lon="8.818622"><ele>59</ele></trkpt>
   <trkpt lat="52.736723" lon="8.818548"><ele>59</ele></trkpt>
   <trkpt lat="52.736268" lon="8.818312"><ele>59</ele></trkpt>
   <trkpt lat="52.736121" lon="8.818232"><ele>59</ele></trkpt>
   <trkpt lat="52.735592" lon="8.817942"><ele>59</ele></trkpt>
   <trkpt lat="52.73509" lon="8.817664"><ele>59</ele></trkpt>
   <trkpt lat="52.73495" lon="8.817602"><ele>59</ele></trkpt>
   <trkpt lat="52.734861" lon="8.817589"><ele>59</ele></trkpt>
   <trkpt lat="52.734615" lon="8.817601"><ele>59</ele></trkpt>
   <trkpt lat="52.734538" lon="8.817596"><ele>59</ele></trkpt>
   <trkpt lat="52.734473" lon="8.817573"><ele>59</ele></trkpt>
   <trkpt lat="52.734432" lon="8.817549"><ele>59</ele></trkpt>
   <trkpt lat="52.734374" lon="8.817494"><ele>59</ele></trkpt>
   <trkpt lat="52.734318" lon="8.817414"><ele>59</ele></trkpt>
   <trkpt lat="52.734227" lon="8.817165"><ele>59</ele></trkpt>
   <trkpt lat="52.734165" lon="8.817006"><ele>58.75</ele></trkpt>
   <trkpt lat="52.73411" lon="8.81691"><ele>59</ele></trkpt>
   <trkpt lat="52.734038" lon="8.816841"><ele>59</ele></trkpt>
   <trkpt lat="52.733964" lon="8.816812"><ele>59</ele></trkpt>
   <trkpt lat="52.733879" lon="8.816809"><ele>59</ele></trkpt>
   <trkpt lat="52.733662" lon="8.816851"><ele>59</ele></trkpt>
   <trkpt lat="52.733521" lon="8.816868"><ele>59</ele></trkpt>
   <trkpt lat="52.733336" lon="8.816858"><ele>59</ele></trkpt>
   <trkpt lat="52.729662" lon="8.816224"><ele>58.75</ele></trkpt>
   <trkpt lat="52.72731" lon="8.815827"><ele>59</ele></trkpt>
   <trkpt lat="52.725818" lon="8.815602"><ele>60</ele></trkpt>
   <trkpt lat="52.722957" lon="8.815169"><ele>59.75</ele></trkpt>
   <trkpt lat="52.719589" lon="8.814659"><ele>55.5</ele></trkpt>
   <trkpt lat="52.718881" lon="8.814552"><ele>55</ele></trkpt>
   <trkpt lat="52.716692" lon="8.814228"><ele>55.75</ele></trkpt>
   <trkpt lat="52.715205" lon="8.813996"><ele>56</ele></trkpt>
   <trkpt lat="52.713793" lon="8.813784"><ele>57</ele></trkpt>
   <trkpt lat="52.713551" lon="8.813752"><ele>57</ele></trkpt>
   <trkpt lat="52.713029" lon="8.813664"><ele>57</ele></trkpt>
   <trkpt lat="52.712709" lon="8.813594"><ele>57</ele></trkpt>
   <trkpt lat="52.712356" lon="8.813469"><ele>57.25</ele></trkpt>
   <trkpt lat="52.712132" lon="8.813359"><ele>57</ele></trkpt>
   <trkpt lat="52.71195" lon="8.81325"><ele>57</ele></trkpt>
   <trkpt lat="52.711796" lon="8.813143"><ele>57.5</ele></trkpt>
   <trkpt lat="52.71165" lon="8.813022"><ele>57.75</ele></trkpt>
   <trkpt lat="52.711506" lon="8.812885"><ele>57.5</ele></trkpt>
   <trkpt lat="52.711375" lon="8.812759"><ele>57.75</ele></trkpt>
   <trkpt lat="52.711216" lon="8.812586"><ele>57.5</ele></trkpt>
   <trkpt lat="52.711095" lon="8.812447"><ele>58</ele></trkpt>
   <trkpt lat="52.71065" lon="8.811901"><ele>57.75</ele></trkpt>
   <trkpt lat="52.71047" lon="8.811699"><ele>57.75</ele></trkpt>
   <trkpt lat="52.710358" lon="8.811585"><ele>58</ele></trkpt>
   <trkpt lat="52.710201" lon="8.81144"><ele>58</ele></trkpt>
   <trkpt lat="52.710003" lon="8.811287"><ele>58</ele></trkpt>
   <trkpt lat="52.70979" lon="8.81115"><ele>58</ele></trkpt>
   <trkpt lat="52.709043" lon="8.810737"><ele>59</ele></trkpt>
   <trkpt lat="52.708322" lon="8.810351"><ele>59</ele></trkpt>
   <trkpt lat="52.707733" lon="8.810039"><ele>59</ele></trkpt>
   <trkpt lat="52.707671" lon="8.810009"><ele>59</ele></trkpt>
   <trkpt lat="52.705295" lon="8.808734"><ele>60</ele></trkpt>
   <trkpt lat="52.705247" lon="8.808712"><ele>59.75</ele></trkpt>
   <trkpt lat="52.704089" lon="8.808201"><ele>60</ele></trkpt>
   <trkpt lat="52.703391" lon="8.807888"><ele>59</ele></trkpt>
   <trkpt lat="52.702691" lon="8.807575"><ele>58</ele></trkpt>
   <trkpt lat="52.702398" lon="8.807458"><ele>58</ele></trkpt>
   <trkpt lat="52.701646" lon="8.807132"><ele>56.75</ele></trkpt>
   <trkpt lat="52.70132" lon="8.806984"><ele>55.75</ele></trkpt>
   <trkpt lat="52.700237" lon="8.806493"><ele>53.25</ele></trkpt>
   <trkpt lat="52.695641" lon="8.804461"><ele>60</ele></trkpt>
   <trkpt lat="52.694677" lon="8.804029"><ele>60</ele></trkpt>
   <trkpt lat="52.693948" lon="8.8037"><ele>59.75</ele></trkpt>
   <trkpt lat="52.692788" lon="8.803188"><ele>58</ele></trkpt>
   <trkpt lat="52.692447" lon="8.803042"><ele>57.75</ele></trkpt>
   <trkpt lat="52.692429" lon="8.803034"><ele>57.5</ele></trkpt>
   <trkpt lat="52.691626" lon="8.802674"><ele>55.5</ele></trkpt>
   <trkpt lat="52.691386" lon="8.802567"><ele>54.75</ele></trkpt>
   <trkpt lat="52.690964" lon="8.802374"><ele>53.25</ele></trkpt>
   <trkpt lat="52.690841" lon="8.802321"><ele>53</ele></trkpt>
   <trkpt lat="52.690742" lon="8.802278"><ele>52.5</ele></trkpt>
   <trkpt lat="52.690052" lon="8.801961"><ele>50.75</ele></trkpt>
   <trkpt lat="52.689825" lon="8.801834"><ele>50.5</ele></trkpt>
   <trkpt lat="52.689717" lon="8.801761"><ele>50.25</ele></trkpt>
   <trkpt lat="52.689645" lon="8.801701"><ele>50</ele></trkpt>
   <trkpt lat="52.689402" lon="8.801392"><ele>50</ele></trkpt>
   <trkpt lat="52.689282" lon="8.801254"><ele>50</ele></trkpt>
   <trkpt lat="52.689224" lon="8.801198"><ele>50</ele></trkpt>
   <trkpt lat="52.689157" lon="8.801143"><ele>50</ele></trkpt>
   <trkpt lat="52.68909" lon="8.801103"><ele>50</ele></trkpt>
   <trkpt lat="52.689007" lon="8.801069"><ele>50</ele></trkpt>
   <trkpt lat="52.688927" lon="8.80105"><ele>50</ele></trkpt>
   <trkpt lat="52.688835" lon="8.801043"><ele>50</ele></trkpt>
   <trkpt lat="52.688736" lon="8.801055"><ele>50</ele></trkpt>
   <trkpt lat="52.68864" lon="8.801081"><ele>50</ele></trkpt>
   <trkpt lat="52.688342" lon="8.801201"><ele>49</ele></trkpt>
   <trkpt lat="52.687685" lon="8.801487"><ele>45.5</ele></trkpt>
   <trkpt lat="52.687522" lon="8.801536"><ele>45</ele></trkpt>
   <trkpt lat="52.687326" lon="8.801578"><ele>44.25</ele></trkpt>
   <trkpt lat="52.687119" lon="8.801598"><ele>44</ele></trkpt>
   <trkpt lat="52.686763" lon="8.8016"><ele>44</ele></trkpt>
   <trkpt lat="52.686681" lon="8.801596"><ele>44</ele></trkpt>
   <trkpt lat="52.68632" lon="8.801571"><ele>44</ele></trkpt>
   <trkpt lat="52.6859" lon="8.801519"><ele>44</ele></trkpt>
   <trkpt lat="52.68566" lon="8.801488"><ele>44</ele></trkpt>
   <trkpt lat="52.685366" lon="8.801435"><ele>44</ele></trkpt>
   <trkpt lat="52.685308" lon="8.801424"><ele>44</ele></trkpt>
   <trkpt lat="52.684255" lon="8.801225"><ele>46</ele></trkpt>
   <trkpt lat="52.684119" lon="8.801206"><ele>46</ele></trkpt>
   <trkpt lat="52.683922" lon="8.801194"><ele>46.25</ele></trkpt>
   <trkpt lat="52.68377" lon="8.80118"><ele>46</ele></trkpt>
   <trkpt lat="52.683273" lon="8.801181"><ele>46.25</ele></trkpt>
   <trkpt lat="52.682758" lon="8.801206"><ele>46</ele></trkpt>
   <trkpt lat="52.682516" lon="8.801199"><ele>45.75</ele></trkpt>
   <trkpt lat="52.682473" lon="8.801197"><ele>46</ele></trkpt>
   <trkpt lat="52.682222" lon="8.80119"><ele>45.75</ele></trkpt>
   <trkpt lat="52.682083" lon="8.801211"><ele>45.5</ele></trkpt>
   <trkpt lat="52.681902" lon="8.801298"><ele>45.5</ele></trkpt>
   <trkpt lat="52.681376" lon="8.801378"><ele>45</ele></trkpt>
   <trkpt lat="52.681351" lon="8.801382"><ele>45</ele></trkpt>
   <trkpt lat="52.681204" lon="8.801405"><ele>45</ele></trkpt>
   <trkpt lat="52.68078" lon="8.801473"><ele>45</ele></trkpt>
   <trkpt lat="52.680655" lon="8.801524"><ele>45</ele></trkpt>
   <trkpt lat="52.680515" lon="8.801599"><ele>45</ele></trkpt>
   <trkpt lat="52.68033" lon="8.801714"><ele>45</ele></trkpt>
   <trkpt lat="52.680345" lon="8.801776"><ele>45</ele></trkpt>
   <trkpt lat="52.680366" lon="8.801864"><ele>45.25</ele></trkpt>
   <trkpt lat="52.680481" lon="8.802346"><ele>45.25</ele></trkpt>
   <trkpt lat="52.680495" lon="8.802404"><ele>45.5</ele></trkpt>
   <trkpt lat="52.680618" lon="8.802942"><ele>46</ele></trkpt>
   <trkpt lat="52.680812" lon="8.803995"><ele>46.75</ele></trkpt>
   <trkpt lat="52.68088" lon="8.804379"><ele>47</ele></trkpt>
   <trkpt lat="52.680951" lon="8.80486"><ele>47.25</ele></trkpt>
   <trkpt lat="52.681105" lon="8.805929"><ele>48.75</ele></trkpt>
   <trkpt lat="52.681141" lon="8.806065"><ele>49</ele></trkpt>
   <trkpt lat="52.68117" lon="8.806209"><ele>49</ele></trkpt>
   <trkpt lat="52.681207" lon="8.806487"><ele>49.25</ele></trkpt>
   <trkpt lat="52.681228" lon="8.806647"><ele>49.25</ele></trkpt>
   <trkpt lat="52.681232" lon="8.80679"><ele>49.25</ele></trkpt>
   <trkpt lat="52.681243" lon="8.806956"><ele>49.25</ele></trkpt>
   <trkpt lat="52.681357" lon="8.807773"><ele>49.75</ele></trkpt>
   <trkpt lat="52.681571" lon="8.809285"><ele>50.5</ele></trkpt>
   <trkpt lat="52.681626" lon="8.809551"><ele>50.75</ele></trkpt>
   <trkpt lat="52.681682" lon="8.809773"><ele>51</ele></trkpt>
   <trkpt lat="52.681787" lon="8.810416"><ele>51.25</ele></trkpt>
   <trkpt lat="52.682028" lon="8.811863"><ele>52.25</ele></trkpt>
   <trkpt lat="52.682032" lon="8.811912"><ele>52.25</ele></trkpt>
   <trkpt lat="52.682047" lon="8.812071"><ele>52.25</ele></trkpt>
   <trkpt lat="52.682137" lon="8.812075"><ele>52.5</ele></trkpt>
   <trkpt lat="52.682389" lon="8.812048"><ele>53.25</ele></trkpt>
   <trkpt lat="52.682586" lon="8.812026"><ele>53.75</ele></trkpt>
   <trkpt lat="52.682661" lon="8.812017"><ele>54</ele></trkpt>
   <trkpt lat="52.682789" lon="8.812003"><ele>54</ele></trkpt>
   <trkpt lat="52.682803" lon="8.81234"><ele>54</ele></trkpt>
   <trkpt lat="52.682813" lon="8.812489"><ele>54</ele></trkpt>
   <trkpt lat="52.682843" lon="8.812553"><ele>54</ele></trkpt>
   <trkpt lat="52.682863" lon="8.812596"><ele>54.25</ele></trkpt>
   <trkpt lat="52.682846" lon="8.812616"><ele>54</ele></trkpt>
   <trkpt lat="52.682825" lon="8.812668"><ele>54</ele></trkpt>
   <trkpt lat="52.68282" lon="8.812733"><ele>54</ele></trkpt>
   <trkpt lat="52.682833" lon="8.812796"><ele>54</ele></trkpt>
   <trkpt lat="52.682844" lon="8.81282"><ele>54</ele></trkpt>
   <trkpt lat="52.682872" lon="8.812852"><ele>54.25</ele></trkpt>
   <trkpt lat="52.682902" lon="8.812863"><ele>54.25</ele></trkpt>
   <trkpt lat="52.682934" lon="8.812855"><ele>54.5</ele></trkpt>
   <trkpt lat="52.682961" lon="8.812831"><ele>54.5</ele></trkpt>
   <trkpt lat="52.682981" lon="8.812791"><ele>54.5</ele></trkpt>
   <trkpt lat="52.683022" lon="8.81282"><ele>54.75</ele></trkpt>
   <trkpt lat="52.683075" lon="8.812868"><ele>55</ele></trkpt>
   <trkpt lat="52.683197" lon="8.813021"><ele>55</ele></trkpt>
   <trkpt lat="52.683303" lon="8.81304"><ele>55</ele></trkpt>
   <trkpt lat="52.683385" lon="8.813046"><ele>55</ele></trkpt>
   <trkpt lat="52.683476" lon="8.813052"><ele>55.5</ele></trkpt>
   <trkpt lat="52.683621" lon="8.813052"><ele>55.75</ele></trkpt>
   <trkpt lat="52.683689" lon="8.813019"><ele>55.75</ele></trkpt>
   <trkpt lat="52.683737" lon="8.812959"><ele>55.75</ele></trkpt>
  </trkseg>
 </trk>
</gpx>