<?xml version="1.0" encoding="UTF-8"?>
<!-- track-length = 20388 filtered ascend = 62 plain-ascend = 15 cost=33516 energy=2.2kwh time=34m 22s -->
<gpx 
 xmlns="http://www.topografix.com/GPX/1/1" 
 xmlns:xsi="http://www.w3.org/2001/XMLSchema-instance" 
 xsi:schemaLocation="http://www.topografix.com/GPX/1/1 http://www.topografix.com/GPX/1/1/gpx.xsd" 
 version="1.1" 
 creator="BRouter-Web 0.18.1">
 <trk>
  <name>VGH Bus 150 Bruchhausen-Vilsen Bahnhof - Syke Bahnhof West</name>
  <trkseg>
   <trkpt lat="52.827928" lon="8.990557"><ele>18</ele></trkpt>
   <trkpt lat="52.827935" lon="8.99045"><ele>18</ele></trkpt>
   <trkpt lat="52.827943" lon="8.990279"><ele>18</ele></trkpt>
   <trkpt lat="52.827994" lon="8.990191"><ele>18</ele></trkpt>
   <trkpt lat="52.828045" lon="8.990124"><ele>18</ele></trkpt>
   <trkpt lat="52.828142" lon="8.990056"><ele>18</ele></trkpt>
   <trkpt lat="52.828148" lon="8.989844"><ele>18</ele></trkpt>
   <trkpt lat="52.828153" lon="8.989695"><ele>18</ele></trkpt>
   <trkpt lat="52.828165" lon="8.989561"><ele>18.25</ele></trkpt>
   <trkpt lat="52.828178" lon="8.989489"><ele>18.25</ele></trkpt>
   <trkpt lat="52.828201" lon="8.989387"><ele>18.5</ele></trkpt>
   <trkpt lat="52.828216" lon="8.989311"><ele>18.5</ele></trkpt>
   <trkpt lat="52.827935" lon="8.989118"><ele>19</ele></trkpt>
   <trkpt lat="52.827859" lon="8.989064"><ele>19</ele></trkpt>
   <trkpt lat="52.82783" lon="8.989044"><ele>19</ele></trkpt>
   <trkpt lat="52.827792" lon="8.989014"><ele>18.75</ele></trkpt>
   <trkpt lat="52.827746" lon="8.988979"><ele>19</ele></trkpt>
   <trkpt lat="52.827717" lon="8.988956"><ele>19</ele></trkpt>
   <trkpt lat="52.827695" lon="8.988938"><ele>19</ele></trkpt>
   <trkpt lat="52.827709" lon="8.988854"><ele>19.25</ele></trkpt>
   <trkpt lat="52.827699" lon="8.988774"><ele>19.5</ele></trkpt>
   <trkpt lat="52.82767" lon="8.988713"><ele>19.75</ele></trkpt>
   <trkpt lat="52.827646" lon="8.988688"><ele>19.75</ele></trkpt>
   <trkpt lat="52.827601" lon="8.988671"><ele>19.75</ele></trkpt>
   <trkpt lat="52.827551" lon="8.988692"><ele>19.75</ele></trkpt>
   <trkpt lat="52.827504" lon="8.988611"><ele>20</ele></trkpt>
   <trkpt lat="52.827452" lon="8.988518"><ele>20</ele></trkpt>
   <trkpt lat="52.827371" lon="8.988429"><ele>20</ele></trkpt>
   <trkpt lat="52.827318" lon="8.988342"><ele>20</ele></trkpt>
   <trkpt lat="52.826884" lon="8.987537"><ele>21</ele></trkpt>
   <trkpt lat="52.826769" lon="8.987335"><ele>21</ele></trkpt>
   <trkpt lat="52.826648" lon="8.987143"><ele>21.25</ele></trkpt>
   <trkpt lat="52.826086" lon="8.986318"><ele>21.75</ele></trkpt>
   <trkpt lat="52.825974" lon="8.986193"><ele>21.75</ele></trkpt>
   <trkpt lat="52.825884" lon="8.986131"><ele>21.75</ele></trkpt>
   <trkpt lat="52.825811" lon="8.986095"><ele>21.75</ele></trkpt>
   <trkpt lat="52.825733" lon="8.986083"><ele>21.5</ele></trkpt>
   <trkpt lat="52.825656" lon="8.986092"><ele>21.25</ele></trkpt>
   <trkpt lat="52.825391" lon="8.986147"><ele>21</ele></trkpt>
   <trkpt lat="52.824823" lon="8.986291"><ele>20</ele></trkpt>
   <trkpt lat="52.824519" lon="8.986356"><ele>20</ele></trkpt>
   <trkpt lat="52.824434" lon="8.98638"><ele>20</ele></trkpt>
   <trkpt lat="52.824216" lon="8.986443"><ele>20</ele></trkpt>
   <trkpt lat="52.82387" lon="8.986644"><ele>20</ele></trkpt>
   <trkpt lat="52.82343" lon="8.986648"><ele>21</ele></trkpt>
   <trkpt lat="52.823313" lon="8.986655"><ele>21</ele></trkpt>
   <trkpt lat="52.822908" lon="8.986757"><ele>22.5</ele></trkpt>
   <trkpt lat="52.822874" lon="8.986767"><ele>22.5</ele></trkpt>
   <trkpt lat="52.82273" lon="8.986813"><ele>23</ele></trkpt>
   <trkpt lat="52.822609" lon="8.986819"><ele>23.25</ele></trkpt>
   <trkpt lat="52.822504" lon="8.986806"><ele>23.25</ele></trkpt>
   <trkpt lat="52.822405" lon="8.986764"><ele>23.75</ele></trkpt>
   <trkpt lat="52.82228" lon="8.986715"><ele>24.5</ele></trkpt>
   <trkpt lat="52.822158" lon="8.986609"><ele>25</ele></trkpt>
   <trkpt lat="52.822099" lon="8.986552"><ele>25.25</ele></trkpt>
   <trkpt lat="52.822091" lon="8.986476"><ele>25.25</ele></trkpt>
   <trkpt lat="52.82209" lon="8.986378"><ele>25.5</ele></trkpt>
   <trkpt lat="52.822111" lon="8.986208"><ele>26</ele></trkpt>
   <trkpt lat="52.822109" lon="8.98598"><ele>26.25</ele></trkpt>
   <trkpt lat="52.822094" lon="8.985761"><ele>26.25</ele></trkpt>
   <trkpt lat="52.822051" lon="8.985474"><ele>26.75</ele></trkpt>
   <trkpt lat="52.821982" lon="8.98512"><ele>27.5</ele></trkpt>
   <trkpt lat="52.821927" lon="8.984966"><ele>28</ele></trkpt>
   <trkpt lat="52.821851" lon="8.984845"><ele>28.5</ele></trkpt>
   <trkpt lat="52.8219" lon="8.984609"><ele>28</ele></trkpt>
   <trkpt lat="52.821911" lon="8.984557"><ele>28</ele></trkpt>
   <trkpt lat="52.821914" lon="8.984516"><ele>28</ele></trkpt>
   <trkpt lat="52.822004" lon="8.984026"><ele>28</ele></trkpt>
   <trkpt lat="52.822042" lon="8.983913"><ele>28</ele></trkpt>
   <trkpt lat="52.82208" lon="8.983821"><ele>28</ele></trkpt>
   <trkpt lat="52.822188" lon="8.983652"><ele>27</ele></trkpt>
   <trkpt lat="52.822235" lon="8.983585"><ele>26.75</ele></trkpt>
   <trkpt lat="52.822609" lon="8.982925"><ele>26</ele></trkpt>
   <trkpt lat="52.822685" lon="8.98281"><ele>26</ele></trkpt>
   <trkpt lat="52.822801" lon="8.982683"><ele>26</ele></trkpt>
   <trkpt lat="52.822866" lon="8.982648"><ele>26</ele></trkpt>
   <trkpt lat="52.822932" lon="8.982635"><ele>26</ele></trkpt>
   <trkpt lat="52.823052" lon="8.982669"><ele>26</ele></trkpt>
   <trkpt lat="52.823214" lon="8.982716"><ele>25.5</ele></trkpt>
   <trkpt lat="52.823354" lon="8.982728"><ele>25</ele></trkpt>
   <trkpt lat="52.823511" lon="8.982703"><ele>25.25</ele></trkpt>
   <trkpt lat="52.823613" lon="8.982688"><ele>25.25</ele></trkpt>
   <trkpt lat="52.824028" lon="8.982574"><ele>24.75</ele></trkpt>
   <trkpt lat="52.824735" lon="8.982286"><ele>25</ele></trkpt>
   <trkpt lat="52.825208" lon="8.982086"><ele>26</ele></trkpt>
   <trkpt lat="52.82533" lon="8.982044"><ele>26</ele></trkpt>
   <trkpt lat="52.825485" lon="8.98199"><ele>26.5</ele></trkpt>
   <trkpt lat="52.825652" lon="8.981942"><ele>27</ele></trkpt>
   <trkpt lat="52.825858" lon="8.981893"><ele>27</ele></trkpt>
   <trkpt lat="52.826483" lon="8.981771"><ele>26.5</ele></trkpt>
   <trkpt lat="52.827275" lon="8.981637"><ele>23.5</ele></trkpt>
   <trkpt lat="52.827418" lon="8.981618"><ele>22.5</ele></trkpt>
   <trkpt lat="52.827747" lon="8.981554"><ele>22</ele></trkpt>
   <trkpt lat="52.827812" lon="8.981542"><ele>21.75</ele></trkpt>
   <trkpt lat="52.827878" lon="8.981531"><ele>21.5</ele></trkpt>
   <trkpt lat="52.827911" lon="8.981524"><ele>21.5</ele></trkpt>
   <trkpt lat="52.827943" lon="8.981517"><ele>21.25</ele></trkpt>
   <trkpt lat="52.828023" lon="8.981501"><ele>21</ele></trkpt>
   <trkpt lat="52.828147" lon="8.981468"><ele>21</ele></trkpt>
   <trkpt lat="52.828559" lon="8.981403"><ele>20</ele></trkpt>
   <trkpt lat="52.8295" lon="8.981218"><ele>20</ele></trkpt>
   <trkpt lat="52.830329" lon="8.981061"><ele>20</ele></trkpt>
   <trkpt lat="52.830646" lon="8.980978"><ele>20</ele></trkpt>
   <trkpt lat="52.830935" lon="8.98089"><ele>19.5</ele></trkpt>
   <trkpt lat="52.831818" lon="8.980582"><ele>18</ele></trkpt>
   <trkpt lat="52.832619" lon="8.980286"><ele>17</ele></trkpt>
   <trkpt lat="52.832763" lon="8.98021"><ele>17</ele></trkpt>
   <trkpt lat="52.832887" lon="8.980126"><ele>17</ele></trkpt>
   <trkpt lat="52.833058" lon="8.979979"><ele>16.75</ele></trkpt>
   <trkpt lat="52.833215" lon="8.97981"><ele>16.25</ele></trkpt>
   <trkpt lat="52.833412" lon="8.979551"><ele>16</ele></trkpt>
   <trkpt lat="52.833771" lon="8.97905"><ele>16</ele></trkpt>
   <trkpt lat="52.834053" lon="8.978633"><ele>16</ele></trkpt>
   <trkpt lat="52.834258" lon="8.978341"><ele>16</ele></trkpt>
   <trkpt lat="52.834409" lon="8.97808"><ele>16</ele></trkpt>
   <trkpt lat="52.834715" lon="8.977598"><ele>16</ele></trkpt>
   <trkpt lat="52.834832" lon="8.977377"><ele>16.25</ele></trkpt>
   <trkpt lat="52.834964" lon="8.977079"><ele>16</ele></trkpt>
   <trkpt lat="52.835057" lon="8.976812"><ele>16</ele></trkpt>
   <trkpt lat="52.835137" lon="8.976526"><ele>16</ele></trkpt>
   <trkpt lat="52.835203" lon="8.976228"><ele>16</ele></trkpt>
   <trkpt lat="52.835452" lon="8.974863"><ele>16</ele></trkpt>
   <trkpt lat="52.835575" lon="8.974354"><ele>16</ele></trkpt>
   <trkpt lat="52.835681" lon="8.974018"><ele>16</ele></trkpt>
   <trkpt lat="52.835791" lon="8.973724"><ele>16</ele></trkpt>
   <trkpt lat="52.836013" lon="8.973284"><ele>16</ele></trkpt>
   <trkpt lat="52.83633" lon="8.972819"><ele>16</ele></trkpt>
   <trkpt lat="52.837189" lon="8.971831"><ele>16</ele></trkpt>
   <trkpt lat="52.837482" lon="8.97135"><ele>16</ele></trkpt>
   <trkpt lat="52.83757" lon="8.971126"><ele>16</ele></trkpt>
   <trkpt lat="52.837645" lon="8.97088"><ele>16.25</ele></trkpt>
   <trkpt lat="52.837977" lon="8.96913"><ele>16.25</ele></trkpt>
   <trkpt lat="52.838065" lon="8.968666"><ele>16</ele></trkpt>
   <trkpt lat="52.83822" lon="8.967945"><ele>16.25</ele></trkpt>
   <trkpt lat="52.83846" lon="8.967101"><ele>16</ele></trkpt>
   <trkpt lat="52.838562" lon="8.96678"><ele>16</ele></trkpt>
   <trkpt lat="52.838663" lon="8.966497"><ele>16</ele></trkpt>
   <trkpt lat="52.838722" lon="8.966321"><ele>16</ele></trkpt>
   <trkpt lat="52.838844" lon="8.965995"><ele>16</ele></trkpt>
   <trkpt lat="52.838967" lon="8.965696"><ele>16.25</ele></trkpt>
   <trkpt lat="52.839021" lon="8.965557"><ele>16.5</ele></trkpt>
   <trkpt lat="52.839106" lon="8.965386"><ele>16.5</ele></trkpt>
   <trkpt lat="52.839464" lon="8.964797"><ele>17</ele></trkpt>
   <trkpt lat="52.839926" lon="8.964081"><ele>17</ele></trkpt>
   <trkpt lat="52.840025" lon="8.963935"><ele>17</ele></trkpt>
   <trkpt lat="52.840119" lon="8.963812"><ele>17</ele></trkpt>
   <trkpt lat="52.840322" lon="8.963604"><ele>18</ele></trkpt>
   <trkpt lat="52.840661" lon="8.963311"><ele>18</ele></trkpt>
   <trkpt lat="52.840824" lon="8.963137"><ele>18</ele></trkpt>
   <trkpt lat="52.840905" lon="8.963036"><ele>17.5</ele></trkpt>
   <trkpt lat="52.841053" lon="8.962752"><ele>17.25</ele></trkpt>
   <trkpt lat="52.841119" lon="8.962544"><ele>17.75</ele></trkpt>
   <trkpt lat="52.841167" lon="8.962308"><ele>17.75</ele></trkpt>
   <trkpt lat="52.841197" lon="8.962149"><ele>17.75</ele></trkpt>
   <trkpt lat="52.841447" lon="8.959885"><ele>18</ele></trkpt>
   <trkpt lat="52.841513" lon="8.959252"><ele>18</ele></trkpt>
   <trkpt lat="52.841517" lon="8.959205"><ele>18</ele></trkpt>
   <trkpt lat="52.84155" lon="8.958857"><ele>18</ele></trkpt>
   <trkpt lat="52.841593" lon="8.958637"><ele>18</ele></trkpt>
   <trkpt lat="52.841614" lon="8.958493"><ele>18</ele></trkpt>
   <trkpt lat="52.841659" lon="8.958331"><ele>18</ele></trkpt>
   <trkpt lat="52.841722" lon="8.958162"><ele>18</ele></trkpt>
   <trkpt lat="52.841972" lon="8.957541"><ele>18</ele></trkpt>
   <trkpt lat="52.84208" lon="8.957277"><ele>18</ele></trkpt>
   <trkpt lat="52.84263" lon="8.955929"><ele>18</ele></trkpt>
   <trkpt lat="52.84273" lon="8.955714"><ele>18.25</ele></trkpt>
   <trkpt lat="52.84291" lon="8.955396"><ele>18.75</ele></trkpt>
   <trkpt lat="52.843241" lon="8.954826"><ele>19</ele></trkpt>
   <trkpt lat="52.843388" lon="8.954557"><ele>18.75</ele></trkpt>
   <trkpt lat="52.843484" lon="8.954318"><ele>19</ele></trkpt>
   <trkpt lat="52.843521" lon="8.954141"><ele>19.25</ele></trkpt>
   <trkpt lat="52.843634" lon="8.953297"><ele>19.75</ele></trkpt>
   <trkpt lat="52.843667" lon="8.952909"><ele>20</ele></trkpt>
   <trkpt lat="52.843681" lon="8.95233"><ele>20</ele></trkpt>
   <trkpt lat="52.843672" lon="8.951987"><ele>20</ele></trkpt>
   <trkpt lat="52.843538" lon="8.950578"><ele>20</ele></trkpt>
   <trkpt lat="52.843539" lon="8.95032"><ele>20</ele></trkpt>
   <trkpt lat="52.843561" lon="8.950173"><ele>20</ele></trkpt>
   <trkpt lat="52.843597" lon="8.950043"><ele>20</ele></trkpt>
   <trkpt lat="52.843633" lon="8.949963"><ele>20</ele></trkpt>
   <trkpt lat="52.843678" lon="8.949893"><ele>20</ele></trkpt>
   <trkpt lat="52.84374" lon="8.949831"><ele>20</ele></trkpt>
   <trkpt lat="52.843855" lon="8.949743"><ele>20</ele></trkpt>
   <trkpt lat="52.843947" lon="8.949689"><ele>20</ele></trkpt>
   <trkpt lat="52.844423" lon="8.949387"><ele>20</ele></trkpt>
   <trkpt lat="52.844635" lon="8.949277"><ele>19.5</ele></trkpt>
   <trkpt lat="52.844763" lon="8.949261"><ele>19.5</ele></trkpt>
   <trkpt lat="52.84499" lon="8.94928"><ele>19.5</ele></trkpt>
   <trkpt lat="52.845046" lon="8.949301"><ele>19.5</ele></trkpt>
   <trkpt lat="52.845141" lon="8.949356"><ele>19.25</ele></trkpt>
   <trkpt lat="52.845311" lon="8.949482"><ele>19</ele></trkpt>
   <trkpt lat="52.845463" lon="8.949621"><ele>19</ele></trkpt>
   <trkpt lat="52.845555" lon="8.949686"><ele>19</ele></trkpt>
   <trkpt lat="52.845641" lon="8.949736"><ele>19</ele></trkpt>
   <trkpt lat="52.845778" lon="8.949779"><ele>19</ele></trkpt>
   <trkpt lat="52.846189" lon="8.949883"><ele>18.25</ele></trkpt>
   <trkpt lat="52.846596" lon="8.94998"><ele>18</ele></trkpt>
   <trkpt lat="52.84678" lon="8.950024"><ele>18</ele></trkpt>
   <trkpt lat="52.846917" lon="8.950031"><ele>18</ele></trkpt>
   <trkpt lat="52.847012" lon="8.950024"><ele>18</ele></trkpt>
   <trkpt lat="52.847083" lon="8.950007"><ele>18</ele></trkpt>
   <trkpt lat="52.847175" lon="8.949977"><ele>18</ele></trkpt>
   <trkpt lat="52.847264" lon="8.949929"><ele>18</ele></trkpt>
   <trkpt lat="52.84744" lon="8.94978"><ele>18</ele></trkpt>
   <trkpt lat="52.848055" lon="8.949027"><ele>18</ele></trkpt>
   <trkpt lat="52.848157" lon="8.948876"><ele>18</ele></trkpt>
   <trkpt lat="52.848224" lon="8.948754"><ele>18</ele></trkpt>
   <trkpt lat="52.84828" lon="8.948601"><ele>18</ele></trkpt>
   <trkpt lat="52.848318" lon="8.94847"><ele>18</ele></trkpt>
   <trkpt lat="52.848393" lon="8.948123"><ele>18</ele></trkpt>
   <trkpt lat="52.848483" lon="8.947692"><ele>18</ele></trkpt>
   <trkpt lat="52.848565" lon="8.947228"><ele>18</ele></trkpt>
   <trkpt lat="52.848595" lon="8.946973"><ele>18</ele></trkpt>
   <trkpt lat="52.848613" lon="8.946712"><ele>18</ele></trkpt>
   <trkpt lat="52.848615" lon="8.946509"><ele>18</ele></trkpt>
   <trkpt lat="52.848598" lon="8.946286"><ele>18</ele></trkpt>
   <trkpt lat="52.848566" lon="8.946092"><ele>18</ele></trkpt>
   <trkpt lat="52.848493" lon="8.945739"><ele>18.25</ele></trkpt>
   <trkpt lat="52.848374" lon="8.945338"><ele>18.75</ele></trkpt>
   <trkpt lat="52.848119" lon="8.944609"><ele>19</ele></trkpt>
   <trkpt lat="52.848056" lon="8.944431"><ele>19</ele></trkpt>
   <trkpt lat="52.847999" lon="8.944272"><ele>19</ele></trkpt>
   <trkpt lat="52.847908" lon="8.944002"><ele>19</ele></trkpt>
   <trkpt lat="52.847853" lon="8.943784"><ele>19</ele></trkpt>
   <trkpt lat="52.84781" lon="8.943561"><ele>18.75</ele></trkpt>
   <trkpt lat="52.847792" lon="8.943355"><ele>19</ele></trkpt>
   <trkpt lat="52.847784" lon="8.943124"><ele>19</ele></trkpt>
   <trkpt lat="52.847803" lon="8.942688"><ele>19.75</ele></trkpt>
   <trkpt lat="52.847834" lon="8.942217"><ele>20</ele></trkpt>
   <trkpt lat="52.847866" lon="8.941743"><ele>21.5</ele></trkpt>
   <trkpt lat="52.847875" lon="8.941494"><ele>22</ele></trkpt>
   <trkpt lat="52.84787" lon="8.941235"><ele>22.5</ele></trkpt>
   <trkpt lat="52.847855" lon="8.941078"><ele>23</ele></trkpt>
   <trkpt lat="52.847831" lon="8.940832"><ele>23</ele></trkpt>
   <trkpt lat="52.847753" lon="8.940119"><ele>24</ele></trkpt>
   <trkpt lat="52.84772" lon="8.93982"><ele>24</ele></trkpt>
   <trkpt lat="52.847677" lon="8.939333"><ele>25</ele></trkpt>
   <trkpt lat="52.847669" lon="8.939051"><ele>25</ele></trkpt>
   <trkpt lat="52.847669" lon="8.938972"><ele>25</ele></trkpt>
   <trkpt lat="52.847682" lon="8.938801"><ele>25</ele></trkpt>
   <trkpt lat="52.847709" lon="8.938595"><ele>25</ele></trkpt>
   <trkpt lat="52.847826" lon="8.93785"><ele>25</ele></trkpt>
   <trkpt lat="52.847941" lon="8.937164"><ele>26</ele></trkpt>
   <trkpt lat="52.848062" lon="8.936595"><ele>26</ele></trkpt>
   <trkpt lat="52.848118" lon="8.936392"><ele>26</ele></trkpt>
   <trkpt lat="52.848193" lon="8.936196"><ele>26</ele></trkpt>
   <trkpt lat="52.8483" lon="8.935954"><ele>26.5</ele></trkpt>
   <trkpt lat="52.848397" lon="8.935767"><ele>27</ele></trkpt>
   <trkpt lat="52.848485" lon="8.935616"><ele>27</ele></trkpt>
   <trkpt lat="52.84865" lon="8.935401"><ele>27</ele></trkpt>
   <trkpt lat="52.850866" lon="8.933042"><ele>23.75</ele></trkpt>
   <trkpt lat="52.851369" lon="8.932516"><ele>22</ele></trkpt>
   <trkpt lat="52.851814" lon="8.932013"><ele>21.25</ele></trkpt>
   <trkpt lat="52.852184" lon="8.931444"><ele>21</ele></trkpt>
   <trkpt lat="52.853001" lon="8.93008"><ele>19.5</ele></trkpt>
   <trkpt lat="52.853074" lon="8.92997"><ele>19.75</ele></trkpt>
   <trkpt lat="52.853164" lon="8.929833"><ele>19.75</ele></trkpt>
   <trkpt lat="52.853234" lon="8.929731"><ele>19.75</ele></trkpt>
   <trkpt lat="52.853284" lon="8.929661"><ele>20</ele></trkpt>
   <trkpt lat="52.853319" lon="8.929618"><ele>20</ele></trkpt>
   <trkpt lat="52.853723" lon="8.929153"><ele>21</ele></trkpt>
   <trkpt lat="52.854635" lon="8.92808"><ele>22.25</ele></trkpt>
   <trkpt lat="52.855696" lon="8.926856"><ele>21</ele></trkpt>
   <trkpt lat="52.855864" lon="8.926662"><ele>21</ele></trkpt>
   <trkpt lat="52.857707" lon="8.924534"><ele>20.25</ele></trkpt>
   <trkpt lat="52.858832" lon="8.923235"><ele>20</ele></trkpt>
   <trkpt lat="52.859273" lon="8.92275"><ele>20</ele></trkpt>
   <trkpt lat="52.859514" lon="8.922445"><ele>20</ele></trkpt>
   <trkpt lat="52.859702" lon="8.92222"><ele>21</ele></trkpt>
   <trkpt lat="52.860032" lon="8.92184"><ele>20.75</ele></trkpt>
   <trkpt lat="52.860063" lon="8.921803"><ele>20.75</ele></trkpt>
   <trkpt lat="52.860598" lon="8.921188"><ele>20.75</ele></trkpt>
   <trkpt lat="52.860691" lon="8.921098"><ele>21</ele></trkpt>
   <trkpt lat="52.860844" lon="8.920984"><ele>20.75</ele></trkpt>
   <trkpt lat="52.861069" lon="8.920836"><ele>20</ele></trkpt>
   <trkpt lat="52.861453" lon="8.920627"><ele>19.75</ele></trkpt>
   <trkpt lat="52.861559" lon="8.920555"><ele>20</ele></trkpt>
   <trkpt lat="52.861652" lon="8.920461"><ele>20</ele></trkpt>
   <trkpt lat="52.861817" lon="8.920212"><ele>20</ele></trkpt>
   <trkpt lat="52.861924" lon="8.919919"><ele>20</ele></trkpt>
   <trkpt lat="52.862064" lon="8.919592"><ele>20</ele></trkpt>
   <trkpt lat="52.862169" lon="8.919414"><ele>20</ele></trkpt>
   <trkpt lat="52.862597" lon="8.919164"><ele>20</ele></trkpt>
   <trkpt lat="52.862651" lon="8.919132"><ele>20</ele></trkpt>
   <trkpt lat="52.864507" lon="8.918044"><ele>20</ele></trkpt>
   <trkpt lat="52.864662" lon="8.917934"><ele>20.25</ele></trkpt>
   <trkpt lat="52.864791" lon="8.917824"><ele>20.5</ele></trkpt>
   <trkpt lat="52.865058" lon="8.917469"><ele>20.75</ele></trkpt>
   <trkpt lat="52.865649" lon="8.91663"><ele>20</ele></trkpt>
   <trkpt lat="52.866119" lon="8.915986"><ele>20</ele></trkpt>
   <trkpt lat="52.86661" lon="8.915353"><ele>20</ele></trkpt>
   <trkpt lat="52.867488" lon="8.914336"><ele>21</ele></trkpt>
   <trkpt lat="52.86786" lon="8.913892"><ele>20.75</ele></trkpt>
   <trkpt lat="52.868168" lon="8.913532"><ele>21</ele></trkpt>
   <trkpt lat="52.868737" lon="8.912852"><ele>21</ele></trkpt>
   <trkpt lat="52.869081" lon="8.912455"><ele>21</ele></trkpt>
   <trkpt lat="52.869143" lon="8.91236"><ele>21</ele></trkpt>
   <trkpt lat="52.869175" lon="8.912314"><ele>20.75</ele></trkpt>
   <trkpt lat="52.869225" lon="8.912221"><ele>20.75</ele></trkpt>
   <trkpt lat="52.869294" lon="8.912041"><ele>20.75</ele></trkpt>
   <trkpt lat="52.869352" lon="8.911909"><ele>21</ele></trkpt>
   <trkpt lat="52.869697" lon="8.911033"><ele>21.25</ele></trkpt>
   <trkpt lat="52.869757" lon="8.910881"><ele>21.5</ele></trkpt>
   <trkpt lat="52.87003" lon="8.910196"><ele>22.25</ele></trkpt>
   <trkpt lat="52.87045" lon="8.909123"><ele>24</ele></trkpt>
   <trkpt lat="52.870996" lon="8.907683"><ele>28.25</ele></trkpt>
   <trkpt lat="52.871221" lon="8.907006"><ele>30.25</ele></trkpt>
   <trkpt lat="52.871484" lon="8.90601"><ele>32.75</ele></trkpt>
   <trkpt lat="52.871555" lon="8.905682"><ele>33.5</ele></trkpt>
   <trkpt lat="52.871612" lon="8.905351"><ele>34.5</ele></trkpt>
   <trkpt lat="52.871628" lon="8.905241"><ele>35</ele></trkpt>
   <trkpt lat="52.871732" lon="8.904675"><ele>35</ele></trkpt>
   <trkpt lat="52.871802" lon="8.904486"><ele>35.25</ele></trkpt>
   <trkpt lat="52.871879" lon="8.904347"><ele>35.5</ele></trkpt>
   <trkpt lat="52.871964" lon="8.904223"><ele>35.5</ele></trkpt>
   <trkpt lat="52.872108" lon="8.904046"><ele>35.5</ele></trkpt>
   <trkpt lat="52.872174" lon="8.903991"><ele>35.5</ele></trkpt>
   <trkpt lat="52.872244" lon="8.903951"><ele>35.5</ele></trkpt>
   <trkpt lat="52.872375" lon="8.903931"><ele>35.25</ele></trkpt>
   <trkpt lat="52.872502" lon="8.903931"><ele>34.75</ele></trkpt>
   <trkpt lat="52.872762" lon="8.903956"><ele>34.75</ele></trkpt>
   <trkpt lat="52.872902" lon="8.903973"><ele>34</ele></trkpt>
   <trkpt lat="52.87296" lon="8.90398"><ele>34</ele></trkpt>
   <trkpt lat="52.873085" lon="8.903994"><ele>33.5</ele></trkpt>
   <trkpt lat="52.873301" lon="8.904018"><ele>33.5</ele></trkpt>
   <trkpt lat="52.873438" lon="8.90401"><ele>33.25</ele></trkpt>
   <trkpt lat="52.873593" lon="8.90401"><ele>33</ele></trkpt>
   <trkpt lat="52.873656" lon="8.903996"><ele>32.75</ele></trkpt>
   <trkpt lat="52.873759" lon="8.903997"><ele>33</ele></trkpt>
   <trkpt lat="52.873785" lon="8.904029"><ele>33</ele></trkpt>
   <trkpt lat="52.873814" lon="8.904046"><ele>33</ele></trkpt>
   <trkpt lat="52.87385" lon="8.904046"><ele>33</ele></trkpt>
   <trkpt lat="52.873884" lon="8.904026"><ele>33</ele></trkpt>
   <trkpt lat="52.873909" lon="8.903993"><ele>32.75</ele></trkpt>
   <trkpt lat="52.87393" lon="8.903931"><ele>32.75</ele></trkpt>
   <trkpt lat="52.873935" lon="8.903872"><ele>33</ele></trkpt>
   <trkpt lat="52.873927" lon="8.903815"><ele>33</ele></trkpt>
   <trkpt lat="52.8739" lon="8.903753"><ele>33</ele></trkpt>
   <trkpt lat="52.873891" lon="8.903599"><ele>33</ele></trkpt>
   <trkpt lat="52.873892" lon="8.903529"><ele>33</ele></trkpt>
   <trkpt lat="52.873908" lon="8.903277"><ele>33</ele></trkpt>
   <trkpt lat="52.873953" lon="8.903087"><ele>32.75</ele></trkpt>
   <trkpt lat="52.874035" lon="8.902805"><ele>33</ele></trkpt>
   <trkpt lat="52.874066" lon="8.902711"><ele>32.75</ele></trkpt>
   <trkpt lat="52.874272" lon="8.902193"><ele>31.5</ele></trkpt>
   <trkpt lat="52.874966" lon="8.900602"><ele>23</ele></trkpt>
   <trkpt lat="52.875092" lon="8.900275"><ele>22.25</ele></trkpt>
   <trkpt lat="52.875314" lon="8.899699"><ele>21</ele></trkpt>
   <trkpt lat="52.875369" lon="8.899551"><ele>21</ele></trkpt>
   <trkpt lat="52.875539" lon="8.899013"><ele>22</ele></trkpt>
   <trkpt lat="52.875657" lon="8.898585"><ele>23.75</ele></trkpt>
   <trkpt lat="52.875768" lon="8.898087"><ele>25.5</ele></trkpt>
   <trkpt lat="52.875814" lon="8.897843"><ele>25.75</ele></trkpt>
   <trkpt lat="52.87589" lon="8.897382"><ele>26.25</ele></trkpt>
   <trkpt lat="52.875956" lon="8.896974"><ele>27.25</ele></trkpt>
   <trkpt lat="52.876119" lon="8.895866"><ele>29</ele></trkpt>
   <trkpt lat="52.876234" lon="8.895085"><ele>30</ele></trkpt>
   <trkpt lat="52.876548" lon="8.892958"><ele>34.75</ele></trkpt>
   <trkpt lat="52.876715" lon="8.891889"><ele>35</ele></trkpt>
   <trkpt lat="52.876743" lon="8.891745"><ele>35.25</ele></trkpt>
   <trkpt lat="52.876801" lon="8.891449"><ele>35.75</ele></trkpt>
   <trkpt lat="52.876911" lon="8.890958"><ele>37.25</ele></trkpt>
   <trkpt lat="52.877033" lon="8.89047"><ele>37.5</ele></trkpt>
   <trkpt lat="52.877514" lon="8.888558"><ele>38.75</ele></trkpt>
   <trkpt lat="52.878666" lon="8.884067"><ele>41</ele></trkpt>
   <trkpt lat="52.878926" lon="8.883033"><ele>42</ele></trkpt>
   <trkpt lat="52.879029" lon="8.882531"><ele>42.75</ele></trkpt>
   <trkpt lat="52.879081" lon="8.882163"><ele>43.5</ele></trkpt>
   <trkpt lat="52.879117" lon="8.881792"><ele>43.75</ele></trkpt>
   <trkpt lat="52.87913" lon="8.881213"><ele>44.75</ele></trkpt>
   <trkpt lat="52.879131" lon="8.880871"><ele>45</ele></trkpt>
   <trkpt lat="52.879133" lon="8.88003"><ele>45</ele></trkpt>
   <trkpt lat="52.87914" lon="8.877993"><ele>47</ele></trkpt>
   <trkpt lat="52.879143" lon="8.877098"><ele>47</ele></trkpt>
   <trkpt lat="52.879143" lon="8.876854"><ele>47</ele></trkpt>
   <trkpt lat="52.879149" lon="8.874664"><ele>46.5</ele></trkpt>
   <trkpt lat="52.87915" lon="8.874534"><ele>46.25</ele></trkpt>
   <trkpt lat="52.879139" lon="8.874174"><ele>45.75</ele></trkpt>
   <trkpt lat="52.879109" lon="8.873837"><ele>45.75</ele></trkpt>
   <trkpt lat="52.879088" lon="8.873687"><ele>45.5</ele></trkpt>
   <trkpt lat="52.87907" lon="8.873553"><ele>45.5</ele></trkpt>
   <trkpt lat="52.878972" lon="8.873012"><ele>45.25</ele></trkpt>
   <trkpt lat="52.878914" lon="8.87269"><ele>45</ele></trkpt>
   <trkpt lat="52.87888" lon="8.872493"><ele>45</ele></trkpt>
   <trkpt lat="52.878801" lon="8.87212"><ele>45</ele></trkpt>
   <trkpt lat="52.878745" lon="8.871899"><ele>45</ele></trkpt>
   <trkpt lat="52.878604" lon="8.871431"><ele>44.75</ele></trkpt>
   <trkpt lat="52.878092" lon="8.869927"><ele>43.25</ele></trkpt>
   <trkpt lat="52.878007" lon="8.869697"><ele>43.75</ele></trkpt>
   <trkpt lat="52.877819" lon="8.869263"><ele>43</ele></trkpt>
   <trkpt lat="52.877504" lon="8.86863"><ele>44</ele></trkpt>
   <trkpt lat="52.877358" lon="8.868388"><ele>44</ele></trkpt>
   <trkpt lat="52.877246" lon="8.868278"><ele>44</ele></trkpt>
   <trkpt lat="52.877148" lon="8.8682"><ele>44.25</ele></trkpt>
   <trkpt lat="52.876223" lon="8.867676"><ele>45</ele></trkpt>
   <trkpt lat="52.875164" lon="8.867215"><ele>46</ele></trkpt>
   <trkpt lat="52.875067" lon="8.867159"><ele>46</ele></trkpt>
   <trkpt lat="52.874867" lon="8.867035"><ele>46.75</ele></trkpt>
   <trkpt lat="52.874668" lon="8.86689"><ele>47</ele></trkpt>
   <trkpt lat="52.87457" lon="8.86679"><ele>47</ele></trkpt>
   <trkpt lat="52.874526" lon="8.866723"><ele>47</ele></trkpt>
   <trkpt lat="52.874472" lon="8.866639"><ele>47</ele></trkpt>
   <trkpt lat="52.874754" lon="8.86629"><ele>47</ele></trkpt>
   <trkpt lat="52.874823" lon="8.866215"><ele>47</ele></trkpt>
   <trkpt lat="52.874837" lon="8.8662"><ele>47</ele></trkpt>
   <trkpt lat="52.874953" lon="8.866081"><ele>47</ele></trkpt>
   <trkpt lat="52.875201" lon="8.865866"><ele>47</ele></trkpt>
   <trkpt lat="52.875416" lon="8.865686"><ele>46.75</ele></trkpt>
   <trkpt lat="52.875774" lon="8.865489"><ele>46.25</ele></trkpt>
   <trkpt lat="52.876933" lon="8.865062"><ele>46</ele></trkpt>
   <trkpt lat="52.877333" lon="8.864922"><ele>46</ele></trkpt>
   <trkpt lat="52.87736" lon="8.864912"><ele>46</ele></trkpt>
   <trkpt lat="52.87769" lon="8.864796"><ele>46</ele></trkpt>
   <trkpt lat="52.878191" lon="8.864619"><ele>46</ele></trkpt>
   <trkpt lat="52.878555" lon="8.864459"><ele>46</ele></trkpt>
   <trkpt lat="52.878636" lon="8.864419"><ele>46</ele></trkpt>
   <trkpt lat="52.87886" lon="8.864293"><ele>46</ele></trkpt>
   <trkpt lat="52.879016" lon="8.864183"><ele>46</ele></trkpt>
   <trkpt lat="52.879114" lon="8.864098"><ele>46</ele></trkpt>
   <trkpt lat="52.879415" lon="8.863803"><ele>46</ele></trkpt>
   <trkpt lat="52.879548" lon="8.863648"><ele>46</ele></trkpt>
   <trkpt lat="52.879648" lon="8.863525"><ele>46</ele></trkpt>
   <trkpt lat="52.879688" lon="8.863475"><ele>46</ele></trkpt>
   <trkpt lat="52.879875" lon="8.863234"><ele>46</ele></trkpt>
   <trkpt lat="52.879955" lon="8.863123"><ele>46</ele></trkpt>
   <trkpt lat="52.88" lon="8.863059"><ele>46</ele></trkpt>
   <trkpt lat="52.880319" lon="8.862647"><ele>46.75</ele></trkpt>
   <trkpt lat="52.8807" lon="8.86211"><ele>47</ele></trkpt>
   <trkpt lat="52.880871" lon="8.861868"><ele>47</ele></trkpt>
   <trkpt lat="52.880952" lon="8.861753"><ele>47</ele></trkpt>
   <trkpt lat="52.881118" lon="8.861517"><ele>47</ele></trkpt>
   <trkpt lat="52.881457" lon="8.861036"><ele>47.25</ele></trkpt>
   <trkpt lat="52.881818" lon="8.860519"><ele>48</ele></trkpt>
   <trkpt lat="52.882044" lon="8.860207"><ele>48</ele></trkpt>
   <trkpt lat="52.882075" lon="8.860165"><ele>48</ele></trkpt>
   <trkpt lat="52.882387" lon="8.85971"><ele>48</ele></trkpt>
   <trkpt lat="52.882499" lon="8.859552"><ele>48</ele></trkpt>
   <trkpt lat="52.882927" lon="8.858949"><ele>48</ele></trkpt>
   <trkpt lat="52.883264" lon="8.858474"><ele>48</ele></trkpt>
   <trkpt lat="52.884316" lon="8.856986"><ele>48</ele></trkpt>
   <trkpt lat="52.88477" lon="8.856258"><ele>48</ele></trkpt>
   <trkpt lat="52.884911" lon="8.855994"><ele>48</ele></trkpt>
   <trkpt lat="52.885071" lon="8.855652"><ele>48</ele></trkpt>
   <trkpt lat="52.885422" lon="8.854854"><ele>48</ele></trkpt>
   <trkpt lat="52.886396" lon="8.852563"><ele>48</ele></trkpt>
   <trkpt lat="52.886817" lon="8.851606"><ele>47</ele></trkpt>
   <trkpt lat="52.887" lon="8.851226"><ele>47</ele></trkpt>
   <trkpt lat="52.887156" lon="8.850919"><ele>47</ele></trkpt>
   <trkpt lat="52.887322" lon="8.850628"><ele>47</ele></trkpt>
   <trkpt lat="52.887538" lon="8.850309"><ele>46</ele></trkpt>
   <trkpt lat="52.887889" lon="8.849887"><ele>46</ele></trkpt>
   <trkpt lat="52.888173" lon="8.849607"><ele>46</ele></trkpt>
   <trkpt lat="52.888462" lon="8.84938"><ele>46</ele></trkpt>
   <trkpt lat="52.888745" lon="8.849194"><ele>46</ele></trkpt>
   <trkpt lat="52.889121" lon="8.849"><ele>45</ele></trkpt>
   <trkpt lat="52.890429" lon="8.848484"><ele>45</ele></trkpt>
   <trkpt lat="52.894749" lon="8.846843"><ele>42</ele></trkpt>
   <trkpt lat="52.895003" lon="8.846747"><ele>42</ele></trkpt>
   <trkpt lat="52.895049" lon="8.846731"><ele>42</ele></trkpt>
   <trkpt lat="52.895295" lon="8.846639"><ele>42</ele></trkpt>
   <trkpt lat="52.896417" lon="8.846226"><ele>43</ele></trkpt>
   <trkpt lat="52.896845" lon="8.846059"><ele>43</ele></trkpt>
   <trkpt lat="52.897179" lon="8.845937"><ele>43</ele></trkpt>
   <trkpt lat="52.897751" lon="8.845713"><ele>43</ele></trkpt>
   <trkpt lat="52.898423" lon="8.845471"><ele>43</ele></trkpt>
   <trkpt lat="52.898669" lon="8.845364"><ele>43</ele></trkpt>
   <trkpt lat="52.898907" lon="8.84524"><ele>43</ele></trkpt>
   <trkpt lat="52.8991" lon="8.845121"><ele>43</ele></trkpt>
   <trkpt lat="52.8993" lon="8.844976"><ele>43</ele></trkpt>
   <trkpt lat="52.89961" lon="8.844687"><ele>43</ele></trkpt>
   <trkpt lat="52.899938" lon="8.844354"><ele>43</ele></trkpt>
   <trkpt lat="52.900632" lon="8.843611"><ele>44</ele></trkpt>
   <trkpt lat="52.901187" lon="8.843021"><ele>44.25</ele></trkpt>
   <trkpt lat="52.901362" lon="8.84284"><ele>44.75</ele></trkpt>
   <trkpt lat="52.901914" lon="8.842248"><ele>45</ele></trkpt>
   <trkpt lat="52.902452" lon="8.841672"><ele>45</ele></trkpt>
   <trkpt lat="52.902702" lon="8.841404"><ele>45</ele></trkpt>
   <trkpt lat="52.90305" lon="8.841049"><ele>45</ele></trkpt>
   <trkpt lat="52.903091" lon="8.841006"><ele>45</ele></trkpt>
   <trkpt lat="52.903127" lon="8.840969"><ele>45</ele></trkpt>
   <trkpt lat="52.90322" lon="8.840866"><ele>45</ele></trkpt>
   <trkpt lat="52.903404" lon="8.840649"><ele>44.75</ele></trkpt>
   <trkpt lat="52.903801" lon="8.840199"><ele>44</ele></trkpt>
   <trkpt lat="52.903912" lon="8.840066"><ele>43.75</ele></trkpt>
   <trkpt lat="52.903951" lon="8.840018"><ele>43.75</ele></trkpt>
   <trkpt lat="52.904612" lon="8.839198"><ele>42</ele></trkpt>
   <trkpt lat="52.90508" lon="8.838557"><ele>39</ele></trkpt>
   <trkpt lat="52.905597" lon="8.837867"><ele>37</ele></trkpt>
   <trkpt lat="52.905685" lon="8.83775"><ele>35.75</ele></trkpt>
   <trkpt lat="52.90612" lon="8.837146"><ele>32.5</ele></trkpt>
   <trkpt lat="52.906194" lon="8.837039"><ele>32.25</ele></trkpt>
   <trkpt lat="52.906291" lon="8.836974"><ele>32</ele></trkpt>
   <trkpt lat="52.906653" lon="8.836444"><ele>30.75</ele></trkpt>
   <trkpt lat="52.906748" lon="8.836241"><ele>30.5</ele></trkpt>
   <trkpt lat="52.907358" lon="8.835368"><ele>30.5</ele></trkpt>
   <trkpt lat="52.907572" lon="8.83506"><ele>30.25</ele></trkpt>
   <trkpt lat="52.907856" lon="8.834678"><ele>30</ele></trkpt>
   <trkpt lat="52.907977" lon="8.834504"><ele>30</ele></trkpt>
   <trkpt lat="52.908344" lon="8.834003"><ele>29.75</ele></trkpt>
   <trkpt lat="52.908534" lon="8.833742"><ele>29</ele></trkpt>
   <trkpt lat="52.90901" lon="8.83306"><ele>28</ele></trkpt>
   <trkpt lat="52.909627" lon="8.832211"><ele>27</ele></trkpt>
   <trkpt lat="52.909793" lon="8.831983"><ele>26.5</ele></trkpt>
   <trkpt lat="52.909993" lon="8.831707"><ele>26</ele></trkpt>
   <trkpt lat="52.910128" lon="8.83152"><ele>25.25</ele></trkpt>
   <trkpt lat="52.910698" lon="8.830734"><ele>23.25</ele></trkpt>
   <trkpt lat="52.910756" lon="8.830654"><ele>22.75</ele></trkpt>
   <trkpt lat="52.910804" lon="8.830589"><ele>22.25</ele></trkpt>
   <trkpt lat="52.910858" lon="8.830515"><ele>21.75</ele></trkpt>
   <trkpt lat="52.910905" lon="8.830452"><ele>21.5</ele></trkpt>
   <trkpt lat="52.910963" lon="8.830373"><ele>21</ele></trkpt>
   <trkpt lat="52.911024" lon="8.830294"><ele>20.5</ele></trkpt>
   <trkpt lat="52.911048" lon="8.830263"><ele>20.25</ele></trkpt>
   <trkpt lat="52.911127" lon="8.830159"><ele>20</ele></trkpt>
   <trkpt lat="52.911358" lon="8.829822"><ele>20</ele></trkpt>
   <trkpt lat="52.911575" lon="8.829462"><ele>19</ele></trkpt>
   <trkpt lat="52.911754" lon="8.829082"><ele>19</ele></trkpt>
   <trkpt lat="52.911875" lon="8.828829"><ele>19</ele></trkpt>
   <trkpt lat="52.911887" lon="8.828802"><ele>19</ele></trkpt>
   <trkpt lat="52.91194" lon="8.828692"><ele>19</ele></trkpt>
   <trkpt lat="52.912033" lon="8.828497"><ele>19.25</ele></trkpt>
   <trkpt lat="52.912145" lon="8.828291"><ele>19.5</ele></trkpt>
   <trkpt lat="52.912198" lon="8.828373"><ele>19.75</ele></trkpt>
   <trkpt lat="52.912209" lon="8.828399"><ele>19.75</ele></trkpt>
   <trkpt lat="52.912238" lon="8.828518"><ele>20</ele></trkpt>
   <trkpt lat="52.912273" lon="8.828849"><ele>20</ele></trkpt>
   <trkpt lat="52.912312" lon="8.829215"><ele>20</ele></trkpt>
   <trkpt lat="52.912341" lon="8.829474"><ele>20</ele></trkpt>
   <trkpt lat="52.912351" lon="8.829694"><ele>20</ele></trkpt>
   <trkpt lat="52.912349" lon="8.82997"><ele>20.25</ele></trkpt>
   <trkpt lat="52.912317" lon="8.830351"><ele>20.5</ele></trkpt>
   <trkpt lat="52.912243" lon="8.830831"><ele>21</ele></trkpt>
   <trkpt lat="52.912193" lon="8.831149"><ele>20.75</ele></trkpt>
   <trkpt lat="52.912185" lon="8.831207"><ele>20.75</ele></trkpt>
   <trkpt lat="52.912092" lon="8.831812"><ele>20.5</ele></trkpt>
   <trkpt lat="52.912033" lon="8.832249"><ele>21</ele></trkpt>
   <trkpt lat="52.911869" lon="8.832363"><ele>20.5</ele></trkpt>
   <trkpt lat="52.911819" lon="8.832405"><ele>20.5</ele></trkpt>
   <trkpt lat="52.911766" lon="8.832453"><ele>20.25</ele></trkpt>
   <trkpt lat="52.911615" lon="8.832037"><ele>20</ele></trkpt>
   <trkpt lat="52.911501" lon="8.831746"><ele>20</ele></trkpt>
   <trkpt lat="52.911395" lon="8.831468"><ele>20</ele></trkpt>
   <trkpt lat="52.911092" lon="8.830787"><ele>21</ele></trkpt>
   <trkpt lat="52.911086" lon="8.830679"><ele>21</ele></trkpt>
   <trkpt lat="52.911047" lon="8.830571"><ele>21</ele></trkpt>
   <trkpt lat="52.911021" lon="8.830505"><ele>21</ele></trkpt>
   <trkpt lat="52.910963" lon="8.830373"><ele>21</ele></trkpt>
   <trkpt lat="52.910916" lon="8.830264"><ele>21.25</ele></trkpt>
   <trkpt lat="52.910838" lon="8.830094"><ele>21.25</ele></trkpt>
   <trkpt lat="52.910781" lon="8.830051"><ele>21.25</ele></trkpt>
   <trkpt lat="52.910639" lon="8.829777"><ele>20.75</ele></trkpt>
   <trkpt lat="52.910427" lon="8.829296"><ele>19.25</ele></trkpt>
   <trkpt lat="52.910273" lon="8.828884"><ele>19</ele></trkpt>
   <trkpt lat="52.91012" lon="8.828447"><ele>19</ele></trkpt>
   <trkpt lat="52.910043" lon="8.8282"><ele>19</ele></trkpt>
   <trkpt lat="52.909939" lon="8.827779"><ele>19</ele></trkpt>
   <trkpt lat="52.909856" lon="8.827391"><ele>19</ele></trkpt>
   <trkpt lat="52.909812" lon="8.82716"><ele>19</ele></trkpt>
   <trkpt lat="52.909763" lon="8.826741"><ele>19</ele></trkpt>
   <trkpt lat="52.909729" lon="8.826324"><ele>19</ele></trkpt>
   <trkpt lat="52.909718" lon="8.826054"><ele>19</ele></trkpt>
   <trkpt lat="52.909715" lon="8.825758"><ele>19</ele></trkpt>
   <trkpt lat="52.909729" lon="8.825192"><ele>19.25</ele></trkpt>
   <trkpt lat="52.909746" lon="8.824887"><ele>19.75</ele></trkpt>
   <trkpt lat="52.909776" lon="8.824628"><ele>19.75</ele></trkpt>
   <trkpt lat="52.909879" lon="8.823949"><ele>20</ele></trkpt>
   <trkpt lat="52.910021" lon="8.823161"><ele>19.75</ele></trkpt>
   <trkpt lat="52.910107" lon="8.822687"><ele>20</ele></trkpt>
   <trkpt lat="52.910459" lon="8.820902"><ele>19</ele></trkpt>
   <trkpt lat="52.910608" lon="8.819877"><ele>19</ele></trkpt>
   <trkpt lat="52.910782" lon="8.818857"><ele>19</ele></trkpt>
   <trkpt lat="52.910826" lon="8.818605"><ele>19</ele></trkpt>
   <trkpt lat="52.910879" lon="8.818324"><ele>19</ele></trkpt>
   <trkpt lat="52.910974" lon="8.817755"><ele>19</ele></trkpt>
   <trkpt lat="52.911036" lon="8.817395"><ele>19</ele></trkpt>
   <trkpt lat="52.911127" lon="8.816737"><ele>20</ele></trkpt>
   <trkpt lat="52.911181" lon="8.816221"><ele>20.25</ele></trkpt>
   <trkpt lat="52.911207" lon="8.815776"><ele>20.25</ele></trkpt>
   <trkpt lat="52.911205" lon="8.815068"><ele>21.75</ele></trkpt>
   <trkpt lat="52.911182" lon="8.814249"><ele>23</ele></trkpt>
   <trkpt lat="52.911096" lon="8.811881"><ele>26</ele></trkpt>
   <trkpt lat="52.911032" lon="8.811094"><ele>27</ele></trkpt>
   <trkpt lat="52.911004" lon="8.81087"><ele>27</ele></trkpt>
   <trkpt lat="52.910968" lon="8.810655"><ele>27</ele></trkpt>
   <trkpt lat="52.910922" lon="8.810387"><ele>27.5</ele></trkpt>
   <trkpt lat="52.910818" lon="8.809948"><ele>28</ele></trkpt>
   <trkpt lat="52.910948" lon="8.809872"><ele>28</ele></trkpt>
   <trkpt lat="52.910992" lon="8.809858"><ele>28</ele></trkpt>
   <trkpt lat="52.911175" lon="8.809849"><ele>28</ele></trkpt>
   <trkpt lat="52.911476" lon="8.809829"><ele>28.25</ele></trkpt>
   <trkpt lat="52.91255" lon="8.809706"><ele>29</ele></trkpt>
   <trkpt lat="52.912669" lon="8.809682"><ele>29</ele></trkpt>
   <trkpt lat="52.912772" lon="8.809648"><ele>29.25</ele></trkpt>
   <trkpt lat="52.913145" lon="8.809495"><ele>29.75</ele></trkpt>
   <trkpt lat="52.913375" lon="8.8094"><ele>30</ele></trkpt>
   <trkpt lat="52.9134" lon="8.80939"><ele>30</ele></trkpt>
   <trkpt lat="52.91402" lon="8.809136"><ele>31</ele></trkpt>
   <trkpt lat="52.914157" lon="8.809079"><ele>31</ele></trkpt>
   <trkpt lat="52.914528" lon="8.808926"><ele>31.75</ele></trkpt>
   <trkpt lat="52.914639" lon="8.808918"><ele>31.75</ele></trkpt>
   <trkpt lat="52.914881" lon="8.808961"><ele>31.5</ele></trkpt>
   <trkpt lat="52.914933" lon="8.808971"><ele>31.5</ele></trkpt>
   <trkpt lat="52.915052" lon="8.808993"><ele>31.5</ele></trkpt>
   <trkpt lat="52.9151" lon="8.808976"><ele>31.75</ele></trkpt>
   <trkpt lat="52.915133" lon="8.809089"><ele>31.5</ele></trkpt>
   <trkpt lat="52.915171" lon="8.80914"><ele>31.5</ele></trkpt>
   <trkpt lat="52.915221" lon="8.809189"><ele>31.5</ele></trkpt>
   <trkpt lat="52.91531" lon="8.809197"><ele>31.75</ele></trkpt>
   <trkpt lat="52.915392" lon="8.809194"><ele>31.75</ele></trkpt>
   <trkpt lat="52.915437" lon="8.809191"><ele>31.75</ele></trkpt>
  </trkseg>
 </trk>
</gpx>