<?xml version="1.0" encoding="UTF-8"?>
<!-- track-length = 643 filtered ascend = 1 plain-ascend = 1 cost=643 energy=0.0kwh time=51s -->
<gpx 
 xmlns="http://www.topografix.com/GPX/1/1" 
 xmlns:xsi="http://www.w3.org/2001/XMLSchema-instance" 
 xsi:schemaLocation="http://www.topografix.com/GPX/1/1 http://www.topografix.com/GPX/1/1/gpx.xsd" 
 version="1.1" 
 creator="BRouter-Web 0.18.1">
 <trk>
  <name>007 Eskilom - Pajamäki</name>
  <trkseg>
   <trkpt lat="60.598429" lon="26.083427"><ele>33.75</ele></trkpt>
   <trkpt lat="60.599599" lon="26.081192"><ele>34</ele></trkpt>
   <trkpt lat="60.601197" lon="26.078234"><ele>32.5</ele></trkpt>
   <trkpt lat="60.601859" lon="26.077115"><ele>33.25</ele></trkpt>
   <trkpt lat="60.602095" lon="26.076785"><ele>33.5</ele></trkpt>
   <trkpt lat="60.602372" lon="26.076485"><ele>33.25</ele></trkpt>
   <trkpt lat="60.602594" lon="26.076267"><ele>33.75</ele></trkpt>
   <trkpt lat="60.60287" lon="26.076062"><ele>34.75</ele></trkpt>
  </trkseg>
 </trk>
</gpx>