<?xml version="1.0" encoding="UTF-8"?>
<!-- track-length = 2334 filtered ascend = 0 plain-ascend = -6 cost=2334 energy=0.0kwh time=3m 7s -->
<gpx 
 xmlns="http://www.topografix.com/GPX/1/1" 
 xmlns:xsi="http://www.w3.org/2001/XMLSchema-instance" 
 xsi:schemaLocation="http://www.topografix.com/GPX/1/1 http://www.topografix.com/GPX/1/1/gpx.xsd" 
 version="1.1" 
 creator="BRouter-Web 0.18.1">
 <trk>
  <name>007 Rekisuo - Sudenkivi</name>
  <trkseg>
   <trkpt lat="60.74264" lon="25.869339"><ele>67</ele></trkpt>
   <trkpt lat="60.742427" lon="25.869417"><ele>66.75</ele></trkpt>
   <trkpt lat="60.741078" lon="25.869833"><ele>66.25</ele></trkpt>
   <trkpt lat="60.738848" lon="25.870581"><ele>66.75</ele></trkpt>
   <trkpt lat="60.733913" lon="25.872229"><ele>66.75</ele></trkpt>
   <trkpt lat="60.733582" lon="25.872389"><ele>65.75</ele></trkpt>
   <trkpt lat="60.733222" lon="25.872645"><ele>66</ele></trkpt>
   <trkpt lat="60.732747" lon="25.873105"><ele>66</ele></trkpt>
   <trkpt lat="60.732347" lon="25.87365"><ele>66</ele></trkpt>
   <trkpt lat="60.732058" lon="25.874138"><ele>66.75</ele></trkpt>
   <trkpt lat="60.731795" lon="25.874681"><ele>65.75</ele></trkpt>
   <trkpt lat="60.731466" lon="25.875565"><ele>65</ele></trkpt>
   <trkpt lat="60.731246" lon="25.876494"><ele>64</ele></trkpt>
   <trkpt lat="60.731059" lon="25.877411"><ele>63.5</ele></trkpt>
   <trkpt lat="60.731032" lon="25.877613"><ele>63</ele></trkpt>
   <trkpt lat="60.730584" lon="25.880631"><ele>64.75</ele></trkpt>
   <trkpt lat="60.73046" lon="25.881264"><ele>65</ele></trkpt>
   <trkpt lat="60.730298" lon="25.881865"><ele>64.75</ele></trkpt>
   <trkpt lat="60.730104" lon="25.882506"><ele>65.5</ele></trkpt>
   <trkpt lat="60.729883" lon="25.883143"><ele>64.75</ele></trkpt>
   <trkpt lat="60.728723" lon="25.886381"><ele>62.25</ele></trkpt>
   <trkpt lat="60.727401" lon="25.890109"><ele>60.5</ele></trkpt>
   <trkpt lat="60.72685" lon="25.891306"><ele>59.75</ele></trkpt>
  </trkseg>
 </trk>
</gpx>