<?xml version="1.0" encoding="UTF-8"?>
<!-- track-length = 2408 filtered ascend = 8 plain-ascend = 3 cost=2408 energy=0.0kwh time=3m 13s -->
<gpx 
 xmlns="http://www.topografix.com/GPX/1/1" 
 xmlns:xsi="http://www.w3.org/2001/XMLSchema-instance" 
 xsi:schemaLocation="http://www.topografix.com/GPX/1/1 http://www.topografix.com/GPX/1/1/gpx.xsd" 
 version="1.1" 
 creator="BRouter-Web 0.18.1">
 <trk>
  <name>007 Ollonen - Pakaa</name>
  <trkseg>
   <trkpt lat="60.767939" lon="25.806398"><ele>67.5</ele></trkpt>
   <trkpt lat="60.767741" lon="25.806671"><ele>67.75</ele></trkpt>
   <trkpt lat="60.766977" lon="25.807496"><ele>66.75</ele></trkpt>
   <trkpt lat="60.766545" lon="25.807909"><ele>66.5</ele></trkpt>
   <trkpt lat="60.764747" lon="25.809941"><ele>65.75</ele></trkpt>
   <trkpt lat="60.763771" lon="25.811424"><ele>65.5</ele></trkpt>
   <trkpt lat="60.762968" lon="25.812788"><ele>64.5</ele></trkpt>
   <trkpt lat="60.761691" lon="25.815615"><ele>64.5</ele></trkpt>
   <trkpt lat="60.760404" lon="25.81918"><ele>64</ele></trkpt>
   <trkpt lat="60.759673" lon="25.821276"><ele>66</ele></trkpt>
   <trkpt lat="60.759045" lon="25.823364"><ele>67</ele></trkpt>
   <trkpt lat="60.758634" lon="25.82567"><ele>69</ele></trkpt>
   <trkpt lat="60.758473" lon="25.829349"><ele>75.5</ele></trkpt>
   <trkpt lat="60.758419" lon="25.831073"><ele>72.25</ele></trkpt>
   <trkpt lat="60.758317" lon="25.833186"><ele>72</ele></trkpt>
   <trkpt lat="60.758248" lon="25.833866"><ele>71</ele></trkpt>
   <trkpt lat="60.758174" lon="25.834472"><ele>71</ele></trkpt>
   <trkpt lat="60.75806" lon="25.835245"><ele>71</ele></trkpt>
   <trkpt lat="60.757817" lon="25.836409"><ele>70.75</ele></trkpt>
   <trkpt lat="60.757556" lon="25.83763"><ele>70.75</ele></trkpt>
   <trkpt lat="60.756748" lon="25.841119"><ele>70.75</ele></trkpt>
   <trkpt lat="60.756704" lon="25.84131"><ele>70.25</ele></trkpt>
  </trkseg>
 </trk>
</gpx>