<?xml version="1.0" encoding="UTF-8"?>
<!-- track-length = 2839 filtered ascend = 8 plain-ascend = 3 cost=2839 energy=0.0kwh time=3m 47s -->
<gpx 
 xmlns="http://www.topografix.com/GPX/1/1" 
 xmlns:xsi="http://www.w3.org/2001/XMLSchema-instance" 
 xsi:schemaLocation="http://www.topografix.com/GPX/1/1 http://www.topografix.com/GPX/1/1/gpx.xsd" 
 version="1.1" 
 creator="BRouter-Web 0.18.1">
 <trk>
  <name>007 Artjärvi - Sudenkivi</name>
  <trkseg>
   <trkpt lat="60.709392" lon="25.928832"><ele>57.25</ele></trkpt>
   <trkpt lat="60.710831" lon="25.925924"><ele>59.75</ele></trkpt>
   <trkpt lat="60.711127" lon="25.925323"><ele>60.25</ele></trkpt>
   <trkpt lat="60.712653" lon="25.923099"><ele>61.75</ele></trkpt>
   <trkpt lat="60.713083" lon="25.922211"><ele>59.5</ele></trkpt>
   <trkpt lat="60.713479" lon="25.921256"><ele>56.75</ele></trkpt>
   <trkpt lat="60.714173" lon="25.919485"><ele>55.5</ele></trkpt>
   <trkpt lat="60.714808" lon="25.917839"><ele>53.75</ele></trkpt>
   <trkpt lat="60.715333" lon="25.916626"><ele>53.75</ele></trkpt>
   <trkpt lat="60.715883" lon="25.915424"><ele>51.5</ele></trkpt>
   <trkpt lat="60.718301" lon="25.910352"><ele>52.5</ele></trkpt>
   <trkpt lat="60.720259" lon="25.906279"><ele>56</ele></trkpt>
   <trkpt lat="60.721287" lon="25.904146"><ele>53.75</ele></trkpt>
   <trkpt lat="60.721732" lon="25.903401"><ele>52.25</ele></trkpt>
   <trkpt lat="60.722085" lon="25.902873"><ele>51.5</ele></trkpt>
   <trkpt lat="60.722547" lon="25.902246"><ele>52</ele></trkpt>
   <trkpt lat="60.722703" lon="25.902012"><ele>52.25</ele></trkpt>
   <trkpt lat="60.723003" lon="25.901496"><ele>52</ele></trkpt>
   <trkpt lat="60.723181" lon="25.901149"><ele>51.5</ele></trkpt>
   <trkpt lat="60.723352" lon="25.900748"><ele>52.5</ele></trkpt>
   <trkpt lat="60.72462" lon="25.89697"><ele>52.5</ele></trkpt>
   <trkpt lat="60.725497" lon="25.894248"><ele>57.25</ele></trkpt>
   <trkpt lat="60.726067" lon="25.892955"><ele>58.25</ele></trkpt>
   <trkpt lat="60.726798" lon="25.891421"><ele>59.75</ele></trkpt>
   <trkpt lat="60.72685" lon="25.891306"><ele>60.5</ele></trkpt>
  </trkseg>
 </trk>
</gpx>