<?xml version="1.0" encoding="UTF-8"?>
<!-- track-length = 2047 filtered ascend = 4 plain-ascend = 3 cost=2047 energy=0.0kwh time=2m 44s -->
<gpx 
 xmlns="http://www.topografix.com/GPX/1/1" 
 xmlns:xsi="http://www.w3.org/2001/XMLSchema-instance" 
 xsi:schemaLocation="http://www.topografix.com/GPX/1/1 http://www.topografix.com/GPX/1/1/gpx.xsd" 
 version="1.1" 
 creator="BRouter-Web 0.18.1">
 <trk>
  <name>007 Michelspiltom - Pakkala</name>
  <trkseg>
   <trkpt lat="60.615568" lon="26.030483"><ele>23.75</ele></trkpt>
   <trkpt lat="60.615767" lon="26.029989"><ele>23.75</ele></trkpt>
   <trkpt lat="60.615827" lon="26.029866"><ele>23.5</ele></trkpt>
   <trkpt lat="60.616272" lon="26.029056"><ele>23.5</ele></trkpt>
   <trkpt lat="60.617796" lon="26.026489"><ele>24</ele></trkpt>
   <trkpt lat="60.618103" lon="26.026042"><ele>24.75</ele></trkpt>
   <trkpt lat="60.618522" lon="26.025507"><ele>24.5</ele></trkpt>
   <trkpt lat="60.61909" lon="26.024917"><ele>25.25</ele></trkpt>
   <trkpt lat="60.620008" lon="26.024202"><ele>25.75</ele></trkpt>
   <trkpt lat="60.623584" lon="26.021544"><ele>26</ele></trkpt>
   <trkpt lat="60.623691" lon="26.021462"><ele>26</ele></trkpt>
   <trkpt lat="60.626079" lon="26.019706"><ele>24.75</ele></trkpt>
   <trkpt lat="60.62707" lon="26.018967"><ele>24.25</ele></trkpt>
   <trkpt lat="60.629301" lon="26.017279"><ele>25.75</ele></trkpt>
   <trkpt lat="60.630154" lon="26.016665"><ele>26</ele></trkpt>
   <trkpt lat="60.630489" lon="26.016391"><ele>26.75</ele></trkpt>
   <trkpt lat="60.630683" lon="26.016215"><ele>26</ele></trkpt>
   <trkpt lat="60.63103" lon="26.015857"><ele>26.5</ele></trkpt>
   <trkpt lat="60.63185" lon="26.014842"><ele>27.5</ele></trkpt>
   <trkpt lat="60.631911" lon="26.014772"><ele>27.75</ele></trkpt>
   <trkpt lat="60.632012" lon="26.014643"><ele>27</ele></trkpt>
  </trkseg>
 </trk>
</gpx>