<?xml version="1.0" encoding="UTF-8"?>
<!-- track-length = 1241 filtered ascend = 1 plain-ascend = 1 cost=1241 energy=0.0kwh time=1m 39s -->
<gpx 
 xmlns="http://www.topografix.com/GPX/1/1" 
 xmlns:xsi="http://www.w3.org/2001/XMLSchema-instance" 
 xsi:schemaLocation="http://www.topografix.com/GPX/1/1 http://www.topografix.com/GPX/1/1/gpx.xsd" 
 version="1.1" 
 creator="BRouter-Web 0.18.1">
 <trk>
  <name>007 Etelä-Orimattila - Orimattila Weiche 002</name>
  <trkseg>
   <trkpt lat="60.803754" lon="25.756247"><ele>72.5</ele></trkpt>
   <trkpt lat="60.803813" lon="25.755955"><ele>72.75</ele></trkpt>
   <trkpt lat="60.803944" lon="25.755426"><ele>72.25</ele></trkpt>
   <trkpt lat="60.804081" lon="25.754978"><ele>72</ele></trkpt>
   <trkpt lat="60.804222" lon="25.754564"><ele>72.25</ele></trkpt>
   <trkpt lat="60.804328" lon="25.754278"><ele>71.5</ele></trkpt>
   <trkpt lat="60.804521" lon="25.753858"><ele>71.5</ele></trkpt>
   <trkpt lat="60.804595" lon="25.753705"><ele>71.25</ele></trkpt>
   <trkpt lat="60.804682" lon="25.753526"><ele>71.25</ele></trkpt>
   <trkpt lat="60.805012" lon="25.752983"><ele>71</ele></trkpt>
   <trkpt lat="60.80542" lon="25.752459"><ele>70.5</ele></trkpt>
   <trkpt lat="60.805707" lon="25.752193"><ele>69.75</ele></trkpt>
   <trkpt lat="60.805944" lon="25.752014"><ele>69.5</ele></trkpt>
   <trkpt lat="60.806315" lon="25.751796"><ele>68</ele></trkpt>
   <trkpt lat="60.806646" lon="25.751636"><ele>69.5</ele></trkpt>
   <trkpt lat="60.807333" lon="25.751307"><ele>69.25</ele></trkpt>
   <trkpt lat="60.809217" lon="25.750446"><ele>70</ele></trkpt>
   <trkpt lat="60.809639" lon="25.750248"><ele>70.5</ele></trkpt>
   <trkpt lat="60.810714" lon="25.749747"><ele>70.75</ele></trkpt>
   <trkpt lat="60.811486" lon="25.749411"><ele>71.75</ele></trkpt>
   <trkpt lat="60.812079" lon="25.749262"><ele>71.25</ele></trkpt>
   <trkpt lat="60.813421" lon="25.748985"><ele>73.5</ele></trkpt>
   <trkpt lat="60.813546" lon="25.748959"><ele>73.5</ele></trkpt>
   <trkpt lat="60.81381" lon="25.748894"><ele>73.75</ele></trkpt>
  </trkseg>
 </trk>
</gpx>