<?xml version="1.0" encoding="UTF-8"?>
<!-- track-length = 2320 filtered ascend = 7 plain-ascend = -9 cost=2320 energy=0.0kwh time=3m 6s -->
<gpx 
 xmlns="http://www.topografix.com/GPX/1/1" 
 xmlns:xsi="http://www.w3.org/2001/XMLSchema-instance" 
 xsi:schemaLocation="http://www.topografix.com/GPX/1/1 http://www.topografix.com/GPX/1/1/gpx.xsd" 
 version="1.1" 
 creator="BRouter-Web 0.18.1">
 <trk>
  <name>007 Eskilom - Lapinjärvi Weiche 001</name>
  <trkseg>
   <trkpt lat="60.598429" lon="26.083427"><ele>33.75</ele></trkpt>
   <trkpt lat="60.598387" lon="26.083509"><ele>33.75</ele></trkpt>
   <trkpt lat="60.598312" lon="26.083675"><ele>34.75</ele></trkpt>
   <trkpt lat="60.598136" lon="26.084072"><ele>34.5</ele></trkpt>
   <trkpt lat="60.598016" lon="26.084392"><ele>34.75</ele></trkpt>
   <trkpt lat="60.597906" lon="26.084702"><ele>34</ele></trkpt>
   <trkpt lat="60.597753" lon="26.085248"><ele>35.5</ele></trkpt>
   <trkpt lat="60.597655" lon="26.085648"><ele>35</ele></trkpt>
   <trkpt lat="60.597566" lon="26.086085"><ele>35.5</ele></trkpt>
   <trkpt lat="60.597499" lon="26.086492"><ele>36.5</ele></trkpt>
   <trkpt lat="60.597445" lon="26.086906"><ele>35.75</ele></trkpt>
   <trkpt lat="60.59738" lon="26.087508"><ele>37.25</ele></trkpt>
   <trkpt lat="60.596926" lon="26.093716"><ele>41</ele></trkpt>
   <trkpt lat="60.596348" lon="26.09844"><ele>38</ele></trkpt>
   <trkpt lat="60.596276" lon="26.099556"><ele>35.5</ele></trkpt>
   <trkpt lat="60.596276" lon="26.100348"><ele>35</ele></trkpt>
   <trkpt lat="60.596313" lon="26.101136"><ele>34.75</ele></trkpt>
   <trkpt lat="60.596442" lon="26.102277"><ele>33.75</ele></trkpt>
   <trkpt lat="60.596655" lon="26.103199"><ele>34.75</ele></trkpt>
   <trkpt lat="60.596972" lon="26.104359"><ele>34</ele></trkpt>
   <trkpt lat="60.59715" lon="26.104821"><ele>33.25</ele></trkpt>
   <trkpt lat="60.597378" lon="26.105274"><ele>33</ele></trkpt>
   <trkpt lat="60.597643" lon="26.105754"><ele>32.25</ele></trkpt>
   <trkpt lat="60.598058" lon="26.106425"><ele>31.75</ele></trkpt>
   <trkpt lat="60.598444" lon="26.107061"><ele>30</ele></trkpt>
   <trkpt lat="60.599001" lon="26.108017"><ele>30.75</ele></trkpt>
   <trkpt lat="60.599383" lon="26.108795"><ele>31.5</ele></trkpt>
   <trkpt lat="60.599574" lon="26.109242"><ele>30.5</ele></trkpt>
   <trkpt lat="60.599849" lon="26.109997"><ele>28.5</ele></trkpt>
   <trkpt lat="60.600049" lon="26.110734"><ele>29</ele></trkpt>
   <trkpt lat="60.600259" lon="26.111584"><ele>30</ele></trkpt>
   <trkpt lat="60.600387" lon="26.11228"><ele>32.75</ele></trkpt>
   <trkpt lat="60.600559" lon="26.113507"><ele>29</ele></trkpt>
   <trkpt lat="60.600662" lon="26.114733"><ele>28.5</ele></trkpt>
   <trkpt lat="60.600746" lon="26.115931"><ele>25.5</ele></trkpt>
   <trkpt lat="60.600797" lon="26.11681"><ele>26</ele></trkpt>
   <trkpt lat="60.600815" lon="26.117693"><ele>26</ele></trkpt>
   <trkpt lat="60.600802" lon="26.118136"><ele>26</ele></trkpt>
   <trkpt lat="60.600777" lon="26.118563"><ele>26</ele></trkpt>
   <trkpt lat="60.600696" lon="26.119458"><ele>26.25</ele></trkpt>
   <trkpt lat="60.600519" lon="26.12051"><ele>25.75</ele></trkpt>
   <trkpt lat="60.600437" lon="26.121001"><ele>25.5</ele></trkpt>
   <trkpt lat="60.600318" lon="26.12166"><ele>23.75</ele></trkpt>
  </trkseg>
 </trk>
</gpx>