<?xml version="1.0" encoding="UTF-8"?>
<!-- track-length = 3677 filtered ascend = 18 plain-ascend = 13 cost=3677 energy=0.0kwh time=4m 54s -->
<gpx 
 xmlns="http://www.topografix.com/GPX/1/1" 
 xmlns:xsi="http://www.w3.org/2001/XMLSchema-instance" 
 xsi:schemaLocation="http://www.topografix.com/GPX/1/1 http://www.topografix.com/GPX/1/1/gpx.xsd" 
 version="1.1" 
 creator="BRouter-Web 0.18.1">
 <trk>
  <name>007 Ollonen - Vehkamaa</name>
  <trkseg>
   <trkpt lat="60.767939" lon="25.806398"><ele>67.5</ele></trkpt>
   <trkpt lat="60.768263" lon="25.805954"><ele>67.5</ele></trkpt>
   <trkpt lat="60.768835" lon="25.805063"><ele>67.75</ele></trkpt>
   <trkpt lat="60.771185" lon="25.801131"><ele>69</ele></trkpt>
   <trkpt lat="60.772447" lon="25.798594"><ele>70</ele></trkpt>
   <trkpt lat="60.773727" lon="25.795923"><ele>71</ele></trkpt>
   <trkpt lat="60.775741" lon="25.791758"><ele>74</ele></trkpt>
   <trkpt lat="60.776215" lon="25.79085"><ele>74</ele></trkpt>
   <trkpt lat="60.777905" lon="25.788006"><ele>78.75</ele></trkpt>
   <trkpt lat="60.77949" lon="25.785309"><ele>80.75</ele></trkpt>
   <trkpt lat="60.780601" lon="25.783394"><ele>79.75</ele></trkpt>
   <trkpt lat="60.781399" lon="25.782032"><ele>80.75</ele></trkpt>
   <trkpt lat="60.782012" lon="25.780976"><ele>81.25</ele></trkpt>
   <trkpt lat="60.782537" lon="25.780126"><ele>81.25</ele></trkpt>
   <trkpt lat="60.782942" lon="25.779514"><ele>82</ele></trkpt>
   <trkpt lat="60.783385" lon="25.778971"><ele>83</ele></trkpt>
   <trkpt lat="60.783818" lon="25.778559"><ele>84.75</ele></trkpt>
   <trkpt lat="60.784305" lon="25.778153"><ele>85.5</ele></trkpt>
   <trkpt lat="60.784748" lon="25.77791"><ele>85</ele></trkpt>
   <trkpt lat="60.785211" lon="25.777741"><ele>85</ele></trkpt>
   <trkpt lat="60.785871" lon="25.777651"><ele>84.75</ele></trkpt>
   <trkpt lat="60.786406" lon="25.777709"><ele>82.75</ele></trkpt>
   <trkpt lat="60.787076" lon="25.777889"><ele>81</ele></trkpt>
   <trkpt lat="60.788621" lon="25.778372"><ele>78.5</ele></trkpt>
   <trkpt lat="60.790442" lon="25.779013"><ele>77</ele></trkpt>
   <trkpt lat="60.790934" lon="25.77914"><ele>77</ele></trkpt>
   <trkpt lat="60.791455" lon="25.779161"><ele>77</ele></trkpt>
   <trkpt lat="60.791846" lon="25.779066"><ele>76.75</ele></trkpt>
   <trkpt lat="60.792227" lon="25.778886"><ele>76.75</ele></trkpt>
   <trkpt lat="60.792521" lon="25.77868"><ele>76.75</ele></trkpt>
   <trkpt lat="60.792866" lon="25.778374"><ele>76.75</ele></trkpt>
   <trkpt lat="60.793188" lon="25.777984"><ele>77</ele></trkpt>
   <trkpt lat="60.793379" lon="25.777713"><ele>77</ele></trkpt>
   <trkpt lat="60.795174" lon="25.775144"><ele>80.75</ele></trkpt>
  </trkseg>
 </trk>
</gpx>