<?xml version="1.0" encoding="UTF-8"?>
<!-- track-length = 228 filtered ascend = 0 plain-ascend = 0 cost=228 energy=0.0kwh time=18s -->
<gpx 
 xmlns="http://www.topografix.com/GPX/1/1" 
 xmlns:xsi="http://www.w3.org/2001/XMLSchema-instance" 
 xsi:schemaLocation="http://www.topografix.com/GPX/1/1 http://www.topografix.com/GPX/1/1/gpx.xsd" 
 version="1.1" 
 creator="BRouter-Web 0.18.1">
 <trk>
  <name>007 Orimattila (Gleis 1) - Orimattila Weiche 002</name>
  <trkseg>
   <trkpt lat="60.815841" lon="25.748432"><ele>74.25</ele></trkpt>
   <trkpt lat="60.81407" lon="25.748826"><ele>73.75</ele></trkpt>
   <trkpt lat="60.813812" lon="25.748894"><ele>73.75</ele></trkpt>
   <trkpt lat="60.81381" lon="25.748894"><ele>73.5</ele></trkpt>
  </trkseg>
 </trk>
</gpx>