<?xml version="1.0" encoding="UTF-8"?>
<!-- track-length = 411 filtered ascend = 0 plain-ascend = 0 cost=822 energy=0.0kwh time=33s -->
<gpx 
 xmlns="http://www.topografix.com/GPX/1/1" 
 xmlns:xsi="http://www.w3.org/2001/XMLSchema-instance" 
 xsi:schemaLocation="http://www.topografix.com/GPX/1/1 http://www.topografix.com/GPX/1/1/gpx.xsd" 
 version="1.1" 
 creator="BRouter-Web 0.18.1">
 <trk>
  <name>Munkkisaari (Steig Südwest) - Eiranranta (Ausstieg)</name>
  <trkseg>
   <trkpt lat="60.156405" lon="24.934306"><ele>3.25</ele></trkpt>
   <trkpt lat="60.156361" lon="24.934335"><ele>3.25</ele></trkpt>
   <trkpt lat="60.155329" lon="24.934999"><ele>3</ele></trkpt>
   <trkpt lat="60.155249" lon="24.935029"><ele>3</ele></trkpt>
   <trkpt lat="60.155195" lon="24.935024"><ele>3</ele></trkpt>
   <trkpt lat="60.155142" lon="24.935001"><ele>3</ele></trkpt>
   <trkpt lat="60.155102" lon="24.93497"><ele>3</ele></trkpt>
   <trkpt lat="60.15507" lon="24.934922"><ele>3</ele></trkpt>
   <trkpt lat="60.155029" lon="24.934851"><ele>3</ele></trkpt>
   <trkpt lat="60.154986" lon="24.934724"><ele>2.75</ele></trkpt>
   <trkpt lat="60.154967" lon="24.934636"><ele>2.75</ele></trkpt>
   <trkpt lat="60.154859" lon="24.933949"><ele>3.75</ele></trkpt>
   <trkpt lat="60.154489" lon="24.931618"><ele>3</ele></trkpt>
   <trkpt lat="60.154451" lon="24.931377"><ele>3</ele></trkpt>
   <trkpt lat="60.154421" lon="24.93119"><ele>3</ele></trkpt>
   <trkpt lat="60.15433" lon="24.930605"><ele>3</ele></trkpt>
  </trkseg>
 </trk>
</gpx>