<?xml version="1.0" encoding="UTF-8"?>
<!-- track-length = 81 filtered ascend = 1 plain-ascend = 1 cost=162 energy=0.0kwh time=6s -->
<gpx 
 xmlns="http://www.topografix.com/GPX/1/1" 
 xmlns:xsi="http://www.w3.org/2001/XMLSchema-instance" 
 xsi:schemaLocation="http://www.topografix.com/GPX/1/1 http://www.topografix.com/GPX/1/1/gpx.xsd" 
 version="1.1" 
 creator="BRouter-Web 0.18.1">
 <trk>
  <name>Abzweig Altenhofer Straße Weiche 612 - Hohenschönhauser Straße (Steig Nordost-Nordwest)</name>
  <trkseg>
   <trkpt lat="52.5368" lon="13.475788"><ele>56</ele></trkpt>
   <trkpt lat="52.536585" lon="13.475051"><ele>56.75</ele></trkpt>
   <trkpt lat="52.536483" lon="13.474728"><ele>57</ele></trkpt>
   <trkpt lat="52.536481" lon="13.474724"><ele>57</ele></trkpt>
  </trkseg>
 </trk>
</gpx>