<?xml version="1.0" encoding="UTF-8"?>
<!-- track-length = 58 filtered ascend = 0 plain-ascend = 0 cost=116 energy=0.0kwh time=5s -->
<gpx 
 xmlns="http://www.topografix.com/GPX/1/1" 
 xmlns:xsi="http://www.w3.org/2001/XMLSchema-instance" 
 xsi:schemaLocation="http://www.topografix.com/GPX/1/1 http://www.topografix.com/GPX/1/1/gpx.xsd" 
 version="1.1" 
 creator="BRouter-Web 0.18.1">
 <trk>
  <name>Hohenschönhauser Straße (Steig Nordost-Nordwest) - Kreuz Hohenschönhauser Straße Weiche 076</name>
  <trkseg>
   <trkpt lat="52.536481" lon="13.474722"><ele>57</ele></trkpt>
   <trkpt lat="52.53626" lon="13.473968"><ele>57</ele></trkpt>
   <trkpt lat="52.536259" lon="13.473966"><ele>57</ele></trkpt>
  </trkseg>
 </trk>
</gpx>