<?xml version="1.0" encoding="UTF-8"?>
<!-- track-length = 43 filtered ascend = 0 plain-ascend = 0 cost=88 energy=0.0kwh time=3s -->
<gpx 
 xmlns="http://www.topografix.com/GPX/1/1" 
 xmlns:xsi="http://www.w3.org/2001/XMLSchema-instance" 
 xsi:schemaLocation="http://www.topografix.com/GPX/1/1 http://www.topografix.com/GPX/1/1/gpx.xsd" 
 version="1.1" 
 creator="BRouter-Web 0.18.1">
 <trk>
  <name>Hakaniemi (Steig Ost-West) - Abzweig Hakaniemi Weiche West</name>
  <trkseg>
   <trkpt lat="60.17855" lon="24.950416"><ele>3</ele></trkpt>
   <trkpt lat="60.178503" lon="24.950422"><ele>3</ele></trkpt>
   <trkpt lat="60.178437" lon="24.950398"><ele>3</ele></trkpt>
   <trkpt lat="60.178379" lon="24.950332"><ele>3</ele></trkpt>
   <trkpt lat="60.178318" lon="24.95021"><ele>3</ele></trkpt>
   <trkpt lat="60.17829" lon="24.950146"><ele>3</ele></trkpt>
   <trkpt lat="60.178261" lon="24.950084"><ele>3.25</ele></trkpt>
   <trkpt lat="60.178229" lon="24.950036"><ele>3.25</ele></trkpt>
  </trkseg>
 </trk>
</gpx>