<?xml version="1.0" encoding="UTF-8"?>
<!-- track-length = 180 filtered ascend = 0 plain-ascend = 0 cost=362 energy=0.0kwh time=14s -->
<gpx 
 xmlns="http://www.topografix.com/GPX/1/1" 
 xmlns:xsi="http://www.w3.org/2001/XMLSchema-instance" 
 xsi:schemaLocation="http://www.topografix.com/GPX/1/1 http://www.topografix.com/GPX/1/1/gpx.xsd" 
 version="1.1" 
 creator="BRouter-Web 0.18.1">
 <trk>
  <name>Hakaniemi Bauweiche Nordost-Nordwest - Hakaniemi (Steig Ost-West)</name>
  <trkseg>
   <trkpt lat="60.180111" lon="24.950567"><ele>3</ele></trkpt>
   <trkpt lat="60.18003" lon="24.950399"><ele>3</ele></trkpt>
   <trkpt lat="60.179954" lon="24.950317"><ele>3</ele></trkpt>
   <trkpt lat="60.179888" lon="24.950285"><ele>3</ele></trkpt>
   <trkpt lat="60.179878" lon="24.950284"><ele>3</ele></trkpt>
   <trkpt lat="60.179831" lon="24.950282"><ele>3</ele></trkpt>
   <trkpt lat="60.1797" lon="24.950293"><ele>3</ele></trkpt>
   <trkpt lat="60.179655" lon="24.950298"><ele>3</ele></trkpt>
   <trkpt lat="60.17855" lon="24.950416"><ele>3</ele></trkpt>
  </trkseg>
 </trk>
</gpx>