<?xml version="1.0" encoding="UTF-8"?>
<!-- track-length = 65 filtered ascend = 0 plain-ascend = 1 cost=130 energy=0.0kwh time=5s -->
<gpx 
 xmlns="http://www.topografix.com/GPX/1/1" 
 xmlns:xsi="http://www.w3.org/2001/XMLSchema-instance" 
 xsi:schemaLocation="http://www.topografix.com/GPX/1/1 http://www.topografix.com/GPX/1/1/gpx.xsd" 
 version="1.1" 
 creator="BRouter-Web 99.71.0">
 <trk>
  <name>Abzweig Hütteldorfer Straße Weiche West-Nord - Hütteldorfer Straße (Steig West-Nord)</name>
  <link href="https://brouter.damsy.net/latest/#map=19/48.19954/16.31237/standard&amp;lonlats=16.312221,48.199047;16.31135,48.199035">
   <text>BRouter-Web</text>
  </link>
  <trkseg>
   <trkpt lat="48.199045" lon="16.31222"><ele>229.5</ele></trkpt>
   <trkpt lat="48.199039" lon="16.311455"><ele>230</ele></trkpt>
   <trkpt lat="48.199036" lon="16.311348"><ele>230</ele></trkpt>
  </trkseg>
 </trk>
</gpx>