<?xml version="1.0" encoding="UTF-8"?>
<!-- track-length = 25 filtered ascend = 0 plain-ascend = 1 cost=50 energy=0.0kwh time=2s -->
<gpx 
 xmlns="http://www.topografix.com/GPX/1/1" 
 xmlns:xsi="http://www.w3.org/2001/XMLSchema-instance" 
 xsi:schemaLocation="http://www.topografix.com/GPX/1/1 http://www.topografix.com/GPX/1/1/gpx.xsd" 
 version="1.1" 
 creator="BRouter-Web 99.71.0">
 <trk>
  <name>Abzweig Hütteldorfer Straße Weiche 14-10/23 - Abzweig Hütteldorfer Straße Weiche West-Nord</name>
  <link href="https://brouter.damsy.net/latest/#map=19/48.19954/16.31237/standard&amp;lonlats=16.312494,48.199143;16.312221,48.199047">
   <text>BRouter-Web</text>
  </link>
  <trkseg>
   <trkpt lat="48.199142" lon="16.312493"><ele>229.5</ele></trkpt>
   <trkpt lat="48.199093" lon="16.312433"><ele>229.5</ele></trkpt>
   <trkpt lat="48.199066" lon="16.31237"><ele>229.5</ele></trkpt>
   <trkpt lat="48.199049" lon="16.312266"><ele>229.5</ele></trkpt>
   <trkpt lat="48.199046" lon="16.312222"><ele>229.5</ele></trkpt>
   <trkpt lat="48.199045" lon="16.31222"><ele>230</ele></trkpt>
  </trkseg>
 </trk>
</gpx>