<?xml version="1.0" encoding="UTF-8"?>
<!-- track-length = 40 filtered ascend = 0 plain-ascend = 1 cost=80 energy=0.0kwh time=3s -->
<gpx 
 xmlns="http://www.topografix.com/GPX/1/1" 
 xmlns:xsi="http://www.w3.org/2001/XMLSchema-instance" 
 xsi:schemaLocation="http://www.topografix.com/GPX/1/1 http://www.topografix.com/GPX/1/1/gpx.xsd" 
 version="1.1" 
 creator="BRouter-Web 0.18.1">
 <trk>
  <name>Dreieck Viale Vittorio Veneto Weiche Nordost-Nordwest - Dreieck Viale Vittorio Veneto Weiche Nordwest-Nordost</name>
  <trkseg>
   <trkpt lat="45.476782" lon="9.201073"><ele>119.25</ele></trkpt>
   <trkpt lat="45.476752" lon="9.201037"><ele>119.5</ele></trkpt>
   <trkpt lat="45.476725" lon="9.200993"><ele>119.5</ele></trkpt>
   <trkpt lat="45.476699" lon="9.200934"><ele>119.5</ele></trkpt>
   <trkpt lat="45.476681" lon="9.200838"><ele>119.75</ele></trkpt>
   <trkpt lat="45.476686" lon="9.200739"><ele>119.75</ele></trkpt>
   <trkpt lat="45.476701" lon="9.200678"><ele>119.75</ele></trkpt>
   <trkpt lat="45.47672" lon="9.20063"><ele>119.5</ele></trkpt>
   <trkpt lat="45.476722" lon="9.200625"><ele>120</ele></trkpt>
  </trkseg>
 </trk>
</gpx>