<?xml version="1.0" encoding="UTF-8"?>
<!-- track-length = 22 filtered ascend = 0 plain-ascend = 0 cost=46 energy=0.0kwh time=2s -->
<gpx 
 xmlns="http://www.topografix.com/GPX/1/1" 
 xmlns:xsi="http://www.w3.org/2001/XMLSchema-instance" 
 xsi:schemaLocation="http://www.topografix.com/GPX/1/1 http://www.topografix.com/GPX/1/1/gpx.xsd" 
 version="1.1" 
 creator="BRouter-Web 0.18.1">
 <trk>
  <name>13. janvāra iela (Steig Südost) - Dreieck 13. janvāra iela/Prāgas iela Weiche Südwest-Südost</name>
  <trkseg>
   <trkpt lat="56.945995" lon="24.113809"><ele>4</ele></trkpt>
   <trkpt lat="56.946116" lon="24.114078"><ele>4</ele></trkpt>
   <trkpt lat="56.946122" lon="24.11409"><ele>4</ele></trkpt>
  </trkseg>
 </trk>
</gpx>
