<?xml version="1.0" encoding="UTF-8"?>
<!-- track-length = 63 filtered ascend = 0 plain-ascend = 0 cost=126 energy=0.0kwh time=5s -->
<gpx 
 xmlns="http://www.topografix.com/GPX/1/1" 
 xmlns:xsi="http://www.w3.org/2001/XMLSchema-instance" 
 xsi:schemaLocation="http://www.topografix.com/GPX/1/1 http://www.topografix.com/GPX/1/1/gpx.xsd" 
 version="1.1" 
 creator="BRouter-Web 0.18.1">
 <trk>
  <name>Dreieck 11. novembra krastmala/13. janvāra iela Weiche Nordwest-Südwest - Dreieck 11. novembra krastmala/13. janvāra iela Weiche Nordost-Südost</name>
  <trkseg>
   <trkpt lat="56.94439" lon="24.109119"><ele>4.5</ele></trkpt>
   <trkpt lat="56.944389" lon="24.109123"><ele>4.75</ele></trkpt>
   <trkpt lat="56.944352" lon="24.109263"><ele>4.5</ele></trkpt>
   <trkpt lat="56.944336" lon="24.109381"><ele>4.5</ele></trkpt>
   <trkpt lat="56.94433" lon="24.109479"><ele>4.5</ele></trkpt>
   <trkpt lat="56.944333" lon="24.109558"><ele>4.25</ele></trkpt>
   <trkpt lat="56.94435" lon="24.109694"><ele>4</ele></trkpt>
   <trkpt lat="56.944386" lon="24.109821"><ele>4</ele></trkpt>
   <trkpt lat="56.944427" lon="24.10993"><ele>4</ele></trkpt>
   <trkpt lat="56.94448" lon="24.110065"><ele>3.75</ele></trkpt>
  </trkseg>
 </trk>
</gpx>