<?xml version="1.0" encoding="UTF-8"?>
<!-- track-length = 205 filtered ascend = 0 plain-ascend = 0 cost=206 energy=0.0kwh time=16s -->
<gpx 
 xmlns="http://www.topografix.com/GPX/1/1" 
 xmlns:xsi="http://www.w3.org/2001/XMLSchema-instance" 
 xsi:schemaLocation="http://www.topografix.com/GPX/1/1 http://www.topografix.com/GPX/1/1/gpx.xsd" 
 version="1.1" 
 creator="BRouter-Web 99.71.0">
 <trk>
  <name>1100 Üst Vorbahnhof Vorwerk Weiche 163 - Vorbahnhof Vorwerk Weiche 165</name>
  <link href="https://brouter.damsy.net/latest/#map=17/53.88029/10.68597/standard&amp;lonlats=10.682082,53.877722;10.682974,53.879462&amp;profile=rail">
   <text>BRouter-Web</text>
  </link>
  <trkseg>
   <trkpt lat="53.877722" lon="10.682082"><ele>7</ele></trkpt>
   <trkpt lat="53.877798" lon="10.6821"><ele>7</ele></trkpt>
   <trkpt lat="53.878346" lon="10.682221"><ele>7</ele></trkpt>
   <trkpt lat="53.878432" lon="10.682249"><ele>7</ele></trkpt>
   <trkpt lat="53.878582" lon="10.682317"><ele>7</ele></trkpt>
   <trkpt lat="53.878759" lon="10.682428"><ele>7</ele></trkpt>
   <trkpt lat="53.879341" lon="10.682877"><ele>7</ele></trkpt>
   <trkpt lat="53.87946" lon="10.682976"><ele>7</ele></trkpt>
  </trkseg>
 </trk>
</gpx>