<?xml version="1.0" encoding="UTF-8"?>
<!-- track-length = 28 filtered ascend = 0 plain-ascend = 0 cost=28 energy=0.0kwh time=2s -->
<gpx 
 xmlns="http://www.topografix.com/GPX/1/1" 
 xmlns:xsi="http://www.w3.org/2001/XMLSchema-instance" 
 xsi:schemaLocation="http://www.topografix.com/GPX/1/1 http://www.topografix.com/GPX/1/1/gpx.xsd" 
 version="1.1" 
 creator="BRouter-Web 99.71.0">
 <trk>
  <name>1100 Vorbahnhof Vorwerk Weiche 9 - Vorbahnhof Vorwerk Weiche 11</name>
  <link href="https://brouter.damsy.net/latest/#map=19/53.88568/10.68969/standard&amp;lonlats=10.689067,53.885162;10.689288,53.885367&amp;profile=rail">
   <text>BRouter-Web</text>
  </link>
  <trkseg>
   <trkpt lat="53.885161" lon="10.689066"><ele>5.75</ele></trkpt>
   <trkpt lat="53.885163" lon="10.689069"><ele>6</ele></trkpt>
   <trkpt lat="53.885366" lon="10.689289"><ele>6</ele></trkpt>
  </trkseg>
 </trk>
</gpx>