<?xml version="1.0" encoding="UTF-8"?>
<!-- track-length = 47 filtered ascend = 0 plain-ascend = 0 cost=94 energy=0.0kwh time=4s -->
<gpx 
 xmlns="http://www.topografix.com/GPX/1/1" 
 xmlns:xsi="http://www.w3.org/2001/XMLSchema-instance" 
 xsi:schemaLocation="http://www.topografix.com/GPX/1/1 http://www.topografix.com/GPX/1/1/gpx.xsd" 
 version="1.1" 
 creator="BRouter-Web 0.18.1">
 <trk>
  <name>Dreieck Cort. Adelers gate Weiche Nordost-Nord - Dreieck Cort. Adelers gate Weiche Südwest-Nord</name>
  <trkseg>
   <trkpt lat="59.915157" lon="10.72045"><ele>23.75</ele></trkpt>
   <trkpt lat="59.915157" lon="10.720448"><ele>24</ele></trkpt>
   <trkpt lat="59.915012" lon="10.719698"><ele>24</ele></trkpt>
   <trkpt lat="59.915011" lon="10.719696"><ele>24</ele></trkpt>
  </trkseg>
 </trk>
</gpx>