<?xml version="1.0" encoding="UTF-8"?>
<!-- track-length = 1352 filtered ascend = 0 plain-ascend = -6 cost=2706 energy=0.0kwh time=1m 48s -->
<gpx 
 xmlns="http://www.topografix.com/GPX/1/1" 
 xmlns:xsi="http://www.w3.org/2001/XMLSchema-instance" 
 xsi:schemaLocation="http://www.topografix.com/GPX/1/1 http://www.topografix.com/GPX/1/1/gpx.xsd" 
 version="1.1" 
 creator="BRouter-Web 99.71.0">
 <trk>
  <name>Düsseldorf Josef-Kardinal-Frings-Brücke (Steig 1) - Neuss Rheinpark-Center Süd (Steig 1)</name>
  <link href="https://brouter.damsy.net/latest/#map=20/51.19911/6.71805/standard&amp;lonlats=6.737121,51.198394;6.717865,51.199107&amp;nogos=6.781752,51.218852,6&amp;profile=rail">
   <text>BRouter-Web</text>
  </link>
  <trkseg>
   <trkpt lat="51.198394" lon="6.737121"><ele>42.75</ele></trkpt>
   <trkpt lat="51.198434" lon="6.736452"><ele>39.25</ele></trkpt>
   <trkpt lat="51.199089" lon="6.725044"><ele>43.25</ele></trkpt>
   <trkpt lat="51.199145" lon="6.723473"><ele>42.75</ele></trkpt>
   <trkpt lat="51.199149" lon="6.722745"><ele>41.75</ele></trkpt>
   <trkpt lat="51.199115" lon="6.720366"><ele>37</ele></trkpt>
   <trkpt lat="51.199105" lon="6.718223"><ele>36</ele></trkpt>
   <trkpt lat="51.199102" lon="6.717864"><ele>36</ele></trkpt>
  </trkseg>
 </trk>
</gpx>