<?xml version="1.0" encoding="UTF-8"?>
<!-- track-length = 138 filtered ascend = 0 plain-ascend = 0 cost=138 energy=0.0kwh time=11s -->
<gpx 
 xmlns="http://www.topografix.com/GPX/1/1" 
 xmlns:xsi="http://www.w3.org/2001/XMLSchema-instance" 
 xsi:schemaLocation="http://www.topografix.com/GPX/1/1 http://www.topografix.com/GPX/1/1/gpx.xsd" 
 version="1.1" 
 creator="BRouter-Web 0.18.1">
 <trk>
  <name>76500 Litovel (Gleis 1) - Litovel Weiche 7</name>
  <trkseg>
   <trkpt lat="49.712991" lon="17.074718"><ele>233.75</ele></trkpt>
   <trkpt lat="49.713084" lon="17.074785"><ele>233.75</ele></trkpt>
   <trkpt lat="49.713911" lon="17.075309"><ele>233</ele></trkpt>
   <trkpt lat="49.714137" lon="17.075463"><ele>233</ele></trkpt>
   <trkpt lat="49.714134" lon="17.075461"><ele>233</ele></trkpt>
  </trkseg>
 </trk>
</gpx>