<?xml version="1.0" encoding="UTF-8"?>
<!-- track-length = 1107 filtered ascend = 1 plain-ascend = 1 cost=1107 energy=0.0kwh time=1m 29s -->
<gpx 
 xmlns="http://www.topografix.com/GPX/1/1" 
 xmlns:xsi="http://www.w3.org/2001/XMLSchema-instance" 
 xsi:schemaLocation="http://www.topografix.com/GPX/1/1 http://www.topografix.com/GPX/1/1/gpx.xsd" 
 version="1.1" 
 creator="BRouter-Web 0.18.1">
 <trk>
  <name>76500 Litovel Weiche 1 - Litovel město</name>
  <trkseg>
   <trkpt lat="49.711786" lon="17.073449"><ele>234</ele></trkpt>
   <trkpt lat="49.711741" lon="17.07341"><ele>234</ele></trkpt>
   <trkpt lat="49.711594" lon="17.073293"><ele>233.75</ele></trkpt>
   <trkpt lat="49.711488" lon="17.073227"><ele>233.75</ele></trkpt>
   <trkpt lat="49.711469" lon="17.073215"><ele>233.5</ele></trkpt>
   <trkpt lat="49.711294" lon="17.073132"><ele>233.25</ele></trkpt>
   <trkpt lat="49.71104" lon="17.073062"><ele>233.25</ele></trkpt>
   <trkpt lat="49.709136" lon="17.072621"><ele>234</ele></trkpt>
   <trkpt lat="49.709085" lon="17.072609"><ele>234</ele></trkpt>
   <trkpt lat="49.707995" lon="17.072356"><ele>234</ele></trkpt>
   <trkpt lat="49.706906" lon="17.072106"><ele>234.5</ele></trkpt>
   <trkpt lat="49.705952" lon="17.071884"><ele>232.5</ele></trkpt>
   <trkpt lat="49.705506" lon="17.071782"><ele>233</ele></trkpt>
   <trkpt lat="49.704576" lon="17.071568"><ele>233.75</ele></trkpt>
   <trkpt lat="49.70312" lon="17.071234"><ele>233.75</ele></trkpt>
   <trkpt lat="49.703006" lon="17.071207"><ele>234</ele></trkpt>
   <trkpt lat="49.70284" lon="17.07117"><ele>234.75</ele></trkpt>
   <trkpt lat="49.701991" lon="17.070975"><ele>234</ele></trkpt>
   <trkpt lat="49.701986" lon="17.070974"><ele>235</ele></trkpt>
  </trkseg>
 </trk>
</gpx>