<?xml version="1.0" encoding="UTF-8"?>
<!-- track-length = 763 filtered ascend = 0 plain-ascend = -1 cost=764 energy=0.0kwh time=1m 1s -->
<gpx 
 xmlns="http://www.topografix.com/GPX/1/1" 
 xmlns:xsi="http://www.w3.org/2001/XMLSchema-instance" 
 xsi:schemaLocation="http://www.topografix.com/GPX/1/1 http://www.topografix.com/GPX/1/1/gpx.xsd" 
 version="1.1" 
 creator="BRouter-Web 0.18.1">
 <trk>
  <name>76500 Červenka vlečka TNS Weiche 32 - Červenka zastávka</name>
  <trkseg>
   <trkpt lat="49.727049" lon="17.081134"><ele>235</ele></trkpt>
   <trkpt lat="49.726972" lon="17.080818"><ele>235</ele></trkpt>
   <trkpt lat="49.726905" lon="17.08059"><ele>235</ele></trkpt>
   <trkpt lat="49.726789" lon="17.080273"><ele>235</ele></trkpt>
   <trkpt lat="49.726669" lon="17.080021"><ele>235</ele></trkpt>
   <trkpt lat="49.726493" lon="17.079721"><ele>235</ele></trkpt>
   <trkpt lat="49.726404" lon="17.079594"><ele>235</ele></trkpt>
   <trkpt lat="49.726304" lon="17.079473"><ele>234.75</ele></trkpt>
   <trkpt lat="49.726177" lon="17.079327"><ele>235</ele></trkpt>
   <trkpt lat="49.726061" lon="17.079214"><ele>235</ele></trkpt>
   <trkpt lat="49.725927" lon="17.079102"><ele>234.75</ele></trkpt>
   <trkpt lat="49.725779" lon="17.078999"><ele>235</ele></trkpt>
   <trkpt lat="49.723424" lon="17.07765"><ele>235</ele></trkpt>
   <trkpt lat="49.72172" lon="17.076677"><ele>234</ele></trkpt>
   <trkpt lat="49.721536" lon="17.076586"><ele>233.75</ele></trkpt>
   <trkpt lat="49.721363" lon="17.076515"><ele>233.75</ele></trkpt>
   <trkpt lat="49.72114" lon="17.076451"><ele>233.5</ele></trkpt>
   <trkpt lat="49.721127" lon="17.076447"><ele>233.5</ele></trkpt>
  </trkseg>
 </trk>
</gpx>