<?xml version="1.0" encoding="UTF-8"?>
<!-- track-length = 264 filtered ascend = 1 plain-ascend = 1 cost=264 energy=0.0kwh time=21s -->
<gpx 
 xmlns="http://www.topografix.com/GPX/1/1" 
 xmlns:xsi="http://www.w3.org/2001/XMLSchema-instance" 
 xsi:schemaLocation="http://www.topografix.com/GPX/1/1 http://www.topografix.com/GPX/1/1/gpx.xsd" 
 version="1.1" 
 creator="BRouter-Web 0.18.1">
 <trk>
  <name>76500 Červenka Weiche 21 - Červenka Weiche 29</name>
  <trkseg>
   <trkpt lat="49.725" lon="17.088502"><ele>236</ele></trkpt>
   <trkpt lat="49.725001" lon="17.088502"><ele>236</ele></trkpt>
   <trkpt lat="49.725264" lon="17.087857"><ele>235.75</ele></trkpt>
   <trkpt lat="49.725985" lon="17.086086"><ele>236.75</ele></trkpt>
   <trkpt lat="49.72624" lon="17.085413"><ele>237</ele></trkpt>
   <trkpt lat="49.726242" lon="17.085406"><ele>236.75</ele></trkpt>
  </trkseg>
 </trk>
</gpx>