<?xml version="1.0" encoding="UTF-8"?>
<!-- track-length = 580 filtered ascend = 1 plain-ascend = 1 cost=1160 energy=0.0kwh time=46s -->
<gpx 
 xmlns="http://www.topografix.com/GPX/1/1" 
 xmlns:xsi="http://www.w3.org/2001/XMLSchema-instance" 
 xsi:schemaLocation="http://www.topografix.com/GPX/1/1 http://www.topografix.com/GPX/1/1/gpx.xsd" 
 version="1.1" 
 creator="BRouter-Web 0.18.1">
 <trk>
  <name>Abzweig Wendeschleife Willibaldplatz Weiche 15 - Lohensteinstraße (Steig Nord)</name>
  <trkseg>
   <trkpt lat="48.140943" lon="11.48856"><ele>527.75</ele></trkpt>
   <trkpt lat="48.140944" lon="11.488556"><ele>528</ele></trkpt>
   <trkpt lat="48.140962" lon="11.488464"><ele>528</ele></trkpt>
   <trkpt lat="48.140984" lon="11.488339"><ele>528</ele></trkpt>
   <trkpt lat="48.141011" lon="11.488195"><ele>528</ele></trkpt>
   <trkpt lat="48.141373" lon="11.486165"><ele>528</ele></trkpt>
   <trkpt lat="48.141434" lon="11.485785"><ele>528</ele></trkpt>
   <trkpt lat="48.141499" lon="11.485303"><ele>528.25</ele></trkpt>
   <trkpt lat="48.141526" lon="11.485058"><ele>528</ele></trkpt>
   <trkpt lat="48.141543" lon="11.484807"><ele>528</ele></trkpt>
   <trkpt lat="48.141568" lon="11.484323"><ele>528</ele></trkpt>
   <trkpt lat="48.141627" lon="11.482142"><ele>529</ele></trkpt>
   <trkpt lat="48.14165" lon="11.481731"><ele>529</ele></trkpt>
   <trkpt lat="48.14166" lon="11.481586"><ele>529</ele></trkpt>
   <trkpt lat="48.141672" lon="11.481432"><ele>529</ele></trkpt>
   <trkpt lat="48.141709" lon="11.480998"><ele>529</ele></trkpt>
   <trkpt lat="48.141718" lon="11.480911"><ele>528.75</ele></trkpt>
  </trkseg>
 </trk>
</gpx>