<?xml version="1.0" encoding="UTF-8"?>
<!-- track-length = 394 filtered ascend = 1 plain-ascend = 2 cost=788 energy=0.0kwh time=32s -->
<gpx 
 xmlns="http://www.topografix.com/GPX/1/1" 
 xmlns:xsi="http://www.w3.org/2001/XMLSchema-instance" 
 xsi:schemaLocation="http://www.topografix.com/GPX/1/1 http://www.topografix.com/GPX/1/1/gpx.xsd" 
 version="1.1" 
 creator="BRouter-Web 0.18.1">
 <trk>
  <name>Am Knie (Steig Nord) - Offenbachstraße (Steig Nordost)</name>
  <trkseg>
   <trkpt lat="48.145475" lon="11.470842"><ele>526.25</ele></trkpt>
   <trkpt lat="48.145507" lon="11.469917"><ele>527</ele></trkpt>
   <trkpt lat="48.145556" lon="11.469355"><ele>527</ele></trkpt>
   <trkpt lat="48.146044" lon="11.466331"><ele>527</ele></trkpt>
   <trkpt lat="48.146143" lon="11.465725"><ele>527.25</ele></trkpt>
   <trkpt lat="48.146155" lon="11.465643"><ele>527.75</ele></trkpt>
  </trkseg>
 </trk>
</gpx>
