<?xml version="1.0" encoding="UTF-8"?>
<!-- track-length = 420 filtered ascend = 0 plain-ascend = 0 cost=840 energy=0.0kwh time=34s -->
<gpx 
 xmlns="http://www.topografix.com/GPX/1/1" 
 xmlns:xsi="http://www.w3.org/2001/XMLSchema-instance" 
 xsi:schemaLocation="http://www.topografix.com/GPX/1/1 http://www.topografix.com/GPX/1/1/gpx.xsd" 
 version="1.1" 
 creator="BRouter-Web 0.18.1">
 <trk>
  <name>Lohensteinstraße (Steig Nord) - Westbad (Steig Nordost)</name>
  <trkseg>
   <trkpt lat="48.141718" lon="11.480911"><ele>528.75</ele></trkpt>
   <trkpt lat="48.142017" lon="11.478029"><ele>528.75</ele></trkpt>
   <trkpt lat="48.142191" lon="11.476285"><ele>528</ele></trkpt>
   <trkpt lat="48.14229" lon="11.475389"><ele>528</ele></trkpt>
   <trkpt lat="48.142296" lon="11.475334"><ele>527.75</ele></trkpt>
  </trkseg>
 </trk>
</gpx>