<?xml version="1.0" encoding="UTF-8"?>
<!-- track-length = 44 filtered ascend = 0 plain-ascend = 0 cost=88 energy=0.0kwh time=4s -->
<gpx 
 xmlns="http://www.topografix.com/GPX/1/1" 
 xmlns:xsi="http://www.w3.org/2001/XMLSchema-instance" 
 xsi:schemaLocation="http://www.topografix.com/GPX/1/1 http://www.topografix.com/GPX/1/1/gpx.xsd" 
 version="1.1" 
 creator="BRouter-Web 0.18.1">
 <trk>
  <name>Dreieck Via Quintino Sella Weiche Nord-West - Dreieck Via Quintino Sella Weiche Süd-West</name>
  <trkseg>
   <trkpt lat="45.470374" lon="9.183318"><ele>122</ele></trkpt>
   <trkpt lat="45.470372" lon="9.183319"><ele>122</ele></trkpt>
   <trkpt lat="45.470316" lon="9.183328"><ele>122</ele></trkpt>
   <trkpt lat="45.470192" lon="9.183346"><ele>121.5</ele></trkpt>
   <trkpt lat="45.470098" lon="9.183352"><ele>121.25</ele></trkpt>
   <trkpt lat="45.470032" lon="9.18335"><ele>121</ele></trkpt>
   <trkpt lat="45.469977" lon="9.183349"><ele>121</ele></trkpt>
  </trkseg>
 </trk>
</gpx>