<?xml version="1.0" encoding="UTF-8"?>
<!-- track-length = 71 filtered ascend = 0 plain-ascend = 0 cost=142 energy=0.0kwh time=6s -->
<gpx 
 xmlns="http://www.topografix.com/GPX/1/1" 
 xmlns:xsi="http://www.w3.org/2001/XMLSchema-instance" 
 xsi:schemaLocation="http://www.topografix.com/GPX/1/1 http://www.topografix.com/GPX/1/1/gpx.xsd" 
 version="1.1" 
 creator="BRouter-Web 99.71.0">
 <trk>
  <name>Düsseldorf Berliner Allee (Steig 3) - Düsseldorf Kreuz Berliner Allee Weiche Süd-nach-West-West</name>
  <link href="https://brouter.damsy.net/latest/#map=21/51.21893/6.78182/standard&amp;lonlats=6.782622,51.218844;6.781606,51.218921&amp;nogos=6.781752,51.218852,6&amp;profile=rail">
   <text>BRouter-Web</text>
  </link>
  <trkseg>
   <trkpt lat="51.218841" lon="6.782621"><ele>38</ele></trkpt>
   <trkpt lat="51.218855" lon="6.782253"><ele>38</ele></trkpt>
   <trkpt lat="51.218867" lon="6.782106"><ele>38</ele></trkpt>
   <trkpt lat="51.218883" lon="6.781988"><ele>38</ele></trkpt>
   <trkpt lat="51.218891" lon="6.781933"><ele>38</ele></trkpt>
   <trkpt lat="51.218909" lon="6.7818"><ele>38</ele></trkpt>
   <trkpt lat="51.218911" lon="6.781779"><ele>38</ele></trkpt>
   <trkpt lat="51.218919" lon="6.781607"><ele>38</ele></trkpt>
   <trkpt lat="51.218919" lon="6.781605"><ele>38</ele></trkpt>
  </trkseg>
 </trk>
</gpx>