<?xml version="1.0" encoding="UTF-8"?>
<!-- track-length = 3 filtered ascend = 0 plain-ascend = 0 cost=6 energy=0.0kwh time= -->
<gpx 
 xmlns="http://www.topografix.com/GPX/1/1" 
 xmlns:xsi="http://www.w3.org/2001/XMLSchema-instance" 
 xsi:schemaLocation="http://www.topografix.com/GPX/1/1 http://www.topografix.com/GPX/1/1/gpx.xsd" 
 version="1.1" 
 creator="BRouter-Web 0.18.1">
 <trk>
  <name>Bertha-Klingberg-Platz (Ausstieg) - Bertha-Klingberg-Platz Weiche 1-71</name>
  <trkseg>
   <trkpt lat="53.620429" lon="11.41124"><ele>40</ele></trkpt>
   <trkpt lat="53.620427" lon="11.411249"><ele>40</ele></trkpt>
   <trkpt lat="53.620421" lon="11.411271"><ele>40</ele></trkpt>
  </trkseg>
 </trk>
</gpx>