<?xml version="1.0" encoding="UTF-8"?>
<!-- track-length = 52 filtered ascend = 0 plain-ascend = 1 cost=104 energy=0.0kwh time=4s -->
<gpx 
 xmlns="http://www.topografix.com/GPX/1/1" 
 xmlns:xsi="http://www.w3.org/2001/XMLSchema-instance" 
 xsi:schemaLocation="http://www.topografix.com/GPX/1/1 http://www.topografix.com/GPX/1/1/gpx.xsd" 
 version="1.1" 
 creator="BRouter-Web 0.18.1">
 <trk>
  <name>Bertha-Klingberg-Platz Weiche 1-72 - Bertha-Klingberg-Platz (Einstieg)</name>
  <trkseg>
   <trkpt lat="53.619922" lon="11.41093"><ele>40.5</ele></trkpt>
   <trkpt lat="53.620042" lon="11.41049"><ele>41</ele></trkpt>
   <trkpt lat="53.620065" lon="11.410423"><ele>41</ele></trkpt>
   <trkpt lat="53.620122" lon="11.410299"><ele>41.25</ele></trkpt>
   <trkpt lat="53.620154" lon="11.410254"><ele>41.25</ele></trkpt>
  </trkseg>
 </trk>
</gpx>