<?xml version="1.0" encoding="UTF-8"?>
<!-- track-length = 103 filtered ascend = 1 plain-ascend = 1 cost=206 energy=0.0kwh time=8s -->
<gpx 
 xmlns="http://www.topografix.com/GPX/1/1" 
 xmlns:xsi="http://www.w3.org/2001/XMLSchema-instance" 
 xsi:schemaLocation="http://www.topografix.com/GPX/1/1 http://www.topografix.com/GPX/1/1/gpx.xsd" 
 version="1.1" 
 creator="BRouter-Web 0.18.1">
 <trk>
  <name>Bertha-Klingberg-Platz Weiche 1-71 - (Außengleis) - Bertha-Klingberg-Platz Weiche 1-72</name>
  <trkseg>
   <trkpt lat="53.620421" lon="11.411271"><ele>40</ele></trkpt>
   <trkpt lat="53.620421" lon="11.411274"><ele>40</ele></trkpt>
   <trkpt lat="53.62039" lon="11.411387"><ele>40</ele></trkpt>
   <trkpt lat="53.62037" lon="11.411438"><ele>39.75</ele></trkpt>
   <trkpt lat="53.620294" lon="11.411545"><ele>39.75</ele></trkpt>
   <trkpt lat="53.620259" lon="11.411576"><ele>40</ele></trkpt>
   <trkpt lat="53.62022" lon="11.411595"><ele>40</ele></trkpt>
   <trkpt lat="53.620175" lon="11.411606"><ele>40</ele></trkpt>
   <trkpt lat="53.620125" lon="11.411603"><ele>40</ele></trkpt>
   <trkpt lat="53.620043" lon="11.411562"><ele>39.75</ele></trkpt>
   <trkpt lat="53.619971" lon="11.411483"><ele>40</ele></trkpt>
   <trkpt lat="53.619921" lon="11.411373"><ele>40</ele></trkpt>
   <trkpt lat="53.619904" lon="11.411306"><ele>40</ele></trkpt>
   <trkpt lat="53.619893" lon="11.411231"><ele>40.25</ele></trkpt>
   <trkpt lat="53.619892" lon="11.41108"><ele>40.75</ele></trkpt>
   <trkpt lat="53.619922" lon="11.410932"><ele>40.5</ele></trkpt>
   <trkpt lat="53.619922" lon="11.41093"><ele>41</ele></trkpt>
  </trkseg>
 </trk>
</gpx>