<?xml version="1.0" encoding="UTF-8"?>
<!-- track-length = 75 filtered ascend = 0 plain-ascend = 0 cost=150 energy=0.0kwh time=6s -->
<gpx 
 xmlns="http://www.topografix.com/GPX/1/1" 
 xmlns:xsi="http://www.w3.org/2001/XMLSchema-instance" 
 xsi:schemaLocation="http://www.topografix.com/GPX/1/1 http://www.topografix.com/GPX/1/1/gpx.xsd" 
 version="1.1" 
 creator="BRouter-Web 0.18.1">
 <trk>
  <name>Dreieck Uzvaras parks Weiche Südwest-Nordwest - Uzvaras parks (Steig Südwest-Nordwest)</name>
  <trkseg>
   <trkpt lat="56.939581" lon="24.091076"><ele>3</ele></trkpt>
   <trkpt lat="56.939109" lon="24.090226"><ele>3</ele></trkpt>
   <trkpt lat="56.939101" lon="24.090212"><ele>3</ele></trkpt>
  </trkseg>
 </trk>
</gpx>