<?xml version="1.0" encoding="UTF-8"?>
<!-- track-length = 88 filtered ascend = 0 plain-ascend = 0 cost=176 energy=0.0kwh time=7s -->
<gpx 
 xmlns="http://www.topografix.com/GPX/1/1" 
 xmlns:xsi="http://www.w3.org/2001/XMLSchema-instance" 
 xsi:schemaLocation="http://www.topografix.com/GPX/1/1 http://www.topografix.com/GPX/1/1/gpx.xsd" 
 version="1.1" 
 creator="BRouter-Web 0.18.1">
 <trk>
  <name>Dreieck Kosmonautů Weiche Südost-Ost - Dreieck Kosmonautů Weiche 68</name>
  <trkseg>
   <trkpt lat="49.592681" lon="17.277455"><ele>214</ele></trkpt>
   <trkpt lat="49.592684" lon="17.277454"><ele>214</ele></trkpt>
   <trkpt lat="49.592767" lon="17.277407"><ele>214</ele></trkpt>
   <trkpt lat="49.592815" lon="17.277357"><ele>214</ele></trkpt>
   <trkpt lat="49.592862" lon="17.277278"><ele>214</ele></trkpt>
   <trkpt lat="49.592884" lon="17.277222"><ele>214</ele></trkpt>
   <trkpt lat="49.592898" lon="17.277165"><ele>214</ele></trkpt>
   <trkpt lat="49.592912" lon="17.277075"><ele>214</ele></trkpt>
   <trkpt lat="49.592915" lon="17.276993"><ele>214</ele></trkpt>
   <trkpt lat="49.592904" lon="17.276907"><ele>214</ele></trkpt>
   <trkpt lat="49.592873" lon="17.276786"><ele>214</ele></trkpt>
   <trkpt lat="49.592864" lon="17.276769"><ele>214</ele></trkpt>
   <trkpt lat="49.592832" lon="17.276713"><ele>214</ele></trkpt>
   <trkpt lat="49.592793" lon="17.27667"><ele>214</ele></trkpt>
   <trkpt lat="49.592751" lon="17.276636"><ele>214</ele></trkpt>
   <trkpt lat="49.59269" lon="17.27661"><ele>214</ele></trkpt>
   <trkpt lat="49.592677" lon="17.276605"><ele>214</ele></trkpt>
   <trkpt lat="49.592673" lon="17.276603"><ele>214</ele></trkpt>
  </trkseg>
 </trk>
</gpx>