<?xml version="1.0" encoding="UTF-8"?>
<!-- track-length = 606 filtered ascend = 1 plain-ascend = 0 cost=1214 energy=0.0kwh time=48s -->
<gpx 
 xmlns="http://www.topografix.com/GPX/1/1" 
 xmlns:xsi="http://www.w3.org/2001/XMLSchema-instance" 
 xsi:schemaLocation="http://www.topografix.com/GPX/1/1 http://www.topografix.com/GPX/1/1/gpx.xsd" 
 version="1.1" 
 creator="BRouter-Web 0.18.1">
 <trk>
  <name>Vejdovského (Steig Nordwest) - Envelopa (Steig Nord)</name>
  <trkseg>
   <trkpt lat="49.590612" lon="17.27027"><ele>212</ele></trkpt>
   <trkpt lat="49.590598" lon="17.270209"><ele>212</ele></trkpt>
   <trkpt lat="49.59054" lon="17.269971"><ele>212</ele></trkpt>
   <trkpt lat="49.590494" lon="17.269774"><ele>212</ele></trkpt>
   <trkpt lat="49.590483" lon="17.269727"><ele>212</ele></trkpt>
   <trkpt lat="49.590365" lon="17.269209"><ele>212</ele></trkpt>
   <trkpt lat="49.590269" lon="17.268737"><ele>212</ele></trkpt>
   <trkpt lat="49.590162" lon="17.268091"><ele>213</ele></trkpt>
   <trkpt lat="49.590097" lon="17.267597"><ele>213</ele></trkpt>
   <trkpt lat="49.590079" lon="17.267436"><ele>213</ele></trkpt>
   <trkpt lat="49.589877" lon="17.264979"><ele>212.25</ele></trkpt>
   <trkpt lat="49.589803" lon="17.264056"><ele>211.5</ele></trkpt>
   <trkpt lat="49.589733" lon="17.263225"><ele>213.5</ele></trkpt>
   <trkpt lat="49.589697" lon="17.262907"><ele>213</ele></trkpt>
   <trkpt lat="49.589603" lon="17.262081"><ele>213</ele></trkpt>
   <trkpt lat="49.5896" lon="17.262065"><ele>212</ele></trkpt>
  </trkseg>
 </trk>
</gpx>