<?xml version="1.0" encoding="UTF-8"?>
<!-- track-length = 484 filtered ascend = 1 plain-ascend = -3 cost=968 energy=0.0kwh time=39s -->
<gpx 
 xmlns="http://www.topografix.com/GPX/1/1" 
 xmlns:xsi="http://www.w3.org/2001/XMLSchema-instance" 
 xsi:schemaLocation="http://www.topografix.com/GPX/1/1 http://www.topografix.com/GPX/1/1/gpx.xsd" 
 version="1.1" 
 creator="BRouter-Web 0.18.1">
 <trk>
  <name>Arabiankatu (Steig Nordost) - Kumtähdenkenttä (Steig Nordwest)</name>
  <trkseg>
   <trkpt lat="60.207113" lon="24.974364"><ele>8.5</ele></trkpt>
   <trkpt lat="60.207126" lon="24.974286"><ele>8.5</ele></trkpt>
   <trkpt lat="60.20713" lon="24.974222"><ele>8.5</ele></trkpt>
   <trkpt lat="60.207129" lon="24.974132"><ele>8.5</ele></trkpt>
   <trkpt lat="60.207117" lon="24.974054"><ele>8.75</ele></trkpt>
   <trkpt lat="60.207091" lon="24.973955"><ele>8.75</ele></trkpt>
   <trkpt lat="60.20706" lon="24.973891"><ele>9</ele></trkpt>
   <trkpt lat="60.207022" lon="24.973842"><ele>8.75</ele></trkpt>
   <trkpt lat="60.20664" lon="24.973463"><ele>9.75</ele></trkpt>
   <trkpt lat="60.20641" lon="24.973259"><ele>9</ele></trkpt>
   <trkpt lat="60.206196" lon="24.973052"><ele>8.25</ele></trkpt>
   <trkpt lat="60.206168" lon="24.973022"><ele>8</ele></trkpt>
   <trkpt lat="60.206064" lon="24.972913"><ele>8</ele></trkpt>
   <trkpt lat="60.206" lon="24.972838"><ele>8</ele></trkpt>
   <trkpt lat="60.20595" lon="24.972767"><ele>8</ele></trkpt>
   <trkpt lat="60.205809" lon="24.972493"><ele>7.75</ele></trkpt>
   <trkpt lat="60.205791" lon="24.97246"><ele>7.75</ele></trkpt>
   <trkpt lat="60.205731" lon="24.972348"><ele>7.5</ele></trkpt>
   <trkpt lat="60.204282" lon="24.96945"><ele>5</ele></trkpt>
   <trkpt lat="60.204231" lon="24.969348"><ele>5</ele></trkpt>
   <trkpt lat="60.204168" lon="24.969222"><ele>5</ele></trkpt>
   <trkpt lat="60.204153" lon="24.969193"><ele>5</ele></trkpt>
   <trkpt lat="60.20397" lon="24.968834"><ele>4</ele></trkpt>
   <trkpt lat="60.203934" lon="24.968763"><ele>4.5</ele></trkpt>
  </trkseg>
 </trk>
</gpx>