<?xml version="1.0" encoding="UTF-8"?>
<!-- track-length = 212 filtered ascend = 3 plain-ascend = 4 cost=424 energy=0.0kwh time=17s -->
<gpx 
 xmlns="http://www.topografix.com/GPX/1/1" 
 xmlns:xsi="http://www.w3.org/2001/XMLSchema-instance" 
 xsi:schemaLocation="http://www.topografix.com/GPX/1/1 http://www.topografix.com/GPX/1/1/gpx.xsd" 
 version="1.1" 
 creator="BRouter-Web 0.18.1">
 <trk>
  <name>Kumtähdenkenttä (Steig Nordwest) - Kumpulan kampus (Steig Nord)</name>
  <trkseg>
   <trkpt lat="60.203934" lon="24.968763"><ele>4.25</ele></trkpt>
   <trkpt lat="60.203912" lon="24.968719"><ele>4.5</ele></trkpt>
   <trkpt lat="60.203906" lon="24.968706"><ele>4.5</ele></trkpt>
   <trkpt lat="60.203818" lon="24.968527"><ele>5</ele></trkpt>
   <trkpt lat="60.203748" lon="24.968381"><ele>5</ele></trkpt>
   <trkpt lat="60.20353" lon="24.967932"><ele>5.25</ele></trkpt>
   <trkpt lat="60.203417" lon="24.967681"><ele>4.75</ele></trkpt>
   <trkpt lat="60.203201" lon="24.967157"><ele>5.5</ele></trkpt>
   <trkpt lat="60.203165" lon="24.967052"><ele>5.75</ele></trkpt>
   <trkpt lat="60.203112" lon="24.966858"><ele>5.75</ele></trkpt>
   <trkpt lat="60.203076" lon="24.966654"><ele>6</ele></trkpt>
   <trkpt lat="60.203057" lon="24.966508"><ele>6</ele></trkpt>
   <trkpt lat="60.203051" lon="24.966435"><ele>5.75</ele></trkpt>
   <trkpt lat="60.203037" lon="24.966248"><ele>6.25</ele></trkpt>
   <trkpt lat="60.203037" lon="24.966199"><ele>6.5</ele></trkpt>
   <trkpt lat="60.203037" lon="24.966036"><ele>6.75</ele></trkpt>
   <trkpt lat="60.20305" lon="24.965818"><ele>7</ele></trkpt>
   <trkpt lat="60.203062" lon="24.965572"><ele>8</ele></trkpt>
  </trkseg>
 </trk>
</gpx>