<?xml version="1.0" encoding="UTF-8"?>
<!-- track-length = 110 filtered ascend = 3 plain-ascend = 3 cost=220 energy=0.0kwh time=9s -->
<gpx 
 xmlns="http://www.topografix.com/GPX/1/1" 
 xmlns:xsi="http://www.w3.org/2001/XMLSchema-instance" 
 xsi:schemaLocation="http://www.topografix.com/GPX/1/1 http://www.topografix.com/GPX/1/1/gpx.xsd" 
 version="1.1" 
 creator="BRouter-Web 0.18.1">
 <trk>
  <name>Paavalinkirkko (Steig West) - Abzweig Somerontie Weiche Ost</name>
  <trkseg>
   <trkpt lat="60.198337" lon="24.961743"><ele>10.75</ele></trkpt>
   <trkpt lat="60.198218" lon="24.961758"><ele>11.25</ele></trkpt>
   <trkpt lat="60.197955" lon="24.96181"><ele>12.5</ele></trkpt>
   <trkpt lat="60.197616" lon="24.961913"><ele>13.75</ele></trkpt>
   <trkpt lat="60.197589" lon="24.961922"><ele>13.75</ele></trkpt>
   <trkpt lat="60.197358" lon="24.962023"><ele>14.5</ele></trkpt>
   <trkpt lat="60.197358" lon="24.962022"><ele>14</ele></trkpt>
  </trkseg>
 </trk>
</gpx>