<?xml version="1.0" encoding="UTF-8"?>
<!-- track-length = 2037 filtered ascend = 16 plain-ascend = 15 cost=2037 energy=0.0kwh time=2m 43s -->
<gpx 
 xmlns="http://www.topografix.com/GPX/1/1" 
 xmlns:xsi="http://www.w3.org/2001/XMLSchema-instance" 
 xsi:schemaLocation="http://www.topografix.com/GPX/1/1 http://www.topografix.com/GPX/1/1/gpx.xsd" 
 version="1.1" 
 creator="BRouter-Web 0.18.1">
 <trk>
  <name>007 Linjavaihde - Loviisa</name>
  <trkseg>
   <trkpt lat="60.438179" lon="26.228717"><ele>4</ele></trkpt>
   <trkpt lat="60.438278" lon="26.22861"><ele>4.25</ele></trkpt>
   <trkpt lat="60.438748" lon="26.228142"><ele>5.75</ele></trkpt>
   <trkpt lat="60.439122" lon="26.227824"><ele>6</ele></trkpt>
   <trkpt lat="60.442427" lon="26.225106"><ele>11.5</ele></trkpt>
   <trkpt lat="60.442668" lon="26.224937"><ele>12</ele></trkpt>
   <trkpt lat="60.44274" lon="26.224884"><ele>12</ele></trkpt>
   <trkpt lat="60.443126" lon="26.224651"><ele>12.5</ele></trkpt>
   <trkpt lat="60.443518" lon="26.224448"><ele>12.25</ele></trkpt>
   <trkpt lat="60.444115" lon="26.224206"><ele>13</ele></trkpt>
   <trkpt lat="60.444538" lon="26.224083"><ele>13.5</ele></trkpt>
   <trkpt lat="60.451148" lon="26.222802"><ele>20</ele></trkpt>
   <trkpt lat="60.451382" lon="26.222747"><ele>20</ele></trkpt>
   <trkpt lat="60.451783" lon="26.22262"><ele>20</ele></trkpt>
   <trkpt lat="60.452028" lon="26.222518"><ele>20</ele></trkpt>
   <trkpt lat="60.452157" lon="26.222452"><ele>20</ele></trkpt>
   <trkpt lat="60.452239" lon="26.222406"><ele>20</ele></trkpt>
   <trkpt lat="60.452429" lon="26.222267"><ele>20.25</ele></trkpt>
   <trkpt lat="60.452713" lon="26.222024"><ele>20</ele></trkpt>
   <trkpt lat="60.452934" lon="26.221806"><ele>20</ele></trkpt>
   <trkpt lat="60.453227" lon="26.221481"><ele>20</ele></trkpt>
   <trkpt lat="60.453317" lon="26.221384"><ele>20</ele></trkpt>
   <trkpt lat="60.453365" lon="26.221331"><ele>19.75</ele></trkpt>
   <trkpt lat="60.455493" lon="26.218633"><ele>19</ele></trkpt>
  </trkseg>
 </trk>
</gpx>