<?xml version="1.0" encoding="UTF-8"?>
<!-- track-length = 3321 filtered ascend = 0 plain-ascend = -5 cost=3321 energy=0.0kwh time=4m 26s -->
<gpx 
 xmlns="http://www.topografix.com/GPX/1/1" 
 xmlns:xsi="http://www.w3.org/2001/XMLSchema-instance" 
 xsi:schemaLocation="http://www.topografix.com/GPX/1/1 http://www.topografix.com/GPX/1/1/gpx.xsd" 
 version="1.1" 
 creator="BRouter-Web 0.18.1">
 <trk>
  <name>007 Anterus - Skinnarby</name>
  <trkseg>
   <trkpt lat="60.568427" lon="26.158771"><ele>19.5</ele></trkpt>
   <trkpt lat="60.56822" lon="26.158903"><ele>19.75</ele></trkpt>
   <trkpt lat="60.567662" lon="26.159194"><ele>18.25</ele></trkpt>
   <trkpt lat="60.567115" lon="26.159454"><ele>16.75</ele></trkpt>
   <trkpt lat="60.566489" lon="26.159733"><ele>16.5</ele></trkpt>
   <trkpt lat="60.565789" lon="26.160083"><ele>15.5</ele></trkpt>
   <trkpt lat="60.563256" lon="26.161469"><ele>15.5</ele></trkpt>
   <trkpt lat="60.562941" lon="26.161631"><ele>15.25</ele></trkpt>
   <trkpt lat="60.560781" lon="26.16282"><ele>15.75</ele></trkpt>
   <trkpt lat="60.559866" lon="26.163317"><ele>16</ele></trkpt>
   <trkpt lat="60.55894" lon="26.163823"><ele>15.75</ele></trkpt>
   <trkpt lat="60.557163" lon="26.164792"><ele>15.75</ele></trkpt>
   <trkpt lat="60.556219" lon="26.165307"><ele>15.75</ele></trkpt>
   <trkpt lat="60.554253" lon="26.166369"><ele>16.25</ele></trkpt>
   <trkpt lat="60.552937" lon="26.167096"><ele>15.5</ele></trkpt>
   <trkpt lat="60.5471" lon="26.17027"><ele>15</ele></trkpt>
   <trkpt lat="60.545699" lon="26.171043"><ele>14.5</ele></trkpt>
   <trkpt lat="60.545489" lon="26.171156"><ele>14.75</ele></trkpt>
   <trkpt lat="60.543531" lon="26.172223"><ele>14.75</ele></trkpt>
   <trkpt lat="60.54121" lon="26.173488"><ele>13.75</ele></trkpt>
   <trkpt lat="60.539789" lon="26.174253"><ele>13.75</ele></trkpt>
   <trkpt lat="60.539627" lon="26.174341"><ele>14</ele></trkpt>
  </trkseg>
 </trk>
</gpx>