<?xml version="1.0" encoding="UTF-8"?>
<!-- track-length = 933 filtered ascend = 0 plain-ascend = 0 cost=933 energy=0.0kwh time=1m 15s -->
<gpx 
 xmlns="http://www.topografix.com/GPX/1/1" 
 xmlns:xsi="http://www.w3.org/2001/XMLSchema-instance" 
 xsi:schemaLocation="http://www.topografix.com/GPX/1/1 http://www.topografix.com/GPX/1/1/gpx.xsd" 
 version="1.1" 
 creator="BRouter-Web 0.18.1">
 <trk>
  <name>007 Haddom - Kuggom</name>
  <trkseg>
   <trkpt lat="60.501469" lon="26.191749"><ele>10</ele></trkpt>
   <trkpt lat="60.501224" lon="26.1917"><ele>10</ele></trkpt>
   <trkpt lat="60.498684" lon="26.191176"><ele>7.75</ele></trkpt>
   <trkpt lat="60.497118" lon="26.190855"><ele>7.75</ele></trkpt>
   <trkpt lat="60.494794" lon="26.19038"><ele>8.25</ele></trkpt>
   <trkpt lat="60.49444" lon="26.190323"><ele>8.5</ele></trkpt>
   <trkpt lat="60.493988" lon="26.190309"><ele>8.75</ele></trkpt>
   <trkpt lat="60.493718" lon="26.190352"><ele>8.5</ele></trkpt>
   <trkpt lat="60.493118" lon="26.190493"><ele>9.5</ele></trkpt>
  </trkseg>
 </trk>
</gpx>