<?xml version="1.0" encoding="UTF-8"?>
<!-- track-length = 4511 filtered ascend = 10 plain-ascend = 11 cost=4511 energy=0.1kwh time=6m 1s -->
<gpx 
 xmlns="http://www.topografix.com/GPX/1/1" 
 xmlns:xsi="http://www.w3.org/2001/XMLSchema-instance" 
 xsi:schemaLocation="http://www.topografix.com/GPX/1/1 http://www.topografix.com/GPX/1/1/gpx.xsd" 
 version="1.1" 
 creator="BRouter-Web 0.18.1">
 <trk>
  <name>007 Kuggom - Loviisa</name>
  <trkseg>
   <trkpt lat="60.493118" lon="26.190493"><ele>9</ele></trkpt>
   <trkpt lat="60.492904" lon="26.190544"><ele>9.5</ele></trkpt>
   <trkpt lat="60.491287" lon="26.190917"><ele>8</ele></trkpt>
   <trkpt lat="60.490584" lon="26.191104"><ele>8</ele></trkpt>
   <trkpt lat="60.490106" lon="26.191261"><ele>8</ele></trkpt>
   <trkpt lat="60.489676" lon="26.191468"><ele>7.75</ele></trkpt>
   <trkpt lat="60.489182" lon="26.191744"><ele>7</ele></trkpt>
   <trkpt lat="60.486" lon="26.193547"><ele>6</ele></trkpt>
   <trkpt lat="60.485426" lon="26.193928"><ele>5.75</ele></trkpt>
   <trkpt lat="60.485221" lon="26.194087"><ele>6</ele></trkpt>
   <trkpt lat="60.482694" lon="26.196151"><ele>9</ele></trkpt>
   <trkpt lat="60.481754" lon="26.196905"><ele>7</ele></trkpt>
   <trkpt lat="60.481242" lon="26.19729"><ele>7</ele></trkpt>
   <trkpt lat="60.48043" lon="26.197829"><ele>6.25</ele></trkpt>
   <trkpt lat="60.479733" lon="26.198127"><ele>5.75</ele></trkpt>
   <trkpt lat="60.479031" lon="26.198331"><ele>6</ele></trkpt>
   <trkpt lat="60.477849" lon="26.198559"><ele>6.5</ele></trkpt>
   <trkpt lat="60.477339" lon="26.198722"><ele>6.25</ele></trkpt>
   <trkpt lat="60.476838" lon="26.198979"><ele>6.5</ele></trkpt>
   <trkpt lat="60.476631" lon="26.199095"><ele>6.75</ele></trkpt>
   <trkpt lat="60.476154" lon="26.199424"><ele>7.75</ele></trkpt>
   <trkpt lat="60.471346" lon="26.202583"><ele>8</ele></trkpt>
   <trkpt lat="60.470712" lon="26.203018"><ele>8</ele></trkpt>
   <trkpt lat="60.468418" lon="26.204615"><ele>8.75</ele></trkpt>
   <trkpt lat="60.468096" lon="26.204832"><ele>8.75</ele></trkpt>
   <trkpt lat="60.466046" lon="26.206294"><ele>10.75</ele></trkpt>
   <trkpt lat="60.465551" lon="26.206658"><ele>11.75</ele></trkpt>
   <trkpt lat="60.465058" lon="26.207079"><ele>10.75</ele></trkpt>
   <trkpt lat="60.464559" lon="26.207549"><ele>9.25</ele></trkpt>
   <trkpt lat="60.463909" lon="26.208252"><ele>10.75</ele></trkpt>
   <trkpt lat="60.460517" lon="26.212241"><ele>12.5</ele></trkpt>
   <trkpt lat="60.459953" lon="26.212948"><ele>13.25</ele></trkpt>
   <trkpt lat="60.457312" lon="26.216325"><ele>18.75</ele></trkpt>
   <trkpt lat="60.45724" lon="26.21642"><ele>19</ele></trkpt>
   <trkpt lat="60.455493" lon="26.218633"><ele>19.75</ele></trkpt>
  </trkseg>
 </trk>
</gpx>