<?xml version="1.0" encoding="UTF-8"?>
<!-- track-length = 915 filtered ascend = 5 plain-ascend = 2 cost=915 energy=0.0kwh time=1m 13s -->
<gpx 
 xmlns="http://www.topografix.com/GPX/1/1" 
 xmlns:xsi="http://www.w3.org/2001/XMLSchema-instance" 
 xsi:schemaLocation="http://www.topografix.com/GPX/1/1 http://www.topografix.com/GPX/1/1/gpx.xsd" 
 version="1.1" 
 creator="BRouter-Web 0.18.1">
 <trk>
  <name>007 Patuna - Varvi</name>
  <trkseg>
   <trkpt lat="60.432256" lon="26.236894"><ele>3</ele></trkpt>
   <trkpt lat="60.432171" lon="26.237026"><ele>3</ele></trkpt>
   <trkpt lat="60.432158" lon="26.237046"><ele>3</ele></trkpt>
   <trkpt lat="60.431822" lon="26.237569"><ele>2.75</ele></trkpt>
   <trkpt lat="60.431148" lon="26.238449"><ele>2.75</ele></trkpt>
   <trkpt lat="60.429274" lon="26.240583"><ele>2.25</ele></trkpt>
   <trkpt lat="60.428843" lon="26.241158"><ele>2.75</ele></trkpt>
   <trkpt lat="60.428446" lon="26.241819"><ele>3.25</ele></trkpt>
   <trkpt lat="60.428158" lon="26.242442"><ele>3.75</ele></trkpt>
   <trkpt lat="60.427946" lon="26.243018"><ele>4.25</ele></trkpt>
   <trkpt lat="60.427328" lon="26.245031"><ele>4.25</ele></trkpt>
   <trkpt lat="60.427183" lon="26.245424"><ele>5.75</ele></trkpt>
   <trkpt lat="60.427048" lon="26.245765"><ele>6.75</ele></trkpt>
   <trkpt lat="60.426781" lon="26.246337"><ele>8</ele></trkpt>
   <trkpt lat="60.426645" lon="26.24659"><ele>6.75</ele></trkpt>
   <trkpt lat="60.426474" lon="26.246878"><ele>6.25</ele></trkpt>
   <trkpt lat="60.426247" lon="26.247171"><ele>5.5</ele></trkpt>
   <trkpt lat="60.42607" lon="26.247382"><ele>5</ele></trkpt>
  </trkseg>
 </trk>
</gpx>