<?xml version="1.0" encoding="UTF-8"?>
<!-- track-length = 57 filtered ascend = 0 plain-ascend = 0 cost=114 energy=0.0kwh time=5s -->
<gpx 
 xmlns="http://www.topografix.com/GPX/1/1" 
 xmlns:xsi="http://www.w3.org/2001/XMLSchema-instance" 
 xsi:schemaLocation="http://www.topografix.com/GPX/1/1 http://www.topografix.com/GPX/1/1/gpx.xsd" 
 version="1.1" 
 creator="BRouter-Web 0.18.1">
 <trk>
  <name>Länsilinkki (Steig Südwest) - Abzweig Jätkäsaarenlaituri Weiche Nordwest</name>
  <trkseg>
   <trkpt lat="60.162661" lon="24.923208"><ele>3.5</ele></trkpt>
   <trkpt lat="60.162625" lon="24.923259"><ele>3.75</ele></trkpt>
   <trkpt lat="60.16261" lon="24.923277"><ele>3.75</ele></trkpt>
   <trkpt lat="60.162548" lon="24.923328"><ele>3.25</ele></trkpt>
   <trkpt lat="60.162466" lon="24.923334"><ele>2.75</ele></trkpt>
   <trkpt lat="60.162437" lon="24.923319"><ele>3</ele></trkpt>
   <trkpt lat="60.162393" lon="24.923278"><ele>3</ele></trkpt>
   <trkpt lat="60.162339" lon="24.923188"><ele>3</ele></trkpt>
   <trkpt lat="60.16225" lon="24.922946"><ele>3.25</ele></trkpt>
   <trkpt lat="60.162248" lon="24.922941"><ele>3.5</ele></trkpt>
  </trkseg>
 </trk>
</gpx>