<?xml version="1.0" encoding="UTF-8"?>
<!-- track-length = 979 filtered ascend = 0 plain-ascend = 0 cost=1958 energy=0.0kwh time=1m 18s -->
<gpx 
 xmlns="http://www.topografix.com/GPX/1/1" 
 xmlns:xsi="http://www.w3.org/2001/XMLSchema-instance" 
 xsi:schemaLocation="http://www.topografix.com/GPX/1/1 http://www.topografix.com/GPX/1/1/gpx.xsd" 
 version="1.1" 
 creator="BRouter-Web 0.18.1">
 <trk>
  <name>Dreieck Platz der Jugend Weiche Südwest-Nord - Ostorf (Steig B)</name>
  <trkseg>
   <trkpt lat="53.620281" lon="11.408043"><ele>42</ele></trkpt>
   <trkpt lat="53.620138" lon="11.407854"><ele>42</ele></trkpt>
   <trkpt lat="53.620088" lon="11.407798"><ele>42</ele></trkpt>
   <trkpt lat="53.619961" lon="11.407693"><ele>42</ele></trkpt>
   <trkpt lat="53.619844" lon="11.407627"><ele>42</ele></trkpt>
   <trkpt lat="53.61981" lon="11.407611"><ele>42</ele></trkpt>
   <trkpt lat="53.619727" lon="11.40759"><ele>42</ele></trkpt>
   <trkpt lat="53.619606" lon="11.407583"><ele>42</ele></trkpt>
   <trkpt lat="53.619526" lon="11.407587"><ele>42</ele></trkpt>
   <trkpt lat="53.619427" lon="11.407607"><ele>41.75</ele></trkpt>
   <trkpt lat="53.61931" lon="11.407655"><ele>41.5</ele></trkpt>
   <trkpt lat="53.619106" lon="11.407817"><ele>40.75</ele></trkpt>
   <trkpt lat="53.617685" lon="11.409018"><ele>42</ele></trkpt>
   <trkpt lat="53.616349" lon="11.410127"><ele>41.25</ele></trkpt>
   <trkpt lat="53.616083" lon="11.410382"><ele>41.25</ele></trkpt>
   <trkpt lat="53.615832" lon="11.410655"><ele>40.75</ele></trkpt>
   <trkpt lat="53.615607" lon="11.410933"><ele>40.5</ele></trkpt>
   <trkpt lat="53.615376" lon="11.411258"><ele>40.25</ele></trkpt>
   <trkpt lat="53.61509" lon="11.41175"><ele>40.5</ele></trkpt>
   <trkpt lat="53.614823" lon="11.412273"><ele>41</ele></trkpt>
   <trkpt lat="53.614687" lon="11.41259"><ele>41.25</ele></trkpt>
   <trkpt lat="53.614552" lon="11.412933"><ele>41.5</ele></trkpt>
   <trkpt lat="53.614397" lon="11.413394"><ele>42</ele></trkpt>
   <trkpt lat="53.614031" lon="11.414682"><ele>42</ele></trkpt>
   <trkpt lat="53.614018" lon="11.414729"><ele>42</ele></trkpt>
   <trkpt lat="53.613691" lon="11.415913"><ele>42</ele></trkpt>
  </trkseg>
 </trk>
</gpx>