<?xml version="1.0" encoding="UTF-8"?>
<!-- track-length = 895 filtered ascend = 13 plain-ascend = 13 cost=895 energy=0.0kwh time=1m 12s -->
<gpx 
 xmlns="http://www.topografix.com/GPX/1/1" 
 xmlns:xsi="http://www.w3.org/2001/XMLSchema-instance" 
 xsi:schemaLocation="http://www.topografix.com/GPX/1/1 http://www.topografix.com/GPX/1/1/gpx.xsd" 
 version="1.1" 
 creator="BRouter-Web 0.18.1">
 <trk>
  <name>Üst Hervantajärvi Weiche Ost - Etelä-Hervanta (Steig A)</name>
  <trkseg>
   <trkpt lat="61.438213" lon="23.868737"><ele>125</ele></trkpt>
   <trkpt lat="61.438117" lon="23.86773"><ele>125</ele></trkpt>
   <trkpt lat="61.438073" lon="23.867108"><ele>125</ele></trkpt>
   <trkpt lat="61.438062" lon="23.866846"><ele>125</ele></trkpt>
   <trkpt lat="61.438061" lon="23.86669"><ele>125</ele></trkpt>
   <trkpt lat="61.438083" lon="23.866093"><ele>126</ele></trkpt>
   <trkpt lat="61.438121" lon="23.865668"><ele>126</ele></trkpt>
   <trkpt lat="61.438197" lon="23.865144"><ele>126.5</ele></trkpt>
   <trkpt lat="61.438222" lon="23.865033"><ele>126.75</ele></trkpt>
   <trkpt lat="61.438262" lon="23.864853"><ele>127</ele></trkpt>
   <trkpt lat="61.438299" lon="23.864694"><ele>127</ele></trkpt>
   <trkpt lat="61.438501" lon="23.863961"><ele>128.75</ele></trkpt>
   <trkpt lat="61.43871" lon="23.86326"><ele>129</ele></trkpt>
   <trkpt lat="61.438769" lon="23.863101"><ele>129</ele></trkpt>
   <trkpt lat="61.438855" lon="23.862937"><ele>129</ele></trkpt>
   <trkpt lat="61.438925" lon="23.862836"><ele>129.25</ele></trkpt>
   <trkpt lat="61.438994" lon="23.862761"><ele>130</ele></trkpt>
   <trkpt lat="61.439212" lon="23.862531"><ele>130</ele></trkpt>
   <trkpt lat="61.439373" lon="23.862383"><ele>129.25</ele></trkpt>
   <trkpt lat="61.439505" lon="23.86229"><ele>129.25</ele></trkpt>
   <trkpt lat="61.43963" lon="23.862231"><ele>129.5</ele></trkpt>
   <trkpt lat="61.439792" lon="23.86219"><ele>130.25</ele></trkpt>
   <trkpt lat="61.440313" lon="23.862147"><ele>132</ele></trkpt>
   <trkpt lat="61.440458" lon="23.862118"><ele>133</ele></trkpt>
   <trkpt lat="61.440569" lon="23.862075"><ele>133.75</ele></trkpt>
   <trkpt lat="61.440713" lon="23.862001"><ele>133.25</ele></trkpt>
   <trkpt lat="61.440838" lon="23.861919"><ele>133</ele></trkpt>
   <trkpt lat="61.440981" lon="23.861794"><ele>133</ele></trkpt>
   <trkpt lat="61.441516" lon="23.86131"><ele>133</ele></trkpt>
   <trkpt lat="61.441646" lon="23.861177"><ele>133</ele></trkpt>
   <trkpt lat="61.441762" lon="23.861003"><ele>132.75</ele></trkpt>
   <trkpt lat="61.441835" lon="23.860864"><ele>132.25</ele></trkpt>
   <trkpt lat="61.44192" lon="23.860641"><ele>132.5</ele></trkpt>
   <trkpt lat="61.442004" lon="23.860315"><ele>133</ele></trkpt>
   <trkpt lat="61.442041" lon="23.860095"><ele>133</ele></trkpt>
   <trkpt lat="61.442122" lon="23.859487"><ele>135.5</ele></trkpt>
   <trkpt lat="61.442162" lon="23.859263"><ele>136.5</ele></trkpt>
   <trkpt lat="61.442185" lon="23.859182"><ele>136.75</ele></trkpt>
   <trkpt lat="61.442216" lon="23.85909"><ele>137</ele></trkpt>
   <trkpt lat="61.442265" lon="23.858991"><ele>137</ele></trkpt>
   <trkpt lat="61.442297" lon="23.858934"><ele>137.25</ele></trkpt>
   <trkpt lat="61.442385" lon="23.858824"><ele>137.5</ele></trkpt>
   <trkpt lat="61.442465" lon="23.858744"><ele>137.75</ele></trkpt>
   <trkpt lat="61.442963" lon="23.858204"><ele>138</ele></trkpt>
   <trkpt lat="61.442967" lon="23.858199"><ele>138</ele></trkpt>
  </trkseg>
 </trk>
</gpx>