<?xml version="1.0" encoding="UTF-8"?>
<!-- track-length = 68 filtered ascend = 0 plain-ascend = 0 cost=138 energy=0.0kwh time=6s -->
<gpx 
 xmlns="http://www.topografix.com/GPX/1/1" 
 xmlns:xsi="http://www.w3.org/2001/XMLSchema-instance" 
 xsi:schemaLocation="http://www.topografix.com/GPX/1/1 http://www.topografix.com/GPX/1/1/gpx.xsd" 
 version="1.1" 
 creator="BRouter-Web 0.18.1">
 <trk>
  <name>Abzweig Tyynenmerenkatu Weiche Nordwest - Huutokonttori (Steig Süd-West)</name>
  <trkseg>
   <trkpt lat="60.160327" lon="24.921694"><ele>3.25</ele></trkpt>
   <trkpt lat="60.160242" lon="24.921497"><ele>3.75</ele></trkpt>
   <trkpt lat="60.160196" lon="24.921414"><ele>3.75</ele></trkpt>
   <trkpt lat="60.160139" lon="24.921347"><ele>4</ele></trkpt>
   <trkpt lat="60.160097" lon="24.921327"><ele>4</ele></trkpt>
   <trkpt lat="60.16005" lon="24.921322"><ele>4</ele></trkpt>
   <trkpt lat="60.160023" lon="24.921325"><ele>4</ele></trkpt>
   <trkpt lat="60.159786" lon="24.921368"><ele>3.25</ele></trkpt>
  </trkseg>
 </trk>
</gpx>
