<?xml version="1.0" encoding="UTF-8"?>
<!-- track-length = 233 filtered ascend = 0 plain-ascend = 0 cost=466 energy=0.0kwh time=19s -->
<gpx 
 xmlns="http://www.topografix.com/GPX/1/1" 
 xmlns:xsi="http://www.w3.org/2001/XMLSchema-instance" 
 xsi:schemaLocation="http://www.topografix.com/GPX/1/1 http://www.topografix.com/GPX/1/1/gpx.xsd" 
 version="1.1" 
 creator="BRouter-Web 0.18.1">
 <trk>
  <name>Bunkkerinaukio (Steig Nordwest) - Länsiterminaali 2 Weiche Nordost</name>
  <trkseg>
   <trkpt lat="60.153942" lon="24.919112"><ele>3</ele></trkpt>
   <trkpt lat="60.153869" lon="24.919033"><ele>3</ele></trkpt>
   <trkpt lat="60.153847" lon="24.919008"><ele>3</ele></trkpt>
   <trkpt lat="60.152599" lon="24.917674"><ele>3</ele></trkpt>
   <trkpt lat="60.152561" lon="24.917638"><ele>2.75</ele></trkpt>
   <trkpt lat="60.152519" lon="24.917588"><ele>3</ele></trkpt>
   <trkpt lat="60.152381" lon="24.91744"><ele>3</ele></trkpt>
   <trkpt lat="60.152333" lon="24.917388"><ele>3</ele></trkpt>
   <trkpt lat="60.152262" lon="24.917313"><ele>2.75</ele></trkpt>
   <trkpt lat="60.152222" lon="24.917271"><ele>2.75</ele></trkpt>
   <trkpt lat="60.152197" lon="24.917242"><ele>2.75</ele></trkpt>
   <trkpt lat="60.152098" lon="24.917137"><ele>2.5</ele></trkpt>
   <trkpt lat="60.152096" lon="24.917134"><ele>2</ele></trkpt>
  </trkseg>
 </trk>
</gpx>