<?xml version="1.0" encoding="UTF-8"?>
<!-- track-length = 378 filtered ascend = 1 plain-ascend = 0 cost=756 energy=0.0kwh time=30s -->
<gpx 
 xmlns="http://www.topografix.com/GPX/1/1" 
 xmlns:xsi="http://www.w3.org/2001/XMLSchema-instance" 
 xsi:schemaLocation="http://www.topografix.com/GPX/1/1 http://www.topografix.com/GPX/1/1/gpx.xsd" 
 version="1.1" 
 creator="BRouter-Web 0.18.1">
 <trk>
  <name>Länsiterminaali 2 (Steig Nordwest) - Abzweig Samoankuja Weiche Südost</name>
  <trkseg>
   <trkpt lat="60.150799" lon="24.915746"><ele>2.75</ele></trkpt>
   <trkpt lat="60.150749" lon="24.915692"><ele>3</ele></trkpt>
   <trkpt lat="60.150701" lon="24.915625"><ele>3</ele></trkpt>
   <trkpt lat="60.150647" lon="24.915488"><ele>3</ele></trkpt>
   <trkpt lat="60.150626" lon="24.915385"><ele>3.25</ele></trkpt>
   <trkpt lat="60.150621" lon="24.915292"><ele>3.5</ele></trkpt>
   <trkpt lat="60.150623" lon="24.915216"><ele>3.75</ele></trkpt>
   <trkpt lat="60.150643" lon="24.915083"><ele>3.5</ele></trkpt>
   <trkpt lat="60.150699" lon="24.91487"><ele>3.5</ele></trkpt>
   <trkpt lat="60.150738" lon="24.914722"><ele>3.5</ele></trkpt>
   <trkpt lat="60.150762" lon="24.914632"><ele>3.25</ele></trkpt>
   <trkpt lat="60.151009" lon="24.913693"><ele>3.25</ele></trkpt>
   <trkpt lat="60.151175" lon="24.913115"><ele>3.25</ele></trkpt>
   <trkpt lat="60.151234" lon="24.912934"><ele>3</ele></trkpt>
   <trkpt lat="60.151401" lon="24.912478"><ele>3</ele></trkpt>
   <trkpt lat="60.151585" lon="24.912056"><ele>3</ele></trkpt>
   <trkpt lat="60.151739" lon="24.91175"><ele>3</ele></trkpt>
   <trkpt lat="60.151772" lon="24.911681"><ele>3</ele></trkpt>
   <trkpt lat="60.1518" lon="24.911635"><ele>3</ele></trkpt>
   <trkpt lat="60.151861" lon="24.911527"><ele>3</ele></trkpt>
   <trkpt lat="60.151982" lon="24.911323"><ele>3</ele></trkpt>
   <trkpt lat="60.1522" lon="24.911005"><ele>3</ele></trkpt>
   <trkpt lat="60.152312" lon="24.910862"><ele>3</ele></trkpt>
   <trkpt lat="60.152541" lon="24.910605"><ele>3</ele></trkpt>
  </trkseg>
 </trk>
</gpx>