<?xml version="1.0" encoding="UTF-8"?>
<!-- track-length = 367 filtered ascend = 1 plain-ascend = 1 cost=367 energy=0.0kwh time=29s -->
<gpx 
 xmlns="http://www.topografix.com/GPX/1/1" 
 xmlns:xsi="http://www.w3.org/2001/XMLSchema-instance" 
 xsi:schemaLocation="http://www.topografix.com/GPX/1/1 http://www.topografix.com/GPX/1/1/gpx.xsd" 
 version="1.1" 
 creator="BRouter-Web 0.18.1">
 <trk>
  <name>Dreieck Hiedenranta Weiche Nordost-Ost - Tehdas (Steig A)</name>
  <trkseg>
   <trkpt lat="61.514391" lon="23.679789"><ele>108.75</ele></trkpt>
   <trkpt lat="61.514741" lon="23.680428"><ele>109</ele></trkpt>
   <trkpt lat="61.514772" lon="23.680484"><ele>109</ele></trkpt>
   <trkpt lat="61.514989" lon="23.68088"><ele>109.75</ele></trkpt>
   <trkpt lat="61.515069" lon="23.680995"><ele>109.25</ele></trkpt>
   <trkpt lat="61.515216" lon="23.681134"><ele>108.75</ele></trkpt>
   <trkpt lat="61.515316" lon="23.681202"><ele>109</ele></trkpt>
   <trkpt lat="61.515434" lon="23.681261"><ele>109</ele></trkpt>
   <trkpt lat="61.515978" lon="23.681495"><ele>109</ele></trkpt>
   <trkpt lat="61.51687" lon="23.681868"><ele>109</ele></trkpt>
   <trkpt lat="61.517368" lon="23.682081"><ele>109</ele></trkpt>
   <trkpt lat="61.517392" lon="23.68209"><ele>109.25</ele></trkpt>
  </trkseg>
 </trk>
</gpx>