<?xml version="1.0" encoding="UTF-8"?>
<!-- track-length = 260 filtered ascend = 0 plain-ascend = -7 cost=260 energy=0.0kwh time=21s -->
<gpx 
 xmlns="http://www.topografix.com/GPX/1/1" 
 xmlns:xsi="http://www.w3.org/2001/XMLSchema-instance" 
 xsi:schemaLocation="http://www.topografix.com/GPX/1/1 http://www.topografix.com/GPX/1/1/gpx.xsd" 
 version="1.1" 
 creator="BRouter-Web 0.18.1">
 <trk>
  <name>Tehdas (Steig A) - Üst Tehdas Weiche Nord</name>
  <trkseg>
   <trkpt lat="61.517392" lon="23.68209"><ele>109</ele></trkpt>
   <trkpt lat="61.517485" lon="23.682127"><ele>109.25</ele></trkpt>
   <trkpt lat="61.517515" lon="23.68214"><ele>109</ele></trkpt>
   <trkpt lat="61.518172" lon="23.682417"><ele>104.75</ele></trkpt>
   <trkpt lat="61.51819" lon="23.682424"><ele>104.75</ele></trkpt>
   <trkpt lat="61.518229" lon="23.682441"><ele>104.5</ele></trkpt>
   <trkpt lat="61.518289" lon="23.682464"><ele>104.25</ele></trkpt>
   <trkpt lat="61.518696" lon="23.682631"><ele>102.5</ele></trkpt>
   <trkpt lat="61.518868" lon="23.682686"><ele>102.25</ele></trkpt>
   <trkpt lat="61.518886" lon="23.682692"><ele>102.25</ele></trkpt>
   <trkpt lat="61.519052" lon="23.682733"><ele>101</ele></trkpt>
   <trkpt lat="61.519684" lon="23.682875"><ele>100.5</ele></trkpt>
   <trkpt lat="61.519685" lon="23.682875"><ele>100.75</ele></trkpt>
  </trkseg>
 </trk>
</gpx>