<?xml version="1.0" encoding="UTF-8"?>
<!-- track-length = 163 filtered ascend = 5 plain-ascend = 5 cost=163 energy=0.0kwh time=13s -->
<gpx 
 xmlns="http://www.topografix.com/GPX/1/1" 
 xmlns:xsi="http://www.w3.org/2001/XMLSchema-instance" 
 xsi:schemaLocation="http://www.topografix.com/GPX/1/1 http://www.topografix.com/GPX/1/1/gpx.xsd" 
 version="1.1" 
 creator="BRouter-Web 0.18.1">
 <trk>
  <name>Üst Tehdas Weiche Nord - Niemen kartano (Steig A)</name>
  <trkseg>
   <trkpt lat="61.519685" lon="23.682875"><ele>100.5</ele></trkpt>
   <trkpt lat="61.519888" lon="23.682921"><ele>100.75</ele></trkpt>
   <trkpt lat="61.519977" lon="23.682954"><ele>100.75</ele></trkpt>
   <trkpt lat="61.520038" lon="23.682986"><ele>101</ele></trkpt>
   <trkpt lat="61.520099" lon="23.683036"><ele>101</ele></trkpt>
   <trkpt lat="61.520201" lon="23.683138"><ele>101.25</ele></trkpt>
   <trkpt lat="61.520301" lon="23.683274"><ele>101.75</ele></trkpt>
   <trkpt lat="61.520408" lon="23.683476"><ele>101.75</ele></trkpt>
   <trkpt lat="61.520522" lon="23.683726"><ele>102.75</ele></trkpt>
   <trkpt lat="61.520828" lon="23.684398"><ele>103.75</ele></trkpt>
   <trkpt lat="61.52087" lon="23.684492"><ele>105.5</ele></trkpt>
  </trkseg>
 </trk>
</gpx>