<?xml version="1.0" encoding="UTF-8"?>
<!-- track-length = 73 filtered ascend = 0 plain-ascend = 0 cost=146 energy=0.0kwh time=6s -->
<gpx 
 xmlns="http://www.topografix.com/GPX/1/1" 
 xmlns:xsi="http://www.w3.org/2001/XMLSchema-instance" 
 xsi:schemaLocation="http://www.topografix.com/GPX/1/1 http://www.topografix.com/GPX/1/1/gpx.xsd" 
 version="1.1" 
 creator="BRouter-Web 0.18.1">
 <trk>
  <name>Abzweig Piazza Virgilio Weiche Ost - Piazza Virgilio (Steig Nordost)</name>
  <trkseg>
   <trkpt lat="45.46798" lon="9.17308"><ele>121</ele></trkpt>
   <trkpt lat="45.468021" lon="9.173028"><ele>121</ele></trkpt>
   <trkpt lat="45.468072" lon="9.172961"><ele>121</ele></trkpt>
   <trkpt lat="45.468459" lon="9.172452"><ele>121</ele></trkpt>
  </trkseg>
 </trk>
</gpx>