<?xml version="1.0" encoding="UTF-8"?>
<!-- track-length = 52 filtered ascend = 0 plain-ascend = 0 cost=106 energy=0.0kwh time=4s -->
<gpx 
 xmlns="http://www.topografix.com/GPX/1/1" 
 xmlns:xsi="http://www.w3.org/2001/XMLSchema-instance" 
 xsi:schemaLocation="http://www.topografix.com/GPX/1/1 http://www.topografix.com/GPX/1/1/gpx.xsd" 
 version="1.1" 
 creator="BRouter-Web 0.18.1">
 <trk>
  <name>Dreieck Antonplatz Weiche 28 - Dreieck Antonplatz Weiche 721</name>
  <trkseg>
   <trkpt lat="52.548393" lon="13.451352"><ele>46.75</ele></trkpt>
   <trkpt lat="52.548381" lon="13.451249"><ele>47</ele></trkpt>
   <trkpt lat="52.548374" lon="13.451126"><ele>47</ele></trkpt>
   <trkpt lat="52.548386" lon="13.451018"><ele>46.75</ele></trkpt>
   <trkpt lat="52.548401" lon="13.450953"><ele>46.75</ele></trkpt>
   <trkpt lat="52.548439" lon="13.45086"><ele>46.5</ele></trkpt>
   <trkpt lat="52.548536" lon="13.450692"><ele>46</ele></trkpt>
   <trkpt lat="52.548538" lon="13.450688"><ele>46</ele></trkpt>
  </trkseg>
 </trk>
</gpx>