<?xml version="1.0" encoding="UTF-8"?>
<!-- track-length = 303 filtered ascend = 0 plain-ascend = 1 cost=606 energy=0.0kwh time=24s -->
<gpx 
 xmlns="http://www.topografix.com/GPX/1/1" 
 xmlns:xsi="http://www.w3.org/2001/XMLSchema-instance" 
 xsi:schemaLocation="http://www.topografix.com/GPX/1/1 http://www.topografix.com/GPX/1/1/gpx.xsd" 
 version="1.1" 
 creator="BRouter-Web 0.18.1">
 <trk>
  <name>Dreieck Antonplatz Weiche 721 - Behaimstraße (Steig Nordost)</name>
  <trkseg>
   <trkpt lat="52.548538" lon="13.450688"><ele>46</ele></trkpt>
   <trkpt lat="52.54859" lon="13.450613"><ele>46</ele></trkpt>
   <trkpt lat="52.548653" lon="13.450485"><ele>46</ele></trkpt>
   <trkpt lat="52.548788" lon="13.450051"><ele>46</ele></trkpt>
   <trkpt lat="52.549362" lon="13.448258"><ele>45.75</ele></trkpt>
   <trkpt lat="52.549386" lon="13.448186"><ele>45.75</ele></trkpt>
   <trkpt lat="52.549418" lon="13.448083"><ele>45.75</ele></trkpt>
   <trkpt lat="52.549632" lon="13.447417"><ele>46</ele></trkpt>
   <trkpt lat="52.549837" lon="13.446774"><ele>46.75</ele></trkpt>
  </trkseg>
 </trk>
</gpx>