<?xml version="1.0" encoding="UTF-8"?>
<!-- track-length = 377 filtered ascend = 0 plain-ascend = -1 cost=754 energy=0.0kwh time=30s -->
<gpx 
 xmlns="http://www.topografix.com/GPX/1/1" 
 xmlns:xsi="http://www.w3.org/2001/XMLSchema-instance" 
 xsi:schemaLocation="http://www.topografix.com/GPX/1/1 http://www.topografix.com/GPX/1/1/gpx.xsd" 
 version="1.1" 
 creator="BRouter-Web 0.18.1">
 <trk>
  <name>Kansallismuseo (Steig Nordost) - Hesperian puisto (Steig Nordost)</name>
  <trkseg>
   <trkpt lat="60.175426" lon="24.932056"><ele>10</ele></trkpt>
   <trkpt lat="60.175499" lon="24.931981"><ele>10</ele></trkpt>
   <trkpt lat="60.17552" lon="24.931957"><ele>10</ele></trkpt>
   <trkpt lat="60.175814" lon="24.931645"><ele>9</ele></trkpt>
   <trkpt lat="60.176227" lon="24.931134"><ele>8.75</ele></trkpt>
   <trkpt lat="60.176249" lon="24.931108"><ele>9</ele></trkpt>
   <trkpt lat="60.176305" lon="24.93104"><ele>9</ele></trkpt>
   <trkpt lat="60.17637" lon="24.930962"><ele>9</ele></trkpt>
   <trkpt lat="60.176603" lon="24.930672"><ele>9</ele></trkpt>
   <trkpt lat="60.176837" lon="24.930405"><ele>9</ele></trkpt>
   <trkpt lat="60.177307" lon="24.929931"><ele>7.75</ele></trkpt>
   <trkpt lat="60.177431" lon="24.929807"><ele>7.75</ele></trkpt>
   <trkpt lat="60.177458" lon="24.929781"><ele>7.75</ele></trkpt>
   <trkpt lat="60.177493" lon="24.929745"><ele>7.75</ele></trkpt>
   <trkpt lat="60.177535" lon="24.929703"><ele>7.75</ele></trkpt>
   <trkpt lat="60.177592" lon="24.929647"><ele>7.75</ele></trkpt>
   <trkpt lat="60.177706" lon="24.929553"><ele>7.5</ele></trkpt>
   <trkpt lat="60.177817" lon="24.929488"><ele>7.75</ele></trkpt>
   <trkpt lat="60.177862" lon="24.929465"><ele>7.75</ele></trkpt>
   <trkpt lat="60.177931" lon="24.929431"><ele>8</ele></trkpt>
   <trkpt lat="60.177949" lon="24.929422"><ele>8</ele></trkpt>
   <trkpt lat="60.177975" lon="24.92941"><ele>8</ele></trkpt>
   <trkpt lat="60.178474" lon="24.92915"><ele>8</ele></trkpt>
  </trkseg>
 </trk>
</gpx>