<?xml version="1.0" encoding="UTF-8"?>
<!-- track-length = 15 filtered ascend = 0 plain-ascend = 1 cost=30 energy=0.0kwh time=1s -->
<gpx 
 xmlns="http://www.topografix.com/GPX/1/1" 
 xmlns:xsi="http://www.w3.org/2001/XMLSchema-instance" 
 xsi:schemaLocation="http://www.topografix.com/GPX/1/1 http://www.topografix.com/GPX/1/1/gpx.xsd" 
 version="1.1" 
 creator="BRouter-Web 99.71.0">
 <trk>
  <name>Zamek (Steig Nord) - Abzweig Zamek Weiche Nord</name>
  <link href="https://brouter.damsy.net/latest/#map=18/52.40699/16.91783/standard&amp;lonlats=16.918269,52.407333;16.91805,52.407353">
   <text>BRouter-Web</text>
  </link>
  <trkseg>
   <trkpt lat="52.407334" lon="16.918269"><ele>76.5</ele></trkpt>
   <trkpt lat="52.407352" lon="16.918049"><ele>77</ele></trkpt>
  </trkseg>
 </trk>
</gpx>