<?xml version="1.0" encoding="UTF-8"?>
<!-- track-length = 72 filtered ascend = 0 plain-ascend = -2 cost=144 energy=0.0kwh time=6s -->
<gpx 
 xmlns="http://www.topografix.com/GPX/1/1" 
 xmlns:xsi="http://www.w3.org/2001/XMLSchema-instance" 
 xsi:schemaLocation="http://www.topografix.com/GPX/1/1 http://www.topografix.com/GPX/1/1/gpx.xsd" 
 version="1.1" 
 creator="BRouter-Web 0.18.1">
 <trk>
  <name>Eläintarha (Steig Nordost-Nordwest) - Abzweig Eläintarha Weiche Nord</name>
  <trkseg>
   <trkpt lat="60.192506" lon="24.930047"><ele>10.75</ele></trkpt>
   <trkpt lat="60.19249" lon="24.929951"><ele>10.75</ele></trkpt>
   <trkpt lat="60.192459" lon="24.929779"><ele>10.75</ele></trkpt>
   <trkpt lat="60.192436" lon="24.929651"><ele>10.5</ele></trkpt>
   <trkpt lat="60.192423" lon="24.929575"><ele>10.25</ele></trkpt>
   <trkpt lat="60.192396" lon="24.929424"><ele>10</ele></trkpt>
   <trkpt lat="60.192339" lon="24.929126"><ele>9.75</ele></trkpt>
   <trkpt lat="60.192289" lon="24.928864"><ele>9.25</ele></trkpt>
   <trkpt lat="60.192287" lon="24.928854"><ele>8</ele></trkpt>
  </trkseg>
 </trk>
</gpx>