<?xml version="1.0" encoding="UTF-8"?>
<!-- track-length = 299 filtered ascend = 6 plain-ascend = 7 cost=557 energy=0.0kwh time=24s -->
<gpx 
 xmlns="http://www.topografix.com/GPX/1/1" 
 xmlns:xsi="http://www.w3.org/2001/XMLSchema-instance" 
 xsi:schemaLocation="http://www.topografix.com/GPX/1/1 http://www.topografix.com/GPX/1/1/gpx.xsd" 
 version="1.1" 
 creator="BRouter-Web 0.18.1">
 <trk>
  <name>Abzweig Franz-Mehring-Straße Weiche 1-21 - Stadthaus (Steig A)</name>
  <trkseg>
   <trkpt lat="53.630301" lon="11.410124"><ele>46.5</ele></trkpt>
   <trkpt lat="53.630302" lon="11.410124"><ele>46.5</ele></trkpt>
   <trkpt lat="53.630433" lon="11.410056"><ele>46.75</ele></trkpt>
   <trkpt lat="53.63052" lon="11.409997"><ele>47</ele></trkpt>
   <trkpt lat="53.6306" lon="11.409917"><ele>47</ele></trkpt>
   <trkpt lat="53.6307" lon="11.409751"><ele>47</ele></trkpt>
   <trkpt lat="53.631115" lon="11.408834"><ele>50</ele></trkpt>
   <trkpt lat="53.631199" lon="11.408576"><ele>50.25</ele></trkpt>
   <trkpt lat="53.63131" lon="11.408118"><ele>51</ele></trkpt>
   <trkpt lat="53.631382" lon="11.407884"><ele>51</ele></trkpt>
   <trkpt lat="53.631453" lon="11.407703"><ele>51.25</ele></trkpt>
   <trkpt lat="53.631501" lon="11.407603"><ele>51.5</ele></trkpt>
   <trkpt lat="53.631629" lon="11.407385"><ele>52</ele></trkpt>
   <trkpt lat="53.631749" lon="11.407205"><ele>52</ele></trkpt>
   <trkpt lat="53.631814" lon="11.407102"><ele>52</ele></trkpt>
   <trkpt lat="53.63199" lon="11.406762"><ele>52.5</ele></trkpt>
   <trkpt lat="53.63199" lon="11.40676"><ele>53</ele></trkpt>
  </trkseg>
 </trk>
</gpx>