<?xml version="1.0" encoding="UTF-8"?>
<!-- track-length = 57 filtered ascend = 1 plain-ascend = 1 cost=114 energy=0.0kwh time=5s -->
<gpx 
 xmlns="http://www.topografix.com/GPX/1/1" 
 xmlns:xsi="http://www.w3.org/2001/XMLSchema-instance" 
 xsi:schemaLocation="http://www.topografix.com/GPX/1/1 http://www.topografix.com/GPX/1/1/gpx.xsd" 
 version="1.1" 
 creator="BRouter-Web 0.18.1">
 <trk>
  <name>Dreieck Santovka Weiche Ost-Nord - Dreieck Santovka Weiche West-Nord</name>
  <trkseg>
   <trkpt lat="49.588788" lon="17.257315"><ele>211.75</ele></trkpt>
   <trkpt lat="49.588788" lon="17.257313"><ele>211.75</ele></trkpt>
   <trkpt lat="49.588778" lon="17.257254"><ele>211.75</ele></trkpt>
   <trkpt lat="49.588733" lon="17.256988"><ele>212.25</ele></trkpt>
   <trkpt lat="49.588716" lon="17.256835"><ele>212.5</ele></trkpt>
   <trkpt lat="49.588697" lon="17.25656"><ele>213</ele></trkpt>
   <trkpt lat="49.588696" lon="17.256554"><ele>213</ele></trkpt>
  </trkseg>
 </trk>
</gpx>