<?xml version="1.0" encoding="UTF-8"?>
<!-- track-length = 71 filtered ascend = 0 plain-ascend = 0 cost=142 energy=0.0kwh time=6s -->
<gpx 
 xmlns="http://www.topografix.com/GPX/1/1" 
 xmlns:xsi="http://www.w3.org/2001/XMLSchema-instance" 
 xsi:schemaLocation="http://www.topografix.com/GPX/1/1 http://www.topografix.com/GPX/1/1/gpx.xsd" 
 version="1.1" 
 creator="BRouter-Web 0.18.1">
 <trk>
  <name>Kreuz Allee der Kosmonauten/Rhinstraße Weiche 182 - Kreuz Allee der Kosmonauten/Rhinstraße Weiche 680</name>
  <trkseg>
   <trkpt lat="52.526282" lon="13.519517"><ele>51</ele></trkpt>
   <trkpt lat="52.526276" lon="13.519518"><ele>51</ele></trkpt>
   <trkpt lat="52.526225" lon="13.519541"><ele>51</ele></trkpt>
   <trkpt lat="52.526213" lon="13.51955"><ele>51</ele></trkpt>
   <trkpt lat="52.52618" lon="13.519571"><ele>51</ele></trkpt>
   <trkpt lat="52.526112" lon="13.519629"><ele>51</ele></trkpt>
   <trkpt lat="52.526045" lon="13.519723"><ele>50.75</ele></trkpt>
   <trkpt lat="52.526026" lon="13.519753"><ele>51</ele></trkpt>
   <trkpt lat="52.525981" lon="13.519837"><ele>51</ele></trkpt>
   <trkpt lat="52.525937" lon="13.519963"><ele>51</ele></trkpt>
   <trkpt lat="52.525917" lon="13.52004"><ele>51</ele></trkpt>
   <trkpt lat="52.525892" lon="13.52021"><ele>51</ele></trkpt>
   <trkpt lat="52.525891" lon="13.520214"><ele>51</ele></trkpt>
  </trkseg>
 </trk>
</gpx>