<?xml version="1.0" encoding="UTF-8"?>
<!-- track-length = 32 filtered ascend = 0 plain-ascend = 1 cost=64 energy=0.0kwh time=3s -->
<gpx 
 xmlns="http://www.topografix.com/GPX/1/1" 
 xmlns:xsi="http://www.w3.org/2001/XMLSchema-instance" 
 xsi:schemaLocation="http://www.topografix.com/GPX/1/1 http://www.topografix.com/GPX/1/1/gpx.xsd" 
 version="1.1" 
 creator="BRouter-Web 0.18.1">
 <trk>
  <name>Abzweig 4. tramvaju depo Weiche Süd-West - Abzweig 4. tramvaju depo Weiche Süd-Ost</name>
  <trkseg>
   <trkpt lat="56.91958" lon="24.090394"><ele>11.25</ele></trkpt>
   <trkpt lat="56.91958" lon="24.090399"><ele>11.5</ele></trkpt>
   <trkpt lat="56.919543" lon="24.090639"><ele>11.5</ele></trkpt>
   <trkpt lat="56.919504" lon="24.090886"><ele>11.75</ele></trkpt>
  </trkseg>
 </trk>
</gpx>