<?xml version="1.0" encoding="UTF-8"?>
<!-- track-length = 62 filtered ascend = 0 plain-ascend = 0 cost=63 energy=0.0kwh time=5s -->
<gpx 
 xmlns="http://www.topografix.com/GPX/1/1" 
 xmlns:xsi="http://www.w3.org/2001/XMLSchema-instance" 
 xsi:schemaLocation="http://www.topografix.com/GPX/1/1 http://www.topografix.com/GPX/1/1/gpx.xsd" 
 version="1.1" 
 creator="BRouter-Web 99.71.0">
 <trk>
  <name>1100 Lübeck Hbf Weiche 4 - Übergabebahnhof Lübeck DB Weiche 135</name>
  <link href="https://brouter.damsy.net/latest/#map=20/53.87146/10.67563/standard&amp;lonlats=10.675477,53.871297;10.675973,53.87178&amp;profile=rail">
   <text>BRouter-Web</text>
  </link>
  <trkseg>
   <trkpt lat="53.871297" lon="10.675477"><ele>5</ele></trkpt>
   <trkpt lat="53.871334" lon="10.675516"><ele>5</ele></trkpt>
   <trkpt lat="53.871359" lon="10.675542"><ele>4.75</ele></trkpt>
   <trkpt lat="53.871507" lon="10.675695"><ele>5</ele></trkpt>
   <trkpt lat="53.871685" lon="10.675878"><ele>4.75</ele></trkpt>
   <trkpt lat="53.871779" lon="10.675972"><ele>4.75</ele></trkpt>
  </trkseg>
 </trk>
</gpx>