<?xml version="1.0" encoding="UTF-8"?>
<!-- track-length = 32 filtered ascend = 0 plain-ascend = 0 cost=32 energy=0.0kwh time=3s -->
<gpx 
 xmlns="http://www.topografix.com/GPX/1/1" 
 xmlns:xsi="http://www.w3.org/2001/XMLSchema-instance" 
 xsi:schemaLocation="http://www.topografix.com/GPX/1/1 http://www.topografix.com/GPX/1/1/gpx.xsd" 
 version="1.1" 
 creator="BRouter-Web 99.71.0">
 <trk>
  <name>1100 Übergabebahnhof Lübeck DB Weiche 137 - Übergabebahnhof Lübeck DB Weiche 139</name>
  <link href="https://brouter.damsy.net/latest/#map=20/53.87248/10.67696/standard&amp;lonlats=10.676724,53.872434;10.67697,53.87267&amp;profile=rail">
   <text>BRouter-Web</text>
  </link>
  <trkseg>
   <trkpt lat="53.872432" lon="10.676725"/>
   <trkpt lat="53.872433" lon="10.676727"/>
   <trkpt lat="53.872669" lon="10.676969"/>
  </trkseg>
 </trk>
</gpx>