<?xml version="1.0" encoding="UTF-8"?>
<!-- track-length = 52 filtered ascend = 0 plain-ascend = 0 cost=104 energy=0.0kwh time=4s -->
<gpx 
 xmlns="http://www.topografix.com/GPX/1/1" 
 xmlns:xsi="http://www.w3.org/2001/XMLSchema-instance" 
 xsi:schemaLocation="http://www.topografix.com/GPX/1/1 http://www.topografix.com/GPX/1/1/gpx.xsd" 
 version="1.1" 
 creator="BRouter-Web 0.18.1">
 <trk>
  <name>Abzweig Enzian-/Reichsstraße Weiche Südost - Abzweig Enzian-/Reichsstraße Weiche Nordwest</name>
  <trkseg>
   <trkpt lat="50.873731" lon="12.081951"><ele>194</ele></trkpt>
   <trkpt lat="50.873733" lon="12.081951"><ele>194</ele></trkpt>
   <trkpt lat="50.874164" lon="12.081734"><ele>194</ele></trkpt>
   <trkpt lat="50.874166" lon="12.081733"><ele>194</ele></trkpt>
  </trkseg>
 </trk>
</gpx>