<?xml version="1.0" encoding="UTF-8"?>
<!-- track-length = 273 filtered ascend = 0 plain-ascend = 0 cost=546 energy=0.0kwh time=22s -->
<gpx 
 xmlns="http://www.topografix.com/GPX/1/1" 
 xmlns:xsi="http://www.w3.org/2001/XMLSchema-instance" 
 xsi:schemaLocation="http://www.topografix.com/GPX/1/1 http://www.topografix.com/GPX/1/1/gpx.xsd" 
 version="1.1" 
 creator="BRouter-Web 0.18.1">
 <trk>
  <name>Abzweig Enzian-/Reichsstraße Weiche Nordwest - Abzweig Heinrich-_Reichsstraße</name>
  <trkseg>
   <trkpt lat="50.874166" lon="12.081733"><ele>194</ele></trkpt>
   <trkpt lat="50.874261" lon="12.081696"><ele>194</ele></trkpt>
   <trkpt lat="50.874403" lon="12.081638"><ele>194</ele></trkpt>
   <trkpt lat="50.874477" lon="12.081605"><ele>194</ele></trkpt>
   <trkpt lat="50.874593" lon="12.081553"><ele>194</ele></trkpt>
   <trkpt lat="50.874915" lon="12.081404"><ele>194</ele></trkpt>
   <trkpt lat="50.875093" lon="12.081292"><ele>194</ele></trkpt>
   <trkpt lat="50.875347" lon="12.081121"><ele>194</ele></trkpt>
   <trkpt lat="50.875602" lon="12.080921"><ele>194</ele></trkpt>
   <trkpt lat="50.875838" lon="12.080713"><ele>194</ele></trkpt>
   <trkpt lat="50.876126" lon="12.080434"><ele>194</ele></trkpt>
   <trkpt lat="50.876164" lon="12.080378"><ele>194</ele></trkpt>
   <trkpt lat="50.876182" lon="12.080341"><ele>194</ele></trkpt>
   <trkpt lat="50.876203" lon="12.080268"><ele>194</ele></trkpt>
   <trkpt lat="50.876218" lon="12.080183"><ele>194</ele></trkpt>
   <trkpt lat="50.876216" lon="12.080102"><ele>194</ele></trkpt>
   <trkpt lat="50.876202" lon="12.08001"><ele>194</ele></trkpt>
   <trkpt lat="50.8762" lon="12.080003"><ele>194</ele></trkpt>
  </trkseg>
 </trk>
</gpx>