<?xml version="1.0" encoding="UTF-8"?>
<!-- track-length = 83 filtered ascend = 0 plain-ascend = -2 cost=83 energy=0.0kwh time=7s -->
<gpx 
 xmlns="http://www.topografix.com/GPX/1/1" 
 xmlns:xsi="http://www.w3.org/2001/XMLSchema-instance" 
 xsi:schemaLocation="http://www.topografix.com/GPX/1/1 http://www.topografix.com/GPX/1/1/gpx.xsd" 
 version="1.1" 
 creator="BRouter-Web 0.18.1">
 <trk>
  <name>Dreieck Hämeenkatu Weiche Ost-Nord - Dreieck Hämeenkatu Weiche West-Nord</name>
  <trkseg>
   <trkpt lat="61.498125" lon="23.765979"><ele>89</ele></trkpt>
   <trkpt lat="61.498118" lon="23.765867"><ele>89</ele></trkpt>
   <trkpt lat="61.4981" lon="23.765623"><ele>89</ele></trkpt>
   <trkpt lat="61.498015" lon="23.764459"><ele>87</ele></trkpt>
   <trkpt lat="61.498014" lon="23.764457"><ele>86.5</ele></trkpt>
  </trkseg>
 </trk>
</gpx>