<?xml version="1.0" encoding="UTF-8"?>
<!-- track-length = 354 filtered ascend = 0 plain-ascend = 0 cost=354 energy=0.0kwh time=28s -->
<gpx 
 xmlns="http://www.topografix.com/GPX/1/1" 
 xmlns:xsi="http://www.w3.org/2001/XMLSchema-instance" 
 xsi:schemaLocation="http://www.topografix.com/GPX/1/1 http://www.topografix.com/GPX/1/1/gpx.xsd" 
 version="1.1" 
 creator="BRouter-Web 0.18.1">
 <trk>
  <name>Tikkutehdas (Steig A) - Üst Santalahti Südost Weiche Nordwest</name>
  <trkseg>
   <trkpt lat="61.503817" lon="23.721953"><ele>98.75</ele></trkpt>
   <trkpt lat="61.503883" lon="23.721743"><ele>98.75</ele></trkpt>
   <trkpt lat="61.503925" lon="23.721606"><ele>98.75</ele></trkpt>
   <trkpt lat="61.504635" lon="23.719257"><ele>98.75</ele></trkpt>
   <trkpt lat="61.504954" lon="23.718164"><ele>98.25</ele></trkpt>
   <trkpt lat="61.505244" lon="23.717153"><ele>98</ele></trkpt>
   <trkpt lat="61.505471" lon="23.716304"><ele>97.75</ele></trkpt>
   <trkpt lat="61.505471" lon="23.716302"><ele>98</ele></trkpt>
  </trkseg>
 </trk>
</gpx>