<?xml version="1.0" encoding="UTF-8"?>
<!-- track-length = 70 filtered ascend = 0 plain-ascend = -4 cost=70 energy=0.0kwh time=6s -->
<gpx 
 xmlns="http://www.topografix.com/GPX/1/1" 
 xmlns:xsi="http://www.w3.org/2001/XMLSchema-instance" 
 xsi:schemaLocation="http://www.topografix.com/GPX/1/1 http://www.topografix.com/GPX/1/1/gpx.xsd" 
 version="1.1" 
 creator="BRouter-Web 0.18.1">
 <trk>
  <name>Üst Hiedanranta Weiche Nordwest - Hiedenranta (Neu) (Steig A)</name>
  <trkseg>
   <trkpt lat="61.513179" lon="23.681676"><ele>110.5</ele></trkpt>
   <trkpt lat="61.513594" lon="23.680685"><ele>106</ele></trkpt>
  </trkseg>
 </trk>
</gpx>