<?xml version="1.0" encoding="UTF-8"?>
<!-- track-length = 88 filtered ascend = 1 plain-ascend = 1 cost=88 energy=0.0kwh time=7s -->
<gpx 
 xmlns="http://www.topografix.com/GPX/1/1" 
 xmlns:xsi="http://www.w3.org/2001/XMLSchema-instance" 
 xsi:schemaLocation="http://www.topografix.com/GPX/1/1 http://www.topografix.com/GPX/1/1/gpx.xsd" 
 version="1.1" 
 creator="BRouter-Web 0.18.1">
 <trk>
  <name>Üst Pyynikintori Ost Weiche West - Pyynikintori (Steig A)</name>
  <trkseg>
   <trkpt lat="61.497843" lon="23.743164"><ele>105.75</ele></trkpt>
   <trkpt lat="61.497845" lon="23.743142"><ele>105.75</ele></trkpt>
   <trkpt lat="61.497854" lon="23.743003"><ele>105.75</ele></trkpt>
   <trkpt lat="61.497872" lon="23.742729"><ele>106</ele></trkpt>
   <trkpt lat="61.497875" lon="23.742679"><ele>106</ele></trkpt>
   <trkpt lat="61.497954" lon="23.741593"><ele>107</ele></trkpt>
   <trkpt lat="61.497957" lon="23.741539"><ele>107</ele></trkpt>
  </trkseg>
 </trk>
</gpx>