<?xml version="1.0" encoding="UTF-8"?>
<!-- track-length = 1684 filtered ascend = 1 plain-ascend = 1 cost=1684 energy=0.0kwh time=2m 15s -->
<gpx 
 xmlns="http://www.topografix.com/GPX/1/1" 
 xmlns:xsi="http://www.w3.org/2001/XMLSchema-instance" 
 xsi:schemaLocation="http://www.topografix.com/GPX/1/1 http://www.topografix.com/GPX/1/1/gpx.xsd" 
 version="1.1" 
 creator="BRouter-Web 0.18.1">
 <trk>
  <name>Üst Santalahti Nordwest Weiche Nordwest - Hiedanranta (Steig A)</name>
  <trkseg>
   <trkpt lat="61.506108" lon="23.713892"><ele>98</ele></trkpt>
   <trkpt lat="61.506323" lon="23.713062"><ele>98</ele></trkpt>
   <trkpt lat="61.506416" lon="23.712667"><ele>98</ele></trkpt>
   <trkpt lat="61.50652" lon="23.712149"><ele>98</ele></trkpt>
   <trkpt lat="61.50661" lon="23.711622"><ele>98.25</ele></trkpt>
   <trkpt lat="61.506698" lon="23.710956"><ele>98.75</ele></trkpt>
   <trkpt lat="61.506735" lon="23.710622"><ele>98.75</ele></trkpt>
   <trkpt lat="61.506823" lon="23.70982"><ele>98.75</ele></trkpt>
   <trkpt lat="61.506853" lon="23.709424"><ele>98.75</ele></trkpt>
   <trkpt lat="61.50687" lon="23.709019"><ele>98.75</ele></trkpt>
   <trkpt lat="61.506878" lon="23.708634"><ele>99</ele></trkpt>
   <trkpt lat="61.5069" lon="23.708135"><ele>99</ele></trkpt>
   <trkpt lat="61.506924" lon="23.707806"><ele>99</ele></trkpt>
   <trkpt lat="61.506975" lon="23.707413"><ele>99</ele></trkpt>
   <trkpt lat="61.507014" lon="23.707191"><ele>99</ele></trkpt>
   <trkpt lat="61.507083" lon="23.706902"><ele>99</ele></trkpt>
   <trkpt lat="61.507153" lon="23.706647"><ele>99</ele></trkpt>
   <trkpt lat="61.507278" lon="23.706298"><ele>99.25</ele></trkpt>
   <trkpt lat="61.507577" lon="23.705631"><ele>99.25</ele></trkpt>
   <trkpt lat="61.507914" lon="23.704926"><ele>99.5</ele></trkpt>
   <trkpt lat="61.50843" lon="23.703878"><ele>97.75</ele></trkpt>
   <trkpt lat="61.508952" lon="23.702787"><ele>96</ele></trkpt>
   <trkpt lat="61.509286" lon="23.70208"><ele>95</ele></trkpt>
   <trkpt lat="61.509426" lon="23.701698"><ele>95</ele></trkpt>
   <trkpt lat="61.509524" lon="23.701364"><ele>95</ele></trkpt>
   <trkpt lat="61.509542" lon="23.7013"><ele>95</ele></trkpt>
   <trkpt lat="61.509572" lon="23.701172"><ele>95</ele></trkpt>
   <trkpt lat="61.509645" lon="23.700826"><ele>95</ele></trkpt>
   <trkpt lat="61.509689" lon="23.700572"><ele>95</ele></trkpt>
   <trkpt lat="61.510169" lon="23.6976"><ele>95</ele></trkpt>
   <trkpt lat="61.510762" lon="23.693914"><ele>95</ele></trkpt>
   <trkpt lat="61.51146" lon="23.689588"><ele>95.25</ele></trkpt>
   <trkpt lat="61.511484" lon="23.689436"><ele>95.25</ele></trkpt>
   <trkpt lat="61.511759" lon="23.687721"><ele>95.5</ele></trkpt>
   <trkpt lat="61.511795" lon="23.687495"><ele>95.5</ele></trkpt>
   <trkpt lat="61.511801" lon="23.687455"><ele>95.5</ele></trkpt>
   <trkpt lat="61.511812" lon="23.687385"><ele>95.75</ele></trkpt>
   <trkpt lat="61.511934" lon="23.686615"><ele>98</ele></trkpt>
   <trkpt lat="61.51209" lon="23.685633"><ele>99</ele></trkpt>
   <trkpt lat="61.5121" lon="23.685566"><ele>99.25</ele></trkpt>
  </trkseg>
 </trk>
</gpx>