<?xml version="1.0" encoding="UTF-8"?>
<!-- track-length = 237 filtered ascend = 1 plain-ascend = 2 cost=474 energy=0.0kwh time=19s -->
<gpx 
 xmlns="http://www.topografix.com/GPX/1/1" 
 xmlns:xsi="http://www.w3.org/2001/XMLSchema-instance" 
 xsi:schemaLocation="http://www.topografix.com/GPX/1/1 http://www.topografix.com/GPX/1/1/gpx.xsd" 
 version="1.1" 
 creator="BRouter-Web 0.18.1">
 <trk>
  <name>Perämiehenkatu (Steig Süd) - Dreieck Eiran sairaala Weiche West-Süd</name>
  <trkseg>
   <trkpt lat="60.157808" lon="24.936266"><ele>5.5</ele></trkpt>
   <trkpt lat="60.157812" lon="24.936357"><ele>5.75</ele></trkpt>
   <trkpt lat="60.157815" lon="24.936413"><ele>6</ele></trkpt>
   <trkpt lat="60.15782" lon="24.936531"><ele>6</ele></trkpt>
   <trkpt lat="60.157825" lon="24.936642"><ele>6</ele></trkpt>
   <trkpt lat="60.157827" lon="24.936684"><ele>6</ele></trkpt>
   <trkpt lat="60.157873" lon="24.937703"><ele>7.25</ele></trkpt>
   <trkpt lat="60.157875" lon="24.93775"><ele>7</ele></trkpt>
   <trkpt lat="60.157877" lon="24.9378"><ele>7</ele></trkpt>
   <trkpt lat="60.15799" lon="24.940325"><ele>7</ele></trkpt>
   <trkpt lat="60.157998" lon="24.940512"><ele>7</ele></trkpt>
  </trkseg>
 </trk>
</gpx>