<?xml version="1.0" encoding="UTF-8"?>
<!-- track-length = 475 filtered ascend = 0 plain-ascend = 0 cost=950 energy=0.0kwh time=38s -->
<gpx 
 xmlns="http://www.topografix.com/GPX/1/1" 
 xmlns:xsi="http://www.w3.org/2001/XMLSchema-instance" 
 xsi:schemaLocation="http://www.topografix.com/GPX/1/1 http://www.topografix.com/GPX/1/1/gpx.xsd" 
 version="1.1" 
 creator="BRouter-Web 0.18.1">
 <trk>
  <name>Kruishof - P+R Olympiade (Steig Nordost)</name>
  <trkseg>
   <trkpt lat="51.18161" lon="4.391481"><ele>11.75</ele></trkpt>
   <trkpt lat="51.181597" lon="4.391516"><ele>12</ele></trkpt>
   <trkpt lat="51.181542" lon="4.391664"><ele>12</ele></trkpt>
   <trkpt lat="51.181529" lon="4.391737"><ele>12</ele></trkpt>
   <trkpt lat="51.181526" lon="4.391836"><ele>12</ele></trkpt>
   <trkpt lat="51.181546" lon="4.391956"><ele>12</ele></trkpt>
   <trkpt lat="51.181578" lon="4.392036"><ele>12</ele></trkpt>
   <trkpt lat="51.181609" lon="4.392088"><ele>12</ele></trkpt>
   <trkpt lat="51.181653" lon="4.392138"><ele>12</ele></trkpt>
   <trkpt lat="51.182558" lon="4.393171"><ele>12</ele></trkpt>
   <trkpt lat="51.182976" lon="4.393649"><ele>12.25</ele></trkpt>
   <trkpt lat="51.183106" lon="4.393793"><ele>12</ele></trkpt>
   <trkpt lat="51.183157" lon="4.393823"><ele>12</ele></trkpt>
   <trkpt lat="51.183204" lon="4.393839"><ele>12</ele></trkpt>
   <trkpt lat="51.183268" lon="4.393839"><ele>12</ele></trkpt>
   <trkpt lat="51.183328" lon="4.393826"><ele>12</ele></trkpt>
   <trkpt lat="51.183577" lon="4.393768"><ele>12</ele></trkpt>
   <trkpt lat="51.183633" lon="4.393738"><ele>12</ele></trkpt>
   <trkpt lat="51.183703" lon="4.393647"><ele>12</ele></trkpt>
   <trkpt lat="51.183756" lon="4.393501"><ele>11.5</ele></trkpt>
   <trkpt lat="51.183931" lon="4.392587"><ele>12</ele></trkpt>
   <trkpt lat="51.183947" lon="4.392511"><ele>12</ele></trkpt>
   <trkpt lat="51.183971" lon="4.392384"><ele>11.75</ele></trkpt>
   <trkpt lat="51.184125" lon="4.391595"><ele>11</ele></trkpt>
  </trkseg>
 </trk>
</gpx>