<?xml version="1.0" encoding="UTF-8"?>
<!-- track-length = 49 filtered ascend = 0 plain-ascend = 0 cost=98 energy=0.0kwh time=4s -->
<gpx 
 xmlns="http://www.topografix.com/GPX/1/1" 
 xmlns:xsi="http://www.w3.org/2001/XMLSchema-instance" 
 xsi:schemaLocation="http://www.topografix.com/GPX/1/1 http://www.topografix.com/GPX/1/1/gpx.xsd" 
 version="1.1" 
 creator="BRouter-Web 0.18.1">
 <trk>
  <name>P+R Olympiade (Steig Nordost) - Dreieck P+R Olympiade Weiche Südost-Nord</name>
  <trkseg>
   <trkpt lat="51.184125" lon="4.391595"><ele>11</ele></trkpt>
   <trkpt lat="51.184132" lon="4.391563"><ele>11</ele></trkpt>
   <trkpt lat="51.18415" lon="4.39147"><ele>11</ele></trkpt>
   <trkpt lat="51.184159" lon="4.391424"><ele>11</ele></trkpt>
   <trkpt lat="51.184179" lon="4.391326"><ele>11</ele></trkpt>
   <trkpt lat="51.184213" lon="4.391156"><ele>11</ele></trkpt>
   <trkpt lat="51.184284" lon="4.390924"><ele>11</ele></trkpt>
  </trkseg>
 </trk>
</gpx>