<?xml version="1.0" encoding="UTF-8"?>
<!-- track-length = 247 filtered ascend = 0 plain-ascend = 0 cost=247 energy=0.0kwh time=20s -->
<gpx 
 xmlns="http://www.topografix.com/GPX/1/1" 
 xmlns:xsi="http://www.w3.org/2001/XMLSchema-instance" 
 xsi:schemaLocation="http://www.topografix.com/GPX/1/1 http://www.topografix.com/GPX/1/1/gpx.xsd" 
 version="1.1" 
 creator="BRouter-Web 0.18.1">
 <trk>
  <name>Cruyslei (Steig Nord) - Te Boelaarpark (Steig Nordwest)</name>
  <trkseg>
   <trkpt lat="51.198831" lon="4.457998"><ele>9</ele></trkpt>
   <trkpt lat="51.198831" lon="4.457972"><ele>9</ele></trkpt>
   <trkpt lat="51.198829" lon="4.457839"><ele>9</ele></trkpt>
   <trkpt lat="51.19881" lon="4.456293"><ele>9</ele></trkpt>
   <trkpt lat="51.198802" lon="4.456096"><ele>9.25</ele></trkpt>
   <trkpt lat="51.198784" lon="4.455898"><ele>9.25</ele></trkpt>
   <trkpt lat="51.198761" lon="4.455737"><ele>9.25</ele></trkpt>
   <trkpt lat="51.198723" lon="4.455537"><ele>9.25</ele></trkpt>
   <trkpt lat="51.198665" lon="4.455316"><ele>9</ele></trkpt>
   <trkpt lat="51.198609" lon="4.455147"><ele>9</ele></trkpt>
   <trkpt lat="51.198535" lon="4.454966"><ele>9</ele></trkpt>
   <trkpt lat="51.198511" lon="4.454914"><ele>9</ele></trkpt>
   <trkpt lat="51.198385" lon="4.454677"><ele>9</ele></trkpt>
   <trkpt lat="51.198382" lon="4.454671"><ele>9</ele></trkpt>
  </trkseg>
 </trk>
</gpx>