<?xml version="1.0" encoding="UTF-8"?>
<!-- track-length = 281 filtered ascend = 0 plain-ascend = 0 cost=281 energy=0.0kwh time=22s -->
<gpx 
 xmlns="http://www.topografix.com/GPX/1/1" 
 xmlns:xsi="http://www.w3.org/2001/XMLSchema-instance" 
 xsi:schemaLocation="http://www.topografix.com/GPX/1/1 http://www.topografix.com/GPX/1/1/gpx.xsd" 
 version="1.1" 
 creator="BRouter-Web 0.18.1">
 <trk>
  <name>De Preter (Steig Nordost) - Apollo (Steig Nord)</name>
  <trkseg>
   <trkpt lat="51.200133" lon="4.449239"><ele>9</ele></trkpt>
   <trkpt lat="51.200139" lon="4.449207"><ele>9</ele></trkpt>
   <trkpt lat="51.200205" lon="4.448838"><ele>9</ele></trkpt>
   <trkpt lat="51.20044" lon="4.447467"><ele>9</ele></trkpt>
   <trkpt lat="51.200592" lon="4.446512"><ele>9</ele></trkpt>
   <trkpt lat="51.200613" lon="4.446384"><ele>8.75</ele></trkpt>
   <trkpt lat="51.200621" lon="4.446288"><ele>8.5</ele></trkpt>
   <trkpt lat="51.200626" lon="4.446137"><ele>8.25</ele></trkpt>
   <trkpt lat="51.200621" lon="4.445986"><ele>8</ele></trkpt>
   <trkpt lat="51.200597" lon="4.445331"><ele>8</ele></trkpt>
  </trkseg>
 </trk>
</gpx>