<?xml version="1.0" encoding="UTF-8"?>
<!-- track-length = 289 filtered ascend = 0 plain-ascend = 0 cost=289 energy=0.0kwh time=23s -->
<gpx 
 xmlns="http://www.topografix.com/GPX/1/1" 
 xmlns:xsi="http://www.w3.org/2001/XMLSchema-instance" 
 xsi:schemaLocation="http://www.topografix.com/GPX/1/1 http://www.topografix.com/GPX/1/1/gpx.xsd" 
 version="1.1" 
 creator="BRouter-Web 0.18.1">
 <trk>
  <name>Jozef Verboven (Steig Nordwest) - Cruyslei (Steig Nord)</name>
  <trkseg>
   <trkpt lat="51.200428" lon="4.460035"><ele>9</ele></trkpt>
   <trkpt lat="51.200397" lon="4.460021"><ele>9</ele></trkpt>
   <trkpt lat="51.200367" lon="4.460006"><ele>9</ele></trkpt>
   <trkpt lat="51.200345" lon="4.459994"><ele>9</ele></trkpt>
   <trkpt lat="51.20022" lon="4.459947"><ele>9</ele></trkpt>
   <trkpt lat="51.2001" lon="4.459915"><ele>9</ele></trkpt>
   <trkpt lat="51.199052" lon="4.459734"><ele>9</ele></trkpt>
   <trkpt lat="51.198977" lon="4.459706"><ele>9</ele></trkpt>
   <trkpt lat="51.198923" lon="4.459653"><ele>9</ele></trkpt>
   <trkpt lat="51.198879" lon="4.459571"><ele>9</ele></trkpt>
   <trkpt lat="51.198852" lon="4.459436"><ele>9</ele></trkpt>
   <trkpt lat="51.198842" lon="4.459018"><ele>9</ele></trkpt>
   <trkpt lat="51.198831" lon="4.457998"><ele>9</ele></trkpt>
  </trkseg>
 </trk>
</gpx>