<?xml version="1.0" encoding="UTF-8"?>
<!-- track-length = 437 filtered ascend = 0 plain-ascend = 0 cost=437 energy=0.0kwh time=35s -->
<gpx 
 xmlns="http://www.topografix.com/GPX/1/1" 
 xmlns:xsi="http://www.w3.org/2001/XMLSchema-instance" 
 xsi:schemaLocation="http://www.topografix.com/GPX/1/1 http://www.topografix.com/GPX/1/1/gpx.xsd" 
 version="1.1" 
 creator="BRouter-Web 0.18.1">
 <trk>
  <name>Te Boelaarpark (Steig Nordwest) - De Preter (Steig Nordost)</name>
  <trkseg>
   <trkpt lat="51.198382" lon="4.454671"><ele>9</ele></trkpt>
   <trkpt lat="51.198334" lon="4.454563"><ele>9</ele></trkpt>
   <trkpt lat="51.198321" lon="4.454521"><ele>9</ele></trkpt>
   <trkpt lat="51.198311" lon="4.45446"><ele>9</ele></trkpt>
   <trkpt lat="51.19831" lon="4.454414"><ele>9</ele></trkpt>
   <trkpt lat="51.198324" lon="4.454321"><ele>9</ele></trkpt>
   <trkpt lat="51.198335" lon="4.454278"><ele>9</ele></trkpt>
   <trkpt lat="51.198546" lon="4.453563"><ele>9.25</ele></trkpt>
   <trkpt lat="51.198618" lon="4.453351"><ele>9.75</ele></trkpt>
   <trkpt lat="51.19866" lon="4.453246"><ele>9.75</ele></trkpt>
   <trkpt lat="51.199092" lon="4.45222"><ele>9.5</ele></trkpt>
   <trkpt lat="51.199911" lon="4.450275"><ele>9</ele></trkpt>
   <trkpt lat="51.199961" lon="4.450137"><ele>9</ele></trkpt>
   <trkpt lat="51.199994" lon="4.450007"><ele>9</ele></trkpt>
   <trkpt lat="51.200133" lon="4.449239"><ele>9</ele></trkpt>
  </trkseg>
 </trk>
</gpx>