<?xml version="1.0" encoding="UTF-8"?>
<!-- track-length = 352 filtered ascend = 0 plain-ascend = 0 cost=352 energy=0.0kwh time=28s -->
<gpx 
 xmlns="http://www.topografix.com/GPX/1/1" 
 xmlns:xsi="http://www.w3.org/2001/XMLSchema-instance" 
 xsi:schemaLocation="http://www.topografix.com/GPX/1/1 http://www.topografix.com/GPX/1/1/gpx.xsd" 
 version="1.1" 
 creator="BRouter-Web 0.18.1">
 <trk>
  <name>Van Den Hautelei (Steig Nord) - Eksterlaar (Steig Nordwest)</name>
  <trkseg>
   <trkpt lat="51.202565" lon="4.467473"><ele>9</ele></trkpt>
   <trkpt lat="51.202567" lon="4.467445"><ele>9</ele></trkpt>
   <trkpt lat="51.202572" lon="4.467363"><ele>9</ele></trkpt>
   <trkpt lat="51.202578" lon="4.467251"><ele>9</ele></trkpt>
   <trkpt lat="51.202704" lon="4.465113"><ele>8.5</ele></trkpt>
   <trkpt lat="51.20271" lon="4.464657"><ele>8</ele></trkpt>
   <trkpt lat="51.202692" lon="4.46401"><ele>8.5</ele></trkpt>
   <trkpt lat="51.202684" lon="4.463686"><ele>8.25</ele></trkpt>
   <trkpt lat="51.202675" lon="4.463562"><ele>8</ele></trkpt>
   <trkpt lat="51.202658" lon="4.463442"><ele>8</ele></trkpt>
   <trkpt lat="51.202621" lon="4.463261"><ele>8</ele></trkpt>
   <trkpt lat="51.202434" lon="4.462533"><ele>9</ele></trkpt>
  </trkseg>
 </trk>
</gpx>