<?xml version="1.0" encoding="UTF-8"?>
<!-- track-length = 52 filtered ascend = 0 plain-ascend = 0 cost=104 energy=0.0kwh time=4s -->
<gpx 
 xmlns="http://www.topografix.com/GPX/1/1" 
 xmlns:xsi="http://www.w3.org/2001/XMLSchema-instance" 
 xsi:schemaLocation="http://www.topografix.com/GPX/1/1 http://www.topografix.com/GPX/1/1/gpx.xsd" 
 version="1.1" 
 creator="BRouter-Web 0.18.1">
 <trk>
  <name>Dreieck Uzvaras parks Weiche Südwest-Südost - Dreieck Uzvaras parks Weiche Nordost-Südost</name>
  <trkseg>
   <trkpt lat="56.939585" lon="24.091159"><ele>3</ele></trkpt>
   <trkpt lat="56.939584" lon="24.091158"><ele>3</ele></trkpt>
   <trkpt lat="56.939594" lon="24.091177"><ele>3</ele></trkpt>
   <trkpt lat="56.939721" lon="24.091413"><ele>2.75</ele></trkpt>
   <trkpt lat="56.939905" lon="24.09176"><ele>3</ele></trkpt>
  </trkseg>
 </trk>
</gpx>