<?xml version="1.0" encoding="UTF-8"?>
<!-- track-length = 955 filtered ascend = 2 plain-ascend = 1 cost=1910 energy=0.0kwh time=1m 16s -->
<gpx 
 xmlns="http://www.topografix.com/GPX/1/1" 
 xmlns:xsi="http://www.w3.org/2001/XMLSchema-instance" 
 xsi:schemaLocation="http://www.topografix.com/GPX/1/1 http://www.topografix.com/GPX/1/1/gpx.xsd" 
 version="1.1" 
 creator="BRouter-Web 0.18.1">
 <trk>
  <name>Nacionālā bibliotēka (Steig Südost) - Grēcinieku iela (Steig Südwest)</name>
  <trkseg>
   <trkpt lat="56.941295" lon="24.094379"><ele>3</ele></trkpt>
   <trkpt lat="56.941302" lon="24.094392"><ele>3</ele></trkpt>
   <trkpt lat="56.941332" lon="24.094479"><ele>3</ele></trkpt>
   <trkpt lat="56.941411" lon="24.094686"><ele>2.75</ele></trkpt>
   <trkpt lat="56.941538" lon="24.094987"><ele>3</ele></trkpt>
   <trkpt lat="56.941557" lon="24.095033"><ele>3</ele></trkpt>
   <trkpt lat="56.942344" lon="24.096519"><ele>3</ele></trkpt>
   <trkpt lat="56.943097" lon="24.098064"><ele>3.25</ele></trkpt>
   <trkpt lat="56.944538" lon="24.101024"><ele>4.25</ele></trkpt>
   <trkpt lat="56.946216" lon="24.104419"><ele>5.25</ele></trkpt>
   <trkpt lat="56.946283" lon="24.104562"><ele>5.25</ele></trkpt>
   <trkpt lat="56.94631" lon="24.104665"><ele>5.25</ele></trkpt>
   <trkpt lat="56.94632" lon="24.104769"><ele>5</ele></trkpt>
   <trkpt lat="56.946306" lon="24.104931"><ele>5</ele></trkpt>
   <trkpt lat="56.946276" lon="24.105038"><ele>5</ele></trkpt>
   <trkpt lat="56.94624" lon="24.10512"><ele>5</ele></trkpt>
   <trkpt lat="56.945671" lon="24.106091"><ele>4</ele></trkpt>
  </trkseg>
 </trk>
</gpx>