<?xml version="1.0" encoding="UTF-8"?>
<!-- track-length = 230 filtered ascend = 0 plain-ascend = 0 cost=460 energy=0.0kwh time=18s -->
<gpx 
 xmlns="http://www.topografix.com/GPX/1/1" 
 xmlns:xsi="http://www.w3.org/2001/XMLSchema-instance" 
 xsi:schemaLocation="http://www.topografix.com/GPX/1/1 http://www.topografix.com/GPX/1/1/gpx.xsd" 
 version="1.1" 
 creator="BRouter-Web 0.18.1">
 <trk>
  <name>A. Laikmaa (Steig West) - Abzweig Gonsiori Weiche West</name>
  <trkseg>
   <trkpt lat="59.436087" lon="24.757394"><ele>5</ele></trkpt>
   <trkpt lat="59.435819" lon="24.757433"><ele>5</ele></trkpt>
   <trkpt lat="59.435733" lon="24.757475"><ele>5.25</ele></trkpt>
   <trkpt lat="59.43569" lon="24.75753"><ele>5.5</ele></trkpt>
   <trkpt lat="59.435667" lon="24.757574"><ele>5.5</ele></trkpt>
   <trkpt lat="59.435629" lon="24.757723"><ele>5.5</ele></trkpt>
   <trkpt lat="59.435604" lon="24.757873"><ele>5.5</ele></trkpt>
   <trkpt lat="59.43537" lon="24.759795"><ele>4.25</ele></trkpt>
   <trkpt lat="59.435345" lon="24.759974"><ele>4</ele></trkpt>
   <trkpt lat="59.435317" lon="24.760095"><ele>4</ele></trkpt>
   <trkpt lat="59.435301" lon="24.76014"><ele>4</ele></trkpt>
   <trkpt lat="59.435224" lon="24.760266"><ele>4</ele></trkpt>
   <trkpt lat="59.435182" lon="24.760306"><ele>4</ele></trkpt>
   <trkpt lat="59.43509" lon="24.760357"><ele>4</ele></trkpt>
   <trkpt lat="59.435089" lon="24.760357"><ele>4</ele></trkpt>
  </trkseg>
 </trk>
</gpx>
