<?xml version="1.0" encoding="UTF-8"?>
<!-- track-length = 197 filtered ascend = 0 plain-ascend = -1 cost=394 energy=0.0kwh time=16s -->
<gpx 
 xmlns="http://www.topografix.com/GPX/1/1" 
 xmlns:xsi="http://www.w3.org/2001/XMLSchema-instance" 
 xsi:schemaLocation="http://www.topografix.com/GPX/1/1 http://www.topografix.com/GPX/1/1/gpx.xsd" 
 version="1.1" 
 creator="BRouter-Web 0.18.1">
 <trk>
  <name>Abzweig Wendeschleife Stanica Vinohrady Nordost Weiche 702 - Dreieck Depo Krasňany Weiche Südwest-Ost</name>
  <trkseg>
   <trkpt lat="48.186021" lon="17.133767"><ele>141</ele></trkpt>
   <trkpt lat="48.186024" lon="17.133771"><ele>141</ele></trkpt>
   <trkpt lat="48.186204" lon="17.13395"><ele>140.75</ele></trkpt>
   <trkpt lat="48.186362" lon="17.134079"><ele>140.25</ele></trkpt>
   <trkpt lat="48.187589" lon="17.134992"><ele>139</ele></trkpt>
  </trkseg>
 </trk>
</gpx>