<?xml version="1.0" encoding="UTF-8"?>
<!-- track-length = 279 filtered ascend = 1 plain-ascend = 1 cost=558 energy=0.0kwh time=22s -->
<gpx 
 xmlns="http://www.topografix.com/GPX/1/1" 
 xmlns:xsi="http://www.w3.org/2001/XMLSchema-instance" 
 xsi:schemaLocation="http://www.topografix.com/GPX/1/1 http://www.topografix.com/GPX/1/1/gpx.xsd" 
 version="1.1" 
 creator="BRouter-Web 0.18.1">
 <trk>
  <name>Otto-Probst-Platz Weiche Südwest - Tesarekplatz (Steig Südost)</name>
  <trkseg>
   <trkpt lat="48.153689" lon="16.348926"><ele>194</ele></trkpt>
   <trkpt lat="48.153653" lon="16.348905"><ele>194</ele></trkpt>
   <trkpt lat="48.153613" lon="16.348892"><ele>194</ele></trkpt>
   <trkpt lat="48.153529" lon="16.348902"><ele>193.5</ele></trkpt>
   <trkpt lat="48.153487" lon="16.348926"><ele>193.5</ele></trkpt>
   <trkpt lat="48.153451" lon="16.348959"><ele>193.25</ele></trkpt>
   <trkpt lat="48.153404" lon="16.349033"><ele>193.25</ele></trkpt>
   <trkpt lat="48.153374" lon="16.349118"><ele>193</ele></trkpt>
   <trkpt lat="48.153364" lon="16.349188"><ele>193</ele></trkpt>
   <trkpt lat="48.153362" lon="16.349258"><ele>193</ele></trkpt>
   <trkpt lat="48.153376" lon="16.349343"><ele>193</ele></trkpt>
   <trkpt lat="48.153391" lon="16.349398"><ele>193</ele></trkpt>
   <trkpt lat="48.153416" lon="16.349452"><ele>193</ele></trkpt>
   <trkpt lat="48.153485" lon="16.349532"><ele>193</ele></trkpt>
   <trkpt lat="48.153826" lon="16.349766"><ele>194</ele></trkpt>
   <trkpt lat="48.154064" lon="16.349926"><ele>194.25</ele></trkpt>
   <trkpt lat="48.154565" lon="16.350265"><ele>194</ele></trkpt>
   <trkpt lat="48.155014" lon="16.350568"><ele>195</ele></trkpt>
   <trkpt lat="48.155123" lon="16.350642"><ele>195.25</ele></trkpt>
  </trkseg>
 </trk>
</gpx>