<?xml version="1.0" encoding="UTF-8"?>
<!-- track-length = 682 filtered ascend = 0 plain-ascend = -16 cost=1364 energy=0.0kwh time=55s -->
<gpx 
 xmlns="http://www.topografix.com/GPX/1/1" 
 xmlns:xsi="http://www.w3.org/2001/XMLSchema-instance" 
 xsi:schemaLocation="http://www.topografix.com/GPX/1/1 http://www.topografix.com/GPX/1/1/gpx.xsd" 
 version="1.1" 
 creator="BRouter-Web 0.18.1">
 <trk>
  <name>Nová Ulice (Einstieg) - Pionýrská (Steig Südost)</name>
  <trkseg>
   <trkpt lat="49.57745" lon="17.230838"><ele>237.25</ele></trkpt>
   <trkpt lat="49.577444" lon="17.230852"><ele>237.25</ele></trkpt>
   <trkpt lat="49.57729" lon="17.23121"><ele>235.25</ele></trkpt>
   <trkpt lat="49.577213" lon="17.23141"><ele>235.75</ele></trkpt>
   <trkpt lat="49.577075" lon="17.231816"><ele>233.5</ele></trkpt>
   <trkpt lat="49.576989" lon="17.232101"><ele>233</ele></trkpt>
   <trkpt lat="49.576912" lon="17.232394"><ele>232</ele></trkpt>
   <trkpt lat="49.57674" lon="17.233151"><ele>231</ele></trkpt>
   <trkpt lat="49.576699" lon="17.233344"><ele>230.75</ele></trkpt>
   <trkpt lat="49.576139" lon="17.235823"><ele>225</ele></trkpt>
   <trkpt lat="49.576065" lon="17.236128"><ele>224</ele></trkpt>
   <trkpt lat="49.575942" lon="17.236583"><ele>223</ele></trkpt>
   <trkpt lat="49.575921" lon="17.236701"><ele>222.5</ele></trkpt>
   <trkpt lat="49.575911" lon="17.236856"><ele>222</ele></trkpt>
   <trkpt lat="49.575915" lon="17.236941"><ele>222</ele></trkpt>
   <trkpt lat="49.575943" lon="17.237104"><ele>222</ele></trkpt>
   <trkpt lat="49.575946" lon="17.237131"><ele>222</ele></trkpt>
   <trkpt lat="49.576011" lon="17.237285"><ele>222</ele></trkpt>
   <trkpt lat="49.576104" lon="17.237435"><ele>222</ele></trkpt>
   <trkpt lat="49.576162" lon="17.237487"><ele>221.75</ele></trkpt>
   <trkpt lat="49.57669" lon="17.237852"><ele>221</ele></trkpt>
   <trkpt lat="49.577474" lon="17.238268"><ele>220.5</ele></trkpt>
  </trkseg>
 </trk>
</gpx>