<?xml version="1.0" encoding="UTF-8"?>
<!-- track-length = 2 filtered ascend = 0 plain-ascend = 0 cost=4 energy=0.0kwh time= -->
<gpx 
 xmlns="http://www.topografix.com/GPX/1/1" 
 xmlns:xsi="http://www.w3.org/2001/XMLSchema-instance" 
 xsi:schemaLocation="http://www.topografix.com/GPX/1/1 http://www.topografix.com/GPX/1/1/gpx.xsd" 
 version="1.1" 
 creator="BRouter-Web 0.18.1">
 <trk>
  <name>Okresní soud (Steig Südwest) - Dreieck Okresní soud Weiche 3</name>
  <trkseg>
   <trkpt lat="49.591737" lon="17.249335"><ele>215</ele></trkpt>
   <trkpt lat="49.591744" lon="17.249349"><ele>215</ele></trkpt>
   <trkpt lat="49.591751" lon="17.249364"><ele>215</ele></trkpt>
  </trkseg>
 </trk>
</gpx>