<?xml version="1.0" encoding="UTF-8"?>
<!-- track-length = 1369 filtered ascend = 2 plain-ascend = 1 cost=5734 energy=0.1kwh time=6m 15.759999999999991s -->
<gpx 
 xmlns="http://www.topografix.com/GPX/1/1" 
 xmlns:xsi="http://www.w3.org/2001/XMLSchema-instance" 
 xsi:schemaLocation="http://www.topografix.com/GPX/1/1 http://www.topografix.com/GPX/1/1/gpx.xsd" 
 version="1.1" 
 creator="BRouter-Web 99.71.0">
 <trk>
  <name>Bus 171 Niedziałkowskiego (Steig Ost) - Zamek (Steig Nord-Ost)</name>
  <link href="https://brouter.damsy.net/latest/#map=16/52.4012/16.9180/standard&amp;lonlats=16.918592,52.398436;16.915961,52.400739;16.916723,52.402982;16.916612,52.403081;16.916514,52.403224;16.916465,52.403958;16.916443,52.404241;16.916467,52.404418;16.916541,52.404688;16.91798,52.405765;16.917841,52.408548&amp;straight=2,3,4,5,6,7&amp;profile=car-eco">
   <text>BRouter-Web</text>
  </link>
  <trkseg>
   <trkpt lat="52.398435" lon="16.918591"><ele>75</ele></trkpt>
   <trkpt lat="52.398482" lon="16.918583"><ele>75</ele></trkpt>
   <trkpt lat="52.398654" lon="16.918551"><ele>75</ele></trkpt>
   <trkpt lat="52.398732" lon="16.918536"><ele>75</ele></trkpt>
   <trkpt lat="52.399081" lon="16.918471"><ele>75.25</ele></trkpt>
   <trkpt lat="52.399173" lon="16.918467"><ele>75.5</ele></trkpt>
   <trkpt lat="52.399287" lon="16.91847"><ele>75.25</ele></trkpt>
   <trkpt lat="52.399316" lon="16.918473"><ele>75</ele></trkpt>
   <trkpt lat="52.399389" lon="16.918487"><ele>75</ele></trkpt>
   <trkpt lat="52.399432" lon="16.918496"><ele>75</ele></trkpt>
   <trkpt lat="52.399465" lon="16.918501"><ele>75</ele></trkpt>
   <trkpt lat="52.399648" lon="16.918539"><ele>75</ele></trkpt>
   <trkpt lat="52.399691" lon="16.918385"><ele>75</ele></trkpt>
   <trkpt lat="52.399695" lon="16.918321"><ele>75</ele></trkpt>
   <trkpt lat="52.399696" lon="16.918275"><ele>75</ele></trkpt>
   <trkpt lat="52.399696" lon="16.918237"><ele>75</ele></trkpt>
   <trkpt lat="52.399718" lon="16.917862"><ele>75</ele></trkpt>
   <trkpt lat="52.399749" lon="16.917621"><ele>75</ele></trkpt>
   <trkpt lat="52.399796" lon="16.917356"><ele>75</ele></trkpt>
   <trkpt lat="52.399874" lon="16.917044"><ele>75</ele></trkpt>
   <trkpt lat="52.399903" lon="16.916951"><ele>75</ele></trkpt>
   <trkpt lat="52.400027" lon="16.916566"><ele>75</ele></trkpt>
   <trkpt lat="52.40014" lon="16.916097"><ele>75.5</ele></trkpt>
   <trkpt lat="52.400218" lon="16.915967"><ele>75.75</ele></trkpt>
   <trkpt lat="52.400277" lon="16.915899"><ele>75.75</ele></trkpt>
   <trkpt lat="52.400309" lon="16.915876"><ele>76</ele></trkpt>
   <trkpt lat="52.400411" lon="16.915852"><ele>76</ele></trkpt>
   <trkpt lat="52.400442" lon="16.915864"><ele>76</ele></trkpt>
   <trkpt lat="52.400476" lon="16.915877"><ele>76</ele></trkpt>
   <trkpt lat="52.400665" lon="16.915951"><ele>76</ele></trkpt>
   <trkpt lat="52.400735" lon="16.915979"><ele>76</ele></trkpt>
   <trkpt lat="52.400763" lon="16.91599"><ele>76</ele></trkpt>
   <trkpt lat="52.401274" lon="16.916184"><ele>75</ele></trkpt>
   <trkpt lat="52.401776" lon="16.916426"><ele>75.25</ele></trkpt>
   <trkpt lat="52.402194" lon="16.916659"><ele>76</ele></trkpt>
   <trkpt lat="52.402305" lon="16.916724"><ele>76</ele></trkpt>
   <trkpt lat="52.402368" lon="16.916747"><ele>76</ele></trkpt>
   <trkpt lat="52.402408" lon="16.916752"><ele>76</ele></trkpt>
   <trkpt lat="52.402445" lon="16.916758"><ele>76</ele></trkpt>
   <trkpt lat="52.402501" lon="16.916811"><ele>76</ele></trkpt>
   <trkpt lat="52.402525" lon="16.916826"><ele>76</ele></trkpt>
   <trkpt lat="52.402598" lon="16.916834"><ele>76</ele></trkpt>
   <trkpt lat="52.402635" lon="16.916833"><ele>76</ele></trkpt>
   <trkpt lat="52.40265" lon="16.916833"><ele>76</ele></trkpt>
   <trkpt lat="52.402707" lon="16.916831"><ele>76</ele></trkpt>
   <trkpt lat="52.402718" lon="16.916831"><ele>76</ele></trkpt>
   <trkpt lat="52.402758" lon="16.916823"><ele>76</ele></trkpt>
   <trkpt lat="52.40298" lon="16.916717"><ele>76</ele></trkpt>
   <trkpt lat="52.403081071716436" lon="16.91661161188677"/>
   <trkpt lat="52.403224446926124" lon="16.91651362252742"/>
   <trkpt lat="52.40395785308094" lon="16.916465342765154"/>
   <trkpt lat="52.404241499050606" lon="16.916442633046245"/>
   <trkpt lat="52.404417667989186" lon="16.916467219607515"/>
   <trkpt lat="52.404687" lon="16.916529"><ele>76</ele></trkpt>
   <trkpt lat="52.404702" lon="16.916529"><ele>76</ele></trkpt>
   <trkpt lat="52.404806" lon="16.916567"><ele>76</ele></trkpt>
   <trkpt lat="52.405453" lon="16.916801"><ele>75.75</ele></trkpt>
   <trkpt lat="52.405506" lon="16.91682"><ele>75.75</ele></trkpt>
   <trkpt lat="52.405541" lon="16.916853"><ele>75.75</ele></trkpt>
   <trkpt lat="52.405586" lon="16.916909"><ele>75.75</ele></trkpt>
   <trkpt lat="52.405639" lon="16.917019"><ele>75.75</ele></trkpt>
   <trkpt lat="52.40576" lon="16.917365"><ele>76</ele></trkpt>
   <trkpt lat="52.40577" lon="16.917728"><ele>76</ele></trkpt>
   <trkpt lat="52.405777" lon="16.917977"><ele>76.25</ele></trkpt>
   <trkpt lat="52.405781" lon="16.918091"><ele>76.25</ele></trkpt>
   <trkpt lat="52.405787" lon="16.918314"><ele>76</ele></trkpt>
   <trkpt lat="52.40591" lon="16.918192"><ele>76</ele></trkpt>
   <trkpt lat="52.405985" lon="16.918117"><ele>76</ele></trkpt>
   <trkpt lat="52.406248" lon="16.917862"><ele>76</ele></trkpt>
   <trkpt lat="52.406381" lon="16.917744"><ele>76</ele></trkpt>
   <trkpt lat="52.406451" lon="16.917687"><ele>76</ele></trkpt>
   <trkpt lat="52.406624" lon="16.917652"><ele>76.75</ele></trkpt>
   <trkpt lat="52.406869" lon="16.917565"><ele>77</ele></trkpt>
   <trkpt lat="52.407042" lon="16.917541"><ele>77</ele></trkpt>
   <trkpt lat="52.407095" lon="16.917539"><ele>77</ele></trkpt>
   <trkpt lat="52.407218" lon="16.917548"><ele>77</ele></trkpt>
   <trkpt lat="52.407226" lon="16.917549"><ele>77</ele></trkpt>
   <trkpt lat="52.407253" lon="16.917557"><ele>77</ele></trkpt>
   <trkpt lat="52.407267" lon="16.917562"><ele>77</ele></trkpt>
   <trkpt lat="52.407316" lon="16.917582"><ele>77</ele></trkpt>
   <trkpt lat="52.407357" lon="16.917592"><ele>77</ele></trkpt>
   <trkpt lat="52.407375" lon="16.917597"><ele>77</ele></trkpt>
   <trkpt lat="52.407395" lon="16.917603"><ele>77</ele></trkpt>
   <trkpt lat="52.407474" lon="16.917623"><ele>77</ele></trkpt>
   <trkpt lat="52.407565" lon="16.917642"><ele>77</ele></trkpt>
   <trkpt lat="52.407602" lon="16.91765"><ele>77</ele></trkpt>
   <trkpt lat="52.407847" lon="16.917704"><ele>77</ele></trkpt>
   <trkpt lat="52.408156" lon="16.917745"><ele>77</ele></trkpt>
   <trkpt lat="52.408547" lon="16.917829"><ele>76</ele></trkpt>
  </trkseg>
 </trk>
</gpx>