<?xml version="1.0" encoding="UTF-8"?>
<!-- track-length = 74 filtered ascend = 0 plain-ascend = 0 cost=74 energy=0.0kwh time=6s -->
<gpx 
 xmlns="http://www.topografix.com/GPX/1/1" 
 xmlns:xsi="http://www.w3.org/2001/XMLSchema-instance" 
 xsi:schemaLocation="http://www.topografix.com/GPX/1/1 http://www.topografix.com/GPX/1/1/gpx.xsd" 
 version="1.1" 
 creator="BRouter-Web 0.18.1">
 <trk>
  <name>006 Kouvola Weiche 072 - Kouvola Weiche 073</name>
  <trkseg>
   <trkpt lat="60.865535" lon="26.716016"><ele>71.75</ele></trkpt>
   <trkpt lat="60.865535" lon="26.716021"><ele>71.75</ele></trkpt>
   <trkpt lat="60.865505" lon="26.716527"><ele>71.75</ele></trkpt>
   <trkpt lat="60.865473" lon="26.716871"><ele>71.5</ele></trkpt>
   <trkpt lat="60.865443" lon="26.717349"><ele>71.5</ele></trkpt>
  </trkseg>
 </trk>
</gpx>