<?xml version="1.0" encoding="UTF-8"?>
<!-- track-length = 25 filtered ascend = 0 plain-ascend = -4 cost=25 energy=0.0kwh time=2s -->
<gpx 
 xmlns="http://www.topografix.com/GPX/1/1" 
 xmlns:xsi="http://www.w3.org/2001/XMLSchema-instance" 
 xsi:schemaLocation="http://www.topografix.com/GPX/1/1 http://www.topografix.com/GPX/1/1/gpx.xsd" 
 version="1.1" 
 creator="BRouter-Web 0.18.1">
 <trk>
  <name>006 Kouvola Weiche 052 - Kouvola Weiche 054</name>
  <trkseg>
   <trkpt lat="60.865833" lon="26.709449"><ele>71.75</ele></trkpt>
   <trkpt lat="60.865833" lon="26.709452"><ele>71.75</ele></trkpt>
   <trkpt lat="60.865798" lon="26.709871"><ele>71.5</ele></trkpt>
   <trkpt lat="60.865797" lon="26.709871"><ele>67</ele></trkpt>
  </trkseg>
 </trk>
</gpx>