<?xml version="1.0" encoding="UTF-8"?>
<!-- track-length = 1597 filtered ascend = 0 plain-ascend = 1 cost=1597 energy=0.0kwh time=2m 8s -->
<gpx 
 xmlns="http://www.topografix.com/GPX/1/1" 
 xmlns:xsi="http://www.w3.org/2001/XMLSchema-instance" 
 xsi:schemaLocation="http://www.topografix.com/GPX/1/1 http://www.topografix.com/GPX/1/1/gpx.xsd" 
 version="1.1" 
 creator="BRouter-Web 0.18.1">
 <trk>
  <name>006 Kouvola Weiche 073 - Kouvola Weiche 461</name>
  <trkseg>
   <trkpt lat="60.865443" lon="26.717349"><ele>71.5</ele></trkpt>
   <trkpt lat="60.865443" lon="26.71735"><ele>71.5</ele></trkpt>
   <trkpt lat="60.865421" lon="26.718053"><ele>71.5</ele></trkpt>
   <trkpt lat="60.865411" lon="26.718513"><ele>71.25</ele></trkpt>
   <trkpt lat="60.865407" lon="26.719121"><ele>71.25</ele></trkpt>
   <trkpt lat="60.865421" lon="26.720025"><ele>71.5</ele></trkpt>
   <trkpt lat="60.865437" lon="26.720556"><ele>71.5</ele></trkpt>
   <trkpt lat="60.865473" lon="26.721269"><ele>71.75</ele></trkpt>
   <trkpt lat="60.865523" lon="26.722004"><ele>72</ele></trkpt>
   <trkpt lat="60.865589" lon="26.722746"><ele>71</ele></trkpt>
   <trkpt lat="60.866348" lon="26.730644"><ele>71.5</ele></trkpt>
   <trkpt lat="60.866479" lon="26.731853"><ele>71.25</ele></trkpt>
   <trkpt lat="60.866629" lon="26.733019"><ele>71.5</ele></trkpt>
   <trkpt lat="60.866706" lon="26.733544"><ele>71.25</ele></trkpt>
   <trkpt lat="60.866998" lon="26.735401"><ele>71</ele></trkpt>
   <trkpt lat="60.867178" lon="26.736642"><ele>71.75</ele></trkpt>
   <trkpt lat="60.867238" lon="26.737121"><ele>72</ele></trkpt>
   <trkpt lat="60.867365" lon="26.738251"><ele>71.5</ele></trkpt>
   <trkpt lat="60.86768" lon="26.741469"><ele>71.75</ele></trkpt>
   <trkpt lat="60.867786" lon="26.742532"><ele>72</ele></trkpt>
   <trkpt lat="60.868007" lon="26.74497"><ele>72</ele></trkpt>
   <trkpt lat="60.868039" lon="26.745308"><ele>71</ele></trkpt>
   <trkpt lat="60.868113" lon="26.746077"><ele>71</ele></trkpt>
   <trkpt lat="60.868112" lon="26.746075"><ele>72</ele></trkpt>
  </trkseg>
 </trk>
</gpx>