<?xml version="1.0" encoding="UTF-8"?>
<!-- track-length = 127 filtered ascend = 0 plain-ascend = 0 cost=256 energy=0.0kwh time=10s -->
<gpx 
 xmlns="http://www.topografix.com/GPX/1/1" 
 xmlns:xsi="http://www.w3.org/2001/XMLSchema-instance" 
 xsi:schemaLocation="http://www.topografix.com/GPX/1/1 http://www.topografix.com/GPX/1/1/gpx.xsd" 
 version="1.1" 
 creator="BRouter-Web 0.18.1">
 <trk>
  <name>Alt-Winmärik (Steig Südost) - Abzweig Vieux Marché aux Vins Weiche VMV B1</name>
  <trkseg>
   <trkpt lat="48.583467" lon="7.740366"><ele>140.5</ele></trkpt>
   <trkpt lat="48.583525" lon="7.740463"><ele>140.5</ele></trkpt>
   <trkpt lat="48.583608" lon="7.740635"><ele>140</ele></trkpt>
   <trkpt lat="48.583659" lon="7.740799"><ele>140</ele></trkpt>
   <trkpt lat="48.583826" lon="7.741577"><ele>140</ele></trkpt>
   <trkpt lat="48.583901" lon="7.741938"><ele>140</ele></trkpt>
  </trkseg>
 </trk>
</gpx>