<?xml version="1.0" encoding="UTF-8"?>
<!-- track-length = 6 filtered ascend = 0 plain-ascend = 0 cost=12 energy=0.0kwh time= -->
<gpx 
 xmlns="http://www.topografix.com/GPX/1/1" 
 xmlns:xsi="http://www.w3.org/2001/XMLSchema-instance" 
 xsi:schemaLocation="http://www.topografix.com/GPX/1/1 http://www.topografix.com/GPX/1/1/gpx.xsd" 
 version="1.1" 
 creator="BRouter-Web 0.18.1">
 <trk>
  <name>Lorentzplein (Steig Südwest) - Dreieck Lorentzplein Weiche 603</name>
  <trkseg>
   <trkpt lat="52.060896" lon="4.326947"/>
   <trkpt lat="52.060875" lon="4.326968"/>
   <trkpt lat="52.060848" lon="4.326994"/>
  </trkseg>
 </trk>
</gpx>