<?xml version="1.0" encoding="UTF-8"?>
<!-- track-length = 713 filtered ascend = 4 plain-ascend = 4 cost=1426 energy=0.0kwh time=57s -->
<gpx 
 xmlns="http://www.topografix.com/GPX/1/1" 
 xmlns:xsi="http://www.w3.org/2001/XMLSchema-instance" 
 xsi:schemaLocation="http://www.topografix.com/GPX/1/1 http://www.topografix.com/GPX/1/1/gpx.xsd" 
 version="1.1" 
 creator="BRouter-Web 0.18.1">
 <trk>
  <name>Erfurtstraße (Steig Südwest) - Wintergarten (Steig Nordwest)</name>
  <trkseg>
   <trkpt lat="50.869212" lon="12.084087"><ele>194.25</ele></trkpt>
   <trkpt lat="50.869212" lon="12.084088"><ele>194.25</ele></trkpt>
   <trkpt lat="50.869068" lon="12.084157"><ele>194</ele></trkpt>
   <trkpt lat="50.867585" lon="12.084847"><ele>194.5</ele></trkpt>
   <trkpt lat="50.867398" lon="12.084947"><ele>195</ele></trkpt>
   <trkpt lat="50.867332" lon="12.084982"><ele>195</ele></trkpt>
   <trkpt lat="50.867212" lon="12.085046"><ele>195</ele></trkpt>
   <trkpt lat="50.866862" lon="12.085207"><ele>194.75</ele></trkpt>
   <trkpt lat="50.866764" lon="12.085224"><ele>194.75</ele></trkpt>
   <trkpt lat="50.866467" lon="12.085275"><ele>194.75</ele></trkpt>
   <trkpt lat="50.86616" lon="12.085308"><ele>195</ele></trkpt>
   <trkpt lat="50.865624" lon="12.085367"><ele>195.75</ele></trkpt>
   <trkpt lat="50.864325" lon="12.085536"><ele>197</ele></trkpt>
   <trkpt lat="50.863721" lon="12.085628"><ele>198</ele></trkpt>
   <trkpt lat="50.863644" lon="12.085624"><ele>198</ele></trkpt>
   <trkpt lat="50.863607" lon="12.08562"><ele>198</ele></trkpt>
   <trkpt lat="50.863545" lon="12.085588"><ele>198</ele></trkpt>
   <trkpt lat="50.863475" lon="12.08551"><ele>198.25</ele></trkpt>
   <trkpt lat="50.863438" lon="12.085443"><ele>198.5</ele></trkpt>
   <trkpt lat="50.863213" lon="12.084832"><ele>198</ele></trkpt>
   <trkpt lat="50.863208" lon="12.084819"><ele>197.75</ele></trkpt>
  </trkseg>
 </trk>
</gpx>