<?xml version="1.0" encoding="UTF-8"?>
<!-- track-length = 648 filtered ascend = 1 plain-ascend = 0 cost=1296 energy=0.0kwh time=52s -->
<gpx 
 xmlns="http://www.topografix.com/GPX/1/1" 
 xmlns:xsi="http://www.w3.org/2001/XMLSchema-instance" 
 xsi:schemaLocation="http://www.topografix.com/GPX/1/1 http://www.topografix.com/GPX/1/1/gpx.xsd" 
 version="1.1" 
 creator="BRouter-Web 0.18.1">
 <trk>
  <name>Pforten (Steig Südwest) - Lasurstraße (Steig Südwest)</name>
  <trkseg>
   <trkpt lat="50.857652" lon="12.089401"><ele>198.25</ele></trkpt>
   <trkpt lat="50.857598" lon="12.089439"><ele>198.25</ele></trkpt>
   <trkpt lat="50.85753" lon="12.089481"><ele>198</ele></trkpt>
   <trkpt lat="50.857375" lon="12.089544"><ele>199.25</ele></trkpt>
   <trkpt lat="50.856696" lon="12.089744"><ele>198</ele></trkpt>
   <trkpt lat="50.856397" lon="12.089833"><ele>198</ele></trkpt>
   <trkpt lat="50.855653" lon="12.090053"><ele>199</ele></trkpt>
   <trkpt lat="50.855326" lon="12.090132"><ele>198.5</ele></trkpt>
   <trkpt lat="50.855135" lon="12.090156"><ele>197.75</ele></trkpt>
   <trkpt lat="50.854871" lon="12.090153"><ele>197.25</ele></trkpt>
   <trkpt lat="50.854676" lon="12.090125"><ele>197</ele></trkpt>
   <trkpt lat="50.854485" lon="12.090078"><ele>197.5</ele></trkpt>
   <trkpt lat="50.854269" lon="12.090004"><ele>196.75</ele></trkpt>
   <trkpt lat="50.854141" lon="12.08994"><ele>196.25</ele></trkpt>
   <trkpt lat="50.853915" lon="12.089794"><ele>196.75</ele></trkpt>
   <trkpt lat="50.85321" lon="12.089278"><ele>197.25</ele></trkpt>
   <trkpt lat="50.852972" lon="12.089095"><ele>197.75</ele></trkpt>
   <trkpt lat="50.852814" lon="12.089022"><ele>197.75</ele></trkpt>
   <trkpt lat="50.852687" lon="12.089016"><ele>197.75</ele></trkpt>
   <trkpt lat="50.852568" lon="12.089065"><ele>197.5</ele></trkpt>
   <trkpt lat="50.852066" lon="12.089398"><ele>198</ele></trkpt>
  </trkseg>
 </trk>
</gpx>