<?xml version="1.0" encoding="UTF-8"?>
<!-- track-length = 83 filtered ascend = 0 plain-ascend = 0 cost=166 energy=0.0kwh time=7s -->
<gpx 
 xmlns="http://www.topografix.com/GPX/1/1" 
 xmlns:xsi="http://www.w3.org/2001/XMLSchema-instance" 
 xsi:schemaLocation="http://www.topografix.com/GPX/1/1 http://www.topografix.com/GPX/1/1/gpx.xsd" 
 version="1.1" 
 creator="BRouter-Web 0.18.1">
 <trk>
  <name>Wendeschleife Zwötzen Weiche Südwest - Zwötzen</name>
  <trkseg>
   <trkpt lat="50.847885" lon="12.087223"><ele>200</ele></trkpt>
   <trkpt lat="50.84792" lon="12.087085"><ele>200</ele></trkpt>
   <trkpt lat="50.847976" lon="12.086989"><ele>200</ele></trkpt>
   <trkpt lat="50.848041" lon="12.086938"><ele>200</ele></trkpt>
   <trkpt lat="50.848103" lon="12.086921"><ele>200</ele></trkpt>
   <trkpt lat="50.84816" lon="12.086934"><ele>200</ele></trkpt>
   <trkpt lat="50.84826" lon="12.086975"><ele>200</ele></trkpt>
   <trkpt lat="50.848484" lon="12.087103"><ele>200</ele></trkpt>
   <trkpt lat="50.848533" lon="12.087131"><ele>200</ele></trkpt>
  </trkseg>
 </trk>
</gpx>