<?xml version="1.0" encoding="UTF-8"?>
<!-- track-length = 783 filtered ascend = 1 plain-ascend = 1 cost=1566 energy=0.0kwh time=1m 3s -->
<gpx 
 xmlns="http://www.topografix.com/GPX/1/1" 
 xmlns:xsi="http://www.w3.org/2001/XMLSchema-instance" 
 xsi:schemaLocation="http://www.topografix.com/GPX/1/1 http://www.topografix.com/GPX/1/1/gpx.xsd" 
 version="1.1" 
 creator="BRouter-Web 0.18.1">
 <trk>
  <name>Wintergarten (Steig Nordwest) - Pforten (Steig Südwest)</name>
  <trkseg>
   <trkpt lat="50.863208" lon="12.084819"><ele>197.75</ele></trkpt>
   <trkpt lat="50.863169" lon="12.084712"><ele>197.75</ele></trkpt>
   <trkpt lat="50.86309" lon="12.0845"><ele>197</ele></trkpt>
   <trkpt lat="50.863021" lon="12.084372"><ele>197</ele></trkpt>
   <trkpt lat="50.862939" lon="12.084274"><ele>197</ele></trkpt>
   <trkpt lat="50.862895" lon="12.084238"><ele>197</ele></trkpt>
   <trkpt lat="50.86278" lon="12.084181"><ele>197</ele></trkpt>
   <trkpt lat="50.862304" lon="12.084014"><ele>196.75</ele></trkpt>
   <trkpt lat="50.8621" lon="12.083953"><ele>196</ele></trkpt>
   <trkpt lat="50.861966" lon="12.08395"><ele>195.25</ele></trkpt>
   <trkpt lat="50.861853" lon="12.083969"><ele>195.5</ele></trkpt>
   <trkpt lat="50.861704" lon="12.084033"><ele>196.25</ele></trkpt>
   <trkpt lat="50.861628" lon="12.084084"><ele>196.5</ele></trkpt>
   <trkpt lat="50.861563" lon="12.084142"><ele>196.5</ele></trkpt>
   <trkpt lat="50.861486" lon="12.084222"><ele>196.25</ele></trkpt>
   <trkpt lat="50.86102" lon="12.084828"><ele>197</ele></trkpt>
   <trkpt lat="50.859585" lon="12.086769"><ele>198.75</ele></trkpt>
   <trkpt lat="50.859298" lon="12.087183"><ele>198.25</ele></trkpt>
   <trkpt lat="50.859004" lon="12.08764"><ele>198.75</ele></trkpt>
   <trkpt lat="50.858683" lon="12.088209"><ele>198.5</ele></trkpt>
   <trkpt lat="50.85844" lon="12.088663"><ele>198.75</ele></trkpt>
   <trkpt lat="50.85834" lon="12.08882"><ele>198.75</ele></trkpt>
   <trkpt lat="50.85828" lon="12.088902"><ele>198.75</ele></trkpt>
   <trkpt lat="50.858066" lon="12.089099"><ele>198.75</ele></trkpt>
   <trkpt lat="50.857666" lon="12.089392"><ele>198.25</ele></trkpt>
   <trkpt lat="50.857652" lon="12.089401"><ele>198.25</ele></trkpt>
  </trkseg>
 </trk>
</gpx>