<?xml version="1.0" encoding="UTF-8"?>
<!-- track-length = 401 filtered ascend = 1 plain-ascend = 1 cost=802 energy=0.0kwh time=32s -->
<gpx 
 xmlns="http://www.topografix.com/GPX/1/1" 
 xmlns:xsi="http://www.w3.org/2001/XMLSchema-instance" 
 xsi:schemaLocation="http://www.topografix.com/GPX/1/1 http://www.topografix.com/GPX/1/1/gpx.xsd" 
 version="1.1" 
 creator="BRouter-Web 0.18.1">
 <trk>
  <name>Katajanokan terminaali - Abzweig Linnankatu Weiche Nordost</name>
  <trkseg>
   <trkpt lat="60.1643" lon="24.970031"><ele>2</ele></trkpt>
   <trkpt lat="60.164299" lon="24.970113"><ele>2.25</ele></trkpt>
   <trkpt lat="60.164298" lon="24.970161"><ele>2</ele></trkpt>
   <trkpt lat="60.164299" lon="24.97021"><ele>2</ele></trkpt>
   <trkpt lat="60.164303" lon="24.970256"><ele>2</ele></trkpt>
   <trkpt lat="60.164329" lon="24.970365"><ele>2</ele></trkpt>
   <trkpt lat="60.164351" lon="24.970414"><ele>2</ele></trkpt>
   <trkpt lat="60.164391" lon="24.970473"><ele>2</ele></trkpt>
   <trkpt lat="60.164451" lon="24.970515"><ele>2</ele></trkpt>
   <trkpt lat="60.164532" lon="24.970514"><ele>2</ele></trkpt>
   <trkpt lat="60.164595" lon="24.970471"><ele>2</ele></trkpt>
   <trkpt lat="60.164646" lon="24.9704"><ele>2</ele></trkpt>
   <trkpt lat="60.16468" lon="24.970303"><ele>2</ele></trkpt>
   <trkpt lat="60.16469" lon="24.97025"><ele>2</ele></trkpt>
   <trkpt lat="60.164701" lon="24.970147"><ele>2</ele></trkpt>
   <trkpt lat="60.164714" lon="24.969819"><ele>2</ele></trkpt>
   <trkpt lat="60.164729" lon="24.969598"><ele>2</ele></trkpt>
   <trkpt lat="60.164752" lon="24.969361"><ele>2</ele></trkpt>
   <trkpt lat="60.164806" lon="24.968965"><ele>2.25</ele></trkpt>
   <trkpt lat="60.164837" lon="24.968821"><ele>2.25</ele></trkpt>
   <trkpt lat="60.164857" lon="24.968773"><ele>2.25</ele></trkpt>
   <trkpt lat="60.164882" lon="24.968731"><ele>2.25</ele></trkpt>
   <trkpt lat="60.164905" lon="24.968702"><ele>2.25</ele></trkpt>
   <trkpt lat="60.164926" lon="24.968686"><ele>2.25</ele></trkpt>
   <trkpt lat="60.164945" lon="24.968675"><ele>2.25</ele></trkpt>
   <trkpt lat="60.164969" lon="24.968668"><ele>2.25</ele></trkpt>
   <trkpt lat="60.164995" lon="24.968668"><ele>2</ele></trkpt>
   <trkpt lat="60.165022" lon="24.968675"><ele>2.25</ele></trkpt>
   <trkpt lat="60.165049" lon="24.968691"><ele>2.25</ele></trkpt>
   <trkpt lat="60.165072" lon="24.96871"><ele>2.25</ele></trkpt>
   <trkpt lat="60.165225" lon="24.968911"><ele>2</ele></trkpt>
   <trkpt lat="60.165274" lon="24.968957"><ele>2</ele></trkpt>
   <trkpt lat="60.165294" lon="24.968967"><ele>2</ele></trkpt>
   <trkpt lat="60.165329" lon="24.968973"><ele>2</ele></trkpt>
   <trkpt lat="60.165377" lon="24.968961"><ele>2.25</ele></trkpt>
   <trkpt lat="60.165396" lon="24.968951"><ele>2.25</ele></trkpt>
   <trkpt lat="60.165441" lon="24.968893"><ele>2.5</ele></trkpt>
   <trkpt lat="60.165481" lon="24.968809"><ele>2.5</ele></trkpt>
   <trkpt lat="60.165491" lon="24.96878"><ele>2.5</ele></trkpt>
   <trkpt lat="60.165509" lon="24.968725"><ele>2.25</ele></trkpt>
   <trkpt lat="60.166086" lon="24.966996"><ele>3</ele></trkpt>
   <trkpt lat="60.166127" lon="24.966841"><ele>3</ele></trkpt>
   <trkpt lat="60.166141" lon="24.966784"><ele>3</ele></trkpt>
   <trkpt lat="60.166189" lon="24.966607"><ele>3</ele></trkpt>
   <trkpt lat="60.166218" lon="24.966519"><ele>3</ele></trkpt>
   <trkpt lat="60.166237" lon="24.966464"><ele>3</ele></trkpt>
   <trkpt lat="60.166257" lon="24.966404"><ele>3</ele></trkpt>
   <trkpt lat="60.166284" lon="24.966321"><ele>3</ele></trkpt>
   <trkpt lat="60.166284" lon="24.966318"><ele>3</ele></trkpt>
  </trkseg>
 </trk>
</gpx>