<?xml version="1.0" encoding="UTF-8"?>
<!-- track-length = 107 filtered ascend = 0 plain-ascend = 0 cost=214 energy=0.0kwh time=9s -->
<gpx 
 xmlns="http://www.topografix.com/GPX/1/1" 
 xmlns:xsi="http://www.w3.org/2001/XMLSchema-instance" 
 xsi:schemaLocation="http://www.topografix.com/GPX/1/1 http://www.topografix.com/GPX/1/1/gpx.xsd" 
 version="1.1" 
 creator="BRouter-Web 0.18.1">
 <trk>
  <name>Dreieck Platz der Jugend Weiche Nord-West - Dreieck Platz der Jugend Weiche Südost-Südwest</name>
  <trkseg>
   <trkpt lat="53.621309" lon="11.408882"><ele>42</ele></trkpt>
   <trkpt lat="53.621306" lon="11.408883"><ele>42</ele></trkpt>
   <trkpt lat="53.621162" lon="11.408903"><ele>41.75</ele></trkpt>
   <trkpt lat="53.621102" lon="11.408934"><ele>41.75</ele></trkpt>
   <trkpt lat="53.621001" lon="11.409022"><ele>41.5</ele></trkpt>
   <trkpt lat="53.620788" lon="11.409302"><ele>41</ele></trkpt>
   <trkpt lat="53.620713" lon="11.409402"><ele>41.25</ele></trkpt>
   <trkpt lat="53.620643" lon="11.409492"><ele>41.5</ele></trkpt>
   <trkpt lat="53.62062" lon="11.409523"><ele>41.5</ele></trkpt>
   <trkpt lat="53.620518" lon="11.40967"><ele>41.25</ele></trkpt>
   <trkpt lat="53.620517" lon="11.409672"><ele>41</ele></trkpt>
  </trkseg>
 </trk>
</gpx>