<?xml version="1.0" encoding="UTF-8"?>
<!-- track-length = 47 filtered ascend = 0 plain-ascend = 1 cost=94 energy=0.0kwh time=4s -->
<gpx 
 xmlns="http://www.topografix.com/GPX/1/1" 
 xmlns:xsi="http://www.w3.org/2001/XMLSchema-instance" 
 xsi:schemaLocation="http://www.topografix.com/GPX/1/1 http://www.topografix.com/GPX/1/1/gpx.xsd" 
 version="1.1" 
 creator="BRouter-Web 99.71.0">
 <trk>
  <name>Dreieck S-Bahnhof Neustadt Weiche 401 - Dreieck S-Bahnhof Neustadt Weiche 412</name>
  <link href="https://brouter.damsy.net/latest/#map=19/52.14716/11.64054/standard&amp;lonlats=11.639622,52.147646;11.640113,52.147427&amp;profile=rail">
   <text>BRouter-Web</text>
  </link>
  <trkseg>
   <trkpt lat="52.147646" lon="11.639622"><ele>48.5</ele></trkpt>
   <trkpt lat="52.147642" lon="11.639623"><ele>48.5</ele></trkpt>
   <trkpt lat="52.147582" lon="11.639655"><ele>48.75</ele></trkpt>
   <trkpt lat="52.147536" lon="11.639702"><ele>48.75</ele></trkpt>
   <trkpt lat="52.147529" lon="11.63971"><ele>48.75</ele></trkpt>
   <trkpt lat="52.147482" lon="11.639783"><ele>49</ele></trkpt>
   <trkpt lat="52.147443" lon="11.639898"><ele>49</ele></trkpt>
   <trkpt lat="52.147433" lon="11.639956"><ele>49</ele></trkpt>
   <trkpt lat="52.147427" lon="11.640019"><ele>49</ele></trkpt>
   <trkpt lat="52.147428" lon="11.640116"><ele>49</ele></trkpt>
   <trkpt lat="52.147427" lon="11.640111"><ele>49</ele></trkpt>
  </trkseg>
 </trk>
</gpx>