<?xml version="1.0" encoding="UTF-8"?>
<!-- track-length = 135 filtered ascend = 2 plain-ascend = 2 cost=270 energy=0.0kwh time=11s -->
<gpx 
 xmlns="http://www.topografix.com/GPX/1/1" 
 xmlns:xsi="http://www.w3.org/2001/XMLSchema-instance" 
 xsi:schemaLocation="http://www.topografix.com/GPX/1/1 http://www.topografix.com/GPX/1/1/gpx.xsd" 
 version="1.1" 
 creator="BRouter-Web 99.71.0">
 <trk>
  <name>27 Grudnia/Teatr Polski - Kreuz 27 Grudnia Weiche Ost-nach-Nordost-Ost</name>
  <link href="https://brouter.damsy.net/latest/#map=20/52.40821/16.92219/standard&amp;lonlats=16.924123,52.408058;16.922158,52.408195">
   <text>BRouter-Web</text>
  </link>
  <trkseg>
   <trkpt lat="52.408058" lon="16.924123"><ele>74</ele></trkpt>
   <trkpt lat="52.408095" lon="16.92358"><ele>74</ele></trkpt>
   <trkpt lat="52.408118" lon="16.923234"><ele>75</ele></trkpt>
   <trkpt lat="52.408126" lon="16.92312"><ele>75</ele></trkpt>
   <trkpt lat="52.408132" lon="16.92302"><ele>75</ele></trkpt>
   <trkpt lat="52.408152" lon="16.922767"><ele>75.25</ele></trkpt>
   <trkpt lat="52.408176" lon="16.922405"><ele>75.25</ele></trkpt>
   <trkpt lat="52.408193" lon="16.922157"><ele>76.25</ele></trkpt>
  </trkseg>
 </trk>
</gpx>