<?xml version="1.0" encoding="UTF-8"?>
<!-- track-length = 554 filtered ascend = 1 plain-ascend = 0 cost=1108 energy=0.0kwh time=44s -->
<gpx 
 xmlns="http://www.topografix.com/GPX/1/1" 
 xmlns:xsi="http://www.w3.org/2001/XMLSchema-instance" 
 xsi:schemaLocation="http://www.topografix.com/GPX/1/1 http://www.topografix.com/GPX/1/1/gpx.xsd" 
 version="1.1" 
 creator="BRouter-Web 0.18.1">
 <trk>
  <name>Elvīras iela (Steig Südwest) - Zasulauka stacija (Steig Südwest)</name>
  <trkseg>
   <trkpt lat="56.945858" lon="24.048645"><ele>10.75</ele></trkpt>
   <trkpt lat="56.945201" lon="24.049169"><ele>11.25</ele></trkpt>
   <trkpt lat="56.945038" lon="24.049298"><ele>11.25</ele></trkpt>
   <trkpt lat="56.944216" lon="24.049969"><ele>12</ele></trkpt>
   <trkpt lat="56.942768" lon="24.051188"><ele>12</ele></trkpt>
   <trkpt lat="56.942358" lon="24.051534"><ele>12</ele></trkpt>
   <trkpt lat="56.942264" lon="24.051624"><ele>12</ele></trkpt>
   <trkpt lat="56.942229" lon="24.051675"><ele>12</ele></trkpt>
   <trkpt lat="56.942182" lon="24.051784"><ele>12</ele></trkpt>
   <trkpt lat="56.942154" lon="24.051884"><ele>12</ele></trkpt>
   <trkpt lat="56.942146" lon="24.051931"><ele>12</ele></trkpt>
   <trkpt lat="56.94213" lon="24.052025"><ele>12</ele></trkpt>
   <trkpt lat="56.942125" lon="24.05221"><ele>12</ele></trkpt>
   <trkpt lat="56.942159" lon="24.052469"><ele>12</ele></trkpt>
   <trkpt lat="56.94218" lon="24.052612"><ele>12</ele></trkpt>
   <trkpt lat="56.942184" lon="24.052707"><ele>12</ele></trkpt>
   <trkpt lat="56.942178" lon="24.052781"><ele>11.75</ele></trkpt>
   <trkpt lat="56.942159" lon="24.052863"><ele>11.5</ele></trkpt>
   <trkpt lat="56.942123" lon="24.052943"><ele>11.25</ele></trkpt>
   <trkpt lat="56.942073" lon="24.053013"><ele>11</ele></trkpt>
   <trkpt lat="56.941912" lon="24.053154"><ele>11</ele></trkpt>
   <trkpt lat="56.941911" lon="24.053154"><ele>11</ele></trkpt>
  </trkseg>
 </trk>
</gpx>