<?xml version="1.0" encoding="UTF-8"?>
<!-- track-length = 311 filtered ascend = 1 plain-ascend = 1 cost=622 energy=0.0kwh time=25s -->
<gpx 
 xmlns="http://www.topografix.com/GPX/1/1" 
 xmlns:xsi="http://www.w3.org/2001/XMLSchema-instance" 
 xsi:schemaLocation="http://www.topografix.com/GPX/1/1 http://www.topografix.com/GPX/1/1/gpx.xsd" 
 version="1.1" 
 creator="BRouter-Web 0.18.1">
 <trk>
  <name>Jaunsaules iela (Steig West) - Jūrmalas gatve (Steig West)</name>
  <trkseg>
   <trkpt lat="56.954823" lon="24.045569"><ele>10</ele></trkpt>
   <trkpt lat="56.954809" lon="24.045569"><ele>10</ele></trkpt>
   <trkpt lat="56.954022" lon="24.045552"><ele>10</ele></trkpt>
   <trkpt lat="56.953508" lon="24.045569"><ele>10</ele></trkpt>
   <trkpt lat="56.953006" lon="24.045615"><ele>10</ele></trkpt>
   <trkpt lat="56.952037" lon="24.045793"><ele>11.25</ele></trkpt>
  </trkseg>
 </trk>
</gpx>