<?xml version="1.0" encoding="UTF-8"?>
<!-- track-length = 346 filtered ascend = 2 plain-ascend = 0 cost=692 energy=0.0kwh time=28s -->
<gpx 
 xmlns="http://www.topografix.com/GPX/1/1" 
 xmlns:xsi="http://www.w3.org/2001/XMLSchema-instance" 
 xsi:schemaLocation="http://www.topografix.com/GPX/1/1 http://www.topografix.com/GPX/1/1/gpx.xsd" 
 version="1.1" 
 creator="BRouter-Web 0.18.1">
 <trk>
  <name>Jūrmalas gatve (Steig West) - Kandavas iela (Steig Südwest)</name>
  <trkseg>
   <trkpt lat="56.952037" lon="24.045793"><ele>11</ele></trkpt>
   <trkpt lat="56.952031" lon="24.045795"><ele>11.25</ele></trkpt>
   <trkpt lat="56.95201" lon="24.0458"><ele>11.5</ele></trkpt>
   <trkpt lat="56.951835" lon="24.045838"><ele>13.75</ele></trkpt>
   <trkpt lat="56.951443" lon="24.045921"><ele>12</ele></trkpt>
   <trkpt lat="56.951041" lon="24.046027"><ele>10</ele></trkpt>
   <trkpt lat="56.950328" lon="24.046226"><ele>10</ele></trkpt>
   <trkpt lat="56.950142" lon="24.046288"><ele>10</ele></trkpt>
   <trkpt lat="56.949883" lon="24.046391"><ele>10</ele></trkpt>
   <trkpt lat="56.948997" lon="24.046824"><ele>10.5</ele></trkpt>
   <trkpt lat="56.948996" lon="24.046824"><ele>10.75</ele></trkpt>
  </trkseg>
 </trk>
</gpx>