<?xml version="1.0" encoding="UTF-8"?>
<!-- track-length = 369 filtered ascend = 0 plain-ascend = 1 cost=738 energy=0.0kwh time=30s -->
<gpx 
 xmlns="http://www.topografix.com/GPX/1/1" 
 xmlns:xsi="http://www.w3.org/2001/XMLSchema-instance" 
 xsi:schemaLocation="http://www.topografix.com/GPX/1/1 http://www.topografix.com/GPX/1/1/gpx.xsd" 
 version="1.1" 
 creator="BRouter-Web 0.18.1">
 <trk>
  <name>Kandavas iela (Steig Südwest) - Elvīras iela (Steig Südwest)</name>
  <trkseg>
   <trkpt lat="56.948996" lon="24.046824"><ele>10.5</ele></trkpt>
   <trkpt lat="56.948934" lon="24.046855"><ele>10.75</ele></trkpt>
   <trkpt lat="56.947955" lon="24.047346"><ele>10</ele></trkpt>
   <trkpt lat="56.947714" lon="24.047466"><ele>10.25</ele></trkpt>
   <trkpt lat="56.947397" lon="24.047623"><ele>10.5</ele></trkpt>
   <trkpt lat="56.946979" lon="24.047852"><ele>10.5</ele></trkpt>
   <trkpt lat="56.946584" lon="24.048106"><ele>10.75</ele></trkpt>
   <trkpt lat="56.946319" lon="24.04829"><ele>10.25</ele></trkpt>
   <trkpt lat="56.946163" lon="24.04841"><ele>10.5</ele></trkpt>
   <trkpt lat="56.945881" lon="24.048627"><ele>10.75</ele></trkpt>
   <trkpt lat="56.945858" lon="24.048645"><ele>11.25</ele></trkpt>
  </trkseg>
 </trk>
</gpx>