<?xml version="1.0" encoding="UTF-8"?>
<!-- track-length = 421 filtered ascend = 0 plain-ascend = 0 cost=842 energy=0.0kwh time=34s -->
<gpx 
 xmlns="http://www.topografix.com/GPX/1/1" 
 xmlns:xsi="http://www.w3.org/2001/XMLSchema-instance" 
 xsi:schemaLocation="http://www.topografix.com/GPX/1/1 http://www.topografix.com/GPX/1/1/gpx.xsd" 
 version="1.1" 
 creator="BRouter-Web 0.18.1">
 <trk>
  <name>Tapešu iela - Jaunsaules iela (Steig West)</name>
  <trkseg>
   <trkpt lat="56.957662" lon="24.046395"><ele>10</ele></trkpt>
   <trkpt lat="56.957665" lon="24.046401"><ele>10</ele></trkpt>
   <trkpt lat="56.957696" lon="24.046443"><ele>10</ele></trkpt>
   <trkpt lat="56.957736" lon="24.046477"><ele>10</ele></trkpt>
   <trkpt lat="56.957816" lon="24.046494"><ele>10</ele></trkpt>
   <trkpt lat="56.957854" lon="24.046477"><ele>10</ele></trkpt>
   <trkpt lat="56.957891" lon="24.04644"><ele>10</ele></trkpt>
   <trkpt lat="56.957929" lon="24.046382"><ele>10</ele></trkpt>
   <trkpt lat="56.957947" lon="24.046334"><ele>10</ele></trkpt>
   <trkpt lat="56.957971" lon="24.046231"><ele>10</ele></trkpt>
   <trkpt lat="56.957976" lon="24.046092"><ele>10</ele></trkpt>
   <trkpt lat="56.957965" lon="24.045891"><ele>10</ele></trkpt>
   <trkpt lat="56.95796" lon="24.04586"><ele>10</ele></trkpt>
   <trkpt lat="56.957927" lon="24.045773"><ele>10</ele></trkpt>
   <trkpt lat="56.957891" lon="24.045717"><ele>10</ele></trkpt>
   <trkpt lat="56.957853" lon="24.04569"><ele>10</ele></trkpt>
   <trkpt lat="56.957792" lon="24.045667"><ele>10</ele></trkpt>
   <trkpt lat="56.957178" lon="24.045641"><ele>10</ele></trkpt>
   <trkpt lat="56.956706" lon="24.045615"><ele>10</ele></trkpt>
   <trkpt lat="56.956103" lon="24.045585"><ele>10</ele></trkpt>
   <trkpt lat="56.955146" lon="24.045571"><ele>10</ele></trkpt>
   <trkpt lat="56.954832" lon="24.045569"><ele>10</ele></trkpt>
   <trkpt lat="56.954823" lon="24.045569"><ele>10</ele></trkpt>
  </trkseg>
 </trk>
</gpx>