<?xml version="1.0" encoding="UTF-8"?>
<!-- track-length = 56 filtered ascend = 0 plain-ascend = 0 cost=112 energy=0.0kwh time=4s -->
<gpx 
 xmlns="http://www.topografix.com/GPX/1/1" 
 xmlns:xsi="http://www.w3.org/2001/XMLSchema-instance" 
 xsi:schemaLocation="http://www.topografix.com/GPX/1/1 http://www.topografix.com/GPX/1/1/gpx.xsd" 
 version="1.1" 
 creator="BRouter-Web 0.18.1">
 <trk>
  <name>Zasulauka stacija (Steig Südwest) - Abzweig Wendeschleife Zasulauka stacija Weiche Südost</name>
  <trkseg>
   <trkpt lat="56.941911" lon="24.053154"><ele>11</ele></trkpt>
   <trkpt lat="56.941802" lon="24.053249"><ele>11</ele></trkpt>
   <trkpt lat="56.941766" lon="24.053292"><ele>11</ele></trkpt>
   <trkpt lat="56.941736" lon="24.053365"><ele>11</ele></trkpt>
   <trkpt lat="56.941719" lon="24.053445"><ele>11</ele></trkpt>
   <trkpt lat="56.941716" lon="24.053555"><ele>11</ele></trkpt>
   <trkpt lat="56.941725" lon="24.053635"><ele>11</ele></trkpt>
   <trkpt lat="56.941747" lon="24.053703"><ele>11</ele></trkpt>
   <trkpt lat="56.941779" lon="24.053764"><ele>11</ele></trkpt>
   <trkpt lat="56.941819" lon="24.053807"><ele>11</ele></trkpt>
  </trkseg>
 </trk>
</gpx>