<?xml version="1.0" encoding="UTF-8"?>
<!-- track-length = 1331 filtered ascend = 0 plain-ascend = -2 cost=1331 energy=0.0kwh time=1m 46s -->
<gpx 
 xmlns="http://www.topografix.com/GPX/1/1" 
 xmlns:xsi="http://www.w3.org/2001/XMLSchema-instance" 
 xsi:schemaLocation="http://www.topografix.com/GPX/1/1 http://www.topografix.com/GPX/1/1/gpx.xsd" 
 version="1.1" 
 creator="BRouter-Web 99.71.0">
 <trk>
  <name>1113 Lübeck-Kücknitz - Lübeck-Kücknitz Weiche 51</name>
  <link href="https://brouter.damsy.net/latest/#map=18/53.91778/10.80362/standard&amp;lonlats=10.818131,53.924473;10.802298,53.917164&amp;profile=rail">
   <text>BRouter-Web</text>
  </link>
  <trkseg>
   <trkpt lat="53.924474" lon="10.818127"><ele>19.75</ele></trkpt>
   <trkpt lat="53.923594" lon="10.816217"><ele>20</ele></trkpt>
   <trkpt lat="53.92317" lon="10.815309"><ele>19</ele></trkpt>
   <trkpt lat="53.92299" lon="10.814962"><ele>18</ele></trkpt>
   <trkpt lat="53.92284" lon="10.814685"><ele>17.75</ele></trkpt>
   <trkpt lat="53.922663" lon="10.814385"><ele>17</ele></trkpt>
   <trkpt lat="53.922408" lon="10.813982"><ele>16.75</ele></trkpt>
   <trkpt lat="53.922113" lon="10.813562"><ele>17</ele></trkpt>
   <trkpt lat="53.921586" lon="10.812839"><ele>17</ele></trkpt>
   <trkpt lat="53.921228" lon="10.812316"><ele>17</ele></trkpt>
   <trkpt lat="53.921045" lon="10.812024"><ele>17</ele></trkpt>
   <trkpt lat="53.920854" lon="10.811695"><ele>17.75</ele></trkpt>
   <trkpt lat="53.920707" lon="10.811423"><ele>18</ele></trkpt>
   <trkpt lat="53.920321" lon="10.810654"><ele>18</ele></trkpt>
   <trkpt lat="53.919441" lon="10.808882"><ele>15</ele></trkpt>
   <trkpt lat="53.919076" lon="10.808115"><ele>15.25</ele></trkpt>
   <trkpt lat="53.918659" lon="10.80719"><ele>14.75</ele></trkpt>
   <trkpt lat="53.918529" lon="10.806875"><ele>14.75</ele></trkpt>
   <trkpt lat="53.918156" lon="10.805845"><ele>14.5</ele></trkpt>
   <trkpt lat="53.918057" lon="10.805542"><ele>14.75</ele></trkpt>
   <trkpt lat="53.917823" lon="10.804748"><ele>14.75</ele></trkpt>
   <trkpt lat="53.917162" lon="10.802305"><ele>12.5</ele></trkpt>
   <trkpt lat="53.91716" lon="10.802299"><ele>16.5</ele></trkpt>
  </trkseg>
 </trk>
</gpx>