<?xml version="1.0" encoding="UTF-8"?>
<!-- track-length = 199 filtered ascend = 0 plain-ascend = 0 cost=398 energy=0.0kwh time=16s -->
<gpx 
 xmlns="http://www.topografix.com/GPX/1/1" 
 xmlns:xsi="http://www.w3.org/2001/XMLSchema-instance" 
 xsi:schemaLocation="http://www.topografix.com/GPX/1/1 http://www.topografix.com/GPX/1/1/gpx.xsd" 
 version="1.1" 
 creator="BRouter-Web 0.18.1">
 <trk>
  <name>Agnes-Bernauer-Straße (Steig Südwest) - Dreieck Siglstraße Weiche 19</name>
  <trkseg>
   <trkpt lat="48.139384" lon="11.510745"><ele>527</ele></trkpt>
   <trkpt lat="48.139363" lon="11.510898"><ele>527</ele></trkpt>
   <trkpt lat="48.139332" lon="11.511103"><ele>527</ele></trkpt>
   <trkpt lat="48.139303" lon="11.511303"><ele>527</ele></trkpt>
   <trkpt lat="48.13913" lon="11.512487"><ele>527</ele></trkpt>
   <trkpt lat="48.139083" lon="11.512923"><ele>527</ele></trkpt>
   <trkpt lat="48.139055" lon="11.513366"><ele>527.25</ele></trkpt>
  </trkseg>
 </trk>
</gpx>