<?xml version="1.0" encoding="UTF-8"?>
<!-- track-length = 105 filtered ascend = 0 plain-ascend = 0 cost=105 energy=0.0kwh time=8s -->
<gpx 
 xmlns="http://www.topografix.com/GPX/1/1" 
 xmlns:xsi="http://www.w3.org/2001/XMLSchema-instance" 
 xsi:schemaLocation="http://www.topografix.com/GPX/1/1 http://www.topografix.com/GPX/1/1/gpx.xsd" 
 version="1.1" 
 creator="BRouter-Web 99.71.0">
 <trk>
  <name>Frechen Üst Kirche Weiche West - Frechen Kirche (Steig Süd)</name>
  <link href="https://brouter.damsy.net/latest/#map=19/50.90999/6.81621/standard&amp;lonlats=6.814614,50.909978;6.816077,50.910093&amp;nogos=6.781752,51.218852,6&amp;profile=rail">
   <text>BRouter-Web</text>
  </link>
  <trkseg>
   <trkpt lat="50.909971" lon="6.814614"><ele>72</ele></trkpt>
   <trkpt lat="50.909972" lon="6.814617"><ele>72</ele></trkpt>
   <trkpt lat="50.910015" lon="6.815344"><ele>72</ele></trkpt>
   <trkpt lat="50.91005" lon="6.815732"><ele>72</ele></trkpt>
   <trkpt lat="50.910094" lon="6.816075"><ele>72</ele></trkpt>
  </trkseg>
 </trk>
</gpx>
