<?xml version="1.0" encoding="UTF-8"?>
<!-- track-length = 982 filtered ascend = 0 plain-ascend = -3 cost=982 energy=0.0kwh time=1m 19s -->
<gpx 
 xmlns="http://www.topografix.com/GPX/1/1" 
 xmlns:xsi="http://www.w3.org/2001/XMLSchema-instance" 
 xsi:schemaLocation="http://www.topografix.com/GPX/1/1 http://www.topografix.com/GPX/1/1/gpx.xsd" 
 version="1.1" 
 creator="BRouter-Web 99.71.0">
 <trk>
  <name>Frechen Bahnhof (Steig 2) - Frechen Bahnhof Weiche 563</name>
  <link href="https://brouter.damsy.net/latest/#map=18/50.91289/6.83012/standard&amp;lonlats=6.822518,50.911488;6.836112,50.913405&amp;nogos=6.781752,51.218852,6&amp;profile=rail">
   <text>BRouter-Web</text>
  </link>
  <trkseg>
   <trkpt lat="50.911482" lon="6.822517"><ele>66.5</ele></trkpt>
   <trkpt lat="50.911495" lon="6.82269"><ele>66.5</ele></trkpt>
   <trkpt lat="50.911538" lon="6.823765"><ele>66.25</ele></trkpt>
   <trkpt lat="50.911559" lon="6.824079"><ele>66.25</ele></trkpt>
   <trkpt lat="50.911589" lon="6.824374"><ele>66.25</ele></trkpt>
   <trkpt lat="50.911633" lon="6.824708"><ele>66</ele></trkpt>
   <trkpt lat="50.912208" lon="6.828301"><ele>65</ele></trkpt>
   <trkpt lat="50.912279" lon="6.828748"><ele>64.75</ele></trkpt>
   <trkpt lat="50.913097" lon="6.833874"><ele>65.25</ele></trkpt>
   <trkpt lat="50.913159" lon="6.834326"><ele>65.5</ele></trkpt>
   <trkpt lat="50.913263" lon="6.835189"><ele>65.25</ele></trkpt>
   <trkpt lat="50.913391" lon="6.836022"><ele>63</ele></trkpt>
   <trkpt lat="50.913406" lon="6.836115"><ele>62.75</ele></trkpt>
   <trkpt lat="50.913405" lon="6.83611"><ele>62.75</ele></trkpt>
  </trkseg>
 </trk>
</gpx>