<?xml version="1.0" encoding="UTF-8"?>
<!-- track-length = 34 filtered ascend = 0 plain-ascend = 0 cost=68 energy=0.0kwh time=3s -->
<gpx 
 xmlns="http://www.topografix.com/GPX/1/1" 
 xmlns:xsi="http://www.w3.org/2001/XMLSchema-instance" 
 xsi:schemaLocation="http://www.topografix.com/GPX/1/1 http://www.topografix.com/GPX/1/1/gpx.xsd" 
 version="1.1" 
 creator="BRouter-Web 0.18.1">
 <trk>
  <name>Dreieck Eiran sairaala Weiche West-Nord - Eiran sairaala (Steig West)</name>
  <trkseg>
   <trkpt lat="60.158022" lon="24.940463"><ele>7</ele></trkpt>
   <trkpt lat="60.157995" lon="24.939859"><ele>7</ele></trkpt>
  </trkseg>
 </trk>
</gpx>