<?xml version="1.0" encoding="UTF-8"?>
<!-- track-length = 52 filtered ascend = 0 plain-ascend = -1 cost=104 energy=0.0kwh time=4s -->
<gpx 
 xmlns="http://www.topografix.com/GPX/1/1" 
 xmlns:xsi="http://www.w3.org/2001/XMLSchema-instance" 
 xsi:schemaLocation="http://www.topografix.com/GPX/1/1 http://www.topografix.com/GPX/1/1/gpx.xsd" 
 version="1.1" 
 creator="BRouter-Web 0.18.1">
 <trk>
  <name>Dreieck Eiran sairaala Weiche Nordost-West - Dreieck Eiran sairaala Weiche West-Nord</name>
  <trkseg>
   <trkpt lat="60.158341" lon="24.941072"><ele>8.5</ele></trkpt>
   <trkpt lat="60.158238" lon="24.940959"><ele>8.25</ele></trkpt>
   <trkpt lat="60.15818" lon="24.940893"><ele>8</ele></trkpt>
   <trkpt lat="60.158137" lon="24.940851"><ele>8</ele></trkpt>
   <trkpt lat="60.158073" lon="24.94075"><ele>7.5</ele></trkpt>
   <trkpt lat="60.158045" lon="24.940658"><ele>7.25</ele></trkpt>
   <trkpt lat="60.15803" lon="24.94056"><ele>7</ele></trkpt>
   <trkpt lat="60.158023" lon="24.940467"><ele>7</ele></trkpt>
   <trkpt lat="60.158022" lon="24.940463"><ele>7</ele></trkpt>
  </trkseg>
 </trk>
</gpx>