<?xml version="1.0" encoding="UTF-8"?>
<!-- track-length = 237 filtered ascend = 0 plain-ascend = -1 cost=474 energy=0.0kwh time=19s -->
<gpx 
 xmlns="http://www.topografix.com/GPX/1/1" 
 xmlns:xsi="http://www.w3.org/2001/XMLSchema-instance" 
 xsi:schemaLocation="http://www.topografix.com/GPX/1/1 http://www.topografix.com/GPX/1/1/gpx.xsd" 
 version="1.1" 
 creator="BRouter-Web 0.18.1">
 <trk>
  <name>Eiran sairaala (Steig West) - Perämiehenkatu (Steig Nord)</name>
  <trkseg>
   <trkpt lat="60.157996" lon="24.939858"><ele>7</ele></trkpt>
   <trkpt lat="60.157923" lon="24.938176"><ele>7</ele></trkpt>
   <trkpt lat="60.157907" lon="24.937794"><ele>7</ele></trkpt>
   <trkpt lat="60.157905" lon="24.937744"><ele>7</ele></trkpt>
   <trkpt lat="60.157903" lon="24.937696"><ele>7.25</ele></trkpt>
   <trkpt lat="60.157854" lon="24.936678"><ele>6.25</ele></trkpt>
   <trkpt lat="60.157852" lon="24.936637"><ele>6</ele></trkpt>
   <trkpt lat="60.157847" lon="24.936527"><ele>6</ele></trkpt>
   <trkpt lat="60.157841" lon="24.936407"><ele>6</ele></trkpt>
   <trkpt lat="60.157838" lon="24.936354"><ele>5.75</ele></trkpt>
   <trkpt lat="60.157805" lon="24.935623"><ele>5</ele></trkpt>
  </trkseg>
 </trk>
</gpx>