<?xml version="1.0" encoding="UTF-8"?>
<!-- track-length = 81 filtered ascend = 0 plain-ascend = -1 cost=162 energy=0.0kwh time=6s -->
<gpx 
 xmlns="http://www.topografix.com/GPX/1/1" 
 xmlns:xsi="http://www.w3.org/2001/XMLSchema-instance" 
 xsi:schemaLocation="http://www.topografix.com/GPX/1/1 http://www.topografix.com/GPX/1/1/gpx.xsd" 
 version="1.1" 
 creator="BRouter-Web 0.18.1">
 <trk>
  <name>Telakkakatu - Abzweig Pursimiehenkatu Weiche West</name>
  <trkseg>
   <trkpt lat="60.158422" lon="24.934146"><ele>4.75</ele></trkpt>
   <trkpt lat="60.158416" lon="24.934107"><ele>4.75</ele></trkpt>
   <trkpt lat="60.158393" lon="24.933933"><ele>4</ele></trkpt>
   <trkpt lat="60.158348" lon="24.933568"><ele>4</ele></trkpt>
   <trkpt lat="60.158308" lon="24.933388"><ele>3.75</ele></trkpt>
   <trkpt lat="60.158289" lon="24.933343"><ele>3.75</ele></trkpt>
   <trkpt lat="60.158277" lon="24.933324"><ele>3.75</ele></trkpt>
   <trkpt lat="60.158259" lon="24.933293"><ele>3.5</ele></trkpt>
   <trkpt lat="60.158226" lon="24.933261"><ele>3.5</ele></trkpt>
   <trkpt lat="60.158198" lon="24.933244"><ele>3.5</ele></trkpt>
   <trkpt lat="60.158174" lon="24.933234"><ele>3.25</ele></trkpt>
   <trkpt lat="60.158155" lon="24.933232"><ele>3.25</ele></trkpt>
   <trkpt lat="60.158084" lon="24.933236"><ele>3.25</ele></trkpt>
   <trkpt lat="60.158012" lon="24.933268"><ele>3</ele></trkpt>
   <trkpt lat="60.158011" lon="24.933268"><ele>3</ele></trkpt>
  </trkseg>
 </trk>
</gpx>