<?xml version="1.0" encoding="UTF-8"?>
<!-- track-length = 14 filtered ascend = 0 plain-ascend = 0 cost=28 energy=0.0kwh time=1s -->
<gpx 
 xmlns="http://www.topografix.com/GPX/1/1" 
 xmlns:xsi="http://www.w3.org/2001/XMLSchema-instance" 
 xsi:schemaLocation="http://www.topografix.com/GPX/1/1 http://www.topografix.com/GPX/1/1/gpx.xsd" 
 version="1.1" 
 creator="BRouter-Web 0.18.1">
 <trk>
  <name>Aleksanterinkatu (Steig Nord) - Abzweig Aleksanterinkatu/Mikonkatu Weiche Nord</name>
  <trkseg>
   <trkpt lat="60.168925" lon="24.946245"><ele>2</ele></trkpt>
   <trkpt lat="60.168919" lon="24.945998"><ele>2</ele></trkpt>
  </trkseg>
 </trk>
</gpx>